NCES School ID,State School ID,NCES District ID,State District ID,Low Grade*,High Grade*,School Name,District,County Name*,Street Address,City,State,ZIP,ZIP 4-digit,Phone,Locale Code*,Locale*,Charter,Magnet*,Title I School*,Title 1 School Wide*,Students*,Teachers*,Student Teacher Ratio*,Free Lunch*,Reduced Lunch*
560147000454,WY-0301000-0301002,5601470,WY-0301000,KG,6,4-J Elementary School,Campbell County School District #1,Campbell County,P.O. Box 3033,Gillette,WY,82717,3033,(307)682-3076,43,Rural: Remote,No,No,–,–,40,4.3,9.3,3,0
560198000480,WY-1101000-1101027,5601980,WY-1101000,PK,6,Afflerbach Elementary,Laramie County School District #1,Laramie County,400 West Wallick Road,Cheyenne,WY,82007,9324,(307)771-2300,23,Suburb: Small,No,No,Yes,Yes,401,32.2,12.5,291,66
560406000204,WY-1202000-1202001,5604060,WY-1202000,PK,3,Afton Elementary,Lincoln County School District #2,Lincoln County,333 East 1st Avenue,Afton,WY,83110,,(307)885-8002,43,Rural: Remote,No,No,Yes,Yes,438,30.9,14.2,82,62
560412000208,WY-1102000-1102001,5604120,WY-1102000,KG,6,Albin Elementary,Laramie County School District #2,Laramie County,P.O. Box 38,Albin,WY,82050,38,(307)245-4090,43,Rural: Remote,No,No,Yes,No,44,7.03,6.3,14,11
560451000235,WY-1301000-1301001,5604510,WY-1301000,KG,5,Alcova Elementary,Natrona County School District #1,Natrona County,P.O. Box 106,Alcova,WY,82620,106,(307)472-2079,42,Rural: Distant,No,No,–,–,6,1,6,†,†
560583000337,WY-2001000-2001001,5605830,WY-2001000,KG,5,Alta Elementary,Teton County School District #1,Teton County,Route 1 Box 3480,Alta,WY,83414,,(307)353-2472,43,Rural: Remote,No,No,–,–,49,6.02,8.1,2,1
560198000096,WY-1101000-1101001,5601980,WY-1101000,PK,6,Alta Vista Elementary,Laramie County School District #1,Laramie County,1514 East 16th Street,Cheyenne,WY,82001,4999,(307)771-2310,13,City: Small,No,No,Yes,Yes,288,24.29,11.9,151,41
560198000438,WY-1101000-1101026,5601980,WY-1101000,KG,4,Anderson Elementary,Laramie County School District #1,Laramie County,2204 Plain View Road,Cheyenne,WY,82009,4433,(307)771-2606,13,City: Small,No,No,–,–,312,19.87,15.7,63,28
560096000367,WY-0738000-0738055,5600960,WY-0738000,9,12,Arapahoe Charter High School,Fremont County School District #38,Fremont County,445 Little Wind River Bottom Road,Arapahoe,WY,82510,,(307)856-3862,42,Rural: Distant,Yes,No,Yes,Yes,27,3.26,8.3,24,0
560096000162,WY-0738000-0738001,5600960,WY-0738000,PK,8,Arapahoe Elementary,Fremont County School District #38,Fremont County,445 Little Wind River Bottom Road,Arapahoe,WY,82510,211,(307)856-9333,42,Rural: Distant,No,No,Yes,Yes,458,35.22,13,455,0
560198000097,WY-1101000-1101002,5601980,WY-1101000,PK,6,Arp Elementary,Laramie County School District #1,Laramie County,1216 Reiner Court,Cheyenne,WY,82007,2617,(307)771-2365,23,Suburb: Small,No,No,Yes,Yes,347,29.48,11.8,223,36
560568000309,WY-1703000-1703001,5605680,WY-1703000,KG,6,Arvada Elementary,Sheridan County School District #3,Sheridan County,P.O. Box 125,Clearmont,WY,82835,,(307)758-4412,43,Rural: Remote,No,No,–,–,6,1.58,3.8,†,†
560522000571,WY-0725000-0725002,5605220,WY-0725000,1,3,Ashgrove Elementary,Fremont County School District #25,Fremont County,121 North 5th Street,Riverton,WY,82501,,(307)856-2626,33,Town: Remote,No,No,Yes,Yes,170,11.5,14.8,75,12
560522000572,WY-0725000-0725009,5605220,WY-0725000,PK,KG,Aspen Early Learning Center,Fremont County School District #25,Fremont County,121 North 5th Street West,Riverton,WY,82501,,(307)856-2625,41,Rural: Fringe,No,No,Yes,Yes,243,14.66,16.6,112,14
560276000462,WY-2101000-2101006,5602760,WY-2101000,KG,5,Aspen Elementary,Uinta County School District #1,Uinta County,P.O. Box 6002,Evanston,WY,82931,6002,(307)789-3106,33,Town: Remote,No,No,Yes,Yes,296,24.5,12.1,85,40
560198000098,WY-1101000-1101003,5601980,WY-1101000,PK,6,Baggs Elementary,Laramie County School District #1,Laramie County,3705 Cheyenne Street,Cheyenne,WY,82001,1880,(307)771-2385,13,City: Small,No,No,Yes,Yes,329,24.57,13.4,146,50
560198000099,WY-1101000-1101004,5601980,WY-1101000,KG,6,Bain Elementary,Laramie County School District #1,Laramie County,903 Adams Avenue,Cheyenne,WY,82001,6672,(307)771-2525,13,City: Small,No,No,–,–,270,21.07,12.8,73,36
560287000539,WY-0701000-0701009,5602870,WY-0701000,4,5,Baldwin Creek Elementary,Fremont County School District # 1,Fremont County,350 Smith Street,Lander,WY,82520,2645,(307)332-6967,33,Town: Remote,No,No,Yes,Yes,310,21,14.8,95,30
560451000445,WY-1301000-1301033,5604510,WY-1301000,PK,5,Bar Nunn Elementary,Natrona County School District #1,Natrona County,2050 Siebke Drive,Casper,WY,82601,9477,(307)253-4000,41,Rural: Fringe,No,No,Yes,Yes,323,26.04,12.4,107,38
560073000005,WY-0101000-0101002,5600730,WY-0101000,KG,5,Beitel Elementary,Albany County School District #1,Albany County,811 South 17th Street,Laramie,WY,82070,4215,(307)721-4436,33,Town: Remote,No,No,–,–,236,20.5,11.5,32,15
560001600045,WY-0950000-0950002,5600016,WY-0950000,KG,8,Big Horn Basin Children's Center,Northwest Wyoming BOCES,Hot Springs County,P.O. Box 112,Thermopolis,WY,82443,112,(307)864-2171,41,Rural: Fringe,No,No,–,–,12,2.49,4.8,9,0
560569000395,WY-1701000-1701001,5605690,WY-1701000,KG,5,Big Horn Elementary,Sheridan County School District #1,Sheridan County,P.O. Box 490,Big Horn,WY,82833,490,(307)672-3497,42,Rural: Distant,No,No,–,–,233,15,15.5,22,28
560569000311,WY-1701000-1701055,5605690,WY-1701000,9,12,Big Horn High School,Sheridan County School District #1,Sheridan County,P.O. Box 490,Big Horn,WY,82833,490,(307)674-8190,42,Rural: Distant,No,No,–,–,133,12.44,10.7,5,5
560569000446,WY-1701000-1701050,5605690,WY-1701000,6,8,Big Horn Middle School,Sheridan County School District #1,Sheridan County,P.O. Box 490,Big Horn,WY,82833,490,(307)674-8190,42,Rural: Distant,No,No,–,–,97,8.4,11.5,6,13
560126000043,WY-1809000-1809001,5601260,WY-1809000,KG,5,Big Piney Elementary,Sublette County School District #9,Sublette County,P.O. Box 769,Big Piney,WY,83113,769,(307)276-3313,43,Rural: Remote,No,No,Yes,Yes,173,16.87,10.3,36,18
560126000041,WY-1809000-1809055,5601260,WY-1809000,9,12,Big Piney High School,Sublette County School District #9,Sublette County,P.O. Box 769,Big Piney,WY,83113,769,(307)276-3324,43,Rural: Remote,No,No,–,–,170,13.94,12.2,22,12
560126000042,WY-1809000-1809050,5601260,WY-1809000,6,8,Big Piney Middle School,Sublette County School District #9,Sublette County,P.O. Box 769,Big Piney,WY,83113,769,(307)276-3315,43,Rural: Remote,No,No,Yes,Yes,117,10.06,11.6,22,15
560530200359,WY-1901000-1901057,5605302,WY-1901000,9,12,Black Butte High School,Sweetwater County School District #1,Sweetwater County,P.O. Box 1089,Rock Springs,WY,82902,1089,(307)352-3290,33,Town: Remote,No,No,–,–,96,11.64,8.2,28,2
560486000269,WY-1801000-1801001,5604860,WY-1801000,KG,3,Bondurant Elementary,Sublette County School District #1,Sublette County,P.O. Box 549,Pinedale,WY,82941,549,(307)367-2828,43,Rural: Remote,No,No,–,–,9,1,9,–,–
560215000413,WY-0502000-0502001,5602150,WY-0502000,KG,6,Boxelder Elementary,Converse County School District #2,Converse County,P.O. Box 1300,Glenrock,WY,82637,,(307)436-8953,42,Rural: Distant,No,No,–,–,9,1,9,–,–
560377000187,WY-1001000-1001055,5603770,WY-1001000,9,12,Buffalo High School,Johnson County School District #1,Johnson County,29891 Old Highway 87,Buffalo,WY,82834,2139,(307)684-2269,41,Rural: Fringe,No,No,–,–,347,27.96,12.4,64,35
560198000100,WY-1101000-1101005,5601980,WY-1101000,KG,4,Buffalo Ridge Elementary,Laramie County School District #1,Laramie County,5331 Pineridge Avenue,Cheyenne,WY,82009,5208,(307)771-2595,13,City: Small,No,No,–,–,182,13.83,13.2,46,21
560147000546,WY-0301000-0301025,5601470,WY-0301000,KG,6,Buffalo Ridge Elementary,Campbell County School District #1,Campbell County,P.O. Box 3033,Gillette,WY,82717,3033,(307)686-3058,41,Rural: Fringe,No,No,–,–,432,29.5,14.6,79,18
560142000049,WY-0201000-0201001,5601420,WY-0201000,PK,5,Burlington Elementary,Big Horn County School District #1,Big Horn County,P.O. Box 9,Burlington,WY,82411,9,(307)762-3334,43,Rural: Remote,No,No,Yes,Yes,119,10.7,11.1,41,32
560142000478,WY-0201000-0201055,5601420,WY-0201000,9,12,Burlington High School,Big Horn County School District #1,Big Horn County,P.O. Box 9,Burlington,WY,82411,9,(307)762-3334,43,Rural: Remote,No,No,–,–,65,8.31,7.8,14,14
560142000477,WY-0201000-0201050,5601420,WY-0201000,6,8,Burlington Middle School,Big Horn County School District #1,Big Horn County,P.O. Box 9,Burlington,WY,82411,9,(307)762-3334,43,Rural: Remote,No,No,Yes,Yes,66,5.74,11.5,14,18
560412000504,WY-1102000-1102005,5604120,WY-1102000,KG,6,Burns Elementary,Laramie County School District #2,Laramie County,630 East 4th,Burns,WY,82053,,(307)245-4150,42,Rural: Distant,No,No,Yes,No,248,19.97,12.4,50,20
560412000209,WY-1102000-1102056,5604120,WY-1102000,7,12,Burns Jr & Sr High School,Laramie County School District #2,Laramie County,305 East County Road 213,Burns,WY,82053,,(307)245-4100,42,Rural: Distant,No,No,–,–,325,25.25,12.9,78,32
560451000232,WY-1301000-1301050,5604510,WY-1301000,6,8,C Y Middle School,Natrona County School District #1,Natrona County,2900 Cyclone Drive,Casper,WY,82604,,(307)253-2700,13,City: Small,No,No,–,–,786,51.5,15.3,224,73
568025000048,WY-2050000-2050002,5680250,WY-2050000,1,12,C-Bar-V Ranch,Region V BOCES,Teton County,P.O. Box 899,Wilson,WY,83014,,(307)733-8210,42,Rural: Distant,No,No,–,–,59,11.24,5.2,56,0
560147000057,WY-0301000-0301055,5601470,WY-0301000,9,12,Campbell County High School,Campbell County School District #1,Campbell County,P.O. Box 3033,Gillette,WY,82717,3033,(307)682-7247,33,Town: Remote,No,No,–,–,1045,67.69,15.4,312,65
560403000555,WY-1201000-1201051,5604030,WY-1201000,KG,6,Canyon Elementary School,Lincoln County School District #1,Lincoln County,P.O. Box 335,Diamondville,WY,83116,,(307)877-2286,41,Rural: Fringe,No,No,Yes,No,181,11.87,15.2,21,13
560198000093,WY-1101000-1101050,5601980,WY-1101000,7,8,Carey Junior High School,Laramie County School District #1,Laramie County,1780 East Pershing Boulevard,Cheyenne,WY,82001,4103,(307)771-2580,13,City: Small,No,No,–,–,758,50.5,15,201,84
560412000211,WY-1102000-1102002,5604120,WY-1102000,KG,6,Carpenter Elementary,Laramie County School District #2,Laramie County,P.O. Box L,Carpenter,WY,82054,368,(307)245-4180,42,Rural: Distant,No,No,Yes,No,101,10.65,9.5,23,13
560451000183,WY-1301000-1301038,5604510,WY-1301000,6,9,Casper Classical Academy,Natrona County School District #1,Natrona County,900 South Beverly,Casper,WY,82601,,(307)253-3160,13,City: Small,No,No,–,–,443,27.91,15.9,127,41
560000900145,WY-0170000-0170001,5600009,WY-0170000,4,12,Cathedral Home for Children,Cathedral Home for Children - Administration Office,Albany County,4989 North 3rd Street,Laramie,WY,82072,,(307)745-8997,41,Rural: Fringe,No,No,–,–,9,13,0.7,6,0
560073000007,WY-0101000-0101005,5600730,WY-0101000,KG,6,Centennial Elementary,Albany County School District #1,Albany County,P.O. Box 326,Centennial,WY,82055,326,(307)745-9585,43,Rural: Remote,No,No,Yes,No,12,2.92,4.1,5,2
560451000470,WY-1301000-1301054,5604510,WY-1301000,6,8,Centennial Middle School,Natrona County School District #1,Natrona County,1421 Waterford,Casper,WY,82609,4401,(307)253-2900,13,City: Small,No,No,–,–,817,54.43,15,192,83
560198000090,WY-1101000-1101055,5601980,WY-1101000,9,12,Central High School,Laramie County School District #1,Laramie County,5500 Education Drive,Cheyenne,WY,82009,4008,(307)771-2680,13,City: Small,No,No,–,–,1194,82.58,14.5,117,83
560509000271,WY-1601000-1601001,5605090,WY-1601000,KG,6,Chugwater Elementary,Platte County School District #1,Platte County,1350 Oak Street,Wheatland,WY,82201,68,(307)422-3501,43,Rural: Remote,No,No,Yes,No,25,4.32,5.8,16,0
560509000391,WY-1601000-1601055,5605090,WY-1601000,9,12,Chugwater High School,Platte County School District #1,Platte County,1350 Oak Street,Wheatland,WY,82201,68,(307)422-3501,43,Rural: Remote,No,No,–,–,11,4.52,2.4,4,0
560509000509,WY-1601000-1601051,5605090,WY-1601000,7,8,Chugwater Junior High School,Platte County School District #1,Platte County,1350 Oak Street,Wheatland,WY,82201,68,(307)422-3501,43,Rural: Remote,No,No,–,–,3,1.66,1.8,†,†
560516000280,WY-1501000-1501001,5605160,WY-1501000,KG,5,Clark Elementary,Park County School District # 1,Park County,160 North Evarts,Powell,WY,82435,2730,(307)645-3241,43,Rural: Remote,No,No,Yes,Yes,9,1.28,7,5,1
560276000155,WY-2101000-2101002,5602760,WY-2101000,KG,5,Clark Elementary,Uinta County School District #1,Uinta County,P.O. Box 6002,Evanston,WY,82931,6002,(307)789-2833,33,Town: Remote,No,No,Yes,Yes,223,19,11.7,85,25
560198000114,WY-1101000-1101019,5601980,WY-1101000,KG,6,Clawson Elementary,Laramie County School District #1,Laramie County,376 Road 228A,Horse Creek,WY,82061,,(307)771-2291,42,Rural: Distant,No,No,–,–,11,1.27,8.7,2,3
560377000191,WY-1001000-1001050,5603770,WY-1001000,6,8,Clear Creek Middle School,Johnson County School District #1,Johnson County,361 West Gatchell,Buffalo,WY,82834,1809,(307)684-5594,33,Town: Remote,No,No,–,–,282,23.34,12.1,51,26
560568000569,WY-1703000-1703049,5605680,WY-1703000,KG,12,Clearmont K-12 School,Sheridan County School District #3,Sheridan County,P.O. Box 125,Clearmont,WY,82835,,(307)758-4412,43,Rural: Remote,No,No,–,–,87,13.58,6.4,17,7
560377000417,WY-1001000-1001002,5603770,WY-1001000,3,5,Cloud Peak Elementary,Johnson County School District #1,Johnson County,100 Conrad,Buffalo,WY,82834,1868,(307)684-0153,41,Rural: Fringe,No,No,Yes,No,276,19.46,14.2,56,25
560207000121,WY-1506000-1506055,5602070,WY-1506000,9,12,Cody High School,Park County School District # 6,Park County,919 Cody Avenue,Cody,WY,82414,3531,(307)587-4251,33,Town: Remote,No,No,–,–,566,45.35,12.5,68,31
560207000351,WY-1506000-1506050,5602070,WY-1506000,6,8,Cody Middle School,Park County School District # 6,Park County,919 Cody Avenue,Cody,WY,82414,8400,(307)587-4273,33,Town: Remote,No,No,–,–,477,36.55,13.1,91,43
560406000205,WY-1202000-1202002,5604060,WY-1202000,KG,6,Cokeville Elementary,Lincoln County School District #2,Lincoln County,P.O. Box 400,Cokeville,WY,83114,400,(307)279-3233,43,Rural: Remote,No,No,Yes,No,133,8,16.6,18,29
560406000381,WY-1202000-1202055,5604060,WY-1202000,7,12,Cokeville High School,Lincoln County School District #2,Lincoln County,P.O. Box 220,Cokeville,WY,83114,20,(307)279-3273,43,Rural: Remote,No,No,–,–,118,10.5,11.2,11,19
560198000102,WY-1101000-1101007,5601980,WY-1101000,PK,6,Cole Elementary,Laramie County School District #1,Laramie County,615 West 9th Street,Cheyenne,WY,82007,1272,(307)771-2480,13,City: Small,No,No,Yes,Yes,181,17.71,10.2,102,25
560583000289,WY-2001000-2001009,5605830,WY-2001000,KG,5,Colter Elementary,Teton County School District #1,Teton County,P.O. Box 568,Jackson,WY,83001,568,(307)733-9651,33,Town: Remote,No,No,Yes,No,352,30.03,11.7,24,18
560147000409,WY-0301000-0301022,5601470,WY-0301000,KG,6,Conestoga Elementary,Campbell County School District #1,Campbell County,P.O. Box 3033,Gillette,WY,82717,3003,(307)686-2373,33,Town: Remote,No,No,–,–,383,32.1,11.9,82,17
560103000147,WY-0401000-0401057,5601030,WY-0401000,9,12,Cooperative High,Carbon County School District #1,Carbon County,615 Rodeo,Rawlins,WY,82301,160,(307)328-9250,33,Town: Remote,No,No,Yes,Yes,41,4.16,9.9,15,3
560147000064,WY-0301000-0301006,5601470,WY-0301000,PK,6,Cottonwood Elementary,Campbell County School District #1,Campbell County,P.O. Box 330,Wright,WY,82732,330,(307)464-0584,43,Rural: Remote,No,No,Yes,No,205,19.43,10.6,45,11
560451000377,WY-1301000-1301005,5604510,WY-1301000,PK,5,Cottonwood Elementary,Natrona County School District #1,Natrona County,1230 West 15th Street,Casper,WY,82601,,(307)253-4700,13,City: Small,No,No,Yes,Yes,371,27.45,13.5,164,49
560451000236,WY-1301000-1301002,5604510,WY-1301000,KG,5,Crest Hill Elementary,Natrona County School District #1,Natrona County,4445 South Poplar,Casper,WY,82601,6108,(307)253-4200,13,City: Small,No,No,–,–,330,26.17,12.6,89,30
560283000159,WY-0706000-0706001,5602830,WY-0706000,PK,3,Crowheart Elementary,Fremont County School District # 6,Fremont County,P.O. Box 2,Crowheart,WY,82512,2,(307)486-2202,43,Rural: Remote,No,No,Yes,Yes,13,2,6.5,6,0
560198000104,WY-1101000-1101009,5601980,WY-1101000,KG,6,Davis Elementary,Laramie County School District #1,Laramie County,6309 Yellowstone Road,Cheyenne,WY,82009,3447,(307)771-2600,13,City: Small,No,No,–,–,360,26.23,13.7,94,45
560276000153,WY-2101000-2101050,5602760,WY-2101000,6,8,Davis Middle School,Uinta County School District #1,Uinta County,P.O. Box 6002,Evanston,WY,82931,6002,(307)789-8096,33,Town: Remote,No,No,–,–,310,26.83,11.6,98,50
560451000233,WY-1301000-1301051,5604510,WY-1301000,6,8,Dean Morgan Middle School,Natrona County School District #1,Natrona County,1440 South Elm,Casper,WY,82601,4118,(307)253-2500,13,City: Small,No,No,–,–,902,61.23,14.7,317,111
560198000105,WY-1101000-1101010,5601980,WY-1101000,KG,3,Deming Elementary,Laramie County School District #1,Laramie County,715 West 5th Ave,Cheyenne,WY,82001,1177,(307)771-2400,13,City: Small,No,No,–,–,103,8.68,11.9,23,10
560530200297,WY-1901000-1901001,5605302,WY-1901000,KG,6,Desert Elementary,Sweetwater County School District #1,Sweetwater County,P.O. Box 10,Wamsutter,WY,82336,10,(307)324-7811,43,Rural: Remote,No,No,Yes,No,25,5.07,4.9,7,7
560530200523,WY-1901000-1901053,5605302,WY-1901000,7,8,Desert Middle School,Sweetwater County School District #1,Sweetwater County,P.O. Box 10,Wamsutter,WY,82336,10,(307)324-7811,43,Rural: Remote,No,No,–,–,3,0.93,3.2,†,†
560530200298,WY-1901000-1901002,5605302,WY-1901000,KG,4,Desert View Elementary,Sweetwater County School District #1,Sweetwater County,P.O. Box 1089,Rock Springs,WY,82902,1089,(307)352-3200,33,Town: Remote,No,No,Yes,Yes,273,23.12,11.8,119,15
560198000106,WY-1101000-1101011,5601980,WY-1101000,KG,4,Dildine Elementary,Laramie County School District #1,Laramie County,4312 Van Buren Avenue,Cheyenne,WY,82001,2291,(307)771-2320,13,City: Small,No,No,–,–,312,24.52,12.7,106,27
560214000127,WY-0501000-0501055,5602140,WY-0501000,9,12,Douglas High School,Converse County School District #1,Converse County,615 Hamilton Street,Douglas,WY,82633,2615,(307)358-2940,41,Rural: Fringe,No,No,–,–,515,40.32,12.8,122,30
560214000553,WY-0501000-0501013,5602140,WY-0501000,2,3,Douglas Intermediate School,Converse County School District #1,Converse County,615 Hamilton Street,Douglas,WY,82633,2615,(307)358-5250,33,Town: Remote,No,No,Yes,Yes,226,21.83,10.4,55,17
560214000368,WY-0501000-0501050,5602140,WY-0501000,6,8,Douglas Middle School,Converse County School District #1,Converse County,615 Hamilton Street,Douglas,WY,82633,2615,(307)358-9771,41,Rural: Fringe,No,No,–,–,391,34.28,11.4,104,35
560214000128,WY-0501000-0501002,5602140,WY-0501000,KG,1,Douglas Primary School,Converse County School District #1,Converse County,615 Hamilton Street,Douglas,WY,82633,2615,(307)358-3502,41,Rural: Fringe,No,No,Yes,Yes,272,24.75,11,63,18
560214000352,WY-0501000-0501010,5602140,WY-0501000,4,5,Douglas Upper Elementary School,Converse County School District #1,Converse County,615 Hamilton Street,Douglas,WY,82633,2615,(307)358-0025,33,Town: Remote,No,No,Yes,Yes,253,19.48,13,63,20
560214000129,WY-0501000-0501001,5602140,WY-0501000,KG,8,Dry Creek Elementary,Converse County School District #1,Converse County,615 Hamilton Street,Douglas,WY,82633,2615,(307)358-2351,43,Rural: Remote,No,No,Yes,Yes,12,2.4,5,6,1
560267000432,WY-0702000-0702001,5602670,WY-0702000,KG,5,Dubois Elementary,Fremont County School District # 2,Fremont County,P.O. Box 188,Dubois,WY,82513,188,(307)455-5524,43,Rural: Remote,No,No,Yes,Yes,70,7.66,9.1,20,10
560267000151,WY-0702000-0702055,5602670,WY-0702000,9,12,Dubois High School,Fremont County School District # 2,Fremont County,P.O. Box 188,Dubois,WY,82513,188,(307)455-5524,43,Rural: Remote,No,No,–,–,44,5.54,7.9,15,4
560267000366,WY-0702000-0702050,5602670,WY-0702000,6,8,Dubois Middle School,Fremont County School District # 2,Fremont County,P.O. Box 188,Dubois,WY,82513,188,(307)455-5524,43,Rural: Remote,No,No,Yes,Yes,32,3.8,8.4,11,4
560198000091,WY-1101000-1101056,5601980,WY-1101000,9,12,East High School,Laramie County School District #1,Laramie County,2800 East Pershing Boulevard,Cheyenne,WY,82001,5762,(307)771-2663,13,City: Small,No,No,–,–,1448,99.03,14.6,303,126
560624000579,WY-2201000-2201004,5606240,WY-2201000,KG,1,East Side Elementary,Washakie County School District #1,Washakie County,203 North 15th Street,Worland,WY,82401,,(307)347-4662,33,Town: Remote,No,No,Yes,Yes,189,17.86,10.6,64,29
560207000122,WY-1506000-1506001,5602070,WY-1506000,KG,5,Eastside Elementary,Park County School District # 6,Park County,919 Cody Avenue,Cody,WY,82414,3853,(307)587-4275,33,Town: Remote,No,No,Yes,Yes,290,25.6,11.3,97,50
560530200419,WY-1901000-1901004,5605302,WY-1901000,5,6,Eastside Elementary,Sweetwater County School District #1,Sweetwater County,P.O. Box 1089,Rock Springs,WY,82902,1089,(307)352-3425,33,Town: Remote,No,No,–,–,428,28.65,14.9,194,38
560170000084,WY-0402000-0402001,5601700,WY-0402000,KG,6,Elk Mountain Elementary,Carbon County School District #2,Carbon County,P.O. Box 20,Elk Mountain,WY,82324,20,(307)348-7731,43,Rural: Remote,No,No,–,–,4,1.37,2.9,†,†
560170000387,WY-0402000-0402049,5601700,WY-0402000,KG,12,Encampment K-12 School,Carbon County School District #2,Carbon County,P.O. Box 277,Encampment,WY,82325,227,(307)327-5442,43,Rural: Remote,No,No,Yes,No,124,20.04,6.2,27,20
560406000207,WY-1202000-1202004,5604060,WY-1202000,4,6,Etna Elementary,Lincoln County School District #2,Lincoln County,P.O. Box 5068,Etna,WY,83118,5068,(307)885-2472,43,Rural: Remote,No,No,Yes,Yes,292,21.35,13.7,62,33
560276000152,WY-2101000-2101055,5602760,WY-2101000,9,12,Evanston High School,Uinta County School District #1,Uinta County,P.O. Box 6002,Evanston,WY,82931,6002,(307)789-0757,41,Rural: Fringe,No,No,–,–,748,44.47,16.8,185,89
560276000463,WY-2101000-2101051,5602760,WY-2101000,6,8,Evanston Middle School,Uinta County School District #1,Uinta County,P.O. Box 6002,Evanston,WY,82931,6002,(307)789-5499,33,Town: Remote,No,No,–,–,329,26.83,12.3,102,58
560451000237,WY-1301000-1301003,5604510,WY-1301000,PK,5,Evansville Elementary,Natrona County School District #1,Natrona County,P.O. Box E,Evansville,WY,82636,766,(307)253-6400,23,Suburb: Small,No,No,Yes,Yes,327,24.07,13.6,153,48
560576200164,WY-1902000-1902056,5605762,WY-1902000,9,12,Expedition Academy,Sweetwater County School District #2,Sweetwater County,410 Upland Way,Green River,WY,82935,,(307)872-4800,33,Town: Remote,No,No,–,–,44,6.14,7.2,21,5
560198000108,WY-1101000-1101013,5601980,WY-1101000,3,6,Fairview Elementary,Laramie County School District #1,Laramie County,2801 East 10th Street,Cheyenne,WY,82001,5626,(307)771-2610,13,City: Small,No,No,Yes,Yes,130,10.99,11.8,59,19
560530200489,WY-1901000-1901003,5605302,WY-1901000,KG,5,Farson-Eden Elementary,Sweetwater County School District #1,Sweetwater County,P.O. Box 400,Farson,WY,82932,400,(307)273-9301,43,Rural: Remote,No,No,Yes,No,60,8.37,7.2,6,4
560530200293,WY-1901000-1901055,5605302,WY-1901000,9,12,Farson-Eden High School,Sweetwater County School District #1,Sweetwater County,P.O. Box 400,Farson,WY,82932,400,(307)273-9301,43,Rural: Remote,No,No,–,–,62,6.97,8.9,9,4
560530200524,WY-1901000-1901054,5605302,WY-1901000,6,8,Farson-Eden Middle School,Sweetwater County School District #1,Sweetwater County,P.O. Box 400,Farson,WY,82932,400,(307)273-9301,43,Rural: Remote,No,No,–,–,41,4.79,8.6,5,2
560198000371,WY-1101000-1101028,5601980,WY-1101000,KG,6,Freedom Elementary,Laramie County School District #1,Laramie County,4500 Happy Jack Road,Cheyenne,WY,82001,,(307)771-2305,23,Suburb: Small,No,No,–,–,377,24.53,15.4,40,87
560522000562,WY-0725000-0725057,5605220,WY-0725000,9,12,Frontier Academy,Fremont County School District #25,Fremont County,121 North 5th Street,Riverton,WY,82501,,(307)856-9291,33,Town: Remote,No,No,–,–,28,3,9.3,25,0
560451000240,WY-1301000-1301006,5604510,WY-1301000,KG,5,Ft. Caspar Academy,Natrona County School District #1,Natrona County,4100 West 38th Street,Casper,WY,82604,,(307)253-3400,13,City: Small,No,No,–,–,444,29.67,15,93,33
560282000498,WY-0721000-0721001,5602820,WY-0721000,PK,6,Ft. Washakie Elementary,Fremont County School District #21,Fremont County,90 Ethete Road,Ft. Washakie,WY,82514,9602,(307)332-2380,43,Rural: Remote,No,No,Yes,Yes,322,41.45,7.8,319,0
560282000552,WY-0721000-0721056,5602820,WY-0721000,9,12,Ft. Washakie High School,Fremont County School District #21,Fremont County,90 Ethete Rd.,Ft. Washakie,WY,82514,9602,(307)332-0142,43,Rural: Remote,No,No,Yes,Yes,105,8.09,13,102,0
560282000370,WY-0721000-0721050,5602820,WY-0721000,7,8,Ft. Washakie Middle School,Fremont County School District #21,Fremont County,90 Ethete Road,Ft. Washakie,WY,82514,9602,(307)332-2380,43,Rural: Remote,No,No,Yes,Yes,96,11.46,8.4,93,0
560287000452,WY-0701000-0701008,5602870,WY-0701000,KG,3,Gannett Peak Elementary,Fremont County School District # 1,Fremont County,615 Popo Agie,Lander,WY,82520,,(307)332-6690,33,Town: Remote,No,No,Yes,Yes,529,44,12,128,36
560198000109,WY-1101000-1101014,5601980,WY-1101000,KG,6,Gilchrist Elementary,Laramie County School District #1,Laramie County,1108 Happy Jack Road,Cheyenne,WY,82007,9553,(307)771-2285,42,Rural: Distant,No,No,–,–,98,9.77,10,14,12
560509000272,WY-1601000-1601002,5605090,WY-1601000,KG,6,Glendo Elementary,Platte County School District #1,Platte County,1350 Oak Street,Wheatland,WY,82201,68,(307)735-4471,43,Rural: Remote,No,No,Yes,No,29,3.88,7.5,8,3
560509000392,WY-1601000-1601056,5605090,WY-1601000,9,12,Glendo High School,Platte County School District #1,Platte County,1350 Oak Street,Wheatland,WY,82201,68,(307)735-4471,43,Rural: Remote,No,No,–,–,12,5.54,2.2,4,0
560509000533,WY-1601000-1601052,5605090,WY-1601000,7,8,Glendo Junior High School,Platte County School District #1,Platte County,1350 Oak Street,Wheatland,WY,82201,68,(307)735-4471,43,Rural: Remote,No,No,–,–,13,1.78,7.3,6,1
560207000126,WY-1506000-1506005,5602070,WY-1506000,KG,5,Glenn Livingston Elementary,Park County School District # 6,Park County,919 Cody Avenue,Cody,WY,82414,4606,(307)587-4271,33,Town: Remote,No,No,–,–,320,22.7,14.1,51,33
560215000037,WY-0502000-0502007,5602150,WY-0502000,4,6,Glenrock Intermediate School,Converse County School District #2,Converse County,P.O. Box 1300,Glenrock,WY,82637,1300,(307)436-9258,42,Rural: Distant,No,No,Yes,No,152,10.95,13.9,46,14
560215000137,WY-0502000-0502055,5602150,WY-0502000,7,12,Glenrock Jr/Sr High School,Converse County School District #2,Converse County,P.O. Box 1300,Glenrock,WY,82637,1300,(307)436-9201,42,Rural: Distant,No,No,–,–,258,23.61,10.9,64,15
560198000110,WY-1101000-1101015,5601980,WY-1101000,PK,6,Goins Elementary,Laramie County School District #1,Laramie County,224 Dey Avenue,Cheyenne,WY,82007,1179,(307)771-2620,13,City: Small,No,No,Yes,Yes,353,27.07,13,175,52
560576200326,WY-1902000-1902001,5605762,WY-1902000,KG,5,Granger Elementary,Sweetwater County School District #2,Sweetwater County,P.O. Box 25,Granger,WY,82934,25,(307)875-4840,43,Rural: Remote,No,No,–,–,3,1.2,2.5,†,†
560215000141,WY-0502000-0502004,5602150,WY-0502000,KG,3,Grant Elementary,Converse County School District #2,Converse County,P.O. Box 1300,Glenrock,WY,82637,1300,(307)436-2774,42,Rural: Distant,No,No,Yes,No,173,13.44,12.9,46,16
560576200324,WY-1902000-1902055,5605762,WY-1902000,9,12,Green River High School,Sweetwater County School District #2,Sweetwater County,1615 Hitching Post Drive,Green River,WY,82935,,(307)872-4747,33,Town: Remote,No,No,–,–,750,46.28,16.2,110,76
560317000176,WY-0203000-0203002,5603170,WY-0203000,KG,5,Greybull Elementary,Big Horn County School District #3,Big Horn County,640 8th Avenue North,Greybull,WY,82426,,(307)765-2311,43,Rural: Remote,No,No,Yes,Yes,205,18.85,10.9,94,18
560317000174,WY-0203000-0203055,5603170,WY-0203000,9,12,Greybull High School,Big Horn County School District #3,Big Horn County,640 8th Avenue North,Greybull,WY,82426,,(307)765-2537,43,Rural: Remote,No,No,Yes,Yes,152,16.58,9.2,30,14
560317000378,WY-0203000-0203050,5603170,WY-0203000,6,8,Greybull Middle School,Big Horn County School District #3,Big Horn County,640 8th Avenue North,Greybull,WY,82426,1738,(307)765-4492,43,Rural: Remote,No,No,Yes,Yes,109,9.85,11.1,40,11
560318000179,WY-1602000-1602001,5603180,WY-1602000,KG,6,Guernsey-Sunrise Elementary,Platte County School District #2,Platte County,P.O. Box 189,Guernsey,WY,82214,189,(307)836-2733,43,Rural: Remote,No,No,Yes,No,151,14.15,10.7,40,25
560318000379,WY-1602000-1602055,5603180,WY-1602000,9,12,Guernsey-Sunrise High School,Platte County School District #2,Platte County,P.O. Box 189,Guernsey,WY,82214,189,(307)836-2745,43,Rural: Remote,No,No,Yes,No,69,10.2,6.8,19,13
560318000499,WY-1602000-1602050,5603180,WY-1602000,7,8,Guernsey-Sunrise Junior High,Platte County School District #2,Platte County,P.O. Box 189,Guernsey,WY,82214,189,(307)836-2745,43,Rural: Remote,No,No,Yes,No,35,3.35,10.4,5,11
560170000085,WY-0402000-0402003,5601700,WY-0402000,KG,6,Hanna Elementary,Carbon County School District #2,Carbon County,P.O. Box 1000,Hanna,WY,82327,1000,(307)325-6523,43,Rural: Remote,No,No,Yes,No,80,9.9,8.1,31,16
560073000011,WY-0101000-0101009,5600730,WY-0101000,KG,6,Harmony Elementary,Albany County School District #1,Albany County,20 Lewis Road,Laramie,WY,82070,,(307)745-5720,43,Rural: Remote,No,No,Yes,No,21,3.95,5.3,1,5
560576200439,WY-1902000-1902002,5605762,WY-1902000,KG,5,Harrison Elementary,Sweetwater County School District #2,Sweetwater County,1825 Alabama Drive,Green River,WY,82935,5805,(307)872-1700,33,Town: Remote,No,No,Yes,No,265,22.25,11.9,40,25
560207000560,WY-1506000-1506056,5602070,WY-1506000,9,12,Heart Mountain Academy,Park County School District # 6,Park County,919 Cody Avenue,Cody,WY,82414,,(307)527-1028,33,Town: Remote,No,No,–,–,28,5,5.6,7,0
560198000111,WY-1101000-1101016,5601980,WY-1101000,PK,6,Hebard Elementary,Laramie County School District #1,Laramie County,413 Seymour Avenue,Cheyenne,WY,82007,1519,(307)771-2450,13,City: Small,No,No,Yes,Yes,127,16.06,7.9,86,24
560170000385,WY-0402000-0402048,5601700,WY-0402000,7,12,HEM Junior/Senior High School,Carbon County School District #2,Carbon County,P.O. Box 810,Hanna,WY,82327,810,(307)325-6545,43,Rural: Remote,No,No,Yes,No,85,12.64,6.7,32,16
560198000112,WY-1101000-1101017,5601980,WY-1101000,KG,6,Henderson Elementary,Laramie County School District #1,Laramie County,2820 Henderson Drive,Cheyenne,WY,82001,5504,(307)771-2550,13,City: Small,No,No,Yes,No,291,20.96,13.9,120,33
560569500316,WY-1702000-1702002,5605695,WY-1702000,KG,5,Henry A. Coffeen Elementary,Sheridan County School District #2,Sheridan County,1053 S Sheridan Ave,Sheridan,WY,82801,,(307)674-9333,33,Town: Remote,No,No,Yes,Yes,370,27.12,13.6,144,52
560569500317,WY-1702000-1702003,5605695,WY-1702000,KG,5,Highland Park Elementary,Sheridan County School District #2,Sheridan County,2 Mydland Road,Sheridan,WY,82801,2719,(307)672-2113,33,Town: Remote,No,No,–,–,320,23.2,13.8,55,31
560147000067,WY-0301000-0301009,5601470,WY-0301000,KG,6,Hillcrest Elementary,Campbell County School District #1,Campbell County,P.O. Box 3033,Gillette,WY,82717,3033,(307)682-7291,33,Town: Remote,No,No,Yes,Yes,420,33.8,12.4,164,49
560198000113,WY-1101000-1101018,5601980,WY-1101000,KG,6,Hobbs Elementary,Laramie County School District #1,Laramie County,5710 Syracuse Road,Cheyenne,WY,82009,4261,(307)771-2560,13,City: Small,No,No,–,–,370,24.78,14.9,76,21
560276000376,WY-2101000-2101056,5602760,WY-2101000,7,12,Horizon Alternative School,Uinta County School District #1,Uinta County,P.O. Box 6002,Evanston,WY,82931,6002,(307)789-0122,33,Town: Remote,No,No,–,–,45,7.8,5.8,24,5
560331000180,WY-0901000-0901055,5603310,WY-0901000,9,12,Hot Springs County High School,Hot Springs County School District #1,Hot Springs County,415 Springview,Thermopolis,WY,82443,,(307)864-6511,33,Town: Remote,No,No,–,–,204,16.84,12.1,54,28
560237000407,WY-0601000-0601049,5602370,WY-0601000,KG,12,Hulett School,Crook County School District #1,Crook County,P.O. Box 127,Hulett,WY,82720,127,(307)467-5231,43,Rural: Remote,No,No,Yes,Yes,154,19.35,8,50,20
560073000004,WY-0101000-0101028,5600730,WY-0101000,KG,5,Indian Paintbrush Elementary,Albany County School District #1,Albany County,1653 North 28th Street,Laramie,WY,82072,9200,(307)721-4490,33,Town: Remote,No,No,–,–,348,28.45,12.2,45,2
560522000575,WY-0725000-0725008,5605220,WY-0725000,1,3,Jackson Elementary,Fremont County School District #25,Fremont County,121 North 5th Street,Riverton,WY,85201,,(307)856-9495,33,Town: Remote,No,No,Yes,Yes,163,15.74,10.4,78,7
560583000313,WY-2001000-2001010,5605830,WY-2001000,KG,5,Jackson Elementary,Teton County School District #1,Teton County,P.O. Box 568,Jackson,WY,83001,568,(307)733-5302,33,Town: Remote,No,No,Yes,No,250,27.05,9.2,36,17
560583000335,WY-2001000-2001055,5605830,WY-2001000,9,12,Jackson Hole High School,Teton County School District #1,Teton County,P.O. Box 568,Jackson,WY,83001,568,(307)732-3700,41,Rural: Fringe,No,No,–,–,720,52.02,13.8,83,49
560583000336,WY-2001000-2001050,5605830,WY-2001000,6,8,Jackson Hole Middle School,Teton County School District #1,Teton County,P.O. Box 568,Jackson,WY,83001,568,(307)733-4234,33,Town: Remote,No,No,–,–,710,54.13,13.1,81,61
560287000074,WY-0701000-0701006,5602870,WY-0701000,KG,6,Jeffrey City Elementary,Fremont County School District # 1,Fremont County,615 Popo Agie,Lander,WY,82520,,(307)544-2254,43,Rural: Remote,No,No,–,–,7,1,7,†,†
560198000115,WY-1101000-1101020,5601980,WY-1101000,KG,6,Jessup Elementary,Laramie County School District #1,Laramie County,6113 Evers Boulevard,Cheyenne,WY,82009,3257,(307)771-2570,13,City: Small,No,No,–,–,292,17.63,16.6,22,8
560569500189,WY-1702000-1702056,5605695,WY-1702000,9,12,John C. Schiffer Collaborative School,Sheridan County School District #2,Sheridan County,P.O. Box 919,Sheridan,WY,82801,919,(307)673-8730,33,Town: Remote,No,No,Yes,Yes,55,6.3,8.7,21,12
560198000094,WY-1101000-1101051,5601980,WY-1101000,7,8,Johnson Junior High School,Laramie County School District #1,Laramie County,1236 West Allison Road,Cheyenne,WY,82007,2752,(307)771-2640,13,City: Small,No,No,Yes,Yes,780,52.62,14.8,412,112
560451000247,WY-1301000-1301014,5604510,WY-1301000,PK,5,Journey Elementary,Natrona County School District #1,Natrona County,2401 Hickory Street,Casper,WY,82604,,(307)253-3700,13,City: Small,No,No,Yes,Yes,456,29.05,15.7,227,57
560377000449,WY-1001000-1001049,5603770,WY-1001000,KG,12,Kaycee School,Johnson County School District #1,Johnson County,P.O. Box 6,Kaycee,WY,82834,,(307)738-2323,43,Rural: Remote,No,No,–,–,142,19.57,7.3,32,21
560583000339,WY-2001000-2001003,5605830,WY-2001000,KG,5,Kelly Elementary,Teton County School District #1,Teton County,P.O. Box 568,Jackson,WY,83001,568,(307)733-2955,43,Rural: Remote,No,No,–,–,51,4.4,11.6,–,–
560451000229,WY-1301000-1301055,5604510,WY-1301000,9,12,Kelly Walsh High School,Natrona County School District #1,Natrona County,3500 East 12th Street,Casper,WY,82609,3125,(307)253-2000,13,City: Small,No,No,–,–,1858,111.02,16.7,408,157
560403000557,WY-1201000-1201057,5604030,WY-1201000,7,12,Kemmerer Junior Senior High School,Lincoln County School District #1,Lincoln County,P.O. Box 335,Diamondville,WY,83116,,(307)877-6991,41,Rural: Fringe,No,No,–,–,249,17.69,14.1,6,8
560126000044,WY-1809000-1809002,5601260,WY-1809000,KG,5,La Barge Elementary,Sublette County School District #9,Lincoln County,P.O. Box 769,Big Piney,WY,83113,769,(307)386-2227,43,Rural: Remote,No,No,Yes,Yes,57,7.36,7.7,12,3
560299000475,WY-0801000-0801004,5602990,WY-0801000,KG,6,La Grange Elementary,Goshen County School District #1,Goshen County,P.O. Box 188,La Grange,WY,82221,188,(307)834-2311,43,Rural: Remote,No,No,Yes,Yes,21,2.9,7.2,9,2
560147000070,WY-0301000-0301012,5601470,WY-0301000,KG,6,Lakeview Elementary,Campbell County School District #1,Campbell County,P.O. Box 3033,Gillette,WY,82717,3033,(307)682-7293,33,Town: Remote,No,No,Yes,Yes,435,31.6,13.8,145,37
560423000218,WY-1401000-1401003,5604230,WY-1401000,KG,6,Lance Creek Elementary,Niobrara County School District #1,Niobrara County,P.O. Box 334,Lance Creek,WY,82222,334,(307)334-3403,43,Rural: Remote,No,No,–,–,3,1,3,†,†
560287000198,WY-0701000-0701050,5602870,WY-0701000,6,8,Lander Middle School,Fremont County School District # 1,Fremont County,755 Jefferson Street,Lander,WY,82520,,(307)332-4040,33,Town: Remote,No,No,Yes,Yes,429,30.01,14.3,125,36
560287000163,WY-0701000-0701055,5602870,WY-0701000,9,12,Lander Valley High School,Fremont County School District # 1,Fremont County,350 Baldwin Creek Road,Lander,WY,82520,3078,(307)332-4433,33,Town: Remote,No,No,Yes,No,501,33.94,14.8,115,26
560073000001,WY-0101000-0101055,5600730,WY-0101000,9,12,Laramie High School,Albany County School District #1,Albany County,1710 Boulder Drive,Laramie,WY,82070,,(307)721-4420,41,Rural: Fringe,No,No,–,–,1064,75.99,14,112,37
560073000002,WY-0101000-0101050,5600730,WY-0101000,6,8,Laramie Middle School,Albany County School District #1,Albany County,1355 North 22nd,Laramie,WY,82072,2340,(307)721-4430,33,Town: Remote,No,No,–,–,757,53.4,14.2,137,35
560073000542,WY-0101000-0101031,5600730,WY-0101000,KG,6,Laramie Montessori Charter School,Albany County School District #1,Albany County,608 South 4th Street,Laramie,WY,82070,,(307)742-2554,33,Town: Remote,Yes,No,Yes,No,80,8.14,9.8,26,2
560109000038,WY-0204000-0204001,5601090,WY-0204000,KG,5,Laura Irwin Elementary,Big Horn County School District #4,Big Horn County,P.O. Box 151,Basin,WY,82410,151,(307)568-2488,43,Rural: Remote,No,No,Yes,No,109,12.88,8.5,35,18
560198000116,WY-1101000-1101021,5601980,WY-1101000,PK,2,Lebhart Elementary,Laramie County School District #1,Laramie County,807 Coolidge Street,Cheyenne,WY,82001,6201,(307)771-2614,13,City: Small,No,No,Yes,Yes,106,9.95,10.7,33,23
560509000275,WY-1601000-1601003,5605090,WY-1601000,KG,2,Libbey Elementary,Platte County School District #1,Platte County,1350 Oak Street,Wheatland,WY,82201,2234,(307)322-3836,33,Town: Remote,No,No,Yes,Yes,211,22.65,9.3,60,16
560299000464,WY-0801000-0801007,5602990,WY-0801000,KG,2,Lincoln Elementary,Goshen County School District #1,Goshen County,1402 East P Street,Torrington,WY,82240,,(307)532-4003,33,Town: Remote,No,No,Yes,Yes,271,23.59,11.5,100,35
560451000249,WY-1301000-1301016,5604510,WY-1301000,PK,5,Lincoln Elementary School,Natrona County School District #1,Natrona County,945 North Jane Street,Casper,WY,82601,1200,(307)253-4100,13,City: Small,No,No,Yes,Yes,458,33.32,13.7,283,49
560576200399,WY-1902000-1902050,5605762,WY-1902000,6,8,Lincoln Middle School,Sweetwater County School District #2,Sweetwater County,350 Monroe Avenue,Green River,WY,82935,,(307)872-4400,33,Town: Remote,No,No,–,–,597,43.33,13.8,126,70
560299000172,WY-0801000-0801005,5602990,WY-0801000,KG,5,Lingle-Ft. Laramie Elementary,Goshen County School District #1,Goshen County,P.O. Box 379,Lingle,WY,82223,379,(307)837-2254,42,Rural: Distant,No,No,Yes,Yes,120,10.25,11.7,31,23
560299000167,WY-0801000-0801058,5602990,WY-0801000,9,12,Lingle-Ft. Laramie High School,Goshen County School District #1,Goshen County,P.O. Box 379,Lingle,WY,82223,379,(307)837-2296,42,Rural: Distant,No,No,–,–,77,9.88,7.8,14,13
560299000373,WY-0801000-0801050,5602990,WY-0801000,6,8,Lingle-Ft. Laramie Middle School,Goshen County School District #1,Goshen County,P.O. Box 379,Lingle,WY,82223,379,(307)837-2296,42,Rural: Distant,No,No,–,–,74,5.48,13.5,14,13
560147000068,WY-0301000-0301010,5601470,WY-0301000,KG,8,Little Powder Elementary,Campbell County School District #1,Campbell County,P.O. Box 100,Weston,WY,82731,,(307)682-2725,43,Rural: Remote,No,No,–,–,36,4.63,7.8,–,–
560103000124,WY-0401000-0401049,5601030,WY-0401000,KG,12,Little Snake River Valley School,Carbon County School District #1,Carbon County,P.O. Box 9,Baggs,WY,82321,9,(307)383-2185,41,Rural: Fringe,No,No,–,–,188,20.2,9.3,37,17
560146000056,WY-0202000-0202001,5601460,WY-0202000,KG,5,Lovell Elementary,Big Horn County School District #2,Big Horn County,520 Shoshone,Lovell,WY,82431,,(307)548-2247,43,Rural: Remote,No,No,Yes,No,326,26,12.5,97,56
560146000054,WY-0202000-0202055,5601460,WY-0202000,9,12,Lovell High School,Big Horn County School District #2,Big Horn County,502 Hampshire Avenue,Lovell,WY,82431,,(307)548-2256,43,Rural: Remote,No,No,Yes,No,192,16.03,12,34,33
560146000055,WY-0202000-0202050,5601460,WY-0202000,6,8,Lovell Middle School,Big Horn County School District #2,Big Horn County,325 West 9th,Lovell,WY,82431,,(307)548-6553,43,Rural: Remote,No,No,Yes,No,179,14.16,12.6,44,26
560423000219,WY-1401000-1401004,5604230,WY-1401000,KG,5,Lusk Elementary,Niobrara County School District #1,Niobrara County,P.O. Box 1239,Lusk,WY,82225,1239,(307)334-2224,43,Rural: Remote,No,No,Yes,No,284,24.1,11.8,89,26
560423000215,WY-1401000-1401050,5604230,WY-1401000,6,8,Lusk Middle School,Niobrara County School District #1,Niobrara County,P.O. Box 1239,Lusk,WY,82225,1239,(307)334-2224,43,Rural: Remote,No,No,Yes,No,191,11.67,16.4,57,26
560426000222,WY-2106000-2106055,5604260,WY-2106000,9,12,Lyman High School,Uinta County School District #6,Uinta County,P.O. Box 1090,Lyman,WY,82937,1090,(307)786-4100,43,Rural: Remote,No,No,–,–,223,15.66,14.2,27,18
560426000357,WY-2106000-2106050,5604260,WY-2106000,5,8,Lyman Intermediate School,Uinta County School District #6,Uinta County,P.O. Box 1090,Lyman,WY,82937,1090,(307)786-4100,43,Rural: Remote,No,No,Yes,No,230,19.42,11.8,35,15
560451000245,WY-1301000-1301011,5604510,WY-1301000,KG,5,Manor Heights Elementary,Natrona County School District #1,Natrona County,3201 East 15th Street,Casper,WY,82609,3002,(307)253-1800,13,City: Small,No,No,–,–,317,23.07,13.7,102,33
560198000095,WY-1101000-1101052,5601980,WY-1101000,7,8,McCormick Junior High School,Laramie County School District #1,Laramie County,6000 Education Drive,Cheyenne,WY,82009,3991,(307)771-2650,13,City: Small,No,No,–,–,687,45.17,15.2,87,54
560576200329,WY-1902000-1902004,5605762,WY-1902000,KG,5,McKinnon Elementary,Sweetwater County School District #2,Sweetwater County,P.O. Box 1001,McKinnon,WY,82938,1001,(307)874-6199,43,Rural: Remote,No,No,Yes,No,19,2.2,8.6,8,2
568025500576,WY-1190000-1190001,5680255,WY-1190000,6,12,Meadowlark Academy,Right of Passage,Laramie County,3304 E I-80 Service Rd,Cheyenne,WY,82009,,(307)829-7355,41,Rural: Fringe,No,No,–,–,29,1,29,26,0
560569500397,WY-1702000-1702009,5605695,WY-1702000,KG,5,Meadowlark Elementary,Sheridan County School District #2,Sheridan County,1410 Desmet Avenue,Sheridan,WY,82801,,(307)672-3786,33,Town: Remote,No,No,–,–,331,23.2,14.3,62,39
560198000567,WY-1101000-1101032,5601980,WY-1101000,5,6,Meadowlark Elementary,Laramie County School District #1,Laramie County,6325 Chief Washakie Avenue,Cheyenne,WY,82009,,(307)771-2260,41,Rural: Fringe,No,No,–,–,552,30.24,18.3,97,48
560147000069,WY-0301000-0301011,5601470,WY-0301000,KG,6,Meadowlark Elementary,Campbell County School District #1,Campbell County,P.O. Box 3033,Gillette,WY,82717,3033,(307)682-4740,33,Town: Remote,No,No,Yes,Yes,266,19.9,13.4,103,31
560377000380,WY-1001000-1001006,5603770,WY-1001000,KG,2,Meadowlark Elementary,Johnson County School District #1,Johnson County,550 South Burritt Avenue,Buffalo,WY,82834,2149,(307)684-9518,33,Town: Remote,No,No,Yes,No,259,24.19,10.7,27,29
560170000087,WY-0402000-0402005,5601700,WY-0402000,KG,6,Medicine Bow Elementary,Carbon County School District #2,Carbon County,P.O. Box 185,Medicine Bow,WY,82329,185,(307)379-2345,43,Rural: Remote,No,No,–,–,8,2.28,3.5,†,†
560438000139,WY-1516000-1516049,5604380,WY-1516000,PK,12,Meeteetse School,Park County School District #16,Park County,P.O. Box 218,Meeteetse,WY,82433,218,(307)868-2501,43,Rural: Remote,No,No,Yes,No,116,16.65,7,39,16
560451000133,WY-1301000-1301049,5604510,WY-1301000,PK,12,Midwest School,Natrona County School District #1,Natrona County,P.O. Box 368,Midwest,WY,82643,368,(307)253-3500,43,Rural: Remote,No,No,Yes,Yes,146,17.51,8.3,82,22
560198000117,WY-1101000-1101022,5601980,WY-1101000,4,6,Miller Elementary,Laramie County School District #1,Laramie County,3501 Evans Avenue,Cheyenne,WY,82001,1470,(307)771-2376,13,City: Small,No,No,–,–,86,5.63,15.3,18,6
560576200582,WY-1902000-1902013,5605762,WY-1902000,KG,5,Monroe Elementary School,Sweetwater County School District #2,Sweetwater County,250 Monroe Avenue,Green River,WY,82935,,(307)872-4000,33,Town: Remote,No,No,–,–,330,25.75,12.8,56,35
560237000566,WY-0601000-0601056,5602370,WY-0601000,9,12,Moorcroft High School,Crook County School District #1,Crook County,P.O. Box 129,Moorcroft,WY,82721,129,(307)756-3446,43,Rural: Remote,No,No,–,–,154,15.52,9.9,31,20
560237000564,WY-0601000-0601008,5602370,WY-0601000,KG,8,Moorcroft K-8,Crook County School District #1,Crook County,P.O. Box 40,Moorcroft,WY,82721,,(307)756-3781,43,Rural: Remote,No,No,Yes,Yes,493,36.93,13.3,117,104
560583000340,WY-2001000-2001004,5605830,WY-2001000,KG,5,Moran Elementary,Teton County School District #1,Teton County,P.O. Box 568,Jackson,WY,83001,568,(307)543-2438,43,Rural: Remote,No,No,–,–,17,3.4,5,–,–
560214000130,WY-0501000-0501003,5602140,WY-0501000,KG,8,Moss Agate Elementary,Converse County School District #1,Converse County,615 Hamilton Street,Douglas,WY,82633,2615,(307)358-3221,43,Rural: Remote,No,No,–,–,18,1.4,12.9,–,–
560450000227,WY-2104000-2104055,5604500,WY-2104000,9,12,Mountain View High School,Uinta County School District #4,Uinta County,P.O. Box 130,Mountain View,WY,82939,130,(307)782-6340,43,Rural: Remote,No,No,–,–,260,19.78,13.1,21,11
560450000558,WY-2104000-2104020,5604500,WY-2104000,KG,8,Mountain View K-8,Uinta County School District #4,Uinta County,P.O. Box 130,Mountain View,WY,82939,130,(307)782-6202,43,Rural: Remote,No,No,Yes,No,579,47.96,12.1,92,34
560583000583,WY-2001000-2001011,5605830,WY-2001000,KG,5,Munger Mountain Elementary School,Teton County School District #1,Teton County,P.O. Box 568,Jackson,WY,83001,568,(307)733-3020,42,Rural: Distant,No,No,Yes,No,471,36,13.1,66,57
560451000231,WY-1301000-1301057,5604510,WY-1301000,9,12,Natrona County High School,Natrona County School District #1,Natrona County,930 South Elm,Casper,WY,82601,3603,(307)253-1700,13,City: Small,No,No,–,–,1684,110.36,15.3,446,166
560403000358,WY-1201000-1201056,5604030,WY-1201000,7,12,New Frontier High School,Lincoln County School District #1,Lincoln County,P.O. Box 335,Diamondville,WY,83116,335,(307)877-5819,33,Town: Remote,No,No,–,–,13,2,6.5,–,–
560483000265,WY-2301000-2301001,5604830,WY-2301000,3,5,Newcastle Elementary 3-5,Weston County School District #1,Weston County,116 Casper Avenue,Newcastle,WY,82701,2705,(307)746-2717,33,Town: Remote,No,No,Yes,Yes,178,16.46,10.8,29,22
560483000015,WY-2301000-2301003,5604830,WY-2301000,KG,2,Newcastle Elementary K-2,Weston County School District #1,Weston County,116 Casper Avenue,Newcastle,WY,82701,2705,(307)746-2717,33,Town: Remote,No,No,Yes,Yes,187,17.47,10.7,38,13
560483000263,WY-2301000-2301055,5604830,WY-2301000,9,12,Newcastle High School,Weston County School District #1,Weston County,116 Casper Avenue,Newcastle,WY,82701,2705,(307)746-2713,33,Town: Remote,No,No,–,–,242,21.15,11.4,29,18
560483000264,WY-2301000-2301050,5604830,WY-2301000,6,8,Newcastle Middle School,Weston County School District #1,Weston County,116 Casper Avenue,Newcastle,WY,82701,2705,(307)746-2746,33,Town: Remote,No,No,Yes,No,185,18.06,10.2,33,13
560423000214,WY-1401000-1401055,5604230,WY-1401000,9,12,Niobrara County High School,Niobrara County School District #1,Niobrara County,P.O. Box 1050,Lusk,WY,82225,1050,(307)334-3320,43,Rural: Remote,No,No,–,–,331,25.69,12.9,77,37
560001400225,WY-1770000-1770002,5600014,WY-1770000,6,12,Normative Services,Normative Services - Administration Office,Sheridan County,5 Lane Ln.,Sheridan,WY,82801,,(307)674-6878,41,Rural: Fringe,No,No,†,†,0,5,†,2,1
560276000433,WY-2101000-2101005,5602760,WY-2101000,KG,5,North Evanston Elementary,Uinta County School District #1,Uinta County,P.O. Box 6002,Evanston,WY,82931,6002,(307)789-7658,33,Town: Remote,No,No,Yes,Yes,304,27.25,11.2,112,46
560530200421,WY-1901000-1901013,5605302,WY-1901000,KG,4,Northpark Elementary,Sweetwater County School District #1,Sweetwater County,P.O. Box 1089,Rock Springs,WY,82902,1089,(307)352-3235,33,Town: Remote,No,No,Yes,Yes,282,25.06,11.3,88,11
560073000550,WY-0101000-0101032,5600730,WY-0101000,KG,8,Notch Peak Elementary,Albany County School District #1,Albany County,2616 Palmer Canyon Road,Wheatland,WY,82201,,(307)241-0034,43,Rural: Remote,No,No,–,–,1,1,1,†,†
560451000420,WY-1301000-1301031,5604510,WY-1301000,KG,5,Oregon Trail Elementary,Natrona County School District #1,Natrona County,6332 Buckboard Road,Casper,WY,82604,5402,(307)253-6200,13,City: Small,No,No,–,–,340,22.03,15.4,67,21
560406000404,WY-1202000-1202005,5604060,WY-1202000,4,6,Osmond Elementary,Lincoln County School District #2,Lincoln County,3120 State Highway 241,Afton,WY,83110,9763,(307)885-9457,43,Rural: Remote,No,No,Yes,Yes,381,23.18,16.4,77,46
560530200301,WY-1901000-1901006,5605302,WY-1901000,KG,4,Overland Elementary,Sweetwater County School District #1,Sweetwater County,P.O. Box 1089,Rock Springs,WY,82902,1089,(307)352-3260,33,Town: Remote,No,No,Yes,Yes,243,20.88,11.6,86,12
560147000435,WY-0301000-0301021,5601470,WY-0301000,KG,6,Paintbrush Elementary,Campbell County School District #1,Campbell County,P.O. Box 3033,Gillette,WY,82717,3033,(307)686-1778,33,Town: Remote,No,No,–,–,343,25.6,13.4,26,17
560451000250,WY-1301000-1301017,5604510,WY-1301000,KG,5,Paradise Valley Elementary,Natrona County School District #1,Natrona County,22 Magnolia,Casper,WY,82604,4037,(307)253-4584,13,City: Small,No,No,–,–,411,23.02,17.9,102,35
560451000251,WY-1301000-1301018,5604510,WY-1301000,KG,5,Park Elementary,Natrona County School District #1,Natrona County,140 West 9th Street,Casper,WY,82601,3774,(307)253-3200,13,City: Small,No,No,–,–,364,20.54,17.7,84,25
560516000281,WY-1501000-1501002,5605160,WY-1501000,KG,5,Parkside Elementary,Park County School District # 1,Park County,160 North Evarts,Powell,WY,82435,2730,(307)764-6182,33,Town: Remote,No,No,Yes,Yes,202,17.82,11.3,62,25
560287000154,WY-0701000-0701056,5602870,WY-0701000,9,12,Pathfinder High School,Fremont County School District # 1,Fremont County,863 Sweetwater Street,Lander,WY,82520,,(307)335-7050,33,Town: Remote,No,No,Yes,Yes,36,4.86,7.4,21,0
560509000573,WY-1601000-1601058,5605090,WY-1601000,9,12,Peak High School,Platte County School District #1,Platte County,1207 13th Street,Whetland,WY,82201,,(307)322-2075,33,Town: Remote,No,No,–,–,15,2,7.5,6,1
560530200296,WY-1901000-1901015,5605302,WY-1901000,5,6,Pilot Butte Elementary,Sweetwater County School District #1,Sweetwater County,P.O. Box 1089,Rock Springs,WY,82902,1089,(307)352-3464,33,Town: Remote,No,No,–,–,437,28.72,15.2,125,31
560412000213,WY-1102000-1102004,5604120,WY-1102000,KG,6,Pine Bluffs Elementary,Laramie County School District #2,Laramie County,P.O. Box 430,Pine Bluffs,WY,82082,430,(307)245-4070,43,Rural: Remote,No,No,Yes,No,157,13.45,11.7,38,33
560412000210,WY-1102000-1102057,5604120,WY-1102000,7,12,Pine Bluffs Jr & Sr High School,Laramie County School District #2,Laramie County,P.O. Box 520,Pine Bluffs,WY,82082,520,(307)245-4000,43,Rural: Remote,No,No,–,–,176,18.75,9.4,45,28
560486000270,WY-1801000-1801002,5604860,WY-1801000,KG,5,Pinedale Elementary,Sublette County School District #1,Sublette County,P.O. Box 549,Pinedale,WY,82941,549,(307)367-2828,43,Rural: Remote,No,No,Yes,No,511,37.25,13.7,43,35
560486000267,WY-1801000-1801055,5604860,WY-1801000,9,12,Pinedale High School,Sublette County School District #1,Sublette County,P.O. Box 549,Pinedale,WY,82941,549,(307)367-2137,43,Rural: Remote,No,No,–,–,305,19.55,15.6,20,7
560486000268,WY-1801000-1801050,5604860,WY-1801000,6,8,Pinedale Middle School,Sublette County School District #1,Sublette County,P.O. Box 549,Pinedale,WY,82941,549,(307)367-2821,43,Rural: Remote,No,No,–,–,268,19,14.1,31,15
560451000252,WY-1301000-1301019,5604510,WY-1301000,PK,5,Pineview Elementary,Natrona County School District #1,Natrona County,639 Payne Avenue,Casper,WY,82609,2647,(307)253-6000,13,City: Small,No,No,Yes,Yes,399,29.01,13.8,160,66
560198000118,WY-1101000-1101023,5601980,WY-1101000,KG,6,Pioneer Park Elementary,Laramie County School District #1,Laramie County,1407 Cosgriff Court,Cheyenne,WY,82001,2453,(307)771-2316,13,City: Small,No,No,–,–,425,26.46,16.1,109,38
560198000547,WY-1101000-1101040,5601980,WY-1101000,KG,5,PODER Academy,Laramie County School District #1,Laramie County,2201 Morrie Avenue,Cheyenne,WY,82001,,(307)632-2248,13,City: Small,Yes,No,Yes,Yes,166,8.22,20.2,48,25
560198000574,WY-1101000-1101045,5601980,WY-1101000,6,11,PODER Academy Secondary School,Laramie County School District #1,Laramie County,2201 Morrie Avenue,Cheyenne,WY,82001,,(307)632-2248,13,City: Small,Yes,No,Yes,No,79,6.61,12,21,14
560451000253,WY-1301000-1301020,5604510,WY-1301000,KG,8,Poison Spider Elementary,Natrona County School District #1,Natrona County,14200 Poison Spider Road,Casper,WY,82604,9502,(307)253-6900,42,Rural: Distant,No,No,–,–,191,14.02,13.6,57,19
568018000031,WY-0350000-0350002,5680180,WY-0350000,KG,12,Powder River Basin Children's Center,Northeast Wyoming BOCES,Campbell County,410 North Miller Avenue,Gillette,WY,82716,,(307)682-0231,33,Town: Remote,No,No,–,–,29,6,4.8,26,0
560516000278,WY-1501000-1501055,5605160,WY-1501000,9,12,Powell High School,Park County School District # 1,Park County,160 North Evarts,Powell,WY,82435,2730,(307)764-6181,33,Town: Remote,No,No,Yes,No,548,33.12,16.5,101,51
560516000279,WY-1501000-1501050,5605160,WY-1501000,6,8,Powell Middle School,Park County School District # 1,Park County,160 North Evarts,Powell,WY,82435,2730,(307)764-6185,33,Town: Remote,No,No,Yes,Yes,459,31.83,14.4,128,50
560198000563,WY-1101000-1101031,5601980,WY-1101000,KG,6,Prairie Wind Elementary,Laramie County School District #1,Laramie County,11400 Yellowstone Road,Cheyenne,WY,82009,,(307)771-2340,41,Rural: Fringe,No,No,–,–,443,27.51,16.1,36,27
560147000349,WY-0301000-0301017,5601470,WY-0301000,KG,6,Prairie Wind Elementary,Campbell County School District #1,Campbell County,P.O. Box 3033,Gillette,WY,82717,3033,(307)682-7289,33,Town: Remote,No,No,–,–,367,29.6,12.4,73,17
560147000019,WY-0301000-0301024,5601470,WY-0301000,KG,6,Pronghorn Elementary,Campbell County School District #1,Campbell County,P.O. Box 3033,Gillette,WY,82717,3033,(307)682-1676,33,Town: Remote,No,No,–,–,428,30.6,14,59,21
560331000185,WY-0901000-0901004,5603310,WY-0901000,PK,4,Ralph Witters Elementary,Hot Springs County School District #1,Hot Springs County,415 Springview,Thermopolis,WY,82443,,(307)864-6561,33,Town: Remote,No,No,Yes,Yes,227,20.75,10.9,70,30
560147000071,WY-0301000-0301013,5601470,WY-0301000,KG,6,Rawhide Elementary,Campbell County School District #1,Campbell County,P.O. Box 3033,Gillette,WY,82717,3033,(307)682-0774,42,Rural: Distant,No,No,Yes,Yes,255,22.5,11.3,106,34
560103000541,WY-0401000-0401008,5601030,WY-0401000,PK,5,Rawlins Elementary,Carbon County School District #1,Carbon County,615 Rodeo,Rawlins,WY,82301,,(307)328-7900,33,Town: Remote,No,No,Yes,Yes,711,60.46,11.8,231,61
560103000026,WY-0401000-0401056,5601030,WY-0401000,9,12,Rawlins High School,Carbon County School District #1,Carbon County,615 Rodeo,Rawlins,WY,82301,160,(307)328-9280,33,Town: Remote,No,No,–,–,437,25.84,16.9,118,32
560103000028,WY-0401000-0401050,5601030,WY-0401000,6,8,Rawlins Middle School,Carbon County School District #1,Carbon County,615 Rodeo,Rawlins,WY,82301,4498,(307)328-9205,33,Town: Remote,No,No,Yes,Yes,373,27.52,13.6,109,51
560147000072,WY-0301000-0301014,5601470,WY-0301000,KG,8,Recluse School,Campbell County School District #1,Campbell County,P.O. Box 3033,Gillette,WY,82717,3033,(307)682-9612,43,Rural: Remote,No,No,Yes,No,10,3.43,2.9,5,0
560451000469,WY-1301000-1301022,5604510,WY-1301000,KG,5,Red Creek Elementary,Natrona County School District #1,Natrona County,15651 Highway 487,Casper,WY,82604,9604,(307)473-1224,42,Rural: Distant,No,No,–,–,9,1,9,–,–
560001500243,WY-2070000-2070002,5600015,WY-2070000,6,12,Red Top Meadows,Red Top Meadows - Administration Office,Teton County,P.O. Box 290,Wilson,WY,83014,290,(307)733-9098,42,Rural: Distant,No,No,–,–,7,3.75,1.9,†,†
560522000220,WY-0725000-0725007,5605220,WY-0725000,4,5,Rendezvous Elementary,Fremont County School District #25,Fremont County,121 North 5th Street West,Riverton,WY,82501,,(307)857-7070,33,Town: Remote,No,No,Yes,Yes,394,27.1,14.5,178,25
560109000036,WY-0204000-0204055,5601090,WY-0204000,6,12,Riverside Middle/High School,Big Horn County School District #4,Big Horn County,P.O. Box 151,Basin,WY,82410,151,(307)568-2416,43,Rural: Remote,No,No,Yes,No,145,19.01,7.6,53,21
560522000286,WY-0725000-0725056,5605220,WY-0725000,9,12,Riverton High School,Fremont County School District #25,Fremont County,121 North 5th Street West,Riverton,WY,82501,,(307)856-9491,33,Town: Remote,No,No,–,–,676,44.87,15.1,222,21
560522000287,WY-0725000-0725050,5605220,WY-0725000,6,8,Riverton Middle School,Fremont County School District #25,Fremont County,121 North 5th Street West,Riverton,WY,82501,,(307)856-9443,33,Town: Remote,No,No,–,–,581,39.13,14.8,243,32
560073000453,WY-0101000-0101015,5600730,WY-0101000,PK,6,Rock River Elementary,Albany County School District #1,Albany County,P.O. Box 128,Rock River,WY,82083,128,(307)378-2271,43,Rural: Remote,No,No,Yes,No,35,7.09,4.9,10,8
560073000003,WY-0101000-0101056,5600730,WY-0101000,9,12,Rock River High School,Albany County School District #1,Albany County,P.O. Box 128,Rock River,WY,82083,128,(307)378-2271,43,Rural: Remote,No,No,–,–,30,5.27,5.7,5,2
560073000017,WY-0101000-0101051,5600730,WY-0101000,7,8,Rock River Junior High School,Albany County School District #1,Albany County,P.O. Box 128,Rock River,WY,82083,128,(307)378-2271,43,Rural: Remote,No,No,–,–,19,3.6,5.3,4,4
560530200294,WY-1901000-1901056,5605302,WY-1901000,9,12,Rock Springs High School,Sweetwater County School District #1,Sweetwater County,P.O. Box 1089,Rock Springs,WY,82902,1089,(307)352-3440,33,Town: Remote,No,No,–,–,1362,77.63,17.5,391,83
560530200295,WY-1901000-1901050,5605302,WY-1901000,7,8,Rock Springs Junior High,Sweetwater County School District #1,Sweetwater County,P.O. Box 1089,Rock Springs,WY,82902,1089,(307)352-3474,33,Town: Remote,No,No,–,–,874,54.96,15.9,305,61
560142000365,WY-0201000-0201004,5601420,WY-0201000,PK,5,Rocky Mountain Elementary,Big Horn County School District #1,Big Horn County,P.O. Box 38,Cowley,WY,82420,38,(307)548-2211,43,Rural: Remote,No,No,Yes,Yes,305,20.83,14.6,79,32
560142000046,WY-0201000-0201056,5601420,WY-0201000,9,12,Rocky Mountain High School,Big Horn County School District #1,Big Horn County,P.O. Box 280,Cowley,WY,82420,280,(307)548-2723,43,Rural: Remote,No,No,Yes,Yes,313,19.11,16.4,51,35
560142000428,WY-0201000-0201051,5601420,WY-0201000,6,8,Rocky Mountain Middle School,Big Horn County School District #1,Big Horn County,P.O. Box 280,Cowley,WY,82420,280,(307)548-2723,43,Rural: Remote,No,No,Yes,Yes,222,12.71,17.5,42,29
560451000256,WY-1301000-1301058,5604510,WY-1301000,9,12,Roosevelt High School,Natrona County School District #1,Natrona County,3000 Independence Court,Casper,WY,82604,,(307)253-1400,13,City: Small,No,No,–,–,241,18.79,12.8,132,31
560198000119,WY-1101000-1101024,5601980,WY-1101000,PK,6,Rossman Elementary,Laramie County School District #1,Laramie County,916 West College Drive,Cheyenne,WY,82007,3364,(307)771-2544,13,City: Small,No,No,Yes,Yes,342,25.69,13.3,195,42
560147000073,WY-0301000-0301015,5601470,WY-0301000,KG,6,Rozet Elementary,Campbell County School District #1,Campbell County,P.O. Box 200,Rozet,WY,82727,200,(307)682-3133,43,Rural: Remote,No,No,–,–,300,23.9,12.6,61,28
560198000426,WY-1101000-1101030,5601980,WY-1101000,KG,6,Saddle Ridge Elementary,Laramie County School District #1,Laramie County,6815 Wilderness Trail,Cheyenne,WY,82001,2877,(307)771-2360,41,Rural: Fringe,No,No,–,–,360,25.48,14.1,32,21
560530200427,WY-1901000-1901016,5605302,WY-1901000,KG,4,Sage Elementary,Sweetwater County School District #1,Sweetwater County,P.O. Box 1089,Rock Springs,WY,82902,1089,(307)352-3270,33,Town: Remote,No,No,–,–,301,23.93,12.6,50,8
560147000410,WY-0301000-0301051,5601470,WY-0301000,7,8,Sage Valley Junior High School,Campbell County School District #1,Campbell County,P.O. Box 3033,Gillette,WY,82717,3033,(307)682-2225,33,Town: Remote,No,No,–,–,631,42.8,14.7,124,40
560569500474,WY-1702000-1702010,5605695,WY-1702000,KG,5,Sagebrush Elementary,Sheridan County School District #2,Sheridan County,1685 Hillpond Drive,Sheridan,WY,82801,2113,(307)672-9059,33,Town: Remote,No,No,Yes,No,307,26.08,11.8,98,41
560451000444,WY-1301000-1301009,5604510,WY-1301000,PK,5,Sagewood Elementary,Natrona County School District #1,Natrona County,2451 Shattuck Avenue,Casper,WY,82601,5059,(307)253-3300,13,City: Small,No,No,Yes,No,353,20.11,17.6,114,35
560001000156,WY-0870000-0870001,5600010,WY-0870000,KG,12,Saint Joseph's Children's Home,Saint Joseph's Children's Home - Administration Office,Goshen County,PO Box 1117,Torrington,WY,82240,1117,(307)532-4197,33,Town: Remote,No,No,–,–,44,9,4.9,41,0
568025400549,WY-0741000-0740000,5680254,WY-0741000,KG,12,Saint Stephen's Indian School,Saint Stephen's Indian School Admin Office,Fremont County,P.O. Box 345,St. Stephens,WY,82524,345,(307)856-4147,41,Rural: Fringe,No,No,–,–,240,20.46,11.7,–,–
560170000088,WY-0402000-0402006,5601700,WY-0402000,KG,6,Saratoga Elementary,Carbon County School District #2,Carbon County,P.O. Box 1590,Saratoga,WY,82331,1590,(307)326-8365,43,Rural: Remote,No,No,Yes,No,179,15,11.9,46,18
560170000390,WY-0402000-0402059,5601700,WY-0402000,7,12,Saratoga Middle/High School,Carbon County School District #2,Carbon County,P.O. Box 1710,Saratoga,WY,82331,1710,(307)326-5246,43,Rural: Remote,No,No,–,–,124,14.75,8.4,28,8
560214000132,WY-0501000-0501006,5602140,WY-0501000,KG,8,Shawnee Elementary,Converse County School District #1,Converse County,615 Hamilton Street,Douglas,WY,82633,2615,(307)358-3278,43,Rural: Remote,No,No,–,–,14,3.4,4.1,3,0
560569500360,WY-1702000-1702057,5605695,WY-1702000,9,12,Sheridan High School,Sheridan County School District #2,Sheridan County,1056 Long Drive,Sheridan,WY,82801,6701,(307)672-2495,33,Town: Remote,No,No,–,–,956,64.03,14.9,170,83
560569500361,WY-1702000-1702050,5605695,WY-1702000,6,8,Sheridan Junior High School,Sheridan County School District #2,Sheridan County,500 Lewis Street,Sheridan,WY,82801,4310,(307)672-9745,33,Town: Remote,No,No,Yes,No,832,57.4,14.5,186,73
560516000196,WY-1501000-1501056,5605160,WY-1501000,9,12,Shoshone Learning Center,Park County School District # 1,Park County,160 North Evarts,Powell,WY,82435,2730,(307)764-6187,33,Town: Remote,No,No,Yes,No,21,0.2,105,7,1
560570000362,WY-0724000-0724001,5605700,WY-0724000,PK,6,Shoshoni Elementary,Fremont County School District #24,Fremont County,404 Wrangler Way,Shoshoni,WY,82649,,(307)876-2563,43,Rural: Remote,No,No,Yes,No,221,19.06,11.6,53,21
560570000323,WY-0724000-0724055,5605700,WY-0724000,9,12,Shoshoni High School,Fremont County School District #24,Fremont County,404 Wrangler Way,Shoshoni,WY,82649,,(307)876-2576,43,Rural: Remote,No,No,Yes,No,104,10.28,10.1,21,7
560570000510,WY-0724000-0724050,5605700,WY-0724000,7,8,Shoshoni Junior High School,Fremont County School District #24,Fremont County,404 Wrangler Way,Shoshoni,WY,82649,,(307)876-2576,43,Rural: Remote,No,No,Yes,No,67,5.28,12.7,13,8
560486000559,WY-1801000-1801056,5604860,WY-1801000,9,12,Skyline High School,Sublette County School District #1,Sublette County,P.O. Box 549,Pinedale,WY,82941,,(307)367-5408,43,Rural: Remote,No,No,–,–,22,3,7.3,1,3
560569000472,WY-1701000-1701002,5605690,WY-1701000,KG,5,Slack Elementary,Sheridan County School District #1,Sheridan County,P.O. Box 849,Ranchester,WY,82839,849,(307)655-2206,42,Rural: Distant,No,No,–,–,18,1,18,3,0
560073000020,WY-0101000-0101017,5600730,WY-0101000,PK,5,Slade Elementary,Albany County School District #1,Albany County,1212 Baker,Laramie,WY,82070,,(307)721-4446,33,Town: Remote,No,No,Yes,No,268,25.75,10.4,61,14
560073000216,WY-0101000-0101001,5600730,WY-0101000,KG,8,Snowy Range Academy,Albany County School District #1,Albany County,4037 Grand Avenue,Laramie,WY,82070,,(307)745-9930,41,Rural: Fringe,Yes,No,–,–,216,21.46,10.1,11,6
560198000448,WY-1101000-1101058,5601980,WY-1101000,9,12,South High School,Laramie County School District #1,Laramie County,1213 West Allison Road,Cheyenne,WY,82007,2752,(307)771-2410,13,City: Small,No,No,–,–,1179,77.96,15.1,485,149
560624000578,WY-2201000-2201005,5606240,WY-2201000,2,3,South Side Elementary,Washakie County School District #1,Washakie County,1229 Howell Avenue,Worland,WY,82401,,(307)347-3306,33,Town: Remote,No,No,Yes,Yes,157,18.16,8.6,60,25
560299000171,WY-0801000-0801002,5602990,WY-0801000,KG,6,Southeast Elementary,Goshen County School District #1,Goshen County,P.O. Box 160,Yoder,WY,82244,97,(307)532-3679,43,Rural: Remote,No,No,Yes,Yes,114,9.24,12.3,18,18
560299000483,WY-0801000-0801055,5602990,WY-0801000,9,12,Southeast High School,Goshen County School District #1,Goshen County,P.O. Box 160,Yoder,WY,82244,97,(307)532-7176,43,Rural: Remote,No,No,–,–,91,9.6,9.5,12,8
560299000482,WY-0801000-0801051,5602990,WY-0801000,7,8,Southeast Junior High School,Goshen County School District #1,Goshen County,P.O. Box 160,Yoder,WY,82244,160,(307)532-7176,43,Rural: Remote,No,No,–,–,40,5.1,7.8,7,4
560451000257,WY-1301000-1301023,5604510,WY-1301000,KG,5,Southridge Elementary,Natrona County School District #1,Natrona County,1600 West 29th Street,Casper,WY,82604,4767,(307)253-1900,13,City: Small,No,No,–,–,343,21.02,16.3,49,33
560516000282,WY-1501000-1501003,5605160,WY-1501000,KG,5,Southside Elementary,Park County School District # 1,Park County,160 North Evarts,Powell,WY,82435,2730,(307)764-6183,41,Rural: Fringe,No,No,Yes,Yes,304,24.59,12.4,104,50
560073000006,WY-0101000-0101027,5600730,WY-0101000,KG,5,Spring Creek Elementary,Albany County School District #1,Albany County,1203 Russell,Laramie,WY,82070,4682,(307)721-4410,33,Town: Remote,No,No,Yes,Yes,343,29.85,11.5,68,20
560530200565,WY-1901000-1901018,5605302,WY-1901000,KG,4,Stagecoach Elementary,Sweetwater County School District #1,Sweetwater County,P.O. Box 1089,Rock Springs,WY,82902,,(307)352-3265,33,Town: Remote,No,No,Yes,Yes,307,25.2,12.2,95,12
560406000202,WY-1202000-1202056,5604060,WY-1202000,9,12,Star Valley High School,Lincoln County School District #2,Lincoln County,444 West Swift Creek Lane,Afton,WY,83110,,(307)885-7847,43,Rural: Remote,No,No,–,–,740,44.11,16.8,111,94
560406000203,WY-1202000-1202051,5604060,WY-1202000,7,8,Star Valley Middle School,Lincoln County School District #2,Lincoln County,999 Warrior Way,Afton,WY,83110,,(307)885-5208,43,Rural: Remote,No,No,–,–,399,23.05,17.3,63,62
560147000568,WY-0301000-0301026,5601470,WY-0301000,PK,6,Stocktrail Elementary,Campbell County School District #1,Campbell County,P.O. Box 3033,Gillette,WY,82718,3033,(307)686-8215,33,Town: Remote,No,No,–,–,324,24.5,13.2,52,16
560569500320,WY-1702000-1702005,5605695,WY-1702000,KG,5,Story Elementary,Sheridan County School District #2,Sheridan County,P.O. Box 129,Story,WY,82842,129,(307)683-2316,43,Rural: Remote,No,No,–,–,28,2.28,12.3,7,3
560451000451,WY-1301000-1301039,5604510,WY-1301000,KG,5,Summit Elementary School,Natrona County School District #1,Natrona County,2210 Waterford Street,Casper,WY,82609,7300,(307)253-3000,13,City: Small,No,No,–,–,449,27.02,16.6,57,11
560583000512,WY-2001000-2001056,5605830,WY-2001000,9,12,Summit Innovations School,Teton County School District #1,Teton County,P.O. Box 568,Jackson,WY,83001,,(307)733-9116,33,Town: Remote,No,No,–,–,49,6.5,7.5,16,4
560237000150,WY-0601000-0601007,5602370,WY-0601000,KG,6,Sundance Elementary,Crook County School District #1,Crook County,P.O. Box 870,Sundance,WY,82729,870,(307)283-1227,43,Rural: Remote,No,No,–,–,200,19.34,10.3,45,17
560237000405,WY-0601000-0601048,5602370,WY-0601000,7,12,Sundance Secondary School,Crook County School District #1,Crook County,P.O. Box 850,Sundance,WY,82729,850,(307)283-1007,43,Rural: Remote,No,No,–,–,183,18.61,9.8,35,12
560147000436,WY-0301000-0301023,5601470,WY-0301000,KG,6,Sunflower Elementary,Campbell County School District #1,Campbell County,P.O. Box 3033,Gillette,WY,82717,3033,(307)686-0631,33,Town: Remote,No,No,Yes,Yes,359,27.6,13,109,22
560198000396,WY-1101000-1101029,5601980,WY-1101000,KG,6,Sunrise Elementary,Laramie County School District #1,Laramie County,5021 East 13th Street,Cheyenne,WY,82001,6822,(307)771-2280,13,City: Small,No,No,Yes,No,374,27.03,13.8,158,50
560207000521,WY-1506000-1506002,5602070,WY-1506000,KG,5,Sunset Elementary,Park County School District # 6,Park County,919 Cody Avenue,Cody,WY,82414,4412,(307)587-4279,33,Town: Remote,No,No,Yes,Yes,304,29.6,10.3,61,21
560406000193,WY-1202000-1202057,5604060,WY-1202000,9,12,Swift Creek High School,Lincoln County School District #2,Lincoln County,222 East 4th Avenue,Afton,WY,83110,,(307)885-7139,43,Rural: Remote,No,No,–,–,57,6.25,9.1,22,8
560582000393,WY-2202000-2202049,5605820,WY-2202000,PK,12,Ten Sleep K-12,Washakie County School District #2,Washakie County,P.O. Box 105,Ten Sleep,WY,82442,105,(307)366-2233,43,Rural: Remote,No,No,–,–,108,15.5,7,33,8
560406000206,WY-1202000-1202003,5604060,WY-1202000,KG,3,Thayne Elementary,Lincoln County School District #2,Lincoln County,P.O. Box 520,Thayne,WY,83127,520,(307)885-2380,43,Rural: Remote,No,No,Yes,Yes,359,28.5,12.6,77,42
560569000554,WY-1701000-1701048,5605690,WY-1701000,6,12,The Bridge School,Sheridan County School District #1,Sheridan County,P.O. Box 408,Dayton,WY,82836,8283,(307)655-2236,43,Rural: Remote,No,No,–,–,1,0,†,†,†
560569500140,WY-1702000-1702052,5605695,WY-1702000,6,8,The Wright Place,Sheridan County School District #2,Sheridan County,500 Lewis St,Sheridan,WY,82801,,(307)673-8730,33,Town: Remote,No,No,Yes,Yes,17,2.2,7.7,8,5
560331000181,WY-0901000-0901050,5603310,WY-0901000,5,8,Thermopolis Middle School,Hot Springs County School District #1,Hot Springs County,415 Springview,Thermopolis,WY,82443,,(307)864-6551,33,Town: Remote,No,No,–,–,210,16.83,12.5,63,28
560576200528,WY-1902000-1902006,5605762,WY-1902000,KG,8,Thoman Ranch Elementary,Sweetwater County School District #2,Sweetwater County,38622 State Highway 372,Kemmerer,WY,83101,,(307)877-3426,43,Rural: Remote,No,No,–,–,2,1,2,†,†
560147000580,WY-0301000-0301059,5601470,WY-0301000,9,12,Thunder Basin High School,Campbell County School District #1,Campbell County,P.O. Box 3033,Gillette,WY,82717,,(307)687-7733,33,Town: Remote,No,No,–,–,1099,64.75,17,156,91
560569000314,WY-1701000-1701003,5605690,WY-1701000,KG,5,Tongue River Elementary,Sheridan County School District #1,Sheridan County,P.O. Box 849,Ranchester,WY,82839,849,(307)655-2206,42,Rural: Distant,No,No,Yes,No,233,19,12.3,59,25
560569000312,WY-1701000-1701056,5605690,WY-1701000,9,12,Tongue River High School,Sheridan County School District #1,Sheridan County,P.O. Box 408,Dayton,WY,82836,408,(307)655-2236,43,Rural: Remote,No,No,–,–,149,12.6,11.8,26,10
560569000447,WY-1701000-1701051,5605690,WY-1701000,6,8,Tongue River Middle School,Sheridan County School District #1,Sheridan County,P.O. Box 879,Ranchester,WY,82839,879,(307)655-9533,43,Rural: Remote,No,No,–,–,154,8.8,17.5,36,12
560299000168,WY-0801000-0801059,5602990,WY-0801000,9,12,Torrington High School,Goshen County School District #1,Goshen County,2400 West C Street,Torrington,WY,82240,,(307)532-7101,33,Town: Remote,No,No,–,–,342,28.51,12,90,34
560299000169,WY-0801000-0801052,5602990,WY-0801000,6,8,Torrington Middle School,Goshen County School District #1,Goshen County,2742 West E Street,Torrington,WY,82240,1899,(307)532-7014,33,Town: Remote,No,No,–,–,264,23.25,11.4,102,36
560299000488,WY-0801000-0801006,5602990,WY-0801000,3,5,Trail Elementary,Goshen County School District #1,Goshen County,1601 East M Street,Torrington,WY,82240,3509,(307)532-5429,33,Town: Remote,No,No,Yes,Yes,248,22.59,11,97,35
560198000092,WY-1101000-1101057,5601980,WY-1101000,7,12,Triumph High School,Laramie County School District #1,Laramie County,1250 West College Drive,Cheyenne,WY,82007,,(307)771-2500,13,City: Small,No,No,–,–,196,20.3,9.7,98,25
560576200425,WY-1902000-1902011,5605762,WY-1902000,KG,5,Truman Elementary,Sweetwater County School District #2,Sweetwater County,1055 West Teton Boulevard,Green River,WY,82935,5681,(307)872-1900,33,Town: Remote,No,No,Yes,Yes,336,27.25,12.3,96,39
560147000058,WY-0301000-0301050,5601470,WY-0301000,7,8,Twin Spruce Junior High School,Campbell County School District #1,Campbell County,P.O. Box 3033,Gillette,WY,82717,3033,(307)682-3144,33,Town: Remote,No,No,–,–,667,45.42,14.7,208,69
560276000414,WY-2101000-2101004,5602760,WY-2101000,KG,5,Uinta Meadows Elementary,Uinta County School District #1,Uinta County,P.O. Box 6002,Evanston,WY,82931,6002,(307)789-8098,33,Town: Remote,No,No,Yes,Yes,475,33,14.4,118,64
560609000363,WY-2307000-2307001,5606090,WY-2307000,KG,5,Upton Elementary,Weston County School District #7,Weston County,P.O. Box 470,Upton,WY,82730,470,(307)468-9331,43,Rural: Remote,No,No,Yes,No,103,9.96,10.3,33,11
560609000401,WY-2307000-2307055,5606090,WY-2307000,9,12,Upton High School,Weston County School District #7,Weston County,P.O. Box 470,Upton,WY,82730,470,(307)468-2361,43,Rural: Remote,No,No,–,–,70,12.6,5.6,18,11
560609000342,WY-2307000-2307050,5606090,WY-2307000,6,8,Upton Middle School,Weston County School District #7,Weston County,P.O. Box 470,Upton,WY,82730,470,(307)468-9331,43,Rural: Remote,No,No,–,–,50,5.35,9.3,11,5
560426000418,WY-2106000-2106002,5604260,WY-2106000,KG,4,Urie Elementary,Uinta County School District #6,Uinta County,P.O. Box 1090,Lyman,WY,82937,1090,(307)786-4100,43,Rural: Remote,No,No,Yes,No,274,21,13,34,25
560073000535,WY-0101000-0101030,5600730,WY-0101000,KG,8,UW Laboratory School,Albany County School District #1,Albany County,Dept 3374,Laramie,WY,82071,3374,(307)721-2155,33,Town: Remote,No,No,–,–,272,22.95,11.9,27,15
560207000430,WY-1506000-1506003,5602070,WY-1506000,KG,5,Valley Elementary,Park County School District # 6,Park County,919 Cody Avenue,Cody,WY,82414,,(307)587-4271,43,Rural: Remote,No,No,–,–,6,1.1,5.5,†,†
560073000025,WY-0101000-0101019,5600730,WY-0101000,KG,6,Valley View Elementary,Albany County School District #1,Albany County,16 Mandel Lane,Laramie,WY,82070,9722,(307)745-3793,43,Rural: Remote,No,No,–,–,4,1.32,3,†,†
560073000014,WY-0101000-0101020,5600730,WY-0101000,PK,5,Velma Linford Elementary,Albany County School District #1,Albany County,120 South Johnson,Laramie,WY,82070,6458,(307)721-4439,33,Town: Remote,No,No,Yes,Yes,302,31.5,9.6,105,12
560451000389,WY-1301000-1301025,5604510,WY-1301000,KG,5,Verda James Elementary,Natrona County School District #1,Natrona County,701 Carriage Lane,Casper,WY,82609,2433,(307)253-1100,13,City: Small,No,No,–,–,436,28.09,15.5,99,44
560147000076,WY-0301000-0301019,5601470,WY-0301000,KG,6,Wagonwheel Elementary,Campbell County School District #1,Campbell County,P.O. Box 3033,Gillette,WY,82717,3033,(307)686-1060,33,Town: Remote,No,No,Yes,Yes,316,22.7,13.9,98,34
560530200305,WY-1901000-1901010,5605302,WY-1901000,KG,4,Walnut Elementary,Sweetwater County School District #1,Sweetwater County,P.O. Box 1089,Rock Springs,WY,82902,1089,(307)352-3225,33,Town: Remote,No,No,Yes,No,311,22.24,14,82,14
560207000125,WY-1506000-1506004,5602070,WY-1506000,KG,5,Wapiti Elementary,Park County School District # 6,Park County,919 Cody Avenue,Cody,WY,82414,,(307)587-3947,43,Rural: Remote,No,No,–,–,20,2.1,9.5,3,0
560576200332,WY-1902000-1902007,5605762,WY-1902000,KG,5,Washington Elementary,Sweetwater County School District #2,Sweetwater County,750 West 5th North,Green River,WY,82935,4043,(307)872-2000,33,Town: Remote,No,No,Yes,No,198,17.35,11.4,47,31
560509000277,WY-1601000-1601005,5605090,WY-1601000,3,5,West Elementary,Platte County School District #1,Platte County,1350 Oak Street,Wheatland,WY,82201,,(307)322-4180,33,Town: Remote,No,No,Yes,Yes,194,18.15,10.7,58,18
560624000577,WY-2201000-2201006,5606240,WY-2201000,4,5,West Side Elementary,Washakie County School District #1,Washakie County,810 South 6th Street,Worland,WY,82401,,(307)347-4298,33,Town: Remote,No,No,Yes,Yes,167,14.16,11.8,53,21
560530200422,WY-1901000-1901014,5605302,WY-1901000,KG,4,Westridge Elementary,Sweetwater County School District #1,Sweetwater County,P.O. Box 1089,Rock Springs,WY,82902,1089,(307)352-3250,33,Town: Remote,No,No,Yes,Yes,333,26.67,12.5,92,31
560516000283,WY-1501000-1501004,5605160,WY-1501000,KG,5,Westside Elementary,Park County School District # 1,Park County,160 North Evarts,Powell,WY,82435,2730,(307)764-6184,33,Town: Remote,No,No,Yes,Yes,305,23.36,13.1,83,33
560147000479,WY-0301000-0301057,5601470,WY-0301000,9,12,Westwood High School,Campbell County School District #1,Campbell County,P.O. Box 3033,Gillette,WY,82717,3033,(307)682-9809,33,Town: Remote,No,No,–,–,168,18.85,8.9,76,5
560509000273,WY-1601000-1601057,5605090,WY-1601000,9,12,Wheatland High School,Platte County School District #1,Platte County,1350 Oak Street,Wheatland,WY,82201,2234,(307)322-2075,33,Town: Remote,No,No,–,–,268,24.86,10.8,55,22
560509000274,WY-1601000-1601050,5605090,WY-1601000,6,8,Wheatland Middle School,Platte County School District #1,Platte County,1350 Oak Street,Wheatland,WY,82201,2234,(307)322-1518,33,Town: Remote,No,No,–,–,233,18.4,12.7,59,23
560214000135,WY-0501000-0501011,5602140,WY-0501000,KG,8,White Elementary,Converse County School District #1,Converse County,615 Hamilton Street,Douglas,WY,82633,2615,(307)358-0842,43,Rural: Remote,No,No,–,–,12,2.4,5,3,0
560073000066,WY-0101000-0101057,5600730,WY-0101000,9,12,Whiting High School,Albany County School District #1,Albany County,801 South 24th Street,Laramie,WY,82070,,(307)721-4449,33,Town: Remote,No,No,–,–,50,9.9,5.1,47,0
560198000120,WY-1101000-1101025,5601980,WY-1101000,KG,6,Willadsen Elementary,Laramie County School District #1,Laramie County,645 Road 102,Granite Canyon,WY,82059,,(307)771-2295,42,Rural: Distant,No,No,–,–,3,1.14,2.6,†,†
560522000570,WY-0725000-0725010,5605220,WY-0725000,1,3,Willow Creek Elementary,Fremont County School District #25,Fremont County,121 North Fifth Street West,Riverton,WY,82501,,(307)856-6004,33,Town: Remote,No,No,Yes,Yes,184,18.5,9.9,81,6
560583000341,WY-2001000-2001005,5605830,WY-2001000,KG,5,Wilson Elementary,Teton County School District #1,Teton County,P.O. Box 568,Jackson,WY,83001,,(307)733-3077,42,Rural: Distant,No,No,–,–,212,16.34,13,2,11
560283000160,WY-0706000-0706002,5602830,WY-0706000,PK,5,Wind River Elementary,Fremont County School District # 6,Fremont County,P.O. Box 10,Pavillion,WY,82523,10,(307)856-7970,43,Rural: Remote,No,No,Yes,Yes,159,17.55,9.1,67,16
560283000544,WY-0706000-0706056,5602830,WY-0706000,9,12,Wind River High School,Fremont County School District # 6,Fremont County,P.O. Box 10,Pavillion,WY,82523,,(307)856-7970,43,Rural: Remote,No,No,–,–,128,12.25,10.4,41,14
560283000561,WY-0706000-0706057,5602830,WY-0706000,9,12,Wind River Learning Academy,Fremont County School District # 6,Fremont County,P.O. Box 10,Pavillion,WY,82523,,(307)856-7970,43,Rural: Remote,No,No,–,–,6,0.66,9.1,†,†
560283000545,WY-0706000-0706050,5602830,WY-0706000,6,8,Wind River Middle School,Fremont County School District # 6,Fremont County,P.O. Box 10,Pavillion,WY,82523,10,(307)856-7970,43,Rural: Remote,No,No,–,–,100,8.09,12.4,35,10
560569500322,WY-1702000-1702007,5605695,WY-1702000,KG,5,Woodland Park Elementary,Sheridan County School District #2,Sheridan County,1010 East Woodland Park Road,Sheridan,WY,82801,9123,(307)674-7937,41,Rural: Fringe,No,No,Yes,No,316,25.2,12.5,77,35
560451000262,WY-1301000-1301029,5604510,WY-1301000,KG,8,Woods Learning Center,Natrona County School District #1,Natrona County,500 South Walsh Drive,Casper,WY,82609,2381,(307)253-3900,13,City: Small,No,No,–,–,178,13.27,13.4,34,14
560624000343,WY-2201000-2201055,5606240,WY-2201000,9,12,Worland High School,Washakie County School District #1,Washakie County,801 South 17th Street,Worland,WY,82401,,(307)347-2412,33,Town: Remote,No,No,–,–,426,29.53,14.4,97,71
560624000344,WY-2201000-2201050,5606240,WY-2201000,6,8,Worland Middle School,Washakie County School District #1,Washakie County,2150 Howell Avenue,Worland,WY,82401,3520,(307)347-3233,33,Town: Remote,No,No,Yes,No,333,24.07,13.8,103,45
560147000429,WY-0301000-0301056,5601470,WY-0301000,7,12,Wright Jr. & Sr. High School,Campbell County School District #1,Campbell County,P.O. Box 490,Wright,WY,82732,490,(307)464-0140,43,Rural: Remote,No,No,–,–,192,18.98,10.1,40,10
568025300548,WY-1350000-1350015,5680253,WY-1350000,KG,12,Wyoming Behavioral Institute,Wyoming Behavioral Institute - Administration Office,Natrona County,2521 East 15th Street,Casper,WY,82609,,(800)457-9312,13,City: Small,No,No,†,†,0,4,†,2,1
568025100538,WY-7700049-7750001,5680251,WY-7700049,7,12,Wyoming Boys School,Wyoming Department of Family Services,Washakie County,1550 Highway 20 South,Worland,WY,82401,,(307)347-5377,42,Rural: Distant,No,No,–,–,74,7,10.6,–,–
568025100534,WY-7700049-7750003,5680251,WY-7700049,7,12,Wyoming Girls School,Wyoming Department of Family Services,Sheridan County,P.O. Box 868,Sheridan,WY,82801,,(307)674-7476,33,Town: Remote,No,No,–,–,42,9,4.7,39,0
560445000226,WY-0714000-0714001,5604450,WY-0714000,PK,5,Wyoming Indian Elementary,Fremont County School District #14,Fremont County,638 Blue Sky Highway,Ethete,WY,82520,340,(307)332-2053,42,Rural: Distant,No,No,Yes,Yes,352,31.5,11.2,349,0
560445000441,WY-0714000-0714055,5604450,WY-0714000,9,12,Wyoming Indian High School,Fremont County School District #14,Fremont County,638 Blue Sky Highway,Ethete,WY,82520,340,(307)332-9765,43,Rural: Remote,No,No,Yes,Yes,157,16.5,9.5,154,0
560445000386,WY-0714000-0714050,5604450,WY-0714000,6,8,Wyoming Indian Middle School,Fremont County School District #14,Fremont County,638 Blue Sky Highway,Ethete,WY,82520,340,(307)332-2992,43,Rural: Remote,No,No,Yes,Yes,153,15,10.2,150,0
568025200350,WY-0370000-0370002,5680252,WY-0370000,7,12,Youth Emergency Services Inc.,Youth Emergency Services Inc. - Administration Office,Campbell County,905 N. Gurley Ave,Gillette,WY,82716,,(307)686-0669,41,Rural: Fringe,No,No,–,–,34,7,4.9,27,2
