NCES School ID,State School ID,NCES District ID,State District ID,Low Grade*,High Grade*,School Name,District,County Name*,Street Address,City,State,ZIP,ZIP 4-digit,Phone,Locale Code*,Locale*,Charter,Magnet*,Title I School*,Title 1 School Wide*,Students*,Teachers*,Student Teacher Ratio*,Free Lunch*,Reduced Lunch*
590009200041,BI-D53S02-D53S02,5900092,BI-D53S02,KG,12,Ahfachkee Day School,Ahfachkee Day School,Hendry County,30290 Josie Billie Hwy PMB 1005,Clewiston,FL,33440,,(863)983-6348,43,Rural: Remote,†,No,Yes,Yes,177,35,5.1,177,–
590004600023,BI-D34N27-D34N27,5900046,BI-D34N27,KG,12,Alamo Navajo Community School,Alamo Navajo Community School,Socorro County,PO Box 5907,Alamo,NM,87825,,(575)854-2635,43,Rural: Remote,†,No,Yes,Yes,356,44,8.1,356,–
590007000113,BI-D06A02-D06A02,5900070,BI-D06A02,KG,8,American Horse Elem.,American Horse Elem.,Bennett County,PO Box 660,Allen,SD,57714,,(605)455-1209,43,Rural: Remote,†,No,Yes,Yes,312,73,4.3,312,–
590009400139,BI-D32N02-D32N02,5900094,BI-D32N02,KG,6,Aneth Community School,Aneth Community School,San Juan County,PO Box 600,Montezuma Creek,UT,84534,,(435)651-3271,43,Rural: Remote,†,No,Yes,Yes,144,11,13.1,144,–
590014700140,BI-D32N17-D32N17,5900147,BI-D32N17,KG,6,Atsa Biyaazh Community School,Atsa Biyaazh Community School,San Juan County,PO Box 1809,Shiprock,NM,87420,,(505)368-2202,32,Town: Distant,†,No,Yes,Yes,270,27,10,270,–
590008700024,BI-D34N02-D34N02,5900087,BI-D34N02,KG,6,Baca/Dlo'ay Azhi Community School,Baca/Dlo'ay Azhi Community School,McKinley County,PO Box 509,Prewitt,NM,87045,,(505)972-2769,43,Rural: Remote,†,No,Yes,Yes,314,44,7.1,314,–
590013700042,BI-D56S02-D56S02,5900137,BI-D56S02,KG,8,Beatrice Rafferty School,Beatrice Rafferty School,Washington County,22 Bayview Drive Pleasant Point,Perry,ME,4667,,(207)853-6085,43,Rural: Remote,†,No,Yes,Yes,116,33,3.5,116,–
590018800142,BI-D32N04-D32N04,5900188,BI-D32N04,KG,4,Beclabito Day School,Beclabito Day School,San Juan County,PO Box 1200,Shiprock,NM,87420,,(928)656-3555,43,Rural: Remote,†,No,Yes,Yes,55,6,9.2,55,–
590010200008,BI-D35N23-D35N23,5900102,BI-D35N23,KG,8,Black Mesa Community School,Black Mesa Community School,Navajo County,PO Box 97,Pinon,AZ,86510,,(928)674-3632,43,Rural: Remote,†,No,Yes,Yes,63,7,9,63,–
590014200109,BI-D57H12-D57H12,5900142,BI-D57H12,KG,5,Blackwater Community School,Blackwater Community School,Pinal County,3652 E Blackwater School Road,Coolidge,AZ,85128,,(520)215-5859,42,Rural: Distant,†,No,Yes,Yes,327,44,7.4,327,–
590019400043,BI-D78S21-D78S21,5900194,BI-D78S21,KG,8,Bogue Chitto Elementary School,Bogue Chitto Elementary School,Neshoba County,13241 HWY 491 NORTH,Philadelphia,MS,39350,,(601)389-1000,42,Rural: Distant,†,No,Yes,Yes,280,25,11.2,280,–
590015500027,BI-D34N03-D34N03,5900155,BI-D34N03,KG,8,Borrego Pass,Borrego Pass,McKinley County,PO Box 679,Crownpoint,NM,87313,,(505)786-5237,43,Rural: Remote,†,No,Yes,Yes,153,24,6.4,153,–
590013800025,BI-D34N04-D34N04,5900138,BI-D34N04,KG,3,Bread Springs Day School,Bread Springs Day School,McKinley County,PO Box 1117,Gallup,NM,87305,,(505)778-5665,42,Rural: Distant,†,No,Yes,Yes,117,8,14.6,117,–
590016600081,BI-D53F13-D53F13,5900166,BI-D53F13,KG,12,Bug-O-Nay-Ge-Shig,Bug-O-Nay-Ge-Shig,Cass County,15353 Silver Eagle Dr NW,Bena,MN,56626,,(218)665-3000,43,Rural: Remote,†,No,Yes,Yes,132,26,5.1,132,–
590018600110,BI-D57H13-D57H13,5900186,BI-D57H13,KG,4,Casa Blanca Community School,Casa Blanca Community School,Pinal County,PO Box 10940,Bapchule,AZ,85121,,(520)315-3489,42,Rural: Distant,†,No,Yes,Yes,243,39,6.2,243,–
590004800061,BI-D36N03-D36N03,5900048,BI-D36N03,KG,8,Ch'ooshgai Community School,Ch'ooshgai Community School,McKinley County,PO Box 321,Tohatchi,NM,87325,,(505)733-2700,43,Rural: Remote,†,No,Yes,Yes,357,88,4.1,357,–
590016400120,BI-D02P02-D02P02,5900164,BI-D02P02,9,12,Chemawa Indian School,Chemawa Indian School,Marion County,3700 Chemawa Rd NE,Salem,OR,97305,,(503)399-5721,12,City: Midsize,†,No,Yes,Yes,428,32,13.4,428,–
590006600044,BI-D52S04-D52S04,5900066,BI-D52S04,KG,5,Cherokee Central Elementary School,Cherokee Central Elementary School,Swain County,PO Box 134,Cherokee,NC,28719,,(828)554-5020,42,Rural: Distant,†,No,Yes,Yes,547,148,3.7,547,–
590010100045,BI-D52S03-D52S03,5900101,BI-D52S03,6,12,Cherokee Central High School,Cherokee Central High School,Swain County,PO Box 134,Cherokee,NC,28719,,(828)554-5030,42,Rural: Distant,†,No,Yes,Yes,586,125,4.7,586,–
590005100004,BI-D01A12-D01A12,5900051,BI-D01A12,KG,12,Cheyenne-Eagle Butte School,Cheyenne-Eagle Butte School,Dewey County,PO Box 672,Eagle Butte,SD,57625,,(605)964-8777,33,Town: Remote,†,No,Yes,Yes,897,96,9.3,897,–
590017900026,BI-D34N05-D34N05,5900179,BI-D34N05,KG,8,Chi Chil'tah Comm School,Chi Chil'tah Comm School,McKinley County,831 Cousins Rd,Vanderwagen,NM,87326,,(505)778-5574,43,Rural: Remote,†,No,Yes,Yes,127,13,9.8,127,–
590003600121,BI-D10P15-D10P15,5900036,BI-D10P15,KG,12,Chief Leschi School,Chief Leschi School,Pierce County,5625 52nd Street East,Puyallup,WA,98371,,(253)445-6000,21,Suburb: Large,†,No,Yes,Yes,634,74,8.6,634,–
590005200175,BI-D33N02-D33N02,5900052,BI-D33N02,KG,8,Chilchinbeto Community School,Chilchinbeto Community School,Navajo County,Post Office Box 740,Kayenta,AZ,86033,,(928)697-3800,43,Rural: Remote,†,No,Yes,Yes,126,14,9,126,–
590014600046,BI-D50S09-D50S09,5900146,BI-D50S09,KG,8,Chitimacha Tribal School,Chitimacha Tribal School,St. Mary Parish,3613 Chitimacha Trail,Jeanerette,LA,70544,,(337)923-9960,32,Town: Distant,†,No,Yes,Yes,107,17,6.3,107,–
590003100047,BI-D78S23-D78S23,5900031,BI-D78S23,9,12,Choctaw Central High School,Choctaw Central High School,Neshoba County,150 Recreation Rd,Choctaw,MS,39350,,(601)663-7777,33,Town: Remote,†,No,Yes,Yes,566,54,10.5,566,–
590007800048,BI-D78S24-D78S24,5900078,BI-D78S24,7,8,Choctaw Central Middle School,Choctaw Central Middle School,Neshoba County,150 Recreation Rd,Choctaw,MS,39350,,(601)663-7777,33,Town: Remote,†,No,Yes,Yes,212,16,13.3,212,–
590003800082,BI-D53F14-D53F14,5900038,BI-D53F14,KG,12,Circle of Life Academy,Circle of Life Academy,Becker County,PO Box 447,White Earth,MN,56591,,(218)983-4180,43,Rural: Remote,†,No,Yes,Yes,248,34,7.3,248,–
590009500083,BI-D80F02-D80F02,5900095,BI-D80F02,4,8,Circle of Nations,Circle of Nations,Richland County,832 8th Street North,Wahpeton,ND,58075,,(701)642-3796,32,Town: Distant,†,No,Yes,Yes,131,49,2.7,131,–
590007100122,BI-D05P02-D05P02,5900071,BI-D05P02,KG,8,Coeur d' Alene Tribal School,Coeur d' Alene Tribal School,Benewah County,PO Box 338,Desmet,ID,83824,,(208)686-5808,43,Rural: Remote,†,No,Yes,Yes,116,32,3.6,116,–
590011100050,BI-D78S22-D78S22,5900111,BI-D78S22,KG,8,Conehatta Elementary School,Conehatta Elementary School,Newton County,851 TUSHKA DRIVE,Conehatta,MS,39057,,(601)775-8254,43,Rural: Remote,†,No,Yes,Yes,238,23,10.3,238,–
590003200010,BI-D35N04-D35N04,5900032,BI-D35N04,KG,8,Cottonwood Day School,Cottonwood Day School,Apache County,Navajo Route 4,Chinle,AZ,86503,,(928)725-3235,43,Rural: Remote,†,No,Yes,Yes,190,14,13.6,190,–
590006500143,BI-D32N05-D32N05,5900065,BI-D32N05,KG,6,Cove Day School,Cove Day School,Apache County,PO Box 2000,Red Valley,AZ,86544,,(928)653-4457,43,Rural: Remote,†,No,Yes,Yes,40,4,10,40,–
590011300114,BI-D06A23-D06A23,5900113,BI-D06A23,KG,12,Crazy Horse School,Crazy Horse School,Jackson County,PO Box 260,Wanblee,SD,57577,,(605)462-6792,43,Rural: Remote,†,No,Yes,Yes,365,23,15.9,365,–
590007300019,BI-D14A04-D14A04,5900073,BI-D14A04,6,12,Crow Creek Reservation High School,Crow Creek Reservation High School,Hyde County,103 Chieftain Road,Stephan,SD,57346,,(605)852-2455,43,Rural: Remote,†,No,Yes,Yes,275,45,6.1,275,–
590011800018,BI-D14A02-D14A02,5900118,BI-D14A02,KG,5,Crow Creek Sioux Tribal Elem School,Crow Creek Sioux Tribal Elem School,Hyde County,101 Crow Creek Loop,Stephan,SD,57346,,(605)852-2455,43,Rural: Remote,†,No,Yes,Yes,213,18,11.8,213,–
590009800062,BI-D36N05-D36N05,5900098,BI-D36N05,KG,6,Crystal Boarding School,Crystal Boarding School,San Juan County,PO Box 1288,Navajo,NM,87328,,(505)777-2592,43,Rural: Remote,†,No,Yes,Yes,133,6,22.2,133,–
590009900176,BI-D33N04-D33N04,5900099,BI-D33N04,KG,8,Dennehotso Boarding School,Dennehotso Boarding School,Apache County,PO Box 2570,Dennehotso,AZ,86535,,(928)658-3202,43,Rural: Remote,†,No,Yes,Yes,186,12,15.5,186,–
590013900063,BI-D36N06-D36N06,5900139,BI-D36N06,KG,8,Dilcon Community School,Dilcon Community School,Navajo County,HC 63 Box G,Winslow,AZ,86047,,(928)657-3211,43,Rural: Remote,†,No,Yes,Yes,198,15,13.2,198,–
590014500058,BI-D52H11-D52H11,5900145,BI-D52H11,KG,12,Dishchii'bikoh Community School,Dishchii'bikoh Community School,Navajo County,PO Box 80068,Cibecue,AZ,85911,,(928)332-2444,43,Rural: Remote,†,No,Yes,Yes,558,62,9,558,–
590015300135,BI-D61J03-D61J03,5900153,BI-D61J03,KG,8,Duckwater Shoshone Elementary School,Duckwater Shoshone Elementary School,Nye County,509 Duckwater Falls Rd,Duckwater,NV,89314,,(775)863-0126,43,Rural: Remote,†,No,Yes,Yes,14,2,7,14,–
590014900166,BI-D11A02-D11A02,5900149,BI-D11A02,KG,8,Dunseith Day School,Dunseith Day School,Rolette County,PO Box 759,Dunseith,ND,58329,,(701)263-4636,43,Rural: Remote,†,No,Yes,Yes,276,36,7.7,276,–
590003300029,BI-D34N24-D34N24,5900033,BI-D34N24,KG,8,Dzilth-Na-O-Dith-Hle Community School,Dzilth-Na-O-Dith-Hle Community School,San Juan County,35 Road 7585 # 5003,Bloomfield,NM,87413,,(505)960-0356,42,Rural: Distant,†,No,Yes,Yes,172,23,7.5,172,–
590015400020,BI-D09A03-D09A03,5900154,BI-D09A03,KG,8,Enemy Swim Day School,Enemy Swim Day School,Day County,13525 446th Avenue,Waubay,SD,57273,,(605)947-4605,43,Rural: Remote,†,No,Yes,Yes,161,30,5.4,161,–
590012100078,BI-D65H11-D65H11,5900121,BI-D65H11,KG,6,First Mesa Elementary School,First Mesa Elementary School,Navajo County,PO Box 750,Polacca,AZ,86042,,(928)737-2581,43,Rural: Remote,†,No,Yes,Yes,149,11,13.5,149,–
590002700084,BI-D70A02-D70A02,5900027,BI-D70A02,9,12,Flandreau Indian Boarding School,Flandreau Indian Boarding School,Moody County,1132 N Crescent Street,Flandreau,SD,57028,,(605)997-3773,43,Rural: Remote,†,No,Yes,Yes,332,17,19.5,332,–
590013500085,BI-D53F15-D53F15,5900135,BI-D53F15,KG,12,Fond du Lac Ojibwe School,Fond du Lac Ojibwe School,Carlton County,49 University Road,Cloquet,MN,55720,,(218)878-7242,41,Rural: Fringe,†,No,Yes,Yes,142,34,4.2,142,–
590019200111,BI-D57H14-D57H14,5900192,BI-D57H14,KG,8,Gila Crossing Community School,Gila Crossing Community School,Maricopa County,4665 W Pecos Road,Laveen,AZ,85339,,(520)550-4834,41,Rural: Fringe,†,No,Yes,Yes,480,56,8.6,480,–
590018200064,BI-D36N08-D36N08,5900182,BI-D36N08,KG,8,Greasewood Springs Community School Inc,Greasewood Springs Community School Inc,Navajo County,HC 58 Box 60,Ganado,AZ,86505,,(928)654-3331,43,Rural: Remote,†,No,Yes,Yes,191,30,6.4,191,–
590013300178,BI-D33N22-D33N22,5900133,BI-D33N22,9,12,Greyhills Academy High School,Greyhills Academy High School,Coconino County,PO Box 160,Tuba City,AZ,86045,,(928)283-6271,33,Town: Remote,†,No,Yes,Yes,275,22,12.5,275,–
590007400030,BI-D34N06-D34N06,5900074,BI-D34N06,KG,KG,Hanaa'dli Community School,Hanaa'dli Community School,San Juan County,P.O. Box 639,Bloomfield,NM,87413,,(505)960-3411,42,Rural: Distant,†,No,Yes,Yes,7,4,1.8,†,†
590018700086,BI-D60F07-D60F07,5900187,BI-D60F07,KG,12,Hannahville Indian School,Hannahville Indian School,Menominee County,N14911 Hannahville B-1 Rd,Wilson,MI,49896,,(906)466-2952,43,Rural: Remote,†,No,Yes,Yes,156,24,6.5,156,–
590016500072,BI-D65H23-D65H23,5900165,BI-D65H23,KG,8,Havasupai Elementary School,Havasupai Elementary School,Coconino County,PO Box 40,Supai,AZ,86435,,(928)448-2901,43,Rural: Remote,†,No,Yes,Yes,65,8,8.1,65,–
590002900073,BI-D65H13-D65H13,5900029,BI-D65H13,KG,6,Hopi Day School,Hopi Day School,Navajo County,PO Box 42,Kykotsmovi,AZ,86039,,(928)734-2468,43,Rural: Remote,†,No,Yes,Yes,138,12,11.5,138,–
590007200074,BI-D65H22-D65H22,5900072,BI-D65H22,7,12,Hopi Jr/Sr High School,Hopi Jr/Sr High School,Navajo County,PO Box 337,Keams Canyon,AZ,86034,,(928)738-5111,43,Rural: Remote,†,No,Yes,Yes,511,49,10.4,511,–
590013100075,BI-D65H14-D65H14,5900131,BI-D65H14,KG,8,Hotevilla Bacavi Community School,Hotevilla Bacavi Community School,Navajo County,PO Box 48,Hotevilla,AZ,86030,,(928)734-2462,43,Rural: Remote,†,No,Yes,Yes,131,14,9.4,131,–
590004900066,BI-D36N11-D36N11,5900049,BI-D36N11,KG,5,Hunters Point Boarding School,Hunters Point Boarding School,Apache County,PO Drawer 99,St. Michaels,AZ,86511,,(928)871-4439,42,Rural: Distant,†,No,Yes,Yes,179,13,13.8,179,–
590016000051,BI-D57S02-D57S02,5900160,BI-D57S02,KG,8,Indian Island School,Indian Island School,Penobscot County,10 Wabanaki Way,Indian Island,ME,4468,,(207)827-4285,23,Suburb: Small,†,No,Yes,Yes,76,25,3,76,–
590004200052,BI-D55S02-D55S02,5900042,BI-D55S02,KG,8,Indian Township School,Indian Township School,Washington County,13 School Drive,Princeton,ME,4668,,(207)796-2362,43,Rural: Remote,†,No,Yes,Yes,97,23,4.2,97,–
590008100152,BI-D20M04-D20M04,5900081,BI-D20M04,KG,6,Isleta Elementary School,Isleta Elementary School,Bernalillo County,1000 Moonlight Drive,Albuquerque,NM,87105,,(505)869-2321,21,Suburb: Large,†,No,Yes,Yes,116,23,5,116,–
590007900011,BI-D35N06-D35N06,5900079,BI-D35N06,KG,5,Jeehdeez'a Elementary School,Jeehdeez'a Elementary School,Navajo County,PO Box 1073,Pinon,AZ,86510,,(928)725-3308,43,Rural: Remote,†,No,Yes,Yes,142,6,23.7,142,–
590014000153,BI-D20M05-D20M05,5900140,BI-D20M05,KG,6,Jemez Day School,Jemez Day School,Sandoval County,PO Box 139,Jemez Pueblo,NM,87024,,(575)834-7304,42,Rural: Distant,†,No,Yes,Yes,156,10,15.6,156,–
590005400080,BI-D60F02-D60F02,5900054,BI-D60F02,KG,11,JKL Bahweting Anishnabe School,JKL Bahweting Anishnabe School,Chippewa County,1301 Marquette Avenue,Sault Ste. Marie,MI,49783,,(906)635-5055,41,Rural: Fringe,†,No,Yes,Yes,352,71,5,352,–
590007600059,BI-D52H12-D52H12,5900076,BI-D52H12,KG,8,John F. Kennedy Day School,John F. Kennedy Day School,Gila County,PO Box 130,Whiteriver,AZ,85941,,(928)338-4593,43,Rural: Remote,†,No,Yes,Yes,194,14,13.9,194,–
590020000201,BI-D09B02-D09B02,5900200,BI-D09B02,1,6,Jones Academy,Jones Academy,Pittsburg County,HCR 74 Box 102-5,Hartshorne,OK,74547,,(888)767-2518,42,Rural: Distant,†,No,Yes,Yes,68,13,5.2,68,–
590018000179,BI-D33N07-D33N07,5900180,BI-D33N07,KG,8,Kaibeto Boarding School,Kaibeto Boarding School,Coconino County,PO Box 1420,Kaibeto,AZ,86053,,(928)673-3480,43,Rural: Remote,†,No,Yes,Yes,261,14,18.6,261,–
590006300180,BI-D33N08-D33N08,5900063,BI-D33N08,KG,8,Kayenta Boarding School,Kayenta Boarding School,Navajo County,PO Box 188,Kayenta,AZ,86033,,(928)697-3439,33,Town: Remote,†,No,Yes,Yes,387,25,15.5,387,–
590017500076,BI-D65H21-D65H21,5900175,BI-D65H21,KG,6,Keams Canyon Elementary School,Keams Canyon Elementary School,Navajo County,PO Box 397,Keams Canyon,AZ,86034,,(928)738-2385,43,Rural: Remote,†,No,Yes,Yes,123,11,11.2,123,–
590006900095,BI-D25M16-D25M16,5900069,BI-D25M16,KG,6,Kha'p'o Community School,Kha'p'o Community School,Rio Arriba County,625 Kee Street,Espanola,NM,87532,,(505)753-4406,32,Town: Distant,†,No,Yes,Yes,117,44,2.7,117,–
590010300102,BI-D04B06-D04B06,5900103,BI-D04B06,KG,12,Kickapoo Nation School,Kickapoo Nation School,Brown County,PO Box 106,Powhattan,KS,66527,,(785)474-3365,42,Rural: Distant,†,No,Yes,Yes,39,10,3.9,39,–
590010900067,BI-D36N14-D36N14,5900109,BI-D36N14,KG,6,Kin Dah Lichi'i Olta,Kin Dah Lichi'i Olta,Apache County,PO Box 800,Ganado,AZ,86505,,(928)755-3439,43,Rural: Remote,†,No,Yes,Yes,130,14,9.3,130,–
590010400087,BI-D55F14-D55F14,5900104,BI-D55F14,KG,12,Lac Courte Oreilles Ojibwa School,Lac Courte Oreilles Ojibwa School,Sawyer County,8575 N Trepania Rd,Hayward,WI,54843,,(715)634-8924,42,Rural: Distant,†,No,Yes,Yes,283,61,4.6,283,–
590018400154,BI-D21M02-D21M02,5900184,BI-D21M02,KG,5,Laguna Elementary School,Laguna Elementary School,Cibola County,PO Box 191,Laguna,NM,87026,,(505)552-9200,43,Rural: Remote,†,No,Yes,Yes,253,30,8.4,253,–
590005000155,BI-D21M03-D21M03,5900050,BI-D21M03,6,8,Laguna Middle School,Laguna Middle School,Cibola County,PO Box 268,Laguna,NM,87026,,(505)552-9091,43,Rural: Remote,†,No,Yes,Yes,114,14,8.1,114,–
590012500031,BI-D34N10-D34N10,5900125,BI-D34N10,KG,8,Lake Valley Navajo School,Lake Valley Navajo School,San Juan County,PO Box 748,Crownpoint,NM,87313,,(505)786-5392,43,Rural: Remote,†,No,Yes,Yes,57,4,14.3,57,–
590011000181,BI-D33N09-D33N09,5900110,BI-D33N09,KG,12,Leupp School Inc.,Leupp School Inc.,Coconino County,HC 61 Box D,Winslow,AZ,86047,,(928)686-6211,43,Rural: Remote,†,No,Yes,Yes,127,17,7.5,127,–
590015900182,BI-D33N24-D33N24,5900159,BI-D33N24,KG,6,Little Singer Community School,Little Singer Community School,Navajo County,PO Box AQ,Winslow,AZ,86047,,(928)686-6108,43,Rural: Remote,†,No,Yes,Yes,99,9,11,99,–
590017300115,BI-D06A05-D06A05,5900173,BI-D06A05,KG,12,Little Wound School,Little Wound School,Oglala Lakota County,PO Box 500,Kyle,SD,57752,,(605)455-6150,43,Rural: Remote,†,No,Yes,Yes,928,61,15.2,928,–
590004500116,BI-D06A13-D06A13,5900045,BI-D06A13,KG,8,Loneman Day School,Loneman Day School,Oglala Lakota County,PO Box 50,Oglala,SD,57764,,(605)867-6875,43,Rural: Remote,†,No,Yes,Yes,273,26,10.5,273,–
590008500021,BI-D15A02-D15A02,5900085,BI-D15A02,KG,12,Lower Brule Day School,Lower Brule Day School,Lyman County,227 BIA #10,Lower Brule,SD,57548,,(605)473-5382,43,Rural: Remote,†,No,Yes,Yes,322,45,7.2,322,–
590011200012,BI-D35N07-D35N07,5900112,BI-D35N07,KG,8,Lukachukai Community School,Lukachukai Community School,Apache County,Navajo Route 13,Lukachukai,AZ,86507,,(928)787-4400,43,Rural: Remote,†,No,Yes,Yes,362,34,10.6,362,–
590017600124,BI-D10P14-D10P14,5900176,BI-D10P14,KG,8,LUMMI ELEMENTARY SCHOOL,LUMMI ELEMENTARY SCHOOL,Whatcom County,2334 Lummi View Drive,Bellingham,WA,98226,,(360)758-4300,42,Rural: Distant,†,No,Yes,Yes,234,42,5.6,234,–
590011500123,BI-D10P17-D10P17,5900115,BI-D10P17,9,12,LUMMI HIGH SCHOOL,LUMMI HIGH SCHOOL,Whatcom County,2334 Lummi View Drive,Bellingham,WA,98226,,(360)758-4300,42,Rural: Distant,†,No,Yes,Yes,108,10,10.8,108,–
590018900167,BI-D11A13-D11A13,5900189,BI-D11A13,KG,12,Mandaree Day School,Mandaree Day School,McKenzie County,PO Box 488,Mandaree,ND,58757,,(701)759-3311,43,Rural: Remote,†,No,Yes,Yes,231,24,9.6,231,–
590014800009,BI-D35N20-D35N20,5900148,BI-D35N20,KG,8,Many Farms Community School,Many Farms Community School,Apache County,PO Box 70,Many Farms,AZ,86538,,(928)781-6221,43,Rural: Remote,†,No,Yes,Yes,337,25,13.5,337,–
590016100013,BI-D35N21-D35N21,5900161,BI-D35N21,9,12,Many Farms High School,Many Farms High School,Apache County,Box 307,Many Farms,AZ,86538,,(928)781-6226,43,Rural: Remote,†,No,Yes,Yes,337,27,12.5,337,–
590016700032,BI-D34N12-D34N12,5900167,BI-D34N12,KG,6,Mariano Lake Community School,Mariano Lake Community School,McKinley County,PO Box 787,Crownpoint,NM,87313,,(505)786-5219,43,Rural: Remote,†,No,Yes,Yes,160,12,13.3,160,–
590005500132,BI-D07A12-D07A12,5900055,BI-D07A12,KG,12,Marty Indian School,Marty Indian School,Charles Mix County,100 South Main,Marty,SD,57361,,(605)384-2212,43,Rural: Remote,†,No,Yes,Yes,270,44,6.1,270,–
590014400088,BI-D58F04-D58F04,5900144,BI-D58F04,KG,8,Menominee Tribal School,Menominee Tribal School,Menominee County,PO Box 39,Neopit,WI,54150,,(715)756-2354,43,Rural: Remote,†,No,Yes,Yes,204,27,7.6,204,–
590009300156,BI-D20M30-D20M30,5900093,BI-D20M30,KG,12,Mescalero Apache School,Mescalero Apache School,Otero County,249 White Mountain Drive,Mescalero,NM,88340,,(575)464-4431,42,Rural: Distant,†,No,Yes,Yes,610,83,7.3,610,–
590019600091,BI-D51F02-D51F02,5900196,BI-D51F02,KG,12,Meskwaki Settlement School,Meskwaki Settlement School,Tama County,1608 305th St,Tama,IA,52339,,(641)484-9000,41,Rural: Fringe,†,No,Yes,Yes,88,61,1.4,88,–
590009000053,BI-D54S02-D54S02,5900090,BI-D54S02,KG,12,Miccosukee Indian School,Miccosukee Indian School,Miami-Dade County,PO Box 440021 Tamiami Station,Miami,FL,33144,,(305)894-2364,42,Rural: Distant,†,No,Yes,Yes,164,44,3.7,164,–
590004000077,BI-D65H15-D65H15,5900040,BI-D65H15,KG,6,Moencopi Day School,Moencopi Day School,Coconino County,PO Box 185,Tuba City,AZ,86045,,(928)283-5361,33,Town: Remote,†,No,Yes,Yes,80,8,10,80,–
590004700125,BI-D10P16-D10P16,5900047,BI-D10P16,KG,12,Muckleshoot Tribal School,Muckleshoot Tribal School,King County,39015 172nd Ave SE,Auburn,WA,98092,,(253)931-6709,41,Rural: Fringe,†,No,Yes,Yes,492,66,7.5,492,–
590004400033,BI-D34N18-D34N18,5900044,BI-D34N18,KG,8,Na' Neelzhiin Ji'Olta,Na' Neelzhiin Ji'Olta,Sandoval County,HCR 79 Box 9,Cuba,NM,87013,,(505)731-2272,43,Rural: Remote,†,No,Yes,Yes,220,20,11,220,–
590002600183,BI-D33N11-D33N11,5900026,BI-D33N11,KG,8,Naa Tsis'aan Community School,Naa Tsis'aan Community School,San Juan County,PO Box 10010,Tonalea,AZ,86044,,(928)672-2335,43,Rural: Remote,†,No,Yes,Yes,92,17,5.4,92,–
590011600144,BI-D32N20-D32N20,5900116,BI-D32N20,9,12,Navajo Preparatory School,Navajo Preparatory School,San Juan County,1220 West Apache Street,Farmington,NM,87401,,(505)326-6571,13,City: Small,†,No,Yes,Yes,261,24,10.9,261,–
590006400089,BI-D53F18-D53F18,5900064,BI-D53F18,KG,12,Nay-Ah-Shing School,Nay-Ah-Shing School,Mille Lacs County,43651 Oodena Drive,Onamia,MN,56359,,(320)532-4695,43,Rural: Remote,†,No,Yes,Yes,152,42,3.6,152,–
590004300014,BI-D35N09-D35N09,5900043,BI-D35N09,KG,6,Nazlini Community School,Nazlini Community School,Apache County,HC 58 Box 35,Ganado,AZ,86505,,(928)755-6125,43,Rural: Remote,†,No,Yes,Yes,114,31,3.7,114,–
590015700145,BI-D32N06-D32N06,5900157,BI-D32N06,KG,6,Nenahnezad Community School,Nenahnezad Community School,San Juan County,PO Box 337,Fruitland,NM,87416,,(505)960-6922,41,Rural: Fringe,†,No,Yes,Yes,207,13,15.9,207,–
590019700136,BI-D54J02-D54J02,5900197,BI-D54J02,6,12,Noli School,Noli School,Riverside County,PO Box 700,San Jacinto,CA,92581,,(951)654-5596,41,Rural: Fringe,†,No,Yes,Yes,131,30,4.4,131,–
590004100002,BI-D57C04-D57C04,5900041,BI-D57C04,KG,12,Northern Cheyenne Tribal School,Northern Cheyenne Tribal School,Big Horn County,PO Box 150,Busby,MT,59016,,(406)592-3646,43,Rural: Remote,†,No,Yes,Yes,247,25,9.9,247,–
590012600148,BI-D32N15-D32N15,5900126,BI-D32N15,6,12,Northwest High School,Northwest High School,San Juan County,PO Box 1809,Shiprock,NM,87420,,(505)368-2157,32,Town: Distant,†,No,Yes,Yes,194,21,9.2,194,–
590016200093,BI-D25M14-D25M14,5900162,BI-D25M14,KG,6,Ohkay Owingeh Community School,Ohkay Owingeh Community School,Rio Arriba County,PO Box 1077,Ohkay Owingeh,NM,87566,,(505)852-2154,32,Town: Distant,†,No,Yes,Yes,84,20,4.2,84,–
590006800168,BI-D11A08-D11A08,5900068,BI-D11A08,KG,8,Ojibwa Indian School,Ojibwa Indian School,Rolette County,PO Box 600,Belcourt,ND,58316,,(701)477-3108,43,Rural: Remote,†,No,Yes,Yes,299,37,8.1,299,–
590008400034,BI-D34N13-D34N13,5900084,BI-D34N13,KG,8,Ojo Encino Day School,Ojo Encino Day School,Sandoval County,HCR 79 Box 7,Cuba,NM,87013,,(505)731-2333,43,Rural: Remote,†,No,Yes,Yes,179,10,17.9,179,–
590011400090,BI-D55F15-D55F15,5900114,BI-D55F15,KG,12,Oneida Nation School,Oneida Nation School,Outagamie County,N7125 Seminary Road,Oneida,WI,54155,,(920)869-1676,41,Rural: Fringe,†,No,Yes,Yes,461,79,5.8,461,–
590008300126,BI-D03P02-D03P02,5900083,BI-D03P02,KG,8,Paschal Sherman Indian School,Paschal Sherman Indian School,Okanogan County,169 North End Omak Lake Road,Omak,WA,98841,,(509)422-7590,42,Rural: Distant,†,No,Yes,Yes,140,26,5.4,140,–
590012300054,BI-D78S25-D78S25,5900123,BI-D78S25,KG,6,Pearl River Elementary School,Pearl River Elementary School,Neshoba County,470 INDUSTRIAL ROAD,Choctaw,MS,39350,,(601)656-9051,41,Rural: Fringe,†,No,Yes,Yes,630,45,14,630,–
590010700005,BI-D01A14-D01A14,5900107,BI-D01A14,1,8,Pierre Indian Learning Center,Pierre Indian Learning Center,Hughes County,3001 East Sully Avenue,Pierre,SD,57501,,(605)224-8661,41,Rural: Fringe,†,No,Yes,Yes,188,54,3.5,188,–
590010800157,BI-D20M29-D20M29,5900108,BI-D20M29,KG,12,Pine Hill Schools,Pine Hill Schools,Cibola County,PO Box 220,Pine Hill,NM,87357,,(505)775-3244,43,Rural: Remote,†,No,Yes,Yes,332,40,8.3,332,–
590008000117,BI-D06A16-D06A16,5900080,BI-D06A16,KG,12,Pine Ridge School,Pine Ridge School,Oglala Lakota County,PO Box 1202,Pine Ridge,SD,57770,,(605)867-5198,41,Rural: Fringe,†,No,Yes,Yes,1018,80,12.7,1018,–
590015200068,BI-D36N18-D36N18,5900152,BI-D36N18,KG,4,Pine Springs Day School,Pine Springs Day School,Apache County,PO Box 4198,Houck,AZ,86506,,(928)871-4311,43,Rural: Remote,†,No,Yes,Yes,69,5,13.8,69,–
590008800015,BI-D35N10-D35N10,5900088,BI-D35N10,KG,KG,Pinon Community School,Pinon Community School,Navajo County,P.O. Box 159,Pinon,AZ,86510,,(928)725-3250,43,Rural: Remote,†,No,Yes,Yes,29,11,2.6,29,–
590012400118,BI-D06A18-D06A18,5900124,BI-D06A18,KG,8,Porcupine Day School,Porcupine Day School,Oglala Lakota County,PO Box 180,Porcupine,SD,57772,,(605)867-5588,43,Rural: Remote,†,No,Yes,Yes,172,19,9.1,172,–
590013600035,BI-D34N15-D34N15,5900136,BI-D34N15,KG,8,Pueblo Pintado Community School,Pueblo Pintado Community School,McKinley County,HCR 79 BOX 80,Cuba,NM,87013,,(505)655-3341,43,Rural: Remote,†,No,Yes,Yes,206,8,25.8,206,–
590006100137,BI-D61J02-D61J02,5900061,BI-D61J02,6,12,Pyramid Lake High School,Pyramid Lake High School,Washoe County,711 State Street,Nixon,NV,89424,,(775)574-1016,42,Rural: Distant,†,No,Yes,Yes,140,21,6.7,140,–
590012700127,BI-D10P02-D10P02,5900127,BI-D10P02,KG,12,Quileute Tribal School,Quileute Tribal School,Clallam County,PO Box 39,La Push,WA,98350,,(360)374-5648,43,Rural: Remote,†,No,Yes,Yes,86,19,4.5,86,–
590003500146,BI-D32N07-D32N07,5900035,BI-D32N07,KG,8,RED ROCK DAY SCHOOL,RED ROCK DAY SCHOOL,Apache County,PO Drawer 2007,Red Valley,AZ,86544,,(928)653-4456,43,Rural: Remote,†,No,Yes,Yes,150,10,15,150,–
590017200055,BI-D78S13-D78S13,5900172,BI-D78S13,KG,8,Red Water Elementary School,Red Water Elementary School,Leake County,107 Braves Blvd,Carthage,MS,39051,,(601)267-8500,41,Rural: Fringe,†,No,Yes,Yes,188,19,9.9,188,–
590016300103,BI-D01B02-D01B02,5900163,BI-D01B02,4,12,Riverside Indian School,Riverside Indian School,Caddo County,101 Riverside Drive,Anadarko,OK,73005,,(405)247-6670,41,Rural: Fringe,†,No,Yes,Yes,591,36,16.4,591,–
590013400162,BI-D10A03-D10A03,5900134,BI-D10A03,KG,8,Rock Creek Grant School,Rock Creek Grant School,Corson County,1 Indian School Drive,Bullhead,SD,57621,,(605)823-4971,43,Rural: Remote,†,No,Yes,Yes,51,20,2.6,51,–
590012200016,BI-D35N11-D35N11,5900122,BI-D35N11,KG,12,Rock Point Community School,Rock Point Community School,Apache County,PO Box 560 Highway 191,Rock Point,AZ,86545,,(928)659-4221,43,Rural: Remote,†,No,Yes,Yes,441,33,13.4,441,–
590008900185,BI-D33N15-D33N15,5900089,BI-D33N15,KG,8,Rocky Ridge Boarding School,Rocky Ridge Boarding School,Navajo County,PO BOX 299,KYKOTSMOVI,AZ,86039,,(928)725-3650,43,Rural: Remote,†,No,Yes,Yes,106,8,13.3,106,–
590017100017,BI-D35N12-D35N12,5900171,BI-D35N12,KG,12,Rough Rock Community School,Rough Rock Community School,Apache County,PO Box 680,Chinle,AZ,86503,,(928)728-3701,43,Rural: Remote,†,No,Yes,Yes,177,32,5.5,177,–
590012000112,BI-D57H19-D57H19,5900120,BI-D57H19,KG,6,Salt River Elementary School,Salt River Elementary School,Maricopa County,10005 E Osborn Rd,Scottsdale,AZ,85256,,(480)362-2400,41,Rural: Fringe,†,No,Yes,Yes,365,101,3.6,365,–
590015100158,BI-D20M12-D20M12,5900151,BI-D20M12,KG,8,San Felipe Pueblo Elementary School,San Felipe Pueblo Elementary School,Sandoval County,PO Box 4343,San Felipe Pue.,NM,87001,,(505)867-3364,41,Rural: Fringe,†,No,Yes,Yes,367,22,16.7,367,–
590002800094,BI-D25M13-D25M13,5900028,BI-D25M13,KG,6,San Ildefonso Day School,San Ildefonso Day School,Santa Fe County,36 Tunyo Po,Santa Fe,NM,87506,,(505)455-2366,41,Rural: Fringe,†,No,Yes,Yes,22,3,7.3,22,–
590015600105,BI-D54H22-D54H22,5900156,BI-D54H22,KG,8,San Simon School,San Simon School,Pima County,HC 01 Box 8292,Sells,AZ,85634,,(520)362-2231,43,Rural: Remote,†,No,Yes,Yes,314,51,6.2,314,–
590007500147,BI-D32N09-D32N09,5900075,BI-D32N09,KG,3,Sanostee Day School,Sanostee Day School,San Juan County,PO Box 159,Sanostee,NM,87461,,(505)723-2476,43,Rural: Remote,†,No,Yes,Yes,53,4,13.3,53,–
590013000096,BI-D25M32-D25M32,5900130,BI-D25M32,7,12,Santa Fe Indian School,Santa Fe Indian School,Santa Fe County,PO 5340,Santa Fe,NM,87502,,(505)989-6330,13,City: Small,†,No,Yes,Yes,704,106,6.6,704,–
590003000106,BI-D54H21-D54H21,5900030,BI-D54H21,KG,8,Santa Rosa Day School,Santa Rosa Day School,Pima County,HC 01 Box 8400,Sells,AZ,85634,,(520)361-2276,43,Rural: Remote,†,No,Yes,Yes,142,11,12.9,142,–
590008600107,BI-D54H11-D54H11,5900086,BI-D54H11,KG,8,Santa Rosa Ranch School,Santa Rosa Ranch School,Pima County,HC O2 Box 7570,Sells,AZ,85634,,(520)383-2359,43,Rural: Remote,†,No,Yes,Yes,71,10,7.1,71,–
590019300069,BI-D36N19-D36N19,5900193,BI-D36N19,KG,8,Seba Dalkai Boarding School,Seba Dalkai Boarding School,Navajo County,HC 63 Box H,Winslow,AZ,86047,,(928)657-3208,43,Rural: Remote,†,No,Yes,Yes,77,7,11,77,–
590008200079,BI-D65H12-D65H12,5900082,BI-D65H12,KG,6,Second Mesa Day School,Second Mesa Day School,Navajo County,PO Box 98,Second Mesa,AZ,86043,,(928)737-2571,43,Rural: Remote,†,No,Yes,Yes,253,23,11,253,–
590003400104,BI-D08B02-D08B02,5900034,BI-D08B02,9,12,Sequoyah High School,Sequoyah High School,Cherokee County,PO Box 520,Tahlequah,OK,74465,,(918)453-5400,41,Rural: Fringe,†,No,Yes,Yes,375,34,11,375,–
590010500138,BI-D60J02-D60J02,5900105,BI-D60J02,9,12,Sherman Indian High School,Sherman Indian High School,Riverside County,9010 Magnolia Ave,Riverside,CA,92503,,(951)276-6326,11,City: Large,†,No,Yes,Yes,449,115,3.9,449,–
590012800186,BI-D33N16-D33N16,5900128,BI-D33N16,KG,8,Shonto Preparatory School,Shonto Preparatory School,Navajo County,PO Box 7900,Shonto,AZ,86054,,(928)672-3500,43,Rural: Remote,†,No,Yes,Yes,387,63,6.1,387,–
590009700128,BI-D04C02-D04C02,5900097,BI-D04C02,6,12,Shoshone-Bannock School District No 512,Shoshone-Bannock School District No 512,Bannock County,PO Box 790,Fort Hall,ID,83203,,(208)238-4200,41,Rural: Fringe,†,No,Yes,Yes,122,44,2.8,122,–
590018100161,BI-D10A05-D10A05,5900181,BI-D10A05,KG,8,Sitting Bull School,Sitting Bull School,Corson County,PO Box 26,Little Eagle,SD,57639,,(605)823-4235,43,Rural: Remote,†,No,Yes,Yes,102,15,6.8,102,–
590019500159,BI-D20M02-D20M02,5900195,BI-D20M02,KG,8,Sky City Community School,Sky City Community School,Cibola County,PO Box 349,Pueblo of Acoma,NM,87034,,(505)552-6671,43,Rural: Remote,†,No,Yes,Yes,197,13,15.2,197,–
590009100134,BI-D07A09-D07A09,5900091,BI-D07A09,KG,12,St. Francis Indian School,St. Francis Indian School,Todd County,PO Box 379,St. Francis,SD,57572,,(605)747-2298,43,Rural: Remote,†,No,Yes,Yes,770,70,11,770,–
590014100003,BI-D58C10-D58C10,5900141,BI-D58C10,KG,12,St. Stephens Indian School,St. Stephens Indian School,Fremont County,PO Box 345,St. Stephens,WY,82524,,(307)856-4147,41,Rural: Fringe,†,No,Yes,Yes,294,61,4.8,294,–
590005300056,BI-D78S14-D78S14,5900053,BI-D78S14,KG,6,Standing Pine Elementary School,Standing Pine Elementary School,Leake County,538 HIGHWAY 487 EAST,Carthage,MS,39051,,(601)267-9225,42,Rural: Distant,†,No,Yes,Yes,148,11,13.5,148,–
590006700163,BI-D10A08-D10A08,5900067,BI-D10A08,KG,12,Standing Rock Community School,Standing Rock Community School,Sioux County,9189 Hwy 24,Fort Yates,ND,58538,,(701)854-3461,43,Rural: Remote,†,No,Yes,Yes,680,69,9.9,680,–
590016800150,BI-D32N10-D32N10,5900168,BI-D32N10,KG,8,T'iis Nazbas Community School,T'iis Nazbas Community School,Apache County,PO Box 2002,Teec Nos Pos,AZ,86514,,(928)656-3252,43,Rural: Remote,†,No,Yes,Yes,151,10,15.1,151,–
590017700036,BI-D34N23-D34N23,5900177,BI-D34N23,KG,8,T'iis Ts'ozi Bi'Olta',T'iis Ts'ozi Bi'Olta',McKinley County,PO Box 178,Crownpoint,NM,87313,,(505)786-6159,43,Rural: Remote,†,No,Yes,Yes,389,19,20.5,389,–
590006000160,BI-D20M22-D20M22,5900060,BI-D20M22,KG,6,T`siya Day School,T`siya Day School,Sandoval County,1000 Borrego Canyon Rd,Zia Pueblo,NM,87053,,(505)867-3553,42,Rural: Distant,†,No,Yes,Yes,54,4,13.5,54,–
590014300006,BI-D01A05-D01A05,5900143,BI-D01A05,KG,12,Takini School,Takini School,Ziebach County,HC 77 Box 537,Howes,SD,57748,,(605)538-4399,43,Rural: Remote,†,No,Yes,Yes,194,58,3.3,194,–
590017400097,BI-D25M19-D25M19,5900174,BI-D25M19,KG,8,Taos Day School,Taos Day School,Taos County,PO Box 1850,Taos,NM,87571,,(575)758-3652,41,Rural: Fringe,†,No,Yes,Yes,103,22,4.7,103,–
590005800164,BI-D09A07-D09A07,5900058,BI-D09A07,KG,8,Tate Topa Tribal School,Tate Topa Tribal School,Benson County,7268 Highway 57,Fort Totten,ND,58335,,(701)766-1400,42,Rural: Distant,†,No,Yes,Yes,514,58,8.9,514,–
590003900098,BI-D25M20-D25M20,5900039,BI-D25M20,KG,6,Te Tsu Geh Oweenge Day School,Te Tsu Geh Oweenge Day School,Santa Fe County,Route 42 Box 2,Santa Fe,NM,87506,,(505)303-1255,42,Rural: Distant,†,No,Yes,Yes,46,6,7.7,46,–
590009600165,BI-D10A10-D10A10,5900096,BI-D10A10,KG,7,Theodore Jamerson Elementary,Theodore Jamerson Elementary,Burleigh County,3315 Unviersity Dr,Bismarck,ND,58504,,(701)530-0677,23,Suburb: Small,†,No,Yes,Yes,188,26,7.2,188,–
590013200060,BI-D52H21-D52H21,5900132,BI-D52H21,6,8,Theodore Roosevelt School,Theodore Roosevelt School,Navajo County,PO Box 567,Ft. Apache,AZ,85926,,(928)338-4464,41,Rural: Fringe,†,No,Yes,Yes,168,25,6.7,168,–
590012900022,BI-D09A05-D09A05,5900129,BI-D09A05,KG,12,Tiospa Zina Tribal School,Tiospa Zina Tribal School,Roberts County,PO Box 719,Agency Village,SD,57262,,(605)698-3953,43,Rural: Remote,†,No,Yes,Yes,625,109,5.7,625,–
590019000007,BI-D01A15-D01A15,5900190,BI-D01A15,KG,12,Tiospaye Topa School,Tiospaye Topa School,Dewey County,HC 76 Box 300,Ridgeview,SD,57652,,(605)733-2290,43,Rural: Remote,†,No,Yes,Yes,189,22,8.6,189,–
590019100037,BI-D34N25-D34N25,5900191,BI-D34N25,KG,12,To'hajiilee Day School,To'hajiilee Day School,Bernalillo County,PO Box 3438,ToHajiilee,NM,87026,,(505)908-2426,42,Rural: Distant,†,No,Yes,Yes,331,37,8.9,331,–
590015000151,BI-D32N11-D32N11,5900150,BI-D32N11,KG,8,Tohaali' Community School,Tohaali' Community School,San Juan County,PO Box 9857,Newcomb,NM,87455,,(505)789-3201,43,Rural: Remote,†,No,Yes,Yes,111,9,12.3,111,–
590016900108,BI-D54H25-D54H25,5900169,BI-D54H25,9,12,Tohono O`odham High School,Tohono O`odham High School,Pima County,HC01 Box 8513,Sells,AZ,85634,,(520)362-2400,43,Rural: Remote,†,No,Yes,Yes,108,9,12,108,–
590017000187,BI-D33N13-D33N13,5900170,BI-D33N13,KG,8,Tonalea Day School,Tonalea Day School,Coconino County,PO Box 39,Tonalea,AZ,86044,,(928)283-6325,43,Rural: Remote,†,No,Yes,Yes,201,13,15.5,201,–
590005600038,BI-D34N16-D34N16,5900056,BI-D34N16,KG,4,Tse'ii'ahi' Community School,Tse'ii'ahi' Community School,McKinley County,PO Box 828,Crownpoint,NM,87313,,(505)786-5389,43,Rural: Remote,†,No,Yes,Yes,111,7,15.9,111,–
590003700188,BI-D33N19-D33N19,5900037,BI-D33N19,KG,8,Tuba City Boarding School,Tuba City Boarding School,Coconino County,306 Main St,Tuba City,AZ,86045,,(928)283-2330,33,Town: Remote,†,No,Yes,Yes,1141,78,14.6,1141,–
590010000057,BI-D78S15-D78S15,5900100,BI-D78S15,KG,8,Tucker Elementary School,Tucker Elementary School,Neshoba County,126 EAST TUCKER CIRCLE,Philadelphia,MS,39350,,(601)656-8775,42,Rural: Distant,†,No,Yes,Yes,148,16,9.3,148,–
590010600170,BI-D11A09-D11A09,5900106,BI-D11A09,KG,5,Turtle Mountain Elementary School,Turtle Mountain Elementary School,Rolette County,PO Box 440,Belcourt,ND,58316,,(701)477-6471,43,Rural: Remote,†,No,Yes,Yes,662,103,6.4,662,–
590015800171,BI-D11A11-D11A11,5900158,BI-D11A11,9,12,Turtle Mountain High School,Turtle Mountain High School,Rolette County,PO Box 440,Belcourt,ND,58316,,(701)477-6471,43,Rural: Remote,†,No,Yes,Yes,527,44,12,527,–
590002500172,BI-D11A10-D11A10,5900025,BI-D11A10,6,8,Turtle Mountain Middle School,Turtle Mountain Middle School,Rolette County,PO Box 440,Belcourt,ND,58316,,(701)477-6471,43,Rural: Remote,†,No,Yes,Yes,381,57,6.7,381,–
590007700173,BI-D11A14-D11A14,5900077,BI-D11A14,KG,8,Twin Buttes Day School,Twin Buttes Day School,Dunn County,7997 7A St NW,Hallilday,ND,58636,,(701)938-4396,43,Rural: Remote,†,No,Yes,Yes,37,9,4.1,37,–
590017800129,BI-D13C02-D13C02,5900178,BI-D13C02,8,12,Two Eagle River School,Two Eagle River School,Lake County,PO Box 160,Pablo,MT,59855,,(406)675-0292,42,Rural: Distant,†,No,Yes,Yes,112,15,7.5,112,–
590018500131,BI-D10P13-D10P13,5900185,BI-D10P13,KG,8,Wa He Lut Indian School,Wa He Lut Indian School,Thurston County,11110 Conine Avenue SE,Olympia,WA,98513,,(360)456-1311,22,Suburb: Midsize,†,No,Yes,Yes,118,11,10.7,118,–
590011700174,BI-D11A15-D11A15,5900117,BI-D11A15,KG,12,White Shield School,White Shield School,McLean County,2 2nd Ave West,Roseglen,ND,58775,,(701)743-4350,43,Rural: Remote,†,No,Yes,Yes,163,34,4.8,163,–
590006200070,BI-D36N24-D36N24,5900062,BI-D36N24,KG,6,Wide Ruins Community School,Wide Ruins Community School,Apache County,PO Box 309,Chambers,AZ,86502,,(928)652-3251,43,Rural: Remote,†,No,Yes,Yes,99,9,11,99,–
590005900039,BI-D34N20-D34N20,5900059,BI-D34N20,KG,8,Wingate Elementary School,Wingate Elementary School,McKinley County,12 Painted Horse Trail,Ft. Wingate,NM,87316,,(505)488-6300,42,Rural: Distant,†,No,Yes,Yes,485,77,6.3,485,–
590011900040,BI-D34N21-D34N21,5900119,BI-D34N21,9,12,Wingate High School,Wingate High School,McKinley County,PO Box 2,Fort Wingate,NM,87316,,(505)488-6400,42,Rural: Distant,†,No,Yes,Yes,464,57,8.1,464,–
590018300119,BI-D06A06-D06A06,5900183,BI-D06A06,KG,8,Wounded Knee District School,Wounded Knee District School,Oglala Lakota County,PO Box 350,Manderson,SD,57756,,(605)867-4350,43,Rural: Remote,†,No,Yes,Yes,188,17,11.1,188,–
590005700130,BI-D11P20-D11P20,5900057,BI-D11P20,8,12,Yakama Nation Tribal School,Yakama Nation Tribal School,Yakima County,PO Box 151,Toppenish,WA,98948,,(509)865-4778,32,Town: Distant,†,No,Yes,Yes,144,14,10.3,144,–
