NCES School ID,State School ID,NCES District ID,State District ID,Low Grade*,High Grade*,School Name,District,County Name*,Street Address,City,State,ZIP,ZIP 4-digit,Phone,Locale Code*,Locale*,Charter,Magnet*,Title I School*,Title 1 School Wide*,Students*,Teachers*,Student Teacher Ratio*,Free Lunch*,Reduced Lunch*
230282000046,ME-42-45,2302820,ME-42,PK,3,Abraham Lincoln School,Bangor Public Schools,Penobscot County,45 Forest Avenue,Bangor,ME,4401,,(207)941-6280,13,City: Small,No,No,Yes,Yes,216,17.4,12.4,96,15
231480900933,ME-1508-615,2314809,ME-1508,2,5,Academy Hill School,RSU 09,Franklin County,585 Depot St,Wilton,ME,4294,,(207)645-4488,42,Rural: Distant,No,No,Yes,Yes,190,15.9,11.9,91,16
231483123149,ME-1761-1765,2314831,ME-1761,PK,5,Acadia Academy School,Acadia Academy,Androscoggin County,12 Westminster Street,Lewiston,ME,4240,,(207)333-3765,13,City: Small,Yes,No,–,–,203,13.1,15.5,56,0
230222000001,ME-2-3,2302220,ME-2,PK,8,Acton Elementary School,Acton Public Schools,York County,700 Milton Mills Road,Acton,ME,4001,,(207)636-2100,42,Rural: Distant,No,No,Yes,Yes,234,19.2,12.2,91,16
230408000117,ME-125-126,2304080,ME-125,PK,8,Adams School,Castine Public Schools,Hancock County,PO Box 29,Castine,ME,4421,,(207)326-8608,42,Rural: Distant,No,No,Yes,No,47,8.2,5.7,5,2
231077000354,ME-646-659,2310770,ME-646,PK,6,Agnes Gray School,RSU 17/MSAD 17,Oxford County,170 Main Street,West Paris,ME,4289,,(207)674-2332,42,Rural: Distant,No,No,Yes,Yes,135,10.9,12.4,87,4
230250000007,ME-1038-1039,2302500,ME-1038,PK,8,Airline Community School,Airline CSD,Hancock County,26 Great Pond Road,Aurora,ME,4408,,(207)359-5002,42,Rural: Distant,No,No,Yes,Yes,40,4.8,8.3,20,2
231335000605,ME-480-481,2313350,ME-480,4,5,Albert S Hall School,Waterville Public Schools,Kennebec County,27 Pleasant Street,Waterville,ME,4901,,(207)872-8071,33,Town: Remote,No,No,Yes,Yes,256,21.5,11.9,168,18
231433000691,ME-826-827,2314330,ME-826,PK,6,Albion Elementary School,RSU 49/MSAD 49,Kennebec County,20 School Street,Albion,ME,4910,,(207)437-2616,42,Rural: Distant,No,No,Yes,Yes,104,10.5,9.9,58,12
230228000975,ME-4-5,2302280,ME-4,PK,8,Alexander Elementary,Alexander Public Schools,Washington County,1430 Airline Road,Alexander,ME,4694,,(207)454-2623,43,Rural: Remote,No,No,Yes,Yes,42,4.9,8.6,13,5
231467000999,ME-888-889,2314670,ME-888,PK,5,Alfred Elementary School,RSU 57/MSAD 57,York County,21 Sanford Road,Alfred,ME,4002,,(207)324-3831,41,Rural: Fringe,No,No,Yes,No,207,16.2,12.8,65,12
231478201041,ME-1466-8,2314782,ME-1466,PK,4,Alton Elementary School,RSU 34,Penobscot County,22 Argyle Rd,Alton,ME,4468,,(207)394-2331,42,Rural: Distant,No,No,Yes,Yes,45,5.4,8.3,21,1
230993000271,ME-364-369,2309930,ME-364,PK,5,Amanda C Rowe School,Portland Public Schools,Cumberland County,23 Orono RD,Portland,ME,4102,,(207)874-8205,13,City: Small,No,No,Yes,Yes,429,33.5,12.8,158,30
231482200450,ME-1733-739,2314822,ME-1733,2,5,Ames Elementary School,RSU 71,Waldo County,165 New England Road,Searsmont,ME,4973,,(207)342-5100,42,Rural: Distant,No,No,Yes,Yes,132,10.4,12.7,50,13
231482300505,ME-1734-790,2314823,ME-1734,PK,5,Andover Elementary School,Andover Public Schools,Oxford County,PO Box 70,Andover,ME,4216,,(207)392-4381,42,Rural: Distant,No,No,Yes,Yes,26,3.5,7.4,7,0
230251000906,ME-9-10,2302510,ME-9,KG,8,Appleton Village School,Appleton Public Schools,Knox County,737 Union Road,Appleton,ME,4862,,(207)785-4504,42,Rural: Distant,No,No,Yes,No,154,15.8,9.7,43,16
230005000377,ME-1069-1070,2300050,ME-1069,7,12,Arthur R. Gould Sch--LCYDC,Arthur R. Gould Sch--LCYDC,Cumberland County,675 Westbrook Street,South Portland,ME,4106,,(207)822-2660,13,City: Small,No,No,–,–,12,13,0.9,3,0
231477800251,ME-1465-339,2314778,ME-1465,PK,5,Asa C Adams School,RSU 26,Penobscot County,6 Goodridge Drive,Orono,ME,4473,,(207)866-2151,23,Suburb: Small,No,No,Yes,No,272,29.6,9.2,72,16
231478723176,ME-1452-2013,2314787,ME-1452,PK,5,Ash Point Community School,RSU 13,Knox County,54 Ash Point Drive,Owls Head,ME,4854,,(207)596-6620,41,Rural: Fringe,No,No,Yes,Yes,162,13.5,12,47,14
231128023125,ME-722-725,2311280,ME-722,PK,12,Ashland District School,RSU 32/MSAD 32,Aroostook County,PO Box 369,Ashland,ME,4732,,(207)435-3481,43,Rural: Remote,No,No,Yes,Yes,269,22.5,12,92,38
231481700742,ME-1629-906,2314817,ME-1629,PK,8,Athens Community School,Athens Public Schools,Somerset County,8 Fox Hill Road,Athens,ME,4912,,(207)654-2561,42,Rural: Distant,No,No,Yes,Yes,130,11.4,11.4,59,8
230261000907,ME-14-25,2302610,ME-14,7,8,Auburn Middle School,Auburn Public Schools,Androscoggin County,38 Falcon Drive,Auburn,ME,4210,,(207)333-6655,41,Rural: Fringe,No,No,Yes,Yes,542,51.1,10.6,322,21
230282000047,ME-42-52,2302820,ME-42,9,12,Bangor High School,Bangor Public Schools,Penobscot County,885 Broadway,Bangor,ME,4401,,(207)992-5500,13,City: Small,No,No,Yes,Yes,1230,88.6,13.9,437,74
231477200062,ME-1438-59,2314772,ME-1438,6,8,Bath Middle School,RSU 01 - LKRSU,Sagadahoc County,6 Old Brunswick Road,Bath,ME,4530,,(207)443-8270,31,Town: Fringe,No,No,Yes,Yes,358,32,11.2,146,23
231477200063,ME-1438-61,2314772,ME-1438,†,†,Bath Regional Career & Technical,RSU 01 - LKRSU,Sagadahoc County,800 High Street,Bath,ME,4530,,(207)443-8257,31,Town: Fringe,No,No,–,–,†,9,†,†,†
231481223141,ME-1630-1648,2314812,ME-1630,9,12,Baxter Academy for Tech & Sciences,Baxter Academy for Technology and Science,Cumberland County,185 Lancaster Street,Portland,ME,4101,,(207)699-5500,13,City: Small,Yes,No,Yes,No,404,33.3,12.1,51,21
230006501020,ME-1411-997,2300065,ME-1411,PK,8,Bay Ridge Elementary,Cutler Public Schools,Washington County,PO Box 240,Cutler,ME,4626,,(207)259-3347,43,Rural: Remote,No,No,Yes,Yes,67,6.7,10,27,5
230295000070,ME-62-63,2302950,ME-62,PK,8,Beals Elementary School,Beals Public Schools,Washington County,PO Box 220,Beals,ME,4611,,(207)497-5449,43,Rural: Remote,No,No,Yes,Yes,65,6.9,9.4,34,9
230939000257,ME-345-346,2309390,ME-345,PK,8,Beech Hill School,Otis Public Schools,Hancock County,105 Otis Road,Otis,ME,4605,,(207)537-2203,42,Rural: Distant,No,No,Yes,Yes,85,9,9.4,29,11
231482200440,ME-1733-735,2314822,ME-1733,9,12,Belfast Area High School,RSU 71,Waldo County,98 Waldo Avenue,Belfast,ME,4915,,(207)338-1790,32,Town: Distant,No,No,Yes,Yes,491,40.5,12.1,192,46
231477900701,ME-1457-807,2314779,ME-1457,PK,5,Belgrade Central School,RSU 18,Kennebec County,158 Depot Road,Belgrade,ME,4917,,(207)495-2321,42,Rural: Distant,No,No,Yes,Yes,243,19.3,12.6,82,9
231433001037,ME-826-828,2314330,ME-826,1,6,Benton Elementary School,RSU 49/MSAD 49,Kennebec County,68 School Drive,Benton,ME,4901,,(207)453-4240,41,Rural: Fringe,No,No,Yes,Yes,618,50.8,12.2,320,45
230315000072,ME-65-66,2303150,ME-65,9,12,Biddeford High School,Biddeford Public Schools,York County,20 Maplewood Ave,Biddeford,ME,4005,,(207)282-1596,22,Suburb: Midsize,No,No,Yes,Yes,769,51.5,14.9,342,52
230315000622,ME-65-71,2303150,ME-65,4,5,Biddeford Intermediate School,Biddeford Public Schools,York County,335 Hill Street,Biddeford,ME,4005,,(207)282-5957,41,Rural: Fringe,No,No,Yes,Yes,321,28.9,11.1,181,11
230315001017,ME-65-68,2303150,ME-65,6,8,Biddeford Middle School,Biddeford Public Schools,York County,25 Tiger Drive,Biddeford,ME,4005,,(207)282-6400,41,Rural: Fringe,No,No,Yes,Yes,551,51.5,10.7,268,31
230315001042,ME-65-69,2303150,ME-65,1,3,Biddeford Primary School,Biddeford Public Schools,York County,320 Hill Street,Biddeford,ME,4005,,(207)282-8285,22,Suburb: Midsize,No,No,Yes,Yes,536,46,11.7,286,45
230315000064,ME-65-70,2303150,ME-65,†,†,Biddeford Regional Ctr of Tech,Biddeford Public Schools,York County,10 Maplewood Ave,Biddeford,ME,4005,,(207)282-1501,22,Suburb: Midsize,No,No,–,–,†,16.3,†,†,†
231459000948,ME-860-869,2314590,ME-860,1,3,Bloomfield Elementary School,RSU 54/MSAD 54,Somerset County,140 Academy Circle,Skowhegan,ME,4976,,(207)474-6221,41,Rural: Fringe,No,No,Yes,Yes,272,29.2,9.3,183,6
230321000079,ME-72-73,2303210,ME-72,PK,8,Blue Hill Consolidated School,Blue Hill Public Schools,Hancock County,60 High Street,Blue Hill,ME,4614,,(207)374-2202,42,Rural: Distant,No,No,Yes,No,258,29.8,8.7,90,8
231053000319,ME-427-432,2310530,ME-427,KG,2,Blue Point School,Scarborough Public Schools,Cumberland County,174 Pine Point Road,Scarborough,ME,4074,,(207)730-5300,22,Suburb: Midsize,No,No,–,–,197,16.5,11.9,19,1
231179000531,ME-587-597,2311790,ME-587,9,12,Bonny Eagle High School,RSU 06/MSAD 06,Cumberland County,700 Saco Road,Standish,ME,4084,,(207)929-3840,42,Rural: Distant,No,No,–,–,1146,89.6,12.8,314,62
231179000532,ME-587-592,2311790,ME-587,6,8,Bonny Eagle Middle School,RSU 06/MSAD 06,York County,92 Sokokis Trail,Buxton,ME,4093,,(207)929-3833,42,Rural: Distant,No,No,Yes,No,809,64.7,12.5,239,54
230329000080,ME-1031-1033,2303290,ME-1031,PK,8,Boothbay Region Elem School,Boothbay-Boothbay Hbr CSD,Lincoln County,238 Townsend Avenue,Boothbay Harbor,ME,4538,,(207)633-5097,42,Rural: Distant,No,No,Yes,Yes,295,31.5,9.4,67,0
230329000081,ME-1031-1032,2303290,ME-1031,9,12,Boothbay Region High School,Boothbay-Boothbay Hbr CSD,Lincoln County,236 Townsend Avenue,Boothbay Harbor,ME,4538,,(207)633-2421,42,Rural: Distant,No,No,Yes,No,183,21.5,8.5,51,20
231476800815,ME-984-986,2314768,ME-984,KG,5,Bowdoin Central School,RSU 75/MSAD 75,Sagadahoc County,1460 Main Street,Bowdoin,ME,4287,,(207)666-5779,42,Rural: Distant,No,No,Yes,No,210,17.7,11.9,63,12
231476800816,ME-984-987,2314768,ME-984,KG,5,Bowdoinham Community School,RSU 75/MSAD 75,Sagadahoc County,23 Cemetery Road,Bowdoinham,ME,4008,,(207)666-5546,42,Rural: Distant,No,No,Yes,Yes,170,14.7,11.6,57,22
230351023130,ME-78-85,2303510,ME-78,PK,8,Brewer Community School,Brewer Public Schools,Penobscot County,92 Pendleton Street,Brewer,ME,4412,,(207)404-5700,23,Suburb: Small,No,No,Yes,Yes,976,73.3,13.3,338,57
230351000084,ME-78-84,2303510,ME-78,9,12,Brewer High School,Brewer Public Schools,Penobscot County,79 Parkway south,Brewer,ME,4412,,(207)989-4140,23,Suburb: Small,No,No,Yes,No,685,43.8,15.6,216,22
230360000090,ME-88-89,2303600,ME-88,PK,8,Bristol Consolidated School,Bristol Public Schools,Lincoln County,2153 Bristol Road,Pemaquid,ME,4558,,(207)677-2678,43,Rural: Remote,No,No,Yes,Yes,188,16.1,11.7,62,23
230361000254,ME-90-91,2303610,ME-90,PK,8,Brooklin School,Brooklin Public Schools,Hancock County,PO Box 120,Brooklin,ME,4616,,(207)359-2133,43,Rural: Remote,No,No,Yes,Yes,57,8,7.1,18,0
230364000094,ME-92-93,2303640,ME-92,PK,8,Brooksville Elementary School,Brooksville Public Schools,Hancock County,1527 Coastal Road,Brooksville,ME,4617,,(207)326-8500,42,Rural: Distant,No,No,Yes,Yes,64,9.4,6.8,19,5
231158023163,ME-774-1959,2311580,ME-774,3,4,Brownville Elementary School,RSU 41/MSAD 41,Piscataquis County,774 Main Road,Brownville,ME,4414,,(207)965-8184,43,Rural: Remote,No,No,Yes,Yes,84,11,7.6,60,5
231477500438,ME-1456-363,2314775,ME-1456,7,8,Bruce M Whittier Middle School,RSU 16,Androscoggin County,1457 Maine Street,Poland,ME,4274,,(207)998-3462,42,Rural: Distant,No,No,Yes,Yes,268,20.5,13.1,98,23
230378000268,ME-94-100,2303780,ME-94,9,12,Brunswick High School,Brunswick Public Schools,Cumberland County,116 Maquoit Road,Brunswick,ME,4011,,(207)319-1910,31,Town: Fringe,No,No,Yes,No,724,71,10.2,149,38
230378000096,ME-94-99,2303780,ME-94,6,8,Brunswick Jr High School,Brunswick Public Schools,Cumberland County,65 Columbia Avenue,Brunswick,ME,4011,,(207)319-1930,31,Town: Fringe,No,No,Yes,No,550,52.7,10.4,131,25
231479501053,ME-1450-763,2314795,ME-1450,7,12,Buckfield Jr-Sr High School,RSU 10,Oxford County,160 Morrill Street,Buckfield,ME,4220,,(207)336-2151,42,Rural: Distant,No,No,Yes,Yes,233,20.8,11.2,100,20
231479600102,ME-1464-105,2314796,ME-1464,9,12,Bucksport High School,RSU 25,Hancock County,102 Broadway,Bucksport,ME,4416,,(207)469-6650,42,Rural: Distant,No,No,Yes,No,356,26.1,13.6,116,35
231479600685,ME-1464-107,2314796,ME-1464,5,8,Bucksport Middle School,RSU 25,Hancock County,100 Miles Lane,Bucksport,ME,4416,,(207)469-6647,42,Rural: Distant,No,No,Yes,Yes,324,27.6,11.7,153,22
231071000420,ME-635-640,2310710,ME-635,PK,4,Burchard A Dunn School,RSU 15/MSAD 15,Cumberland County,667 Morse Road,New Gloucester,ME,4260,,(207)657-5050,41,Rural: Fringe,No,No,Yes,Yes,351,24.8,14.2,68,17
231179023123,ME-587-600,2311790,ME-587,PK,5,Buxton Center Elementary School,RSU 06/MSAD 06,York County,912 Long Plains Road,Buxton,ME,4093,,(207)929-3836,41,Rural: Fringe,No,No,Yes,Yes,571,52.5,10.9,183,42
231038000306,ME-1662-412,2310380,ME-1662,3,5,C K Burns School,Saco Public Schools,York County,135 Middle Street,Saco,ME,4072,,(207)284-5081,22,Suburb: Midsize,No,No,Yes,No,616,47,13.1,152,39
230387000105,ME-108-109,2303870,ME-108,PK,6,Calais Elementary School,Calais Public Schools,Washington County,53 Garfield Street,Calais,ME,4619,,(207)454-2000,33,Town: Remote,No,No,Yes,Yes,262,24.5,10.7,138,12
230387000106,ME-108-111,2303870,ME-108,7,12,Calais Middle/High School,Calais Public Schools,Washington County,34 Blue Devil Hill Suite 2,Calais,ME,4619,,(207)454-2591,33,Town: Remote,No,No,Yes,Yes,305,23.9,12.8,150,19
230005300504,ME-1065-1066,2300053,ME-1065,9,12,Camden Hills Regional H S,Five Town CSD,Knox County,25 Keelson Drive,Rockport,ME,4856,,(207)236-7800,41,Rural: Fringe,No,No,Yes,No,694,57.3,12.1,126,47
231113000413,ME-703-706,2311130,ME-703,KG,4,Camden-Rockport Elementary School,RSU 28/MSAD 28,Knox County,11 Children's Way,Rockport,ME,4856,,(207)236-7809,41,Rural: Fringe,No,No,Yes,No,373,33,11.3,76,16
231113000412,ME-703-705,2311130,ME-703,5,8,Camden-Rockport Middle School,RSU 28/MSAD 28,Knox County,34 Knowlton Street,Camden,ME,4843,,(207)236-7805,33,Town: Remote,No,No,Yes,No,367,36,10.2,74,18
231459000746,ME-860-861,2314590,ME-860,PK,6,Canaan Elementary School,RSU 54/MSAD 54,Somerset County,178 Main Street,Canaan,ME,4924,,(207)474-3901,42,Rural: Distant,No,No,Yes,Yes,225,20.5,11,150,7
231480900163,ME-1508-612,2314809,ME-1508,PK,5,Cape Cod Hill Elem School,RSU 09,Franklin County,516 Cape Cod Hill Rd,New Sharon,ME,4955,,(207)778-3031,42,Rural: Distant,No,No,Yes,Yes,172,14.1,12.2,93,8
230393000108,ME-113-116,2303930,ME-113,9,12,Cape Elizabeth High School,Cape Elizabeth Public Schools,Cumberland County,345 Ocean House Road,Cape Elizabeth,ME,4107,,(207)799-3309,22,Suburb: Midsize,No,No,Yes,No,533,46.1,11.6,22,7
230393000109,ME-113-115,2303930,ME-113,5,8,Cape Elizabeth Middle School,Cape Elizabeth Public Schools,Cumberland County,14 Scott Dyer Road,Cape Elizabeth,ME,4107,,(207)799-8176,22,Suburb: Midsize,No,No,Yes,No,520,41.7,12.5,33,3
230264000057,ME-28-36,2302640,ME-28,†,†,Capital Area Technical Center,Augusta Public Schools,Kennebec County,40 Pierce Drive Suite # 1,Augusta,ME,4330,,(207)626-2475,32,Town: Distant,No,No,–,–,†,17,†,†,†
231482200556,ME-1733-742,2314822,ME-1733,KG,5,Captain Albert W. Stevens School,RSU 71,Waldo County,31 Elementary Avenue,Belfast,ME,4915,,(207)338-3510,32,Town: Distant,No,No,Yes,Yes,275,28,9.8,135,23
231098000390,ME-681-683,2310980,ME-681,5,8,Caravel Middle School,RSU 87/MSAD 23,Penobscot County,520 Irish Road,Carmel,ME,4419,,(207)848-3615,42,Rural: Distant,No,No,Yes,Yes,224,16.7,13.4,85,13
231479423170,ME-1468-1971,2314794,ME-1468,9,12,Caribou High School,RSU 39,Aroostook County,308 Sweden St,Caribou,ME,4736,,(207)493-4260,33,Town: Remote,No,No,Yes,Yes,465,30.7,15.1,180,34
231479423168,ME-1468-1970,2314794,ME-1468,4,8,Caribou Middle School,RSU 39,Aroostook County,21 Glenn St,Caribou,ME,4736,,(207)493-4240,33,Town: Remote,No,No,Yes,Yes,415,32,13,197,27
231479400077,ME-1468-123,2314794,ME-1468,†,†,Caribou RegionalTechnology Ctr,RSU 39,Aroostook County,308 Sweden Street,Caribou,ME,4736,,(207)493-4270,33,Town: Remote,No,No,–,–,†,10,†,†,†
231050001030,ME-416-425,2310500,ME-416,KG,5,Carl J Lamb School,Sanford Public Schools,York County,233 Shaws Ridge Road,Springvale,ME,4083,,(207)324-8481,41,Rural: Fringe,No,No,Yes,Yes,506,42,12,247,47
231098000391,ME-681-682,2310980,ME-681,PK,4,Carmel Elementary School,RSU 87/MSAD 23,Penobscot County,50 Plymouth Road,Carmel,ME,4419,,(207)848-3383,42,Rural: Distant,No,No,Yes,Yes,166,16.9,9.8,52,6
231476700541,ME-976-983,2314767,ME-976,PK,8,Carrabec Community School,RSU 74/MSAD 74,Somerset County,PO Box 187,North Anson,ME,4958,,(207)635-2209,42,Rural: Distant,No,No,Yes,Yes,265,21.8,12.2,172,19
231476700954,ME-976-979,2314767,ME-976,9,12,Carrabec High School,RSU 74/MSAD 74,Somerset County,PO Box 220,North Anson,ME,4958,,(207)635-2296,42,Rural: Distant,No,No,Yes,Yes,200,16.3,12.3,120,18
231478323124,ME-1446-1448,2314783,ME-1446,3,5,Carrie Ricker School,RSU 04,Kennebec County,573 Richmond Road,Litchfield,ME,4350,,(207)268-4136,42,Rural: Distant,No,No,Yes,Yes,311,25.6,12.1,143,20
231480901050,ME-1508-610,2314809,ME-1508,3,5,Cascade Brook School,RSU 09,Franklin County,162 Learning Ln,Farmington,ME,4938,,(207)778-4821,41,Rural: Fringe,No,No,Yes,Yes,317,24,13.2,134,18
230993000603,ME-364-384,2309930,ME-364,9,12,Casco Bay High School,Portland Public Schools,Cumberland County,196 Allen Avenue,Portland,ME,4103,,(207)874-8160,13,City: Small,No,No,Yes,Yes,390,26.1,14.9,150,26
231479000403,ME-1462-695,2314790,ME-1462,PK,8,Cave Hill School,RSU 24,Hancock County,1205 Eastbrook Road,Eastbrook,ME,4634,,(207)565-3638,42,Rural: Distant,No,No,Yes,Yes,83,10,8.3,40,3
230933000255,ME-342-344,2309330,ME-342,PK,8,Center Drive School,Orrington Public Schools,Penobscot County,17 School Street,Orrington,ME,4474,,(207)825-3697,41,Rural: Fringe,No,No,Yes,No,399,29.5,13.5,86,15
231161000497,ME-780-782,2311610,ME-780,7,12,Central Aroostook Jr-Sr H S,RSU 42/MSAD 42,Aroostook County,PO Box 310,Mars Hill,ME,4758,,(207)425-2811,43,Rural: Remote,No,No,Yes,No,190,22,8.6,70,12
231444023158,ME-936-1763,2314440,ME-936,PK,5,Central Community Elementary School,RSU 64/MSAD 64,Penobscot County,PO Box 7,Corinth,ME,4427,,(207)285-0325,42,Rural: Distant,No,No,Yes,Yes,533,42.6,12.5,248,66
231444000715,ME-936-939,2314440,ME-936,9,12,Central High School,RSU 64/MSAD 64,Penobscot County,PO Box 370,Corinth,ME,4427,,(207)285-3326,42,Rural: Distant,No,No,Yes,Yes,309,21.9,14.1,109,29
231444000943,ME-936-940,2314440,ME-936,6,8,Central Middle School,RSU 64/MSAD 64,Penobscot County,PO Box 19,Corinth,ME,4427,,(207)285-3177,42,Rural: Distant,No,No,Yes,Yes,241,19.5,12.4,103,28
231137000451,ME-743-746,2311370,ME-743,PK,3,Central School,RSU 35/MSAD 35,York County,197 Main Street,South Berwick,ME,3908,,(207)384-2333,23,Suburb: Small,No,No,Yes,No,373,26,14.3,69,13
230416000119,ME-130-131,2304160,ME-130,PK,8,Charlotte Elementary School,Charlotte Public Schools,Washington County,1006 Ayers Junction Road,Charlotte,ME,4666,,(207)454-2668,43,Rural: Remote,No,No,Yes,Yes,33,4.4,7.5,15,8
231477100676,ME-1433-842,2314771,ME-1433,PK,5,Chebeague Island School,Chebeague Island Public Schools,Cumberland County,14 School House Road,Chebeague Island,ME,4017,,(207)846-4162,41,Rural: Fringe,No,No,–,–,25,4,6.3,3,0
231478000120,ME-1451-133,2314780,ME-1451,PK,8,Chelsea Elementary School,RSU 12,Kennebec County,566 Togus Road,Chelsea,ME,4330,,(207)582-2214,42,Rural: Distant,No,No,Yes,Yes,317,31.1,10.2,155,31
231481400461,ME-1628-755,2314814,ME-1628,PK,8,Cherryfield Elementary,Cherryfield Public Schools,Washington County,PO Box 58,Cherryfield,ME,4622,,(207)546-7949,43,Rural: Remote,No,No,Yes,Yes,112,10.8,10.4,62,5
231477900121,ME-1457-135,2314779,ME-1457,5,8,China Middle School,RSU 18,Kennebec County,773 Lakeview Drive,China,ME,4926,,(207)445-1500,42,Rural: Distant,No,No,Yes,Yes,197,13.9,14.2,64,19
231477901043,ME-1457-136,2314779,ME-1457,PK,4,China Primary School,RSU 18,Kennebec County,763 Lakeview Drive,China,ME,4926,,(207)445-1550,42,Rural: Distant,No,No,Yes,Yes,232,19.9,11.7,87,19
230993000267,ME-364-367,2309930,ME-364,KG,5,Cliff Island School,Portland Public Schools,Cumberland County,PO Box 8,Cliff Island,ME,4019,,(207)766-2885,41,Rural: Fringe,No,No,–,–,2,1,2,0,0
231433000698,ME-826-829,2314330,ME-826,PK,6,Clinton Elementary School,RSU 49/MSAD 49,Kennebec County,75 Morrison Ave,Clinton,ME,4927,,(207)426-2181,42,Rural: Distant,No,No,Yes,Yes,259,19.9,13,153,23
231413001049,ME-542-546,2314130,ME-542,2,4,Coastal Ridge Elementary,York Public Schools,York County,1 Coastal Ridge Drive,York,ME,3909,,(207)363-1800,23,Suburb: Small,No,No,Yes,No,361,28.4,12.7,52,10
230771000981,ME-277-280,2307710,ME-277,†,†,Coastal Wash Cty Inst of Tech,Machias Public Schools,Washington County,1 Bulldog Lane,Machias,ME,4654,,(207)255-3812,43,Rural: Remote,No,No,–,–,†,1.9,†,†,†
230378000097,ME-94-95,2303780,ME-94,PK,2,Coffin School,Brunswick Public Schools,Cumberland County,20 Barrows Street,Brunswick,ME,4011,,(207)319-1950,31,Town: Fringe,No,No,Yes,No,393,35.6,11,102,15
231356000616,ME-495-501,2313560,ME-495,KG,4,Congin School,Westbrook Public Schools,Cumberland County,410 Bridge Street,Westbrook,ME,4092,,(207)854-0844,22,Suburb: Midsize,No,No,Yes,Yes,387,33.2,11.7,191,29
230285000060,ME-53-54,2302850,ME-53,KG,8,Conners-Emerson School,Bar Harbor Public Schools,Hancock County,11 Eagle Lake Road,Bar Harbor,ME,4609,,(207)288-3631,33,Town: Remote,No,No,Yes,No,337,40.6,8.3,45,16
231210000958,ME-1002-1003,2312100,ME-1002,PK,6,Connor Consolidated School,Education in Unorganized Terr,Aroostook County,1581 Van Buren Road,Connor Twp,ME,4736,,(207)496-4521,42,Rural: Distant,No,No,Yes,Yes,30,3.6,8.3,13,3
230264023118,ME-28-37,2302640,ME-28,9,12,Cony,Augusta Public Schools,Kennebec County,60 Pierce Drive,Augusta,ME,4330,,(207)626-2460,32,Town: Distant,No,No,Yes,Yes,679,43.1,15.8,297,33
230264023175,ME-28-2021,2302640,ME-28,7,8,Cony Middle School,Augusta Public Schools,Kennebec County,60 Pierce Drive,Augusta,ME,4330,,(207)626-2460,32,Town: Distant,No,No,–,–,308,25.7,12,168,14
231480723164,ME-1510-1828,2314807,ME-1510,6,12,Cornville Downtown Campus,Cornville Regional Charter School,Somerset County,48 South Factory Street,Skowhegan,ME,4976,,(207)858-1600,33,Town: Remote,Yes,No,Yes,Yes,94,5.5,17.1,52,7
231480723167,ME-1510-1829,2314807,ME-1510,PK,KG,Cornville Early Childhood Campus,Cornville Regional Charter School,Somerset County,48 South Factory Street,Skowhegan,ME,4976,,(207)474-8740,33,Town: Remote,Yes,No,Yes,Yes,45,3,15,25,7
231480723136,ME-1510-1511,2314807,ME-1510,KG,8,Cornville Regional Charter School,Cornville Regional Charter School,Somerset County,48 South Factory Street,Skowhegan,ME,4976,,(207)474-8503,42,Rural: Distant,Yes,No,Yes,Yes,144,7,20.6,82,15
230462023153,ME-139-1758,2304620,ME-139,KG,8,Cranberry Isles School,Cranberry Isles Public Schools,Hancock County,PO Box 159,Cranberry Isles,ME,4625,,(207)244-3765,42,Rural: Distant,No,No,–,–,16,3,5.3,5,8
231167000506,ME-789-791,2311670,ME-789,PK,5,Crescent Park School,RSU 44/MSAD 44,Oxford County,19 Crescent Lane,Bethel,ME,4217,,(207)824-2839,43,Rural: Remote,No,No,Yes,Yes,272,24.4,11.1,115,19
231478700707,ME-1452-834,2314787,ME-1452,KG,5,Cushing Community School,RSU 13,Knox County,54 Cross Road,Cushing,ME,4563,,(207)354-2312,42,Rural: Distant,No,No,Yes,Yes,88,7.8,11.3,39,8
231233000574,ME-444-450,2312330,ME-444,6,8,Daniel F. Mahoney Middle School,South Portland Public Schools,Cumberland County,240 Ocean St.,South Portland,ME,4106,,(207)799-7386,13,City: Small,No,No,–,–,319,27.9,11.4,72,29
231143000463,ME-753-754,2311430,ME-753,PK,6,Daniel W Merritt School,RSU 37/MSAD 37,Washington County,518 Indian River Road,Addison,ME,4606,,(207)483-2229,43,Rural: Remote,No,No,Yes,Yes,99,11.3,8.8,54,11
230411000118,ME-127-128,2304110,ME-127,PK,8,Dawn F Barnes Elementary Sch,Caswell Public Schools,Aroostook County,1025 Van Buren Rd,Caswell,ME,4750,,(207)325-4611,43,Rural: Remote,No,No,Yes,Yes,38,3.8,10,22,10
230486000124,ME-1661-146,2304860,ME-1661,PK,5,Dayton Consolidated School,Dayton Public Schools,York County,21 Clarks Mills Road,Dayton,ME,4005,,(207)499-2283,42,Rural: Distant,No,No,Yes,No,118,11.7,10.1,19,2
230489000125,ME-148-149,2304890,ME-148,PK,8,Dedham School,Dedham Public Schools,Hancock County,2065 Main Road,Dedham,ME,4429,,(207)843-6498,42,Rural: Distant,No,No,Yes,No,185,16.2,11.4,20,5
230489500509,ME-1049-1052,2304895,ME-1049,KG,8,Deer Isle-Stonington Elementary Sch,Deer Isle-Stonington CSD,Hancock County,249 North Deer Isle Road,Deer Isle,ME,4627,,(207)348-6301,43,Rural: Remote,No,No,Yes,Yes,208,22.9,9.1,72,24
230489500127,ME-1049-1051,2304895,ME-1049,9,12,Deer Isle-Stonington High Sch,Deer Isle-Stonington CSD,Hancock County,251 North Deer Isle Road,Deer Isle,ME,4627,,(207)348-2303,43,Rural: Remote,No,No,Yes,No,98,13.4,7.3,37,9
230993000269,ME-364-379,2309930,ME-364,9,12,Deering High School,Portland Public Schools,Cumberland County,370 Stevens Avenue,Portland,ME,4103,,(207)874-8260,13,City: Small,No,No,Yes,Yes,939,66.7,14.1,480,61
231476501025,ME-969-971,2314765,ME-969,KG,4,Denmark Elementary School,RSU 72/MSAD 72,Oxford County,637 West Main Street,Denmark,ME,4022,,(207)452-2360,42,Rural: Distant,No,No,Yes,Yes,86,7.2,11.9,39,2
231453000734,ME-798-799,2314530,ME-798,9,12,Dexter Regional High School,MSAD 46,Penobscot County,12 Abbott Hill Rd,Dexter,ME,4930,,(207)924-5536,43,Rural: Remote,No,No,Yes,Yes,302,21.3,14.2,161,32
231477200069,ME-1438-58,2314772,ME-1438,PK,2,Dike-Newell School,RSU 01 - LKRSU,Sagadahoc County,3 Wright Drive,Bath,ME,4530,,(207)443-8285,31,Town: Fringe,No,No,Yes,Yes,282,23.4,12.1,130,18
231483323114,ME-1826-672,2314833,ME-1826,PK,5,Dirigo Elementary School,RSU 56,Oxford County,117 Auburn Road,Peru,ME,4290,,(207)562-4207,42,Rural: Distant,No,No,Yes,Yes,387,29.1,13.3,198,32
231483300382,ME-1826-670,2314833,ME-1826,9,12,Dirigo High School,RSU 56,Oxford County,145 Weld Street,Dixfield,ME,4224,,(207)642-4885,42,Rural: Distant,No,No,Yes,Yes,204,17,12,84,22
231233000575,ME-444-453,2312330,ME-444,KG,5,Dora L Small Elementary School,South Portland Public Schools,Cumberland County,87 Thompson Street,South Portland,ME,4106,,(207)799-7676,13,City: Small,No,No,–,–,273,21.8,12.5,48,14
230282000049,ME-42-48,2302820,ME-42,PK,3,Downeast School,Bangor Public Schools,Penobscot County,100 Moosehead Blvd,Bangor,ME,4401,,(207)941-6240,13,City: Small,No,No,Yes,Yes,293,26,11.3,255,7
231131000437,ME-726-727,2311310,ME-726,PK,6,Dr Levesque Elementary School,RSU 33/MSAD 33,Aroostook County,PO Box 489,Frenchville,ME,4745,,(207)543-7302,43,Rural: Remote,No,No,Yes,Yes,133,10,13.3,57,13
230825000222,ME-296-297,2308250,ME-296,PK,8,Dr Lewis S Libby School,Milford Public Schools,Penobscot County,13 School Street,Milford,ME,4461,,(207)827-2252,23,Suburb: Small,No,No,Yes,Yes,300,26.6,11.3,155,15
231477600131,ME-1445-153,2314776,ME-1445,PK,5,Dresden Elementary School,RSU 02,Lincoln County,86 Cedar Grove Road,Dresden,ME,4342,,(207)737-2559,42,Rural: Distant,No,No,Yes,Yes,94,8.2,11.5,42,4
231478900132,ME-1449-156,2314789,ME-1449,PK,8,Durham Community School,RSU 05,Androscoggin County,654 Hallowell Road,Durham,ME,4222,,(207)353-9333,41,Rural: Fringe,No,No,–,–,423,36.9,11.5,64,14
231233000578,ME-444-447,2312330,ME-444,KG,5,Dyer Elementary School,South Portland Public Schools,Cumberland County,52 Alfred Street,South Portland,ME,4106,,(207)799-4845,13,City: Small,No,No,–,–,222,16.5,13.5,31,8
231481500385,ME-1615-676,2314815,ME-1615,PK,2,Earl C McGraw School,RSU 22,Penobscot County,20 Main Road North,Hampden,ME,4444,,(207)862-3830,23,Suburb: Small,No,No,–,–,340,26,13.1,56,9
230261000012,ME-14-15,2302610,ME-14,PK,6,East Auburn Community School,Auburn Public Schools,Androscoggin County,15 Andrew Drive,Auburn,ME,4210,,(207)782-4142,41,Rural: Fringe,No,No,Yes,Yes,181,12.1,15,71,14
231482200443,ME-1733-731,2314822,ME-1733,PK,5,East Belfast School,RSU 71,Waldo County,14 Swan Lake Avenue,Belfast,ME,4915,,(207)338-4420,32,Town: Distant,No,No,Yes,Yes,114,10.8,10.6,75,7
230993000279,ME-364-385,2309930,ME-364,PK,5,East End Community School,Portland Public Schools,Cumberland County,195 North ST,Portland,ME,4101,,(207)874-8228,13,City: Small,No,No,Yes,Yes,392,36.2,10.8,272,24
231068000344,ME-633-634,2310680,ME-633,PK,12,East Grand School,RSU 84/MSAD 14,Washington County,31 Houlton Road,Danforth,ME,4424,,(207)448-2260,43,Rural: Remote,No,No,Yes,Yes,129,16.8,7.7,78,11
230538000139,ME-1047-1048,2305380,ME-1047,PK,8,East Range II CSD School,East Range CSD,Washington County,187 School Street,Topsfield,ME,4490,,(207)695-2666,43,Rural: Remote,No,No,Yes,Yes,27,3.9,6.9,12,3
230531000135,ME-160-162,2305310,ME-160,PK,6,Easton Elementary School,Easton Public Schools,Aroostook County,33 Bangor Road,Easton,ME,4740,,(207)488-7700,42,Rural: Distant,No,No,Yes,Yes,126,10.5,12,30,18
230531000136,ME-160-161,2305310,ME-160,7,12,Easton Junior-Senior High Sch,Easton Public Schools,Aroostook County,173 Center Road,Easton,ME,4740,,(207)488-7702,42,Rural: Distant,No,No,Yes,No,108,10.5,10.3,24,14
230536000912,ME-163-164,2305360,ME-163,PK,8,Eastport Elementary School,Eastport Public Schools,Washington County,100 High Street,Eastport,ME,4631,,(207)853-6252,43,Rural: Remote,No,No,Yes,Yes,88,7.8,11.3,54,9
231484123186,ME-2071-2072,2314841,ME-2071,–,–,Ecology Learning Ctr,Ecology Learning Center,†,PO Box 235,Union,ME,4862,,(207)230-9275,†,N,No,†,†,†,†,†,†,†,†
231447000720,ME-932-933,2314470,ME-932,PK,1,Eddington School,RSU 63/MSAD 63,Penobscot County,440 Main Road,Eddington,ME,4428,,(207)843-6010,41,Rural: Fringe,No,No,Yes,No,121,11,11,33,6
230540000140,ME-166-167,2305400,ME-166,PK,6,Edgecomb Eddy School,Edgecomb Public Schools,Lincoln County,157 Boothbay Road,Edgecomb,ME,4556,,(207)882-5515,42,Rural: Distant,No,No,Yes,Yes,90,8.3,10.8,17,0
231210000959,ME-1002-1004,2312100,ME-1002,PK,8,Edmunds Consolidated School,Education in Unorganized Terr,Washington County,21 Harrison Road,Edmunds Township,ME,4628,,(207)726-4478,43,Rural: Remote,No,No,Yes,Yes,63,7,9,32,18
231482400444,ME-1735-738,2314824,ME-1735,KG,8,Edna Drinkwater School,Northport Public Schools,Waldo County,56 Bayside Road,Northport,ME,4849,,(207)338-3430,41,Rural: Fringe,No,No,Yes,Yes,131,14.1,9.3,48,13
231179000930,ME-587-599,2311790,ME-587,PK,3,Edna Libby Elementary School,RSU 06/MSAD 06,Cumberland County,45 Fort Hill Road,Standish,ME,4084,,(207)642-2500,41,Rural: Fringe,No,No,Yes,Yes,261,22.3,11.7,110,17
230261000013,ME-14-23,2302610,ME-14,9,12,Edward Little High School,Auburn Public Schools,Androscoggin County,77 Harris Street,Auburn,ME,4210,,(207)333-6652,13,City: Small,No,No,Yes,Yes,1032,85.8,12,433,48
231053000321,ME-427-428,2310530,ME-427,KG,2,Eight Corners Elementary School,Scarborough Public Schools,Cumberland County,22 Mussey Road,Scarborough,ME,4074,,(207)730-5200,22,Suburb: Midsize,No,No,Yes,No,223,17.4,12.8,25,3
231137000452,ME-743-744,2311370,ME-743,PK,3,Eliot Elementary School,RSU 35/MSAD 35,York County,1298 State Road,Eliot,ME,3903,,(207)439-9004,41,Rural: Fringe,No,No,Yes,No,343,24.6,13.9,42,26
231479000591,ME-1462-459,2314790,ME-1462,PK,8,Ella Lewis School,RSU 24,Washington County,15 Old Village Road,Steuben,ME,4680,,(207)546-2430,43,Rural: Remote,No,No,Yes,Yes,106,12.3,8.6,62,8
231477700787,ME-1469-947,2314777,ME-1469,PK,3,Ella P Burr School,RSU 67,Penobscot County,23 Ella P Burr Street,Lincoln,ME,4457,,(207)794-3014,43,Rural: Remote,No,No,Yes,Yes,335,28,12,207,37
230550023117,ME-1663-1463,2305500,ME-1663,PK,8,Ellsworth Elementary-Middle School,Ellsworth Public Schools,Hancock County,20 Forrest Avenue,Ellsworth,ME,4605,,(207)667-6241,32,Town: Distant,No,No,Yes,Yes,896,66.8,13.4,342,80
230550000270,ME-1663-172,2305500,ME-1663,9,12,Ellsworth High School,Ellsworth Public Schools,Hancock County,24 Lejok Street,Ellsworth,ME,4605,,(207)667-4722,41,Rural: Fringe,No,No,Yes,No,475,35.9,13.2,145,37
230006200560,ME-1400-999,2300062,ME-1400,PK,8,Elm Street School-East Machias,East Machias Public Schools,Washington County,PO Box 229,East Machias,ME,4630,,(207)255-8692,43,Rural: Remote,No,No,Yes,Yes,183,13.8,13.3,78,13
231477500218,ME-1456-292,2314775,ME-1456,PK,6,Elm Street School-Mechanic Falls,RSU 16,Androscoggin County,129 Elm Street,Mechanic Falls,ME,4256,,(207)345-3381,42,Rural: Distant,No,No,Yes,Yes,288,24.2,11.9,142,28
231125000043,ME-718-719,2311250,ME-718,PK,5,Enfield Station Elementary School,RSU 31/MSAD 31,Penobscot County,561 Hammett Road,West Enfield,ME,4493,,(207)732-4141,42,Rural: Distant,No,No,Yes,Yes,212,22.5,9.4,119,21
231470023135,ME-913-921,2314700,ME-913,KG,5,Eric L Knowlton School,RSU 60/MSAD 60,York County,8 Noble Lane,Berwick,ME,3901,,(207)698-1188,41,Rural: Fringe,No,No,Yes,No,612,54.4,11.3,152,40
231478523182,ME-1458-2044,2314785,ME-1458,PK,4,Etna-Dixmont School,RSU 19,†,2100 Dixmont Road,Etna,ME,4434,,(207)368-5091,†,N,No,†,†,†,†,†,†,†,†
231086000367,ME-551-554,2310860,ME-551,3,5,Eva Hoyt Zippel School,RSU 79/MSAD 01,Aroostook County,42 Griffin Street,Presque Isle,ME,4769,,(207)764-8106,33,Town: Remote,No,No,Yes,Yes,293,18.5,15.8,133,23
231433000997,ME-826-832,2314330,ME-826,PK,KG,Fairfield Primary School,RSU 49/MSAD 49,Somerset County,63 High Street,Fairfield,ME,4937,,(207)453-4220,33,Town: Remote,No,No,Yes,Yes,142,10.3,13.8,103,10
230282000050,ME-42-43,2302820,ME-42,4,5,Fairmount School,Bangor Public Schools,Penobscot County,58 Thirteenth Street,Bangor,ME,4401,,(207)941-6260,13,City: Small,No,No,Yes,Yes,274,23.4,11.7,180,18
230261000014,ME-14-16,2302610,ME-14,PK,6,Fairview School,Auburn Public Schools,Androscoggin County,397 Minot Avenue,Auburn,ME,4210,,(207)784-3559,13,City: Small,No,No,–,–,568,39,14.6,167,20
230567023132,ME-174-179,2305670,ME-174,KG,5,Falmouth Elementary School,Falmouth Public Schools,Cumberland County,58 Woodville Road,Falmouth,ME,4105,,(207)781-3988,41,Rural: Fringe,No,No,Yes,No,891,70.7,12.6,41,8
230567000145,ME-174-177,2305670,ME-174,9,12,Falmouth High School,Falmouth Public Schools,Cumberland County,74 Woodville Road,Falmouth,ME,4105,,(207)781-7429,41,Rural: Fringe,No,No,Yes,No,687,62.6,11,22,7
230567000914,ME-174-178,2305670,ME-174,6,8,Falmouth Middle School,Falmouth Public Schools,Cumberland County,52 Woodville Road,Falmouth,ME,4105,,(207)781-3740,41,Rural: Fringe,No,No,Yes,No,548,51.4,10.7,27,10
230264001002,ME-28-34,2302640,ME-28,KG,6,Farrington School,Augusta Public Schools,Kennebec County,249 Eastern Avenue,Augusta,ME,4330,,(207)626-2480,41,Rural: Fringe,No,No,Yes,Yes,300,26.5,11.3,200,10
230732000187,ME-250-251,2307320,ME-250,PK,6,Farwell Elementary School,Lewiston Public Schools,Androscoggin County,84-110 Farwell Street,Lewiston,ME,4240,,(207)795-4110,13,City: Small,No,No,Yes,Yes,459,32,14.3,288,0
230000800455,ME-180-181,2300008,ME-180,PK,5,Fayette Central School,Fayette Public Schools,Kennebec County,2023 Main Street,Fayette,ME,4349,,(207)685-4770,42,Rural: Distant,No,No,Yes,No,79,5.9,13.4,21,9
231481323140,ME-1631-1649,2314813,ME-1631,PK,6,Fiddlehead School of Arts & Science,Fiddlehead School of Arts and Sciences,Cumberland County,25 Shaker Rd,Gray,ME,4039,,(207)657-2244,41,Rural: Fringe,Yes,No,Yes,No,135,9.7,13.9,34,16
231477200067,ME-1438-57,2314772,ME-1438,3,5,Fisher-Mitchell School,RSU 01 - LKRSU,Sagadahoc County,597 High Street,Bath,ME,4530,,(207)443-8265,31,Town: Fringe,No,No,Yes,Yes,200,19.1,10.5,102,20
231062000337,ME-626-627,2310620,ME-626,KG,12,Forest Hills Consolidated School,RSU 82/MSAD 12,Somerset County,606 Main Street,Jackman,ME,4945,,(207)668-5291,43,Rural: Remote,No,No,Yes,Yes,142,18.6,7.6,45,17
231089001052,ME-664-666,2310890,ME-664,PK,5,Fort Fairfield Elementary School,RSU 86/MSAD 20,Aroostook County,76 Brunswick Avenue,Fort Fairfield,ME,4742,,(207)472-3290,42,Rural: Distant,No,No,Yes,Yes,229,23.4,9.8,94,24
231089000375,ME-664-665,2310890,ME-664,6,12,Fort Fairfield Middle/High School,RSU 86/MSAD 20,Aroostook County,28 High School Drive Suite A,Fort Fairfield,ME,4742,,(207)472-3271,42,Rural: Distant,No,No,Yes,Yes,266,22.2,12,142,19
231110000405,ME-696-699,2311100,ME-696,9,12,Fort Kent Community High School,MSAD 27,Aroostook County,84 Pleasant Street,Fort Kent,ME,4743,,(207)834-5540,43,Rural: Remote,No,No,Yes,Yes,252,20.5,12.3,89,20
231110000406,ME-696-698,2311100,ME-696,PK,6,Fort Kent Elementary School,MSAD 27,Aroostook County,108 Pleasant Street,Fort Kent,ME,4743,,(207)834-3456,43,Rural: Remote,No,No,Yes,Yes,484,34.6,14,176,29
230006700561,ME-1412-1000,2300067,ME-1412,PK,8,Fort O'Brien School,Machiasport Public Schools,Washington County,PO Box 37,Machiasport,ME,4655,,(207)255-4575,43,Rural: Remote,No,No,Yes,Yes,43,5.9,7.3,37,2
231161000499,ME-780-781,2311610,ME-780,PK,6,Fort Street School,RSU 42/MSAD 42,Aroostook County,PO Box 509,Mars Hill,ME,4758,,(207)429-8514,43,Rural: Remote,No,No,Yes,Yes,200,19,10.5,94,13
231480900157,ME-1508-611,2314809,ME-1508,†,†,Foster Regional Applied Tech Ctr,RSU 09,Franklin County,129 Seamon Rd,Farmington,ME,4938,,(207)778-3562,41,Rural: Fringe,No,No,–,–,†,19,†,†,†
230282001005,ME-42-49,2302820,ME-42,PK,3,Fourteenth Street School,Bangor Public Schools,Penobscot County,224 Fourteenth Street,Bangor,ME,4401,,(207)941-6350,13,City: Small,No,No,Yes,Yes,138,10.9,12.7,44,13
231410000031,ME-537-541,2314100,ME-537,5,8,Frank H Harrison Middle School,Yarmouth Schools,Cumberland County,220 McCartney Street,Yarmouth,ME,4096,,(207)846-2499,22,Suburb: Midsize,No,No,Yes,No,555,41.8,13.3,48,9
231233000586,ME-444-455,2312330,ME-444,KG,5,Frank I Brown Elementary School,South Portland Public Schools,Cumberland County,37 Highland Avenue,South Portland,ME,4106,,(207)799-5196,13,City: Small,No,No,–,–,269,21.1,12.7,78,14
231478900149,ME-1449-185,2314789,ME-1449,9,12,Freeport High School,RSU 05,Cumberland County,30 Holbrook Street,Freeport,ME,4032,,(207)865-4706,22,Suburb: Midsize,No,No,Yes,No,582,43.9,13.3,109,19
231478900979,ME-1449-186,2314789,ME-1449,6,8,Freeport Middle School,RSU 05,Cumberland County,19 Kendall Lane,Freeport,ME,4032,,(207)865-6051,22,Suburb: Midsize,No,No,Yes,No,351,30,11.7,64,7
230759000208,ME-275-276,2307590,ME-275,KG,8,Frenchboro Elementary School,Frenchboro Public Schools,Hancock County,22 High Road,Frenchboro,ME,4635,,(207)334-2944,43,Rural: Remote,No,No,–,–,4,1,4,†,†
231155000482,ME-765-766,2311550,ME-765,KG,6,Friendship Village School,RSU 40/MSAD 40,Knox County,PO Box 100,Friendship,ME,4547,,(207)832-5057,42,Rural: Distant,No,No,Yes,No,96,9.5,10.1,34,3
230282000053,ME-42-44,2302820,ME-42,PK,3,Fruit Street School,Bangor Public Schools,Penobscot County,175 Fruit Street,Bangor,ME,4401,,(207)941-6270,13,City: Small,No,No,Yes,Yes,323,23.1,14,82,13
231479600103,ME-1464-103,2314796,ME-1464,PK,KG,G Herbert Jewett School,RSU 25,Hancock County,66 Bridge St,Bucksport,ME,4416,,(207)469-6644,42,Rural: Distant,No,No,Yes,Yes,130,12.9,10.1,98,3
231059000329,ME-617-619,2310590,ME-617,9,12,Gardiner Area High School,RSU 11/MSAD 11,Kennebec County,40 West Hill Road,Gardiner,ME,4345,,(207)582-3150,32,Town: Distant,No,No,Yes,No,620,50.9,12.2,181,43
231059000330,ME-617-620,2310590,ME-617,6,8,Gardiner Regional Middle School,RSU 11/MSAD 11,Kennebec County,161 Cobbossee Avenue,Gardiner,ME,4345,,(207)582-1326,41,Rural: Fringe,No,No,Yes,Yes,458,40.9,11.2,173,40
231476700812,ME-976-978,2314767,ME-976,PK,5,Garret Schenck School,RSU 74/MSAD 74,Somerset County,PO Box 317,Anson,ME,4911,,(207)696-3100,42,Rural: Distant,No,No,Yes,Yes,94,8.8,10.7,70,7
231481500386,ME-1615-674,2314815,ME-1615,3,5,George B Weatherbee School,RSU 22,Penobscot County,22 Main Road North,Hampden,ME,4444,,(207)862-3254,23,Suburb: Small,No,No,–,–,322,21.9,14.7,40,23
231179000535,ME-587-596,2311790,ME-587,4,5,George E Jack School,RSU 06/MSAD 06,Cumberland County,15 Northeast Road,Standish,ME,4084,,(207)642-4885,42,Rural: Distant,No,No,Yes,Yes,181,12.3,14.7,68,13
231335000604,ME-480-483,2313350,ME-480,PK,3,George J Mitchell School,Waterville Public Schools,Kennebec County,58 Drummond Avenue,Waterville,ME,4901,,(207)873-0695,33,Town: Remote,No,No,Yes,Yes,598,44.4,13.5,401,33
230597000154,ME-188-189,2305970,ME-188,PK,6,Georgetown Central School,Georgetown Public Schools,Sagadahoc County,52 Bay Point Road,Georgetown,ME,4548,,(207)371-2160,42,Rural: Distant,No,No,Yes,No,53,7.7,6.9,7,1
231480900548,ME-1508-614,2314809,ME-1508,PK,1,Gerald D Cushing School,RSU 09,Franklin County,1 Cushing Dr,Wilton,ME,4294,,(207)645-2442,42,Rural: Distant,No,No,Yes,Yes,124,10.7,11.6,59,5
231482200446,ME-1733-737,2314822,ME-1733,PK,1,Gladys Weymouth Elem School,RSU 71,Waldo County,2 South Main Street,Morrill,ME,4952,,(207)342-5300,42,Rural: Distant,No,No,Yes,Yes,99,7.3,13.6,42,8
230600000155,ME-191-192,2306000,ME-191,PK,8,Glenburn Elementary School,Glenburn Public Schools,Penobscot County,991 Hudson Road,Glenburn,ME,4401,,(207)947-8769,41,Rural: Fringe,No,No,Yes,No,451,35.8,12.6,151,40
230606000158,ME-194-199,2306060,ME-194,9,12,Gorham High School,Gorham Public Schools,Cumberland County,41 Morrill Avenue,Gorham,ME,4038,,(207)222-1100,22,Suburb: Midsize,No,No,–,–,868,64,13.6,111,27
230606000688,ME-194-201,2306060,ME-194,6,8,Gorham Middle School,Gorham Public Schools,Cumberland County,106 Weeks Road,Gorham,ME,4038,,(207)222-1220,22,Suburb: Midsize,No,No,Yes,No,628,46.6,13.5,104,31
231038000307,ME-1662-411,2310380,ME-1662,KG,2,Governor John Fairfield School,Saco Public Schools,York County,75 Beach Street,Saco,ME,4072,,(207)282-1322,22,Suburb: Midsize,No,No,Yes,Yes,339,29.5,11.5,97,23
230828000224,ME-298-299,2308280,ME-298,PK,5,Granite Street School,Millinocket Public Schools,Penobscot County,191 Granite Street,Millinocket,ME,4462,,(207)723-6426,33,Town: Remote,No,No,Yes,Yes,215,20.4,10.5,92,0
231071000346,ME-635-637,2310710,ME-635,9,12,Gray-New Gloucester High School,RSU 15/MSAD 15,Cumberland County,10 Libby Hill Road,Gray,ME,4039,,(207)657-3323,41,Rural: Fringe,No,No,–,–,616,46.2,13.3,107,23
231071001019,ME-635-638,2310710,ME-635,5,8,Gray-New Gloucester Middle School,RSU 15/MSAD 15,Cumberland County,31 Libby Hill Road,Gray,ME,4039,,(207)657-4994,41,Rural: Fringe,No,No,–,–,588,48,12.3,126,39
230606023126,ME-194-202,2306060,ME-194,KG,5,Great Falls Elementary School,Gorham Public Schools,Cumberland County,73 Justice Way,Gorham,ME,4038,,(207)222-1050,41,Rural: Fringe,No,No,Yes,No,567,41.3,13.7,108,27
230616000916,ME-1054-1055,2306160,ME-1054,KG,8,Great Salt Bay Community School,Great Salt Bay CSD,Lincoln County,559 Main Street,Damariscotta,ME,4543,,(207)563-3091,43,Rural: Remote,No,No,Yes,No,446,37.1,12,122,8
231424000679,ME-839-843,2314240,ME-839,9,12,Greely High School,RSU 51/MSAD 51,Cumberland County,303 Main Street,Cumberland,ME,4021,,(207)828-4805,22,Suburb: Midsize,No,No,Yes,No,667,64,10.4,38,5
231424000577,ME-839-846,2314240,ME-839,6,8,Greely Middle School,RSU 51/MSAD 51,Cumberland County,351 Tuttle Road,Cumberland,ME,4021,,(207)829-4815,22,Suburb: Midsize,No,No,Yes,No,476,46.8,10.2,34,6
231424000682,ME-839-845,2314240,ME-839,4,5,Greely Middle School 4-5,RSU 51/MSAD 51,Cumberland County,351 Tuttle Road,Cumberland,ME,4021,,(207)829-4815,22,Suburb: Midsize,No,No,Yes,No,318,24,13.3,21,1
231416000657,ME-847-848,2314160,ME-847,PK,6,Greene Central School,RSU 52/MSAD 52,Androscoggin County,41 Main Street,Greene,ME,4236,,(207)946-5681,41,Rural: Fringe,No,No,Yes,No,388,24.8,15.6,124,45
230625023138,ME-210-213,2306250,ME-210,KG,12,Greenville Consolidated School,Greenville Public Schools,Piscataquis County,PO Box 100,Greenville,ME,4441,,(207)695-2666,43,Rural: Remote,No,No,Yes,Yes,195,21.5,9.1,83,25
231077000925,ME-646-650,2310770,ME-646,PK,6,Guy E Rowe School,RSU 17/MSAD 17,Oxford County,219 Main Street,Norway,ME,4268,,(207)743-5183,32,Town: Distant,No,No,Yes,Yes,448,37,12.1,269,12
231179000536,ME-587-595,2311790,ME-587,PK,5,H B Emery Jr Memorial School,RSU 06/MSAD 06,York County,908 Cape Road,Limington,ME,4049,,(207)637-2056,42,Rural: Distant,No,No,Yes,Yes,197,16.3,12.1,71,12
231477600352,ME-1445-645,2314776,ME-1445,PK,5,Hall-Dale Elementary School,RSU 02,Kennebec County,26 Garden Lane,Hallowell,ME,4347,,(207)623-8677,41,Rural: Fringe,No,No,Yes,Yes,377,30,12.6,122,19
231477623162,ME-1445-1968,2314776,ME-1445,6,12,Hall-Dale Middle and High School,RSU 02,Kennebec County,111 Maple ST,Farmingdale,ME,4344,,(207)622-6351,41,Rural: Fringe,No,No,Yes,No,476,43.3,11,128,31
231481500387,ME-1615-675,2314815,ME-1615,9,12,Hampden Academy,RSU 22,Penobscot County,89 Western Avenue,Hampden,ME,4444,,(207)862-3791,23,Suburb: Small,No,No,–,–,795,52.8,15.1,151,40
230550000078,ME-1663-173,2305500,ME-1663,†,†,Hancock County Technical Center,Ellsworth Public Schools,Hancock County,112 Boggy Brook Road,Ellsworth,ME,4605,,(207)667-9729,41,Rural: Fringe,No,No,–,–,†,9.4,†,†,†
230626000166,ME-1664-215,2306260,ME-1664,KG,8,Hancock Grammar School,Hancock Public Schools,Hancock County,33 Cemetary Road,Hancock,ME,4640,,(207)422-6231,42,Rural: Distant,No,No,Yes,Yes,228,20.5,11.1,105,24
231470023185,ME-913-2062,2314700,ME-913,–,–,Hanson School,RSU 60/MSAD 60,†,53 Upper Guinea Road,Lebanon,ME,4027,,(207)457-1299,†,N,No,†,†,†,†,†,†,†,†
230633000167,ME-217-218,2306330,ME-217,PK,8,Harmony Elementary,Harmony Public Schools,Somerset County,PO Box 100,Harmony,ME,4942,,(207)683-2211,43,Rural: Remote,No,No,Yes,Yes,63,6.3,10,34,10
231481623139,ME-1632-1650,2314816,ME-1632,6,8,Harpswell Coastal Academy Division 1,Harpswell Coastal Academy,Cumberland County,9 Ash Point Road,Harpswell,ME,4079,,(207)833-3229,42,Rural: Distant,Yes,No,Yes,Yes,76,8,9.5,32,6
231481623173,ME-1632-2028,2314816,ME-1632,9,12,Harpswell Coastal Academy Divisions 2 and 3,Harpswell Coastal Academy,Cumberland County,8 Leavitt Dr,Brunswick,ME,4011,,(207)833-3229,31,Town: Fringe,Yes,No,–,–,124,6.8,18.2,43,11
231476800817,ME-984-989,2314768,ME-984,KG,5,Harpswell Community School,RSU 75/MSAD 75,Cumberland County,308 Harpswell Islands Road,Harpswell,ME,4079,,(207)729-5177,42,Rural: Distant,No,No,Yes,No,154,12.5,12.3,53,12
230378023129,ME-94-101,2303780,ME-94,2,5,Harriet Beecher Stowe Elementary,Brunswick Public Schools,Cumberland County,44 McKeen Street,Brunswick,ME,4011,,(207)319-1960,31,Town: Fringe,No,No,Yes,No,660,53,12.5,172,26
231143000928,ME-753-758,2311430,ME-753,PK,6,Harrington Elementary School,RSU 37/MSAD 37,Washington County,1227 US Highway 1A,Harrington,ME,4643,,(207)483-6681,43,Rural: Remote,No,No,Yes,Yes,149,11.2,13.3,69,16
231077000984,ME-646-647,2310770,ME-646,3,6,Harrison Elementary,RSU 17/MSAD 17,Cumberland County,309 Naples Road,Harrison,ME,4040,,(207)583-2357,42,Rural: Distant,No,No,Yes,Yes,113,10.9,10.4,56,5
230993000272,ME-364-373,2309930,ME-364,PK,5,Harrison Lyseth Elem School,Portland Public Schools,Cumberland County,175 Auburn ST,Portland,ME,4103,,(207)874-8215,13,City: Small,No,No,Yes,Yes,513,35,14.7,162,19
231479500470,ME-1450-764,2314795,ME-1450,PK,6,Hartford-Sumner Elementary School,RSU 10,Oxford County,145 Main Street,Sumner,ME,4292,,(207)388-2681,42,Rural: Distant,No,No,Yes,Yes,319,25.5,12.5,133,28
231077000555,ME-646-649,2310770,ME-646,PK,6,Hebron Station School,RSU 17/MSAD 17,Oxford County,884 Station Road,Hebron,ME,4238,,(207)966-3323,42,Rural: Distant,No,No,–,–,121,9,13.4,27,1
230618000165,ME-208-209,2306180,ME-208,PK,8,Helen S Dunn Elementary School,Greenbush Public Schools,Penobscot County,129 Military Road,Greenbush,ME,4418,,(207)826-2000,42,Rural: Distant,No,No,Yes,Yes,147,14.5,10.1,96,9
231059000300,ME-617-625,2310590,ME-617,PK,5,Helen Thompson School,RSU 11/MSAD 11,Kennebec County,309 Spears Corner Road,West Gardiner,ME,4345,,(207)724-3930,42,Rural: Distant,No,No,Yes,No,292,19.6,14.9,74,21
231477600230,ME-1445-307,2314776,ME-1445,PK,3,Henry L Cottrell School,RSU 02,Kennebec County,169 Academy Road,Monmouth,ME,4259,,(207)933-4426,42,Rural: Distant,No,No,Yes,No,202,16,12.6,73,9
230651000281,ME-219-222,2306510,ME-219,9,12,Hermon High School,Hermon Public Schools,Penobscot County,2415 Route 2,Hermon,ME,4401,,(207)848-4027,41,Rural: Fringe,No,No,Yes,No,504,33.9,14.9,116,25
230651000169,ME-219-221,2306510,ME-219,5,8,Hermon Middle School,Hermon Public Schools,Penobscot County,29 Billings Road,Hermon,ME,4401,,(207)848-4070,41,Rural: Fringe,No,No,Yes,No,309,20.5,15.1,61,18
231125000431,ME-718-721,2311250,ME-718,6,8,Hichborn Middle School,RSU 31/MSAD 31,Penobscot County,23 Cross Street,Howland,ME,4448,,(207)732-3113,42,Rural: Distant,No,No,Yes,Yes,99,12.8,7.7,56,9
231476223151,ME-957-1769,2314762,ME-957,7,12,Hodgdon Middle/High School,RSU 70/MSAD 70,Aroostook County,175 Hodgdon Mills Road,Hodgdon,ME,4730,,(207)532-2413,42,Rural: Distant,No,No,Yes,Yes,191,18,10.6,98,14
231447000721,ME-932-935,2314470,ME-932,5,8,Holbrook School,RSU 63/MSAD 63,Penobscot County,202 Kidder Hill Road,Holden,ME,4429,,(207)843-7769,42,Rural: Distant,No,No,Yes,Yes,240,19.9,12.1,82,10
231447000722,ME-932-934,2314470,ME-932,2,4,Holden School,RSU 63/MSAD 63,Penobscot County,590 Main Road,Holden,ME,4429,,(207)843-7828,41,Rural: Fringe,No,No,Yes,No,142,13.6,10.4,37,4
231179000538,ME-587-593,2311790,ME-587,PK,5,Hollis School,RSU 06/MSAD 06,York County,554 River Road,Hollis,ME,4042,,(207)929-3838,42,Rural: Distant,No,No,Yes,Yes,293,21.9,13.4,88,15
230661000980,ME-225-226,2306610,ME-225,PK,8,Hope Elementary School,Hope Public Schools,Knox County,34 Highfield Road,Hope,ME,4847,,(207)785-4081,42,Rural: Distant,No,No,Yes,No,176,16.8,10.5,37,7
230714000183,ME-242-243,2307140,ME-242,KG,3,Horace Mitchell Primary School,Kittery Public Schools,York County,7 School Lane,Kittery Point,ME,3905,,(207)439-1707,23,Suburb: Small,No,No,Yes,No,318,32,9.9,65,30
231116000415,ME-707-708,2311160,ME-707,PK,2,Houlton Elementary School,RSU 29/MSAD 29,Aroostook County,60 South Street,Houlton,ME,4730,,(207)532-2285,41,Rural: Fringe,No,No,Yes,Yes,423,26.8,15.8,226,37
231116000416,ME-707-709,2311160,ME-707,9,12,Houlton High School,RSU 29/MSAD 29,Aroostook County,7 Bird Street,Houlton,ME,4730,,(207)532-6551,41,Rural: Fringe,No,No,Yes,No,364,28.2,12.9,134,23
231116000301,ME-707-711,2311160,ME-707,6,8,Houlton Junior High School,RSU 29/MSAD 29,Aroostook County,7 Bird Street,Houlton,ME,4730,,(207)532-6551,41,Rural: Fringe,No,No,Yes,Yes,298,23.8,12.5,153,25
231116000035,ME-707-710,2311160,ME-707,3,5,Houlton Southside School,RSU 29/MSAD 29,Aroostook County,65 South Street,Houlton,ME,4730,,(207)532-6027,41,Rural: Fringe,No,No,Yes,Yes,319,23.7,13.5,177,24
230993000273,ME-364-380,2309930,ME-364,PK,5,Howard C Reiche Community Sch,Portland Public Schools,Cumberland County,166 Brackett ST,Portland,ME,4102,,(207)874-8175,13,City: Small,No,No,Yes,Yes,441,33.8,13,283,13
230678000170,ME-227-228,2306780,ME-227,KG,8,Isle au Haut Rural School,Isle Au Haut Public Schools,Knox County,PO Box 56B,Isle Au Haut,ME,4645,,(207)335-2521,43,Rural: Remote,No,No,–,–,5,1.3,3.8,†,†
230681000171,ME-229-230,2306810,ME-229,KG,12,Islesboro Central School,Islesboro Public Schools,Waldo County,PO Box 118,Islesboro,ME,4848,,(207)734-2251,42,Rural: Distant,No,No,Yes,No,90,14.8,6.1,12,5
230282000051,ME-42-50,2302820,ME-42,6,8,James F. Doughty School,Bangor Public Schools,Penobscot County,143 Fifth Street,Bangor,ME,4401,,(207)941-6220,13,City: Small,No,No,Yes,Yes,389,33.1,11.8,253,21
231477900702,ME-1457-812,2314779,ME-1457,PK,5,James H Bean School,RSU 18,Kennebec County,2896 Middle Road,Sidney,ME,4330,,(207)547-3395,42,Rural: Distant,No,No,Yes,No,259,18.8,13.8,66,15
231233000716,ME-444-446,2312330,ME-444,PK,5,James Otis Kaler Elementary School,South Portland Public Schools,Cumberland County,165 South Kelsey Street,South Portland,ME,4106,,(207)799-3214,13,City: Small,No,No,Yes,Yes,231,21,11,104,17
231478400238,ME-1461-323,2314784,ME-1461,PK,2,Jameson Elementary School,RSU 23,York County,20 Jameson Hill Road,Old Orchard Beach,ME,4064,,(207)934-2891,22,Suburb: Midsize,No,No,Yes,Yes,187,19.2,9.7,95,6
230687000175,ME-235-236,2306870,ME-235,KG,8,Jefferson Village School,Jefferson Public Schools,Lincoln County,48 Washington Road,Jefferson,ME,4348,,(207)549-7491,43,Rural: Remote,No,No,Yes,Yes,193,15.3,12.6,58,5
230315000076,ME-65-67,2303150,ME-65,PK,KG,John F Kennedy Memorial School,Biddeford Public Schools,York County,64 West Street,Biddeford,ME,4005,,(207)282-4134,22,Suburb: Midsize,No,No,Yes,Yes,260,18.6,14,132,9
230690000177,ME-237-238,2306900,ME-237,PK,8,Jonesboro Elementary School,Jonesboro Public Schools,Washington County,57 School Road,Jonesboro,ME,4648,,(207)434-2602,43,Rural: Remote,No,No,Yes,Yes,62,7.5,8.3,31,7
230710000917,ME-239-240,2307100,ME-239,PK,8,Jonesport Elementary School,Jonesport Public Schools,Washington County,139 Snare Creek Lane,Jonesport,ME,4649,,(207)497-2830,43,Rural: Remote,No,No,Yes,Yes,109,13.4,8.1,52,7
230840000920,ME-1058-1059,2308400,ME-1058,9,12,Jonesport-Beals High School,Moosabec CSD,Washington County,180 Snare Creek Lane,Jonesport,ME,4649,,(207)497-5454,43,Rural: Remote,No,No,Yes,Yes,77,10,7.7,30,9
231479300292,ME-1455-395,2314793,ME-1455,5,8,Jordan-Small Middle School,RSU 14,Cumberland County,423 Webb's Mills Road,Raymond,ME,4071,,(207)655-4743,41,Rural: Fringe,No,No,–,–,184,17.6,10.5,48,16
231483800398,ME-1997-692,2314838,ME-1997,PK,5,Katahdin Elementary School,RSU 89,Penobscot County,805 Station Road,Stacyville,ME,4777,,(207)365-4285,43,Rural: Remote,No,–,–,–,145,17.8,8.1,83,14
231483800397,ME-1997-693,2314838,ME-1997,6,12,Katahdin Middle/High School,RSU 89,Penobscot County,800 Station Road,Stacyville,ME,4777,,(207)365-4218,43,Rural: Remote,No,–,–,–,181,14,12.9,90,20
231477300580,ME-1460-968,2314773,ME-1460,PK,2,Kennebunk Elementary School,RSU 21,York County,177 Alewive Road,Kennebunk,ME,4043,,(207)985-4402,41,Rural: Fringe,No,No,Yes,No,442,32,13.8,65,17
231477300799,ME-1460-964,2314773,ME-1460,9,12,Kennebunk High School,RSU 21,York County,89 Fletcher Street,Kennebunk,ME,4043,,(207)985-1110,31,Town: Fringe,No,No,–,–,718,60.1,11.9,72,27
231477300801,ME-1460-967,2314773,ME-1460,KG,5,Kennebunkport Consolidated Sch,RSU 21,York County,25 School Street,Kennebunkport,ME,4046,,(207)967-2121,31,Town: Fringe,No,No,–,–,156,12.4,12.6,21,7
231482200448,ME-1733-740,2314822,ME-1733,PK,5,Kermit S Nickerson School,RSU 71,Waldo County,18 Townhouse Road,Swanville,ME,4915,,(207)338-1858,42,Rural: Distant,No,No,Yes,Yes,101,8.5,11.9,47,15
230993000274,ME-364-375,2309930,ME-364,6,8,King Middle School,Portland Public Schools,Cumberland County,92 Deering AV,Portland,ME,4102,,(207)874-8140,13,City: Small,No,No,Yes,Yes,497,46.5,10.7,268,15
231430000941,ME-898-900,2314300,ME-898,PK,8,Kingfield Elementary School,RSU 58/MSAD 58,Franklin County,102 Salem Road,Kingfield,ME,4947,,(207)265-4132,43,Rural: Remote,No,No,Yes,Yes,131,14.4,9.1,41,22
231210000960,ME-1002-1005,2312100,ME-1002,PK,5,Kingman Elementary School,Education in Unorganized Terr,Penobscot County,25 Park Street,Kingman,ME,4451,,(207)765-2500,43,Rural: Remote,No,No,Yes,Yes,25,2.2,11.4,14,0
231050000313,ME-416-419,2310500,ME-416,PK,3,Lafayette School,Sanford Public Schools,York County,69 Brook Street,Sanford,ME,4073,,(207)324-4160,32,Town: Distant,No,No,Yes,Yes,190,13.7,13.9,119,8
231421000673,ME-922-925,2314210,ME-922,9,12,Lake Region High School,RSU 61/MSAD 61,Cumberland County,1877 Roosevelt Trail,Naples,ME,4055,,(207)693-6221,42,Rural: Distant,No,No,Yes,Yes,560,45.7,12.3,192,48
231421000939,ME-922-926,2314210,ME-922,6,8,Lake Region Middle School,RSU 61/MSAD 61,Cumberland County,204 Kansas Road,Naples,ME,4055,,(207)647-8403,42,Rural: Distant,No,No,Yes,Yes,436,40,10.9,159,32
231421000189,ME-922-928,2314210,ME-922,†,†,Lake Region Vocational Center,RSU 61/MSAD 61,Cumberland County,1879 Roosevelt Trail,Naples,ME,4055,,(207)693-3864,42,Rural: Distant,No,No,–,–,†,11.5,†,†,†
230725000186,ME-1665-249,2307250,ME-1665,KG,8,Lamoine Consolidated School,Lamoine Public Schools,Hancock County,53 Lamoine Beach Road,Lamoine,ME,4605,,(207)667-8578,42,Rural: Distant,No,No,Yes,No,124,11.5,10.8,36,9
231059000023,ME-617-621,2310590,ME-617,PK,2,Laura E Richards School,RSU 11/MSAD 11,Kennebec County,279 Brunswick Avenue,Gardiner,ME,4345,,(207)582-3612,32,Town: Distant,No,No,Yes,Yes,251,16.4,15.3,102,11
231433000695,ME-826-830,2314330,ME-826,9,12,Lawrence High School,RSU 49/MSAD 49,Somerset County,9 School Street,Fairfield,ME,4937,,(207)453-4200,33,Town: Remote,No,No,Yes,No,646,44.7,14.5,279,66
231433000696,ME-826-831,2314330,ME-826,7,8,Lawrence Jr High School,RSU 49/MSAD 49,Somerset County,7 School Street,Fairfield,ME,4937,,(207)453-4200,33,Town: Remote,No,No,Yes,Yes,339,27.3,12.4,177,38
231416000658,ME-847-851,2314160,ME-847,9,12,Leavitt Area High School,RSU 52/MSAD 52,Androscoggin County,21 Matthews Way,Turner,ME,4282,,(207)225-1100,42,Rural: Distant,No,No,–,–,583,48.1,12.1,138,70
231470000781,ME-913-918,2314700,ME-913,KG,5,Lebanon Elementary School,RSU 60/MSAD 60,York County,65 Upper Guinea Road,Lebanon,ME,4027,,(207)457-1126,41,Rural: Fringe,No,No,Yes,Yes,476,38.5,12.4,122,42
231122000029,ME-713-716,2311220,ME-713,PK,4,Lee/Winn School,RSU 30/MSAD 30,Penobscot County,1009 Route 168,Winn,ME,4495,,(207)738-3060,43,Rural: Remote,No,No,Yes,Yes,100,8,12.5,56,15
231416000659,ME-847-849,2314160,ME-847,PK,6,Leeds Central School,RSU 52/MSAD 52,Androscoggin County,1185 Route 106,Leeds,ME,4263,,(207)524-5151,42,Rural: Distant,No,No,Yes,Yes,201,15.6,12.9,84,23
231478200246,ME-1466-331,2314782,ME-1466,6,8,Leonard Middle School,RSU 34,Penobscot County,156 Oak Street,Old Town,ME,4468,,(207)827-3900,23,Suburb: Small,No,No,Yes,Yes,317,24,13.2,131,20
231481500388,ME-1615-679,2314815,ME-1615,PK,4,Leroy H Smith School,RSU 22,Waldo County,319 South Main Street,Winterport,ME,4496,,(207)223-4282,42,Rural: Distant,No,No,Yes,Yes,302,25.1,12,136,11
230732000190,ME-250-255,2307320,ME-250,9,12,Lewiston High School,Lewiston Public Schools,Androscoggin County,156 East Avenue,Lewiston,ME,4240,,(207)795-4190,13,City: Small,No,No,Yes,Yes,1526,104,14.7,862,0
230732000191,ME-250-257,2307320,ME-250,7,8,Lewiston Middle School,Lewiston Public Schools,Androscoggin County,75 Central Avenue,Lewiston,ME,4240,,(207)795-4180,13,City: Small,No,No,Yes,Yes,800,63.8,12.5,540,0
230732000091,ME-250-259,2307320,ME-250,†,†,Lewiston Regional Technology Ctr,Lewiston Public Schools,Androscoggin County,156 East Avenue,Lewiston,ME,4240,,(207)795-4144,13,City: Small,No,No,–,–,†,23,†,†,†
231478300205,ME-1446-273,2314783,ME-1446,PK,2,Libby-Tozier School,RSU 04,Kennebec County,466 Academy Road,Litchfield,ME,4350,,(207)268-4137,42,Rural: Distant,No,No,Yes,Yes,166,14,11.9,81,5
230264000040,ME-28-31,2302640,ME-28,KG,6,Lillian Parks Hussey School,Augusta Public Schools,Kennebec County,12 Gedney Street,Augusta,ME,4330,,(207)626-2461,32,Town: Distant,No,No,Yes,Yes,292,17.9,16.3,114,19
231484223169,ME-2040-1969,2314842,ME-2040,PK,8,Limestone Community School,Limestone Public Schools,†,93 High Street,Limestone,ME,4750,,(207)325-4742,†,N,No,†,†,†,†,†,†,†,†
230993000275,ME-364-376,2309930,ME-364,6,8,Lincoln Middle School,Portland Public Schools,Cumberland County,522 Stevens AV,Portland,ME,4103,,(207)874-8145,13,City: Small,No,No,Yes,Yes,529,44.5,11.9,210,34
230264001003,ME-28-35,2302640,ME-28,KG,6,Lincoln School,Augusta Public Schools,Kennebec County,30 Lincoln Street,Augusta,ME,4330,,(207)626-2483,32,Town: Distant,No,No,Yes,Yes,308,22.1,13.9,184,16
230745000601,ME-264-265,2307450,ME-264,KG,8,Lincolnville Central School,Lincolnville Public Schools,Waldo County,523 Hope Road,Lincolnville,ME,4849,,(207)763-3366,42,Rural: Distant,No,No,Yes,No,219,19,11.5,54,2
231467001013,ME-888-890,2314670,ME-888,PK,5,Line Elementary,RSU 57/MSAD 57,York County,818 Water Street,West Newfield,ME,4095,,(207)793-4100,42,Rural: Distant,No,No,Yes,Yes,298,24,12.4,118,43
230753000583,ME-266-271,2307530,ME-266,PK,5,Lisbon Community School,Lisbon Public Schools,Androscoggin County,33 Mill Street,Lisbon,ME,4250,,(207)353-4132,41,Rural: Fringe,No,No,Yes,Yes,647,51.3,12.6,285,43
230753000202,ME-266-270,2307530,ME-266,9,12,Lisbon High School,Lisbon Public Schools,Androscoggin County,2 Sugg Drive,Lisbon Falls,ME,4252,,(207)353-3030,23,Suburb: Small,No,No,Yes,Yes,335,23.5,14.3,107,36
230000900032,ME-387-388,2300009,ME-387,KG,5,Long Island Elementary School,Long Island Public Schools,Cumberland County,33 Fern Avenue,Long Island,ME,4050,,(207)766-4414,41,Rural: Fringe,No,No,–,–,14,2.3,6.1,3,0
230993000277,ME-364-370,2309930,ME-364,KG,5,Longfellow School-Portland,Portland Public Schools,Cumberland County,432 Stevens AV,Portland,ME,4103,,(207)874-8195,13,City: Small,No,No,–,–,329,23.1,14.2,58,8
231478400240,ME-1461-324,2314784,ME-1461,3,8,Loranger Memorial School,RSU 23,York County,148 Saco Avenue,Old Orchard Beach,ME,4064,,(207)934-4848,22,Suburb: Midsize,No,No,Yes,Yes,313,37,8.5,134,27
231083000365,ME-662-663,2310830,ME-662,PK,8,Lubec Consolidated School,RSU 85/MSAD 19,Washington County,44 South Street,Lubec,ME,4652,,(207)733-5561,43,Rural: Remote,No,No,Yes,Yes,66,10.6,6.2,66,0
231467000951,ME-888-892,2314670,ME-888,PK,5,Lyman Elementary School,RSU 57/MSAD 57,York County,39 SchoolHouse Road,Lyman,ME,4002,,(207)499-7228,41,Rural: Fringe,No,No,Yes,Yes,235,14.2,16.5,80,22
230993000278,ME-364-377,2309930,ME-364,6,8,Lyman Moore Middle School,Portland Public Schools,Cumberland County,171 Auburn ST,Portland,ME,4103,,(207)874-8150,13,City: Small,No,No,Yes,Yes,460,48.5,9.5,214,26
231424000681,ME-839-844,2314240,ME-839,PK,3,Mabel I Wilson School,RSU 51/MSAD 51,Cumberland County,353 Tuttle Road,Cumberland,ME,4021,,(207)829-4825,22,Suburb: Midsize,No,No,Yes,No,614,47.8,12.8,36,0
230771000209,ME-277-279,2307710,ME-277,9,12,Machias Memorial High School,Machias Public Schools,Washington County,1 Bulldog Lane,Machias,ME,4654,,(207)255-3812,43,Rural: Remote,No,No,Yes,Yes,119,12.2,9.8,56,20
230780000282,ME-282-284,2307800,ME-282,PK,6,Madawaska Elementary School,Madawaska Public Schools,Aroostook County,353 Eleventh Avenue,Madawaska,ME,4756,,(207)728-3635,43,Rural: Remote,No,No,Yes,Yes,218,18.5,11.8,111,12
230780000214,ME-282-283,2307800,ME-282,7,12,Madawaska Middle/High School,Madawaska Public Schools,Aroostook County,135 Seventh Avenue,Madawaska,ME,4756,,(207)728-3371,43,Rural: Remote,No,No,Yes,Yes,214,17,12.6,85,17
231456000998,ME-905-909,2314560,ME-905,9,12,Madison Area Memorial H S,RSU 59/MSAD 59,Somerset County,486 Main Street,Madison,ME,4950,,(207)696-3395,42,Rural: Distant,No,No,Yes,Yes,203,18.6,10.9,94,30
231456000567,ME-905-911,2314560,ME-905,PK,4,Madison Elementary School,RSU 59/MSAD 59,Somerset County,43 Learners Lane,Madison,ME,4950,,(207)696-4607,42,Rural: Distant,No,No,Yes,Yes,238,20.8,11.4,149,32
231456001012,ME-905-910,2314560,ME-905,5,8,Madison Junior High School,RSU 59/MSAD 59,Somerset County,205 Main Street,Madison,ME,4950,,(207)696-3381,42,Rural: Distant,No,No,Yes,Yes,181,18.7,9.7,112,16
231480823134,ME-1501-1502,2314808,ME-1501,9,12,Maine Academy of Natural Sciences,Maine Academy of Natural Sciences,Somerset County,PO Box 159,Hinckley,ME,4944,,(207)238-4100,42,Rural: Distant,Yes,No,Yes,Yes,196,12.6,15.6,117,18
231483223155,ME-1762-1766,2314832,ME-1762,9,12,Maine Arts Academy School,Maine Arts Academy,Kennebec County,11 Goldenrod Lane,Sidney,ME,4330,,(207)618-8908,42,Rural: Distant,Yes,No,Yes,Yes,206,14.2,14.5,62,17
231481923145,ME-1672-1673,2314819,ME-1672,7,12,Maine Connections Academy,Maine Connections Academy,Cumberland County,75 John Roberts Rd Unit 11B,South Portland,ME,4106,,(207)805-3254,13,City: Small,Yes,No,Yes,Yes,431,19.4,22.2,135,37
231484023174,ME-2005-2006,2314840,ME-2005,9,12,Maine Ocean School,Maine Ocean School,Waldo County,PO Box 10,Searsport,ME,4974,,(207)370-8375,42,Rural: Distant,No,Yes,–,–,12,2,6,4,0
230530000249,ME-1027-1028,2305300,ME-1027,†,†,Maine Region Ten Technical High Sch,Brunswick-Region 10,Cumberland County,68 Church Road,Brunswick,ME,4011,,(207)729-6622,31,Town: Fringe,No,No,–,–,†,13,†,†,†
231482123147,ME-1739-1715,2314821,ME-1739,7,12,Maine Virtual Academy,Maine Virtual Academy,Kennebec County,6 East Chestnut St. Suite 230,Augusta,ME,4330,,(207)613-8900,32,Town: Distant,Yes,No,Yes,Yes,395,22.3,17.7,205,22
231478800217,ME-1467-288,2314788,ME-1467,PK,5,Manchester Elementary School,RSU 38,Kennebec County,17 School St.,Manchester,ME,4351,,(207)622-2949,41,Rural: Fringe,No,No,–,–,176,16.3,10.8,38,11
231479300631,ME-1455-512,2314793,ME-1455,4,5,Manchester School,RSU 14,Cumberland County,709 Roosevelt Trail,Windham,ME,4062,,(207)892-1830,22,Suburb: Midsize,No,No,Yes,No,417,29,14.4,110,29
231461000760,ME-854-856,2314610,ME-854,PK,KG,Manson Park School,RSU 53/MSAD 53,Somerset County,179 Lancey Street,Pittsfield,ME,4967,,(207)487-2881,32,Town: Distant,No,No,Yes,Yes,98,7.6,12.9,56,3
231086000369,ME-551-552,2310860,ME-551,PK,5,Mapleton Elementary School,RSU 79/MSAD 01,Aroostook County,1642 Main Street,Mapleton,ME,4757,,(207)764-1589,42,Rural: Distant,No,No,–,–,233,15.5,15,42,14
231478800234,ME-1467-1043,2314788,ME-1467,9,12,Maranacook Community High Sch,RSU 38,Kennebec County,2250 Millard Harrison Drive,Readfield,ME,4355,,(207)685-4923,42,Rural: Distant,No,No,–,–,359,36.5,9.8,74,31
231478800540,ME-1467-1044,2314788,ME-1467,6,8,Maranacook Community Middle Sch,RSU 38,Kennebec County,2100 Millard Harrison Drive,Readfield,ME,4355,,(207)685-3128,42,Rural: Distant,No,No,Yes,No,288,27.1,10.6,69,26
231477600296,ME-1445-402,2314776,ME-1445,PK,5,Marcia Buker School,RSU 02,Sagadahoc County,28 High Street,Richmond,ME,4357,,(207)876-4301,42,Rural: Distant,No,No,Yes,Yes,223,19.6,11.4,79,13
231459000751,ME-860-868,2314590,ME-860,4,5,Margaret Chase Smith Sch - Skowhegan,RSU 54/MSAD 54,Somerset County,40 Heselton Street,Skowhegan,ME,4976,,(207)474-9822,33,Town: Remote,No,No,Yes,Yes,207,16.6,12.5,129,9
231137000454,ME-743-747,2311370,ME-743,4,5,Marshwood Great Works School,RSU 35/MSAD 35,York County,49 Academy Street,South Berwick,ME,3908,,(207)384-4010,23,Suburb: Small,No,No,Yes,No,294,23.8,12.4,44,11
231137000491,ME-743-748,2311370,ME-743,9,12,Marshwood High School,RSU 35/MSAD 35,York County,260 Dow Highway,South Berwick,ME,3908,,(207)384-4500,41,Rural: Fringe,No,No,–,–,666,53,12.6,88,39
231137000453,ME-743-745,2311370,ME-743,6,8,Marshwood Middle School,RSU 35/MSAD 35,York County,626 H.L. Dow Highway,Eliot,ME,3903,,(207)439-1399,41,Rural: Fringe,No,No,Yes,No,458,38.5,11.9,69,32
230282001004,ME-42-46,2302820,ME-42,4,5,Mary Snow School,Bangor Public Schools,Penobscot County,435 Broadway,Bangor,ME,4401,,(207)941-6290,13,City: Small,No,No,Yes,Yes,230,19.8,11.6,67,11
231467000775,ME-888-894,2314670,ME-888,9,12,Massabesic High School,RSU 57/MSAD 57,York County,88 West Road,Waterboro,ME,4087,,(207)247-3141,42,Rural: Distant,No,No,Yes,No,883,71.3,12.4,280,132
231467001058,ME-888-897,2314670,ME-888,6,8,Massabesic Middle School,RSU 57/MSAD 57,York County,134 Old Alfred Road,East Waterboro,ME,4030,,(207)247-6121,42,Rural: Distant,No,No,Yes,No,682,53.3,12.8,232,82
231478901044,ME-1449-187,2314789,ME-1449,3,5,Mast Landing School,RSU 05,Cumberland County,20 Mollymauk Lane,Freeport,ME,4032,,(207)865-4561,22,Suburb: Midsize,No,No,Yes,No,257,23.1,11.1,61,10
231441000713,ME-944-945,2314410,ME-944,KG,8,Matinicus Elementary School,RSU 65/MSAD 65,Knox County,PO Box 194,Matinicus Isle Plantation,ME,4851,,(207)366-3526,43,Rural: Remote,No,No,†,†,0,1,†,0,0
231477700788,ME-1469-948,2314777,ME-1469,9,12,Mattanawcook Academy,RSU 67,Penobscot County,33 Reed Drive,Lincoln,ME,4457,,(207)794-6711,43,Rural: Remote,No,No,Yes,Yes,304,25.3,12,130,25
231477700789,ME-1469-949,2314777,ME-1469,4,8,Mattanawcook Jr High School,RSU 67,Penobscot County,45 School Street,Lincoln,ME,4457,,(207)794-8935,43,Rural: Remote,No,No,Yes,Yes,340,27,12.6,185,48
230004900293,ME-1067-1068,2300049,ME-1067,9,12,ME Sch of Science & Mathematics,ME Sch of Science & Mathematics,Aroostook County,95 High Street,Limestone,ME,4750,,(207)325-3600,42,Rural: Distant,No,Yes,–,–,127,18.7,6.8,5,0
231155023111,ME-765-773,2311550,ME-765,7,8,Medomak Middle School,RSU 40/MSAD 40,Lincoln County,318 Manktown Road,Waldoboro,ME,4572,,(207)832-5028,42,Rural: Distant,No,No,Yes,Yes,283,24.7,11.5,118,27
231155000483,ME-765-770,2311550,ME-765,9,12,Medomak Valley High School,RSU 40/MSAD 40,Lincoln County,320 Manktown Road,Waldoboro,ME,4572,,(207)832-5380,42,Rural: Distant,No,No,Yes,Yes,572,42.8,13.4,213,47
230816000220,ME-294-295,2308160,ME-294,5,8,Medway Middle School,Medway Public Schools,Penobscot County,25 Middle School Drive,Medway,ME,4460,,(207)746-3470,42,Rural: Distant,No,No,Yes,Yes,113,12.2,9.3,62,10
231233000581,ME-444-454,2312330,ME-444,6,8,Memorial Middle School,South Portland Public Schools,Cumberland County,120 Wescott Road,South Portland,ME,4106,,(207)773-5629,13,City: Small,No,No,Yes,Yes,375,32.8,11.4,155,31
231071000347,ME-635-639,2310710,ME-635,KG,2,Memorial School,RSU 15/MSAD 15,Cumberland County,86 Intervale Road,New Gloucester,ME,4260,,(207)926-4322,41,Rural: Fringe,No,No,Yes,Yes,167,15.2,11,49,11
231479500823,ME-1450-785,2314795,ME-1450,PK,4,Meroby Elementary School,RSU 10,Oxford County,21 Cross Street,Mexico,ME,4257,,(207)364-3714,32,Town: Distant,No,No,Yes,Yes,286,22.3,12.8,247,3
231477900705,ME-1457-811,2314779,ME-1457,9,12,Messalonskee High School,RSU 18,Kennebec County,131 Messalonskee High Drive,Oakland,ME,4963,,(207)465-7381,41,Rural: Fringe,No,No,–,–,723,52.4,13.8,177,34
231477900694,ME-1457-813,2314779,ME-1457,6,8,Messalonskee Middle School,RSU 18,Kennebec County,33 School Bus Drive,Oakland,ME,4963,,(207)465-2167,41,Rural: Fringe,No,No,Yes,No,530,44.3,12,145,42
230718000241,ME-1023-1024,2307180,ME-1023,†,†,Mid-Coast Sch of Tech-Region 8,Rockland-Region 8,Knox County,One Main Street,Rockland,ME,4841,,(207)594-2161,33,Town: Remote,No,No,–,–,†,22.5,†,†,†
231335000144,ME-480-485,2313350,ME-480,†,†,Mid-Maine Technical Center,Waterville Public Schools,Kennebec County,3 Brooklyn Avenue,Waterville,ME,4901,,(207)873-0102,33,Town: Remote,No,No,–,–,†,13.3,†,†,†
231477300800,ME-1460-966,2314773,ME-1460,6,8,Middle School of the Kennebunks,RSU 21,York County,60 Thompson Road,Kennebunk,ME,4043,,(207)467-8004,41,Rural: Fringe,No,No,Yes,No,572,48.4,11.8,96,29
231143000465,ME-753-759,2311430,ME-753,PK,6,Milbridge Elementary School,RSU 37/MSAD 37,Washington County,39 Washington Street,Milbridge,ME,4658,,(207)546-2210,43,Rural: Remote,No,No,Yes,Yes,128,11.5,11.1,75,13
231477300008,ME-1460-13,2314773,ME-1460,KG,5,Mildred L Day School,RSU 21,York County,600 Limerick Road,Arundel,ME,4046,,(207)284-4677,41,Rural: Fringe,No,No,Yes,No,238,18.9,12.6,61,16
231479601027,ME-1464-106,2314796,ME-1464,1,4,Miles Lane School,RSU 25,Hancock County,52 Miles Ln,Bucksport,ME,4416,,(207)469-6666,42,Rural: Distant,No,No,Yes,Yes,268,25.6,10.5,147,22
231476200797,ME-957-958,2314762,ME-957,PK,6,Mill Pond School,RSU 70/MSAD 70,Aroostook County,175 Hodgdon Mills Road,Hodgdon,ME,4730,,(207)532-9228,42,Rural: Distant,No,No,Yes,Yes,284,22.5,12.6,170,39
231459023112,ME-860-873,2314590,ME-860,PK,6,Mill Stream Elementary School,RSU 54/MSAD 54,Somerset County,26 Mercer Road,Norridgewock,ME,4957,,(207)634-3121,42,Rural: Distant,No,No,Yes,Yes,327,31.5,10.4,207,6
231155000484,ME-765-768,2311550,ME-765,PK,6,Miller School,RSU 40/MSAD 40,Lincoln County,145 Kalers Corner Road,Waldoboro,ME,4572,,(207)832-2103,42,Rural: Distant,No,No,Yes,Yes,341,30.5,11.2,165,41
231158023161,ME-774-1960,2311580,ME-774,PK,2,Milo Elementary School,RSU 41/MSAD 41,Piscataquis County,18 Belmont Street,Milo,ME,4463,,(207)943-2122,42,Rural: Distant,No,No,Yes,Yes,157,14.1,11.1,138,8
231477500228,ME-1456-303,2314775,ME-1456,PK,6,Minot Consolidated School,RSU 16,Androscoggin County,23 Shaw Hill Road,Minot,ME,4258,,(207)346-6471,41,Rural: Fringe,No,No,Yes,No,261,20,13.1,74,16
231476523172,ME-969-1953,2314765,ME-969,PK,8,Molly Ockett School,RSU 72/MSAD 72,Oxford County,25 Molly Ockett Drive,Fryeburg,ME,4037,,(207)935-2401,42,Rural: Distant,No,No,Yes,Yes,551,48.5,11.4,225,55
230834000229,ME-304-305,2308340,ME-304,PK,8,Monhegan Island School,Monhegan Plt School Dept,Lincoln County,PO Box 8,Monhegan Plantation,ME,4852,,(207)594-5895,43,Rural: Remote,No,No,–,–,5,1.2,4.2,†,†
231477600231,ME-1445-308,2314776,ME-1445,9,12,Monmouth Academy,RSU 02,Kennebec County,96 Academy Road,Monmouth,ME,4259,,(207)933-4416,42,Rural: Distant,No,No,–,–,210,19.5,10.8,46,9
231477601018,ME-1445-309,2314776,ME-1445,4,8,Monmouth Middle School,RSU 02,Kennebec County,117 Academy Road,Monmouth,ME,4259,,(207)876-4625,42,Rural: Distant,No,No,Yes,No,239,20.7,11.5,76,7
231152000471,ME-561-564,2311520,ME-561,PK,5,Monroe Elementary School,RSU 03/MSAD 03,Waldo County,36 West Main Street,Monroe,ME,4951,,(207)525-3504,42,Rural: Distant,No,No,Yes,Yes,56,5.5,10.2,37,3
230732000193,ME-250-254,2307320,ME-250,PK,6,Montello School,Lewiston Public Schools,Androscoggin County,407 East Avenue,Lewiston,ME,4240,,(207)795-4150,13,City: Small,No,No,Yes,Yes,725,64.3,11.3,603,0
231477200068,ME-1438-60,2314772,ME-1438,9,12,Morse High School,RSU 01 - LKRSU,Sagadahoc County,826 High Street,Bath,ME,4530,,(207)443-8250,31,Town: Fringe,No,No,–,–,574,41.4,13.9,183,39
231152000472,ME-561-562,2311520,ME-561,PK,5,Morse Memorial School,RSU 03/MSAD 03,Waldo County,PO Box 37,Brooks,ME,4921,,(207)722-3636,42,Rural: Distant,No,No,Yes,Yes,110,9,12.2,65,19
231478900153,ME-1449-184,2314789,ME-1449,PK,2,Morse Street School,RSU 05,Cumberland County,21 Morse Street,Freeport,ME,4032,,(207)865-6361,22,Suburb: Midsize,No,No,–,–,271,23.4,11.6,54,10
231065023165,ME-628-1973,2310650,ME-628,PK,4,Moscow Elementary,RSU 83/MSAD 13,Somerset County,PO Box 649,Bingham,ME,4920,,(207)672-5572,43,Rural: Remote,No,No,Yes,Yes,58,6.3,9.2,36,8
231479500303,ME-1450-787,2314795,ME-1450,9,12,Mountain Valley High School,RSU 10,Oxford County,799 Hancock Street,Rumford,ME,4276,,(207)364-4547,41,Rural: Fringe,No,No,Yes,Yes,404,29.3,13.8,318,3
231479500502,ME-1450-784,2314795,ME-1450,5,8,Mountain Valley Middle School,RSU 10,Oxford County,58 Highland Terrace,Mexico,ME,4257,,(207)364-7926,32,Town: Distant,No,No,Yes,Yes,272,23.9,11.4,210,5
231479000566,ME-1462-1046,2314790,ME-1462,PK,8,Mountain View School,RSU 24,Hancock County,542 Bert Gray Road,Sullivan,ME,4664,,(207)422-3200,42,Rural: Distant,No,No,Yes,Yes,244,25.4,9.6,142,27
231430000686,ME-898-904,2314300,ME-898,9,12,Mt Abram Regional High School,RSU 58/MSAD 58,Franklin County,1513 Salem Road,Salem,ME,4983,,(207)678-2701,43,Rural: Remote,No,No,Yes,No,209,19.1,10.9,73,36
231476800819,ME-984-991,2314768,ME-984,9,12,Mt Ararat High School,RSU 75/MSAD 75,Sagadahoc County,73 Eagles Way,Topsham,ME,4086,,(207)729-2951,31,Town: Fringe,No,No,–,–,729,61.1,11.9,183,48
231476800055,ME-984-993,2314768,ME-984,6,8,Mt Ararat Middle School,RSU 75/MSAD 75,Sagadahoc County,66 Republic Avenue,Topsham,ME,4086,,(207)729-2950,41,Rural: Fringe,No,No,–,–,553,51.2,10.8,165,45
231480900549,ME-1508-609,2314809,ME-1508,9,12,Mt Blue High School,RSU 09,Franklin County,129 Seamon Rd,Farmington,ME,4938,,(207)778-3561,41,Rural: Fringe,No,No,Yes,Yes,715,52.4,13.6,253,38
231480900550,ME-1508-608,2314809,ME-1508,6,8,Mt Blue Middle School,RSU 09,Franklin County,269 Middle St,Farmington,ME,4938,,(207)778-3511,33,Town: Remote,No,No,Yes,Yes,549,39.3,14,228,47
230849000232,ME-311-312,2308490,ME-311,KG,8,Mt Desert Elementary School,Mount Desert Public Schools,Hancock County,PO Box 308,Northeast Harbor,ME,4662,,(207)276-3348,42,Rural: Distant,No,No,Yes,No,169,23.3,7.3,23,2
230850000061,ME-1036-1037,2308500,ME-1036,9,12,Mt Desert Island High School,Mt Desert CSD,Hancock County,PO Box 180,Mount Desert,ME,4660,,(207)288-5011,42,Rural: Distant,No,No,Yes,No,545,51.6,10.6,84,28
231122000427,ME-713-714,2311220,ME-713,5,8,Mt Jefferson Jr High School,RSU 30/MSAD 30,Penobscot County,61 Winn Road,Lee,ME,4455,,(207)728-3635,43,Rural: Remote,No,No,Yes,Yes,81,4.9,16.5,53,10
231478800235,ME-1467-314,2314788,ME-1467,PK,5,Mt Vernon Elementary School,RSU 38,Kennebec County,1507 North Road,Mount Vernon,ME,4352,,(207)293-2261,42,Rural: Distant,No,No,Yes,Yes,113,12.8,8.8,50,6
231152000475,ME-561-568,2311520,ME-561,KG,5,Mt View Elementary School,RSU 03/MSAD 03,Waldo County,573 Mount View Road,Thorndike,ME,4986,,(207)568-7541,42,Rural: Distant,No,No,Yes,Yes,238,20.8,11.4,135,26
231152000473,ME-561-567,2311520,ME-561,9,12,Mt View High School,RSU 03/MSAD 03,Waldo County,577 Mount View Road,Thorndike,ME,4986,,(207)568-3255,42,Rural: Distant,No,No,Yes,Yes,343,31.7,10.8,155,44
231152000474,ME-561-569,2311520,ME-561,6,8,Mt View Middle School,RSU 03/MSAD 03,Waldo County,575 Mount View Road,Thorndike,ME,4986,,(207)568-7561,42,Rural: Distant,No,No,Yes,Yes,298,22.8,13.1,151,38
230606000915,ME-194-200,2306060,ME-194,KG,5,Narragansett Elementary School,Gorham Public Schools,Cumberland County,284 Main Street,Gorham,ME,4038,,(207)222-1250,22,Suburb: Midsize,No,No,Yes,No,268,21.9,12.2,44,11
231143000466,ME-753-757,2311430,ME-753,7,12,Narraguagus High School,RSU 37/MSAD 37,Washington County,1611 Main Street,Harrington,ME,4643,,(207)483-2746,43,Rural: Remote,No,No,Yes,Yes,305,24,12.7,156,32
231476500807,ME-969-975,2314765,ME-969,KG,4,New Suncook School,RSU 72/MSAD 72,Oxford County,95 Main Street,Lovell,ME,4051,,(207)925-6711,43,Rural: Remote,No,No,Yes,Yes,102,11.6,8.8,35,19
231481500389,ME-1615-678,2314815,ME-1615,PK,PK,Newburgh Elementary School,RSU 22,Penobscot County,2220 Western Avenue,Newburgh,ME,4444,,(207)234-2781,42,Rural: Distant,No,No,–,–,26,1,26,4,0
230910000233,ME-1021-1022,2309100,ME-1021,†,†,No Penobscot Tech-Region 3,Lincoln-Region 3,Penobscot County,35 West Broadway,Lincoln,ME,4457,,(207)794-3004,43,Rural: Remote,No,No,–,–,†,14,†,†,†
231470000512,ME-913-920,2314700,ME-913,8,12,Noble High School,RSU 60/MSAD 60,York County,100 Noble Way,North Berwick,ME,3906,,(207)284-3000,41,Rural: Fringe,No,No,Yes,No,1190,90.4,13.2,258,86
231470000783,ME-913-915,2314700,ME-913,6,7,Noble Middle School,RSU 60/MSAD 60,York County,46 Cranberry Meadow Road,Berwick,ME,3901,,(207)698-1320,41,Rural: Fringe,No,No,Yes,No,515,41.4,12.4,150,39
230894000237,ME-319-320,2308940,ME-319,KG,8,Nobleboro Central School,Nobleboro Public Schools,Lincoln County,194 Center Street,Nobleboro,ME,4555,,(207)563-3437,43,Rural: Remote,No,No,Yes,Yes,142,13.3,10.7,43,22
231478500729,ME-1458-822,2314785,ME-1458,9,12,Nokomis Regional High School,RSU 19,Penobscot County,291 Williams Rd,Newport,ME,4953,,(207)368-4354,42,Rural: Distant,No,No,Yes,Yes,572,46.9,12.2,251,63
231478523181,ME-1458-2047,2314785,ME-1458,5,8,Nokomis Regional Middle School,RSU 19,†,291 Williams Road,Newport,ME,4953,,(207)368-5091,†,N,No,†,†,†,†,†,†,†,†
231470001001,ME-913-919,2314700,ME-913,KG,5,North Berwick Elementary School,RSU 60/MSAD 60,York County,25 Varney Road,North Berwick,ME,3906,,(207)676-9811,41,Rural: Fringe,No,No,–,–,290,23.9,12.1,68,12
231459000753,ME-860-865,2314590,ME-860,PK,KG,North Elementary School,RSU 54/MSAD 54,Somerset County,33 Jewett Street,Skowhegan,ME,4976,,(207)474-2907,33,Town: Remote,No,No,Yes,Yes,154,15.1,10.2,124,0
231182000544,ME-601-602,2311820,ME-601,KG,12,North Haven Community School,RSU 07/MSAD 07,Knox County,93 Pulpit Harbor Road,North Haven,ME,4853,,(207)867-4707,42,Rural: Distant,No,No,–,–,60,13.2,4.5,5,14
231478300207,ME-1446-1057,2314783,ME-1446,9,12,Oak Hill High School,RSU 04,Androscoggin County,PO Box 400,Wales,ME,4280,,(207)375-4950,41,Rural: Fringe,No,No,Yes,Yes,400,36.2,11,169,26
231478323122,ME-1446-1447,2314783,ME-1446,6,8,Oak Hill Middle School,RSU 04,Androscoggin County,40 Ball Park Road,Sabattus,ME,4280,,(207)375-6961,41,Rural: Fringe,No,No,Yes,Yes,317,22.2,14.3,147,30
230993023131,ME-364-386,2309930,ME-364,KG,5,Ocean Avenue,Portland Public Schools,Cumberland County,150 Ocean AV,Portland,ME,4103,,(207)874-8180,13,City: Small,No,No,Yes,Yes,355,32.8,10.8,135,10
231478723156,ME-1452-1768,2314787,ME-1452,9,12,Oceanside High School,RSU 13,Knox County,400 Broadway,Rockland,ME,4841,,(207)596-2010,33,Town: Remote,No,No,Yes,Yes,491,46.2,10.6,183,23
231478723154,ME-1452-1767,2314787,ME-1452,6,8,Oceanside Middle School,RSU 13,Knox County,47 Valley Street,Thomaston,ME,4861,,(207)354-2502,33,Town: Remote,No,No,Yes,Yes,364,39.1,9.3,237,13
231478400921,ME-1461-325,2314784,ME-1461,9,12,Old Orchard Beach High School,RSU 23,York County,40 E Emerson Cummings Blvd,Old Orchard Beach,ME,4064,,(207)934-4461,22,Suburb: Midsize,No,No,Yes,Yes,209,26,8,75,17
231478200699,ME-1466-333,2314782,ME-1466,KG,5,Old Town Elementary School,RSU 34,Penobscot County,576 Stillwater Avenue,Old Town,ME,4468,,(207)827-1544,23,Suburb: Small,No,No,Yes,Yes,576,45.4,12.7,293,39
231478200248,ME-1466-332,2314782,ME-1466,9,12,Old Town High School,RSU 34,Penobscot County,203 Stillwater Avenue,Old Town,ME,4468,,(207)827-3910,41,Rural: Fringe,No,No,Yes,Yes,511,40.6,12.6,189,53
230528000133,ME-157-158,2305280,ME-157,PK,4,Opal Myrick Elementary School,East Millinocket Public Schools,Penobscot County,45 North St Suite 1,East Millinocket,ME,4430,,(207)746-3511,42,Rural: Distant,No,No,Yes,Yes,120,12.4,9.7,62,15
231477800252,ME-1465-340,2314778,ME-1465,9,12,Orono High School,RSU 26,Penobscot County,14 Goodridge Drive,Orono,ME,4473,,(207)866-4916,23,Suburb: Small,No,No,Yes,No,329,31,10.6,76,21
231477800297,ME-1465-341,2314778,ME-1465,6,8,Orono Middle School,RSU 26,Penobscot County,14 Goodridge Drive,Orono,ME,4473,,(207)866-2350,23,Suburb: Small,No,No,Yes,No,173,15.2,11.4,38,14
231077001032,ME-646-651,2310770,ME-646,PK,6,Otisfield Community School,RSU 17/MSAD 17,Oxford County,416 Powhattan Road,Otisfield,ME,4270,,(207)627-4208,42,Rural: Distant,No,No,Yes,Yes,110,9.3,11.8,66,3
231077001051,ME-646-652,2310770,ME-646,PK,6,Oxford Elementary School,RSU 17/MSAD 17,Oxford County,PO Box 839,Oxford,ME,4270,,(207)539-4456,42,Rural: Distant,No,No,Yes,Yes,377,32.5,11.6,238,10
231077000361,ME-646-656,2310770,ME-646,9,12,Oxford Hills Comprehensive H S,RSU 17/MSAD 17,Oxford County,256 Main Street,Paris,ME,4271,,(207)743-8914,32,Town: Distant,No,No,Yes,Yes,1028,75.4,13.6,460,95
231077000362,ME-646-655,2310770,ME-646,7,8,Oxford Hills Middle School,RSU 17/MSAD 17,Oxford County,100 Pine Street,Paris,ME,4271,,(207)743-5946,32,Town: Distant,No,No,Yes,Yes,560,40.1,14,250,70
231232000253,ME-1029-1030,2312320,ME-1029,†,†,Oxford Hills Tech - Region 11,Oxford-Region 11,Oxford County,PO Box 313,Norway,ME,4268,,(207)743-7756,32,Town: Distant,No,No,–,–,†,21,†,†,†
231356000618,ME-495-500,2313560,ME-495,KG,4,Oxford-Cumberland Canal School,Westbrook Public Schools,Cumberland County,102 Glenwood Avenue,Westbrook,ME,4092,,(207)854-0840,22,Suburb: Midsize,No,No,Yes,Yes,286,29.9,9.6,172,23
231478000258,ME-1451-348,2314780,ME-1451,KG,8,Palermo Consolidated School,RSU 12,Waldo County,501 Route 3,Palermo,ME,4354,,(207)993-2352,43,Rural: Remote,No,No,Yes,No,118,11.8,10,33,8
231077000607,ME-646-660,2310770,ME-646,PK,6,Paris Elementary School,RSU 17/MSAD 17,Oxford County,4 Hathaway Road,Paris,ME,4271,,(207)743-7802,32,Town: Distant,No,No,Yes,Yes,430,39.2,11,256,17
230261000626,ME-14-27,2302610,ME-14,PK,6,Park Avenue Elementary School,Auburn Public Schools,Androscoggin County,161 Park Avenue,Auburn,ME,4210,,(207)333-6657,13,City: Small,No,No,Yes,Yes,370,34.4,10.8,231,20
230651000168,ME-219-220,2306510,ME-219,PK,4,Patricia A Duran School,Hermon Public Schools,Penobscot County,235 Billings Road,Hermon,ME,4401,,(207)848-4081,41,Rural: Fringe,No,No,Yes,No,467,34.2,13.7,99,27
230993000283,ME-364-371,2309930,ME-364,PK,5,Peaks Island School,Portland Public Schools,Cumberland County,4 Church AV,Peaks Island,ME,4108,,(207)766-2528,41,Rural: Fringe,No,No,–,–,39,3.9,10,13,1
230956000259,ME-349-350,2309560,ME-349,PK,8,Pembroke Elementary School,Pembroke Public Schools,Washington County,36 US Route 1,Pembroke,ME,4666,,(207)726-5564,43,Rural: Remote,No,No,Yes,Yes,76,8.6,8.8,41,9
231239000589,ME-456-457,2312390,ME-456,KG,8,Pemetic Elementary School,Southwest Harbor Public Schools,Hancock County,PO Box 255,Southwest Harbor,ME,4679,,(207)244-5502,42,Rural: Distant,No,No,Yes,No,144,17.4,8.3,39,15
231479000640,ME-1462-1353,2314790,ME-1462,PK,8,Peninsula School,RSU 24,Hancock County,PO Box 230,Prospect Harbor,ME,4669,,(207)963-2003,42,Rural: Distant,No,No,Yes,Yes,174,16,10.9,83,14
230963000260,ME-351-352,2309630,ME-351,PK,8,Penobscot Elementary School,Penobscot Public Schools,Hancock County,PO Box 60,Penobscot,ME,4476,,(207)326-9421,42,Rural: Distant,No,No,Yes,No,76,9,8.4,30,9
231125000432,ME-718-720,2311250,ME-718,9,12,Penobscot Valley High School,RSU 31/MSAD 31,Penobscot County,23 Cross Street,Howland,ME,4448,,(207)732-3111,42,Rural: Distant,No,No,Yes,Yes,142,15.7,9,64,19
231158000493,ME-774-778,2311580,ME-774,5,12,Penquis Valley Middle/High School,RSU 41/MSAD 41,Piscataquis County,48 Penquis Drive,Milo,ME,4463,,(207)943-7346,43,Rural: Remote,No,No,Yes,Yes,384,34.5,11.1,266,26
230965001006,ME-353-354,2309650,ME-353,PK,8,Perry Elementary School,Perry Public Schools,Washington County,1587 U. S. Route 1,Perry,ME,4667,,(207)853-2522,43,Rural: Remote,No,No,Yes,Yes,108,8.5,12.7,47,7
230753000204,ME-266-269,2307530,ME-266,6,8,Philip W Sugg Middle School,Lisbon Public Schools,Androscoggin County,4 Sugg Drive,Lisbon Falls,ME,4252,,(207)353-3055,23,Suburb: Small,No,No,Yes,Yes,293,18.2,16.1,127,25
231430001011,ME-898-902,2314300,ME-898,PK,8,Phillips Elementary School,RSU 58/MSAD 58,Franklin County,1401 Rangeley Road,Phillips,ME,4966,,(207)639-2909,43,Rural: Remote,No,No,Yes,Yes,145,13,11.2,78,17
231477200263,ME-1438-358,2314772,ME-1438,PK,5,Phippsburg Elementary School,RSU 01 - LKRSU,Sagadahoc County,1047 Main Road,Phippsburg,ME,4562,,(207)389-1514,42,Rural: Distant,No,No,Yes,No,99,9.3,10.6,34,7
231086000370,ME-551-553,2310860,ME-551,PK,2,Pine Street Elementary School,RSU 79/MSAD 01,Aroostook County,50 Pine Street,Presque Isle,ME,4769,,(207)764-8104,41,Rural: Fringe,No,No,Yes,Yes,380,22.2,17.1,190,30
231173023159,ME-570-1977,2311730,ME-570,PK,8,Piscataquis Community Elementary,RSU 80/MSAD 04,Piscataquis County,25 Campus Drive,Guilford,ME,4443,,(207)876-4301,43,Rural: Remote,No,No,Yes,Yes,363,26.9,13.5,192,41
231173023160,ME-570-1978,2311730,ME-570,9,12,Piscataquis Community Secondary School,RSU 80/MSAD 04,Piscataquis County,9 Campus Drive Drop 1,Guilford,ME,4443,,(207)876-4625,43,Rural: Remote,No,No,Yes,Yes,179,15.1,11.9,82,24
231059000332,ME-617-623,2310590,ME-617,KG,5,Pittston-Randolph Consolidated School,RSU 11/MSAD 11,Kennebec County,1023 Pittston School Street,Pittston,ME,4345,,(207)582-6268,41,Rural: Fringe,No,No,Yes,Yes,237,16.7,14.2,96,21
231053000324,ME-427-429,2310530,ME-427,KG,2,Pleasant Hill School,Scarborough Public Schools,Cumberland County,143 Highland Avenue,Scarborough,ME,4074,,(207)730-5250,22,Suburb: Midsize,No,No,–,–,188,14.1,13.3,9,4
231477500265,ME-1456-361,2314775,ME-1456,PK,6,Poland Community School,RSU 16,Androscoggin County,1250 Maine Street,Poland,ME,4274,,(207)998-4915,41,Rural: Fringe,No,No,Yes,Yes,472,35.9,13.1,173,40
231477500436,ME-1456-362,2314775,ME-1456,9,12,Poland Regional H S,RSU 16,Androscoggin County,1457 Maine Street,Poland,ME,4274,,(207)998-5400,42,Rural: Distant,No,No,Yes,No,461,43.9,10.5,128,30
230393000110,ME-113-114,2303930,ME-113,KG,4,Pond Cove Elementary,Cape Elizabeth Public Schools,Cumberland County,12 Scott Dyer Road,Cape Elizabeth,ME,4107,,(207)799-7339,22,Suburb: Midsize,No,No,Yes,No,525,39.8,13.2,31,2
230993000130,ME-364-383,2309930,ME-364,†,†,Portland Arts & Technology H S,Portland Public Schools,Cumberland County,196 Allen AV,Portland,ME,4103,,(207)874-8165,13,City: Small,No,No,–,–,†,19,†,†,†
230993000284,ME-364-378,2309930,ME-364,9,12,Portland High School,Portland Public Schools,Cumberland County,284 Cumberland AV,Portland,ME,4101,,(207)874-8250,13,City: Small,No,No,Yes,Yes,774,53.7,14.4,301,39
231478900683,ME-1449-931,2314789,ME-1449,PK,5,Pownal Elementary School,RSU 05,Cumberland County,587 Elmwood Road,Pownal,ME,4069,,(207)688-4832,41,Rural: Fringe,No,No,Yes,No,110,9.8,11.2,21,4
231155000485,ME-765-772,2311550,ME-765,KG,6,Prescott Memorial School,RSU 40/MSAD 40,Knox County,100 Waldoboro Road,Washington,ME,4574,,(207)845-2424,43,Rural: Remote,No,No,Yes,Yes,99,10.1,9.8,37,13
231086000371,ME-551-557,2310860,ME-551,9,12,Presque Isle High School,RSU 79/MSAD 01,Aroostook County,16 Griffin Street,Presque Isle,ME,4769,,(207)764-0121,33,Town: Remote,No,No,Yes,No,523,36.8,14.2,147,39
231086000372,ME-551-556,2310860,ME-551,6,8,Presque Isle Middle School,RSU 79/MSAD 01,Aroostook County,569 Skyway Street,Presque Isle,ME,4769,,(207)764-4474,41,Rural: Fringe,No,No,Yes,Yes,352,28.1,12.5,132,25
231086000152,ME-551-560,2310860,ME-551,†,†,Presque Isle Reg Career & Tech Ctr,RSU 79/MSAD 01,Aroostook County,79 Blake St Ste 3,Presque Isle,ME,4769,,(207)764-1356,33,Town: Remote,No,No,–,–,†,9,†,†,†
230993001007,ME-364-372,2309930,ME-364,PK,5,Presumpscot School,Portland Public Schools,Cumberland County,69 Presumpscot ST,Portland,ME,4103,,(207)874-8220,13,City: Small,No,No,Yes,Yes,245,20,12.3,157,13
230999001029,ME-389-390,2309990,ME-389,PK,8,Princeton Elementary School,Princeton Public Schools,Washington County,289 Main Street,Princeton,ME,4668,,(207)853-2567,43,Rural: Remote,No,No,Yes,Yes,141,13,10.8,68,14
231477901023,ME-1457-808,2314779,ME-1457,PK,2,Ralph M Atwood Primary School,RSU 18,Kennebec County,19 Heath Street,Oakland,ME,4963,,(207)465-3411,33,Town: Remote,No,No,Yes,Yes,236,17.6,13.4,99,16
231480300291,ME-1480-392,2314803,ME-1480,PK,12,Rangeley Lakes Regional School,RSU 78,Franklin County,43 Mendolia Road,Rangeley,ME,4970,,(207)864-3311,43,Rural: Remote,No,No,Yes,Yes,188,20.5,9.2,44,18
230732023113,ME-250-260,2307320,ME-250,PK,6,Raymond A. Geiger Elementary School,Lewiston Public Schools,Androscoggin County,601 College Street,Lewiston,ME,4240,,(207)795-4160,13,City: Small,No,No,Yes,Yes,672,47.3,14.2,405,0
231479300503,ME-1455-396,2314793,ME-1455,KG,4,Raymond Elementary School,RSU 14,Cumberland County,434 Webbs Mills Road,Raymond,ME,4071,,(207)655-8672,41,Rural: Fringe,No,No,Yes,No,225,18.9,11.9,54,21
231478800294,ME-1467-398,2314788,ME-1467,PK,5,Readfield Elementary School,RSU 38,Kennebec County,84 South Road,Readfield,ME,4355,,(207)685-4406,42,Rural: Distant,No,No,–,–,224,19.3,11.6,56,15
231481500164,ME-1615-677,2314815,ME-1615,6,8,Reeds Brook Middle School,RSU 22,Penobscot County,28A Main Road South,Hampden,ME,4444,,(207)862-3540,23,Suburb: Small,No,No,–,–,399,26.1,15.3,58,16
230911000247,ME-1025-1026,2309110,ME-1025,†,†,Region 9 Sch of Applied Technology,Rumford-Region 9,Oxford County,377 River Road,Mexico,ME,4257,,(207)364-3764,41,Rural: Fringe,No,No,–,–,†,13.9,†,†,†
231226000215,ME-1015-1016,2312260,ME-1015,†,†,Region Two Sch of Applied Tech,Houlton-Region 2,Aroostook County,PO Box 307,Houlton,ME,4730,,(207)532-9541,41,Rural: Fringe,No,No,–,–,†,10,†,†,†
231477600298,ME-1445-403,2314776,ME-1445,9,12,Richmond High School,RSU 02,Sagadahoc County,132 Main Street,Richmond,ME,4357,,(207)737-4348,42,Rural: Distant,No,No,Yes,No,145,14,10.4,42,7
231477601008,ME-1445-404,2314776,ME-1445,6,8,Richmond Middle School,RSU 02,Sagadahoc County,132 Main Street,Richmond,ME,4357,,(207)594-5650,42,Rural: Distant,No,No,Yes,Yes,105,11.5,9.1,34,14
231453023115,ME-798-805,2314530,ME-798,PK,8,Ridge View Community School,MSAD 46,Penobscot County,175 Fern Road,Dexter,ME,4930,,(207)924-6000,42,Rural: Distant,No,No,Yes,Yes,600,58.3,10.3,347,59
231059000024,ME-617-622,2310590,ME-617,3,5,River View Community School,RSU 11/MSAD 11,Kennebec County,PO Box 9,South Gardiner,ME,4359,,(207)582-3402,32,Town: Distant,No,No,Yes,Yes,173,13.5,12.8,73,13
230993000286,ME-364-381,2309930,ME-364,PK,5,Riverton School,Portland Public Schools,Cumberland County,1600 Forest AV,Portland,ME,4103,,(207)874-8210,13,City: Small,No,No,Yes,Yes,430,39,11,293,25
230732023179,ME-250-2048,2307320,ME-250,PK,6,Robert V. Connors Elementary School,Lewiston Public Schools,†,400 Bartlett Street,Lewiston,ME,4240,,(207)795-4130,†,N,No,†,†,†,†,†,†,†,†
230714000184,ME-242-246,2307140,ME-242,9,12,Robert W Traip Academy,Kittery Public Schools,York County,12 Williams Avenue,Kittery,ME,3904,,(207)439-1121,23,Suburb: Small,No,No,Yes,No,264,27.2,9.7,54,22
230771000210,ME-277-278,2307710,ME-277,PK,8,Rose M Gaffney School,Machias Public Schools,Washington County,15 Rose Gaffney Rd,Machias,ME,4654,,(207)255-3411,43,Rural: Remote,No,No,Yes,Yes,333,24,13.9,183,36
231479500302,ME-1450-788,2314795,ME-1450,PK,4,Rumford Elementary,RSU 10,Oxford County,121 Lincoln Avenue,Rumford,ME,4276,,(207)364-8155,32,Town: Distant,No,No,Yes,Yes,304,24.5,12.4,265,4
231071000348,ME-635-636,2310710,ME-635,KG,2,Russell School,RSU 15/MSAD 15,Cumberland County,8 Gray Park,Gray,ME,4039,,(207)657-4929,41,Rural: Fringe,No,No,–,–,218,18.9,11.5,43,12
231478300609,ME-1446-489,2314783,ME-1446,PK,2,Sabattus Primary School,RSU 04,Androscoggin County,36 No Name Pond Road,Sabattus,ME,4280,,(207)375-4525,23,Suburb: Small,No,No,Yes,Yes,220,15,14.7,83,15
231356000621,ME-495-497,2313560,ME-495,PK,4,Saccarappa School,Westbrook Public Schools,Cumberland County,110 Huntress Avenue,Westbrook,ME,4092,,(207)854-0847,22,Suburb: Midsize,No,No,Yes,Yes,301,26.9,11.2,196,21
231038000308,ME-1662-413,2310380,ME-1662,6,8,Saco Middle School,Saco Public Schools,York County,40 Buxton Road,Saco,ME,4072,,(207)282-4181,22,Suburb: Midsize,No,No,Yes,No,559,60.8,9.2,129,37
231038023184,ME-1662-2063,2310380,ME-1662,PK,PK,Saco Pre-K,Saco Public Schools,†,12 Beach Street,Saco,ME,4072,,(207)284-4505,†,N,No,†,†,†,†,†,†,†,†
231419000995,ME-874-879,2314190,ME-874,PK,3,Sacopee Valley Elementary School,RSU 55/MSAD 55,Oxford County,213 South Hiram Road,Hiram,ME,4041,,(207)625-8117,42,Rural: Distant,No,No,Yes,Yes,293,24.3,12.1,149,31
231419000667,ME-874-877,2314190,ME-874,9,12,Sacopee Valley High Sch,RSU 55/MSAD 55,Oxford County,115 South Hiram Road,Hiram,ME,4041,,(207)625-3208,42,Rural: Distant,No,No,Yes,Yes,308,26,11.8,132,44
231419001057,ME-874-881,2314190,ME-874,4,8,Sacopee Valley Middle School,RSU 55/MSAD 55,Oxford County,137 South Hiram Road,Hiram,ME,4041,,(207)625-2450,42,Rural: Distant,No,No,Yes,Yes,377,33.1,11.4,183,43
231461000620,ME-854-859,2314610,ME-854,7,12,SAD #53 Alternative Education,RSU 53/MSAD 53,Somerset County,167 School Street,Pittsfield,ME,4967,,(207)487-5145,32,Town: Distant,No,No,–,–,4,1,4,†,†
231481500030,ME-1615-680,2314815,ME-1615,5,8,Samuel L Wagner Middle School,RSU 22,Waldo County,19 Williams Way,Winterport,ME,4496,,(207)223-4309,42,Rural: Distant,No,No,Yes,Yes,245,18.3,13.4,97,18
231050000316,ME-416-423,2310500,ME-416,8,12,Sanford High School,Sanford Public Schools,York County,100 Alumni Blvd,Sanford,ME,4073,,(207)324-4050,32,Town: Distant,No,No,Yes,Yes,1026,71.4,14.4,427,99
231050000317,ME-416-422,2310500,ME-416,5,7,Sanford Jr High School,Sanford Public Schools,York County,708 Main Street,Sanford,ME,4073,,(207)324-3114,32,Town: Distant,No,No,Yes,Yes,693,49,14.1,315,67
231050023177,ME-416-2050,2310500,ME-416,5,7,Sanford Middle School,Sanford Public Schools,†,708 Main St,Sanford,ME,4073,,(207)324-3114,†,N,No,†,†,†,†,†,†,†,†
231050000137,ME-416-426,2310500,ME-416,†,†,Sanford Regional Technical Center,Sanford Public Schools,York County,100 Alumni Blvd,Sanford,ME,4073,,(207)324-2942,32,Town: Distant,No,No,–,–,†,22.5,†,†,†
231053000325,ME-427-431,2310530,ME-427,9,12,Scarborough High School,Scarborough Public Schools,Cumberland County,11 Municipal Drive,Scarborough,ME,4074,,(207)730-5000,22,Suburb: Midsize,No,No,Yes,No,1002,78,12.8,115,33
231053000326,ME-427-430,2310530,ME-427,6,8,Scarborough Middle School,Scarborough Public Schools,Cumberland County,21 Quentin Drive,Scarborough,ME,4074,,(207)730-4800,22,Suburb: Midsize,No,No,Yes,No,675,60.6,11.1,77,17
230528000134,ME-157-159,2305280,ME-157,9,12,Schenck High School,East Millinocket Public Schools,Penobscot County,45 North St Suite 1,East Millinocket,ME,4430,,(207)746-3511,42,Rural: Distant,No,No,Yes,Yes,115,11.2,10.3,54,10
231476123108,ME-951-956,2314761,ME-951,PK,4,Se Do Mo Cha Elementary School,RSU 68/MSAD 68,Piscataquis County,63 Harrison Avenue Suite B,Dover-Foxcroft,ME,4426,,(207)564-6535,43,Rural: Remote,No,No,Yes,Yes,372,29.3,12.7,166,37
231476100794,ME-951-954,2314761,ME-951,5,8,Se Do Mo Cha Middle School,RSU 68/MSAD 68,Piscataquis County,63 Harrison Avenue Suite A,Dover-Foxcroft,ME,4426,,(207)564-6535,43,Rural: Remote,No,No,Yes,Yes,326,22.7,14.4,140,37
231477301054,ME-1460-965,2314773,ME-1460,3,5,Sea Road School,RSU 21,York County,29 Sea Road,Kennebunk,ME,4043,,(207)985-1105,31,Town: Fringe,No,No,Yes,No,342,23,14.9,63,14
231479100768,ME-1459-885,2314791,ME-1459,9,12,Searsport District High School,RSU 20,Waldo County,24 Mortland Road,Searsport,ME,4974,,(207)548-2313,42,Rural: Distant,No,No,Yes,Yes,147,15.3,9.6,68,11
231479100770,ME-1459-884,2314791,ME-1459,6,8,Searsport District Middle School,RSU 20,Waldo County,26 Mortland Road,Searsport,ME,4974,,(207)548-2313,42,Rural: Distant,No,No,Yes,Yes,117,9.9,11.8,63,13
231479100026,ME-1459-886,2314791,ME-1459,PK,5,Searsport Elementary,RSU 20,Waldo County,30 Mortland Road,Searsport,ME,4974,,(207)548-2317,42,Rural: Distant,No,No,Yes,Yes,231,19.8,11.7,147,23
231483700675,ME-1996-929,2314837,ME-1996,PK,5,Sebago Elementary School,Sebago Public Schools,Cumberland County,283 Sebago Road,Sebago,ME,4029,,(207)787-3701,42,Rural: Distant,No,–,–,–,95,9.1,10.4,28,0
231478523178,ME-1458-2045,2314785,ME-1458,PK,4,Sebasticook Valley Elementary School,RSU 19,†,337 Williams Road,Newport,ME,4953,,(207)368-4592,†,N,No,†,†,†,†,†,†,†,†
231214001045,ME-434-435,2312140,ME-434,PK,8,Sedgwick Elementary School,Sedgwick Public Schools,Hancock County,272 Snows Cove Road,Sedgwick,ME,4676,,(207)359-5002,43,Rural: Remote,No,No,Yes,No,96,11.5,8.3,41,10
231467000778,ME-888-893,2314670,ME-888,PK,5,Shapleigh Memorial School,RSU 57/MSAD 57,York County,467 Shapleigh Corner Road,Shapleigh,ME,4076,,(207)636-1751,42,Rural: Distant,No,No,Yes,Yes,147,10.4,14.1,60,18
230714000182,ME-242-244,2307140,ME-242,4,8,Shapleigh School,Kittery Public Schools,York County,43 Stevenson Road,Kittery,ME,3904,,(207)439-2572,41,Rural: Fringe,No,No,Yes,No,405,40.5,10,85,26
230536000138,ME-163-165,2305360,ME-163,9,12,Shead High School,Eastport Public Schools,Washington County,89 High Street,Eastport,ME,4631,,(207)853-6254,43,Rural: Remote,No,No,Yes,Yes,83,10.6,7.8,36,3
230261000018,ME-14-24,2302610,ME-14,PK,6,Sherwood Heights Elementary Sch,Auburn Public Schools,Androscoggin County,32 Sherwood Drive,Auburn,ME,4210,,(207)783-8526,41,Rural: Fringe,No,No,Yes,Yes,396,34.5,11.5,242,31
231459000755,ME-860-867,2314590,ME-860,9,12,Skowhegan Area High School,RSU 54/MSAD 54,Somerset County,61 Academy Circle,Skowhegan,ME,4976,,(207)474-5511,41,Rural: Fringe,No,No,Yes,Yes,760,57.6,13.2,413,22
231459000756,ME-860-870,2314590,ME-860,6,8,Skowhegan Area Middle School,RSU 54/MSAD 54,Somerset County,155 Academy Circle,Skowhegan,ME,4976,,(207)474-3339,41,Rural: Fringe,No,No,Yes,Yes,496,34.8,14.3,292,15
231480600590,ME-1500-1041,2314806,ME-1500,PK,12,So Aroostook School,RSU 50,Aroostook County,922 Dyer Brook Road,Dyer Brook,ME,4747,,(207)757-8206,43,Rural: Remote,No,No,Yes,Yes,358,28.4,12.6,191,50
231476700955,ME-976-982,2314767,ME-976,PK,5,Solon Elementary School,RSU 74/MSAD 74,Somerset County,PO Box 146,Solon,ME,4979,,(207)643-2491,43,Rural: Remote,No,No,Yes,Yes,84,6.9,12.2,59,9
231459000185,ME-860-871,2314590,ME-860,†,†,Somerset Career & Technical Center,RSU 54/MSAD 54,Somerset County,61 Academy Circle,Skowhegan,ME,4976,,(207)474-2151,41,Rural: Fringe,No,No,–,–,†,8.5,†,†,†
231478523183,ME-1458-2046,2314785,ME-1458,PK,4,Somerset Elementary School,RSU 19,†,45 Blake Street,Hartland,ME,4943,,(207)938-4770,†,N,No,†,†,†,†,†,†,†,†
231478000571,ME-1451-439,2314780,ME-1451,PK,PK,Somerville Elementary School,RSU 12,Lincoln County,665 Patricktown Rd Suite 2,Somerville,ME,4348,,(207)549-3261,43,Rural: Remote,No,No,–,–,16,1,16,7,3
231421000052,ME-922-927,2314210,ME-922,KG,5,Songo Locks School,RSU 61/MSAD 61,Cumberland County,25 Songo School Road,Naples,ME,4055,,(207)693-6828,42,Rural: Distant,No,No,Yes,Yes,420,36.3,11.6,156,21
231230000572,ME-440-441,2312300,ME-440,KG,8,South Bristol Elementary School,South Bristol Public Schools,Lincoln County,2024 State Route 129,South Bristol,ME,4568,,(207)644-8177,43,Rural: Remote,No,No,Yes,No,62,7.4,8.4,9,4
231233000585,ME-444-451,2312330,ME-444,9,12,South Portland High School,South Portland Public Schools,Cumberland County,637 Highland Avenue,South Portland,ME,4106,,(207)767-3266,13,City: Small,No,No,–,–,905,70.8,12.8,284,76
231478700530,ME-1452-583,2314787,ME-1452,PK,5,South School,RSU 13,Knox County,30 Broadway,Rockland,ME,4841,,(207)596-2020,33,Town: Remote,No,No,Yes,Yes,356,37.8,9.4,232,11
231236000588,ME-442-443,2312360,ME-442,KG,6,Southport Central School,Southport Public Schools,Lincoln County,438 Hendricks Hill Road,Southport,ME,4576,,(207)633-3132,42,Rural: Distant,No,No,Yes,No,23,3,7.7,3,0
231480523150,ME-1498-1759,2314805,ME-1498,3,5,Spruce Mountain Elementary School,RSU 73,Franklin County,12 Tiger Drive,Jay,ME,4239,,(207)897-5719,32,Town: Distant,No,No,Yes,Yes,312,26.4,11.8,173,22
231480523142,ME-1498-1652,2314805,ME-1498,9,12,Spruce Mountain High School,RSU 73,Franklin County,33 Community Drive,Jay,ME,4239,,(207)897-4336,41,Rural: Fringe,No,No,Yes,Yes,379,32.5,11.7,177,26
231480523133,ME-1498-1499,2314805,ME-1498,6,8,Spruce Mountain Middle School,RSU 73,Franklin County,23 Community Drive,Jay,ME,4239,,(207)897-4319,41,Rural: Fringe,No,No,Yes,Yes,334,25.1,13.3,176,18
231480523152,ME-1498-1760,2314805,ME-1498,PK,2,Spruce Mountain Primary School,RSU 73,Androscoggin County,107 Gibbs Mill Road,Livermore,ME,4253,,(207)897-3355,41,Rural: Fringe,No,No,Yes,Yes,424,31,13.7,208,11
230387000074,ME-108-112,2303870,ME-108,†,†,St Croix Regional Technical Center,Calais Public Schools,Washington County,34 Blue Devil Hill Suite 1,Calais,ME,4619,,(207)454-2581,33,Town: Remote,No,No,–,–,†,7.1,†,†,†
231482000710,ME-1738-835,2314820,ME-1738,KG,8,St George School,St George Public Schools,Knox County,PO Box 153,Tenants Harbor,ME,4860,,(207)372-6312,42,Rural: Distant,No,No,Yes,Yes,196,19.6,10,78,18
231131000178,ME-726-728,2311310,ME-726,†,†,St John Valley Technology Center,RSU 33/MSAD 33,Aroostook County,PO Box 509,Frenchville,ME,4745,,(207)543-6606,43,Rural: Remote,No,No,–,–,†,6,†,†,†
230828000227,ME-298-301,2308280,ME-298,6,12,Stearns Jr-Sr High School,Millinocket Public Schools,Penobscot County,199 State Street,Millinocket,ME,4462,,(207)723-6430,41,Rural: Fringe,No,No,Yes,Yes,258,21.8,11.8,135,28
231179000543,ME-587-598,2311790,ME-587,KG,3,Steep Falls Elementary School,RSU 06/MSAD 06,Cumberland County,781 Boundary Road,Steep Falls,ME,4085,,(207)675-3321,42,Rural: Distant,No,No,Yes,No,102,8,12.8,28,4
231421000670,ME-922-923,2314210,ME-922,KG,5,Stevens Brook School,RSU 61/MSAD 61,Cumberland County,14 Frances Bell Lane,Bridgton,ME,4009,,(207)647-5675,42,Rural: Distant,No,No,Yes,Yes,290,28.6,10.1,115,32
231481801035,ME-1627-899,2314818,ME-1627,PK,8,Stratton Elementary School,Eustis Public Schools,Franklin County,65 School Street,Stratton,ME,4982,,(207)246-2283,43,Rural: Remote,No,No,Yes,Yes,85,8.4,10.1,22,0
231430000690,ME-898-903,2314300,ME-898,PK,8,Strong Elementary School,RSU 58/MSAD 58,Franklin County,110 N Main Street,Strong,ME,4983,,(207)684-3521,42,Rural: Distant,No,No,Yes,Yes,153,15.1,10.1,70,14
231479000148,ME-1462-1035,2314790,ME-1462,9,12,Sumner Memorial High School,RSU 24,Hancock County,2456 US Hwy 1,Sullivan,ME,4664,,(207)422-3510,42,Rural: Distant,No,No,Yes,Yes,233,24.2,9.6,100,23
231275000993,ME-462-463,2312750,ME-462,PK,8,Surry Elementary School,Surry Public Schools,Hancock County,754 N Bend Road,Surry,ME,4684,,(207)667-9358,42,Rural: Distant,No,No,Yes,Yes,125,15.2,8.2,36,14
231098000353,ME-681-684,2310980,ME-681,PK,5,Suzanne M Smith Elementary School,RSU 87/MSAD 23,Penobscot County,169 South Levant Road,Levant,ME,4456,,(207)884-7444,42,Rural: Distant,No,No,Yes,No,239,19.4,12.3,89,27
231191001056,ME-994-995,2311910,ME-994,KG,8,Swans Island Elementary School,MSAD 76,Hancock County,116 Rose Hill Road,Swans Island,ME,4685,,(207)526-4300,43,Rural: Remote,No,No,Yes,Yes,34,4.7,7.2,13,4
230264000042,ME-28-33,2302640,ME-28,PK,6,Sylvio J Gilbert School,Augusta Public Schools,Kennebec County,16 Sunset Avenue,Augusta,ME,4330,,(207)626-2491,32,Town: Distant,No,No,Yes,Yes,354,22.9,15.5,209,11
231483300927,ME-1826-671,2314833,ME-1826,6,8,T W Kelly Dirigo Middle School,RSU 56,Oxford County,45 Middle School Drive,Dixfield,ME,4224,,(207)929-3840,42,Rural: Distant,No,No,Yes,Yes,182,12.5,14.6,100,13
231479423171,ME-1468-1972,2314794,ME-1468,PK,3,Teague Park School,RSU 39,Aroostook County,59 Glenn ST,Caribou,ME,4736,,(207)493-4246,33,Town: Remote,No,No,Yes,Yes,371,24.4,15.2,200,24
231167000510,ME-789-792,2311670,ME-789,9,12,Telstar High School,RSU 44/MSAD 44,Oxford County,284 Walkers Mills Road,Bethel,ME,4217,,(207)824-2136,43,Rural: Remote,No,No,Yes,Yes,192,16.1,11.9,73,29
231167001010,ME-789-793,2311670,ME-789,6,8,Telstar Middle School,RSU 44/MSAD 44,Oxford County,284 Walkers Mills Road,Bethel,ME,4217,,(207)824-2136,43,Rural: Remote,No,No,Yes,Yes,175,18.8,9.3,74,18
230732000196,ME-250-256,2307320,ME-250,PK,6,Thomas J McMahon Elementary Sch,Lewiston Public Schools,Androscoggin County,151 North Temple Street,Lewiston,ME,4240,,(207)795-4140,13,City: Small,No,No,Yes,Yes,703,57.3,12.3,473,0
231478723157,ME-1452-838,2314787,ME-1452,KG,5,Thomaston Grammar School,RSU 13,Knox County,65 Watts Lane,Thomaston,ME,4861,,(207)354-6353,33,Town: Remote,No,No,Yes,Yes,185,20.8,8.9,82,11
231296000594,ME-466-467,2312960,ME-466,KG,8,Tremont Consolidated School,Tremont Public Schools,Hancock County,119 Tremont Road,Tremont,ME,4653,,(207)244-7777,43,Rural: Remote,No,No,Yes,Yes,123,17.2,7.2,34,22
231298000595,ME-468-469,2312980,ME-468,PK,8,Trenton Elementary School,Trenton Public Schools,Hancock County,51 School Road,Trenton,ME,4605,,(207)667-8447,42,Rural: Distant,No,No,Yes,Yes,140,16.1,8.7,50,23
231453000179,ME-798-802,2314530,ME-798,†,†,Tri-County Technical Center,MSAD 46,Penobscot County,14 Abbott Hill Road,Dexter,ME,4930,,(207)924-7670,43,Rural: Remote,No,No,–,–,†,14,†,†,†
231416000656,ME-847-850,2314160,ME-847,7,8,Tripp Middle School,RSU 52/MSAD 52,Androscoggin County,65 Matthews Way,Turner,ME,4282,,(207)225-1070,42,Rural: Distant,No,No,–,–,292,26.3,11.1,88,25
231482200048,ME-1733-736,2314822,ME-1733,6,8,Troy A Howard Middle School,RSU 71,Waldo County,173 Lincolnville Avenue,Belfast,ME,4915,,(207)338-3320,41,Rural: Fringe,No,No,Yes,Yes,340,34,10,149,38
231152000476,ME-561-565,2311520,ME-561,KG,5,Troy Central School,RSU 03/MSAD 03,Waldo County,733 Bangor Road,Troy,ME,4987,,(207)948-2280,42,Rural: Distant,No,No,Yes,Yes,91,8.5,10.7,58,14
231416000660,ME-847-852,2314160,ME-847,3,6,Turner Elementary School,RSU 52/MSAD 52,Androscoggin County,91 Matthews Way,Turner,ME,4282,,(207)225-1050,42,Rural: Distant,No,No,Yes,No,276,20.9,13.2,83,25
231416000027,ME-847-853,2314160,ME-847,PK,2,Turner Primary School,RSU 52/MSAD 52,Androscoggin County,59 Cobb Road,Turner,ME,4282,,(207)225-1030,42,Rural: Distant,No,No,Yes,Yes,278,18.7,14.9,80,22
231155000486,ME-765-767,2311550,ME-765,PK,6,Union Elementary,RSU 40/MSAD 40,Knox County,1070 Heald Highway,Union,ME,4862,,(207)785-4330,42,Rural: Distant,No,No,Yes,Yes,155,11.4,13.6,53,18
231237000216,ME-1017-1018,2312370,ME-1017,†,†,United Technologies Ctr-Region 4,Bangor-Region 4,Penobscot County,200 Hogan Road,Bangor,ME,4401,,(207)942-5296,13,City: Small,No,No,–,–,†,18.5,†,†,†
231152000477,ME-561-566,2311520,ME-561,PK,PK,Unity Elementary School,RSU 03/MSAD 03,Waldo County,84 School Street,Unity,ME,4988,,(207)948-6136,43,Rural: Remote,No,No,–,–,22,0,†,17,2
231065023166,ME-628-1974,2310650,ME-628,5,12,Upper Kennebec Valley Middle/Senior High School,RSU 83/MSAD 13,Somerset County,PO Box 669,Bingham,ME,4920,,(207)672-3300,43,Rural: Remote,No,No,Yes,Yes,75,8.4,8.9,41,5
231110023137,ME-696-1636,2311100,ME-696,7,8,Valley Rivers Middle School,MSAD 27,Aroostook County,84 Pleasant Street,Fort Kent,ME,4743,,(207)834-5540,43,Rural: Remote,No,No,Yes,Yes,127,11,11.5,38,13
231101000396,ME-685-686,2311010,ME-685,9,12,Van Buren District Secondary Sch,RSU 88/MSAD 24,Aroostook County,169 Main Street Suite 102,Van Buren,ME,4785,,(207)868-5274,43,Rural: Remote,No,No,Yes,Yes,80,7.7,10.4,51,4
231101001059,ME-685-689,2311010,ME-685,PK,8,Van Buren Elementary School,RSU 88/MSAD 24,Aroostook County,169 Main Street St 101,Van Buren,ME,4785,,(207)868-5274,43,Rural: Remote,No,No,Yes,Yes,201,17.4,11.6,153,9
231101000176,ME-685-688,2311010,ME-685,†,†,Van Buren Regional Technology Ctr,RSU 88/MSAD 24,Aroostook County,169 Main Street Suite 102,Van Buren,ME,4785,,(207)868-5274,43,Rural: Remote,No,No,–,–,†,2.5,†,†,†
231311001046,ME-473-474,2313110,ME-473,PK,8,Vassalboro Community School,Vassalboro Public Schools,Kennebec County,1116 Webber Pond Road,Vassalboro,ME,4989,,(207)923-3100,42,Rural: Distant,No,No,Yes,Yes,407,38.6,10.5,201,16
231314000384,ME-475-476,2313140,ME-475,PK,8,Veazie Community School,Veazie Public Schools,Penobscot County,1040 School Street,Veazie,ME,4401,,(207)947-6573,23,Suburb: Small,No,No,Yes,No,145,13.4,10.8,48,4
231461000763,ME-854-857,2314610,ME-854,1,4,Vickery School,RSU 53/MSAD 53,Somerset County,170 School Street,Pittsfield,ME,4967,,(207)487-5575,32,Town: Distant,No,No,Yes,Yes,252,23.1,10.9,134,26
230606000160,ME-194-197,2306060,ME-194,KG,5,Village Elementary School-Gorham,Gorham Public Schools,Cumberland County,12 Robie Street,Gorham,ME,4038,,(207)222-1300,41,Rural: Fringe,No,No,Yes,No,458,35.4,12.9,69,15
231413000655,ME-542-543,2314130,ME-542,KG,1,Village Elementary School-York,York Public Schools,York County,124 York Street,York,ME,3909,,(207)363-4870,23,Suburb: Small,No,No,Yes,No,213,24.6,8.7,17,1
231185000731,ME-603-605,2311850,ME-603,PK,12,Vinalhaven School,RSU 08/MSAD 08,Knox County,22 Arcola Lane,Vinalhaven,ME,4863,,(207)863-4800,43,Rural: Remote,No,No,Yes,Yes,161,22.6,7.1,56,13
230282000058,ME-42-47,2302820,ME-42,PK,3,Vine Street School,Bangor Public Schools,Penobscot County,66 Vine Street,Bangor,ME,4401,,(207)941-6300,13,City: Small,No,No,Yes,Yes,205,20.5,10,111,19
231478200082,ME-1466-76,2314782,ME-1466,PK,1,Viola Rand School,RSU 34,Penobscot County,55 Highland Avenue,Bradley,ME,4411,,(207)827-2508,41,Rural: Fringe,No,No,Yes,Yes,45,5.4,8.3,21,3
231470023180,ME-913-2061,2314700,ME-913,–,–,Vivian E Hussey School,RSU 60/MSAD 60,†,20 Blackberry Hill Road,Berwick,ME,3901,,(207)698-4465,†,N,No,†,†,†,†,†,†,†,†
231480900553,ME-1508-607,2314809,ME-1508,PK,2,W G Mallett School,RSU 09,Franklin County,116 Middle Street,Farmington,ME,4938,,(207)778-3529,33,Town: Remote,No,No,Yes,Yes,354,27.3,13,169,7
231321000219,ME-1019-1020,2313210,ME-1019,†,†,Waldo County Tech Ctr-Region 7,Waldo-Region 7,Waldo County,1022 Waterville Road,Waldo,ME,4915,,(207)342-5231,42,Rural: Distant,No,No,–,–,†,13,†,†,†
231233000033,ME-444-452,2312330,ME-444,PK,5,Waldo T Skillin Elementary School,South Portland Public Schools,Cumberland County,180 Wescott Road,South Portland,ME,4106,,(207)773-7375,13,City: Small,No,No,Yes,Yes,384,31,12.4,200,27
231152000478,ME-561-563,2311520,ME-561,PK,5,Walker Memorial School,RSU 03/MSAD 03,Waldo County,33 West Main Street,Liberty,ME,4949,,(207)589-4208,43,Rural: Remote,No,No,Yes,Yes,98,8.1,12.1,58,13
230261000020,ME-14-21,2302610,ME-14,PK,6,Walton School,Auburn Public Schools,Androscoggin County,92 Mary Carroll Street,Auburn,ME,4210,,(207)784-1528,13,City: Small,No,No,Yes,Yes,244,20,12.2,170,8
231155000508,ME-765-771,2311550,ME-765,PK,6,Warren Community School,RSU 40/MSAD 40,Knox County,117 Eastern Road,Warren,ME,4864,,(207)273-2001,42,Rural: Distant,No,No,Yes,Yes,358,31.4,11.4,168,32
231461000764,ME-854-858,2314610,ME-854,4,8,Warsaw Middle School,RSU 53/MSAD 53,Somerset County,167 School Street,Pittsfield,ME,4967,,(207)487-5145,32,Town: Distant,No,No,Yes,Yes,302,26,11.6,155,39
231170001033,ME-795-797,2311700,ME-795,PK,8,Washburn District Elem School,RSU 45/MSAD 45,Aroostook County,33 School Street,Washburn,ME,4786,,(207)455-4504,42,Rural: Distant,No,No,Yes,Yes,197,19.8,9.9,99,23
231170000514,ME-795-796,2311700,ME-795,9,12,Washburn District High School,RSU 45/MSAD 45,Aroostook County,1359 Main Street,Washburn,ME,4786,,(207)455-4501,42,Rural: Distant,No,No,Yes,Yes,100,10.2,9.8,41,14
230261000021,ME-14-19,2302610,ME-14,PK,6,Washburn School,Auburn Public Schools,Androscoggin County,35 Lake Auburn Avenue,Auburn,ME,4210,,(207)784-5467,13,City: Small,No,No,Yes,Yes,247,24,10.3,183,5
231467000779,ME-888-896,2314670,ME-888,PK,5,Waterboro Elementary School,RSU 57/MSAD 57,York County,340 Sokokis Trail,East Waterboro,ME,4030,,(207)247-6126,42,Rural: Distant,No,No,Yes,Yes,537,37.4,14.4,187,72
231077000363,ME-646-657,2310770,ME-646,PK,2,Waterford Memorial School,RSU 17/MSAD 17,Oxford County,148 Valley Road,Waterford,ME,4088,,(207)583-4418,42,Rural: Distant,No,No,Yes,Yes,99,10.9,9.1,63,4
231335000934,ME-480-484,2313350,ME-480,6,8,Waterville Junior High School,Waterville Public Schools,Kennebec County,100 West River Road,Waterville,ME,4901,,(207)873-2144,41,Rural: Fringe,No,No,Yes,Yes,376,30.3,12.4,217,21
231335000606,ME-480-482,2313350,ME-480,9,12,Waterville Senior High School,Waterville Public Schools,Kennebec County,1 Brooklyn Avenue,Waterville,ME,4901,,(207)873-2751,33,Town: Remote,No,No,Yes,Yes,496,42.3,11.7,258,21
231478800608,ME-1467-487,2314788,ME-1467,KG,5,Wayne Elementary School,RSU 38,Kennebec County,48 Pond Road,Wayne,ME,4284,,(207)685-3634,42,Rural: Distant,No,No,Yes,No,67,7.1,9.4,22,3
231349000611,ME-1060-1061,2313490,ME-1060,PK,4,Wells Elementary School,Wells-Ogunquit CSD,York County,276 Sanford Rd,Wells,ME,4090,,(207)646-5953,42,Rural: Distant,No,No,Yes,No,539,40.5,13.3,94,21
231349000612,ME-1060-1063,2313490,ME-1060,9,12,Wells High School,Wells-Ogunquit CSD,York County,200 Sanford Rd,Wells,ME,4090,,(207)646-7011,42,Rural: Distant,No,No,Yes,No,427,37.2,11.5,55,24
231349000613,ME-1060-1062,2313490,ME-1060,5,8,Wells Junior High School,Wells-Ogunquit CSD,York County,1470 Post Rd,Wells,ME,4090,,(207)646-5142,42,Rural: Distant,No,No,Yes,No,410,35.2,11.6,61,26
231053000923,ME-427-433,2310530,ME-427,3,5,Wentworth School,Scarborough Public Schools,Cumberland County,20 Quentin Drive,Scarborough,ME,4074,,(207)730-4600,22,Suburb: Midsize,No,No,–,–,661,55,12,78,18
231350001048,ME-491-492,2313500,ME-491,KG,8,Wesley Elementary School,Wesley Public Schools,Washington County,13 Whining Pines,Wesley,ME,4686,,(207)255-3263,43,Rural: Remote,No,No,Yes,Yes,6,1.1,5.5,†,†
231353000615,ME-1736-494,2313530,ME-1736,PK,5,West Bath School,West Bath Public Schools,Sagadahoc County,126 New Meadows Road,West Bath,ME,4530,,(207)443-9145,31,Town: Fringe,No,No,Yes,No,130,14.3,9.1,32,7
231356000623,ME-495-499,2313560,ME-495,9,12,Westbrook High School,Westbrook Public Schools,Cumberland County,125 Stroudwater Street,Westbrook,ME,4092,,(207)854-0810,22,Suburb: Midsize,No,No,Yes,Yes,699,57.4,12.2,320,63
231356000624,ME-495-498,2313560,ME-495,5,8,Westbrook Middle School,Westbrook Public Schools,Cumberland County,471 Stroudwater Street,Westbrook,ME,4092,,(207)854-0830,22,Suburb: Midsize,No,No,Yes,Yes,792,60,13.2,438,72
231356000147,ME-495-502,2313560,ME-495,†,†,Westbrook Regional Technology Ctr,Westbrook Public Schools,Cumberland County,125 Stroudwater Street,Westbrook,ME,4092,,(207)854-0820,22,Suburb: Midsize,No,No,–,–,†,17,†,†,†
231478000625,ME-1451-506,2314780,ME-1451,PK,8,Whitefield Elementary School,RSU 12,Lincoln County,164 Grand Army Road,Whitefield,ME,4353,,(207)549-7691,42,Rural: Distant,No,No,Yes,Yes,164,15,10.9,64,17
230006800564,ME-1413-1001,2300068,ME-1413,PK,8,Whiting Village School,Whiting Public Schools,Washington County,PO Box 2,Whiting,ME,4691,,(207)733-4617,43,Rural: Remote,No,No,Yes,Yes,35,4.3,8.1,17,6
231050023143,ME-416-1651,2310500,ME-416,1,4,Willard School,Sanford Public Schools,York County,668 Main Street,Sanford,ME,4073,,(207)324-8454,32,Town: Distant,No,No,Yes,Yes,438,34.5,12.7,221,43
231410000650,ME-537-538,2314100,ME-537,KG,1,William H Rowe School,Yarmouth Schools,Cumberland County,52 School Street,Yarmouth,ME,4096,,(207)846-3771,22,Suburb: Midsize,No,No,Yes,No,212,17.2,12.3,18,2
230282000054,ME-42-51,2302820,ME-42,6,8,William S. Cohen School,Bangor Public Schools,Penobscot County,304 Garland Street,Bangor,ME,4401,,(207)941-6230,13,City: Small,No,No,Yes,No,406,31.1,13.1,116,21
231477900704,ME-1457-810,2314779,ME-1457,3,5,Williams Elementary School,RSU 18,Kennebec County,55 Pleasant Street,Oakland,ME,4963,,(207)465-2965,41,Rural: Fringe,No,No,Yes,Yes,209,18.8,11.1,70,23
231476800821,ME-984-990,2314768,ME-984,PK,5,Williams-Cone School,RSU 75/MSAD 75,Sagadahoc County,19 Perkins Street,Topsham,ME,4086,,(207)725-4391,31,Town: Fringe,No,No,–,–,302,18.9,16,58,24
231479300632,ME-1455-511,2314793,ME-1455,9,12,Windham High School,RSU 14,Cumberland County,406 Gray Road,Windham,ME,4062,,(207)892-1810,22,Suburb: Midsize,No,No,–,–,928,79,11.7,182,77
231479300629,ME-1455-513,2314793,ME-1455,6,8,Windham Middle School,RSU 14,Cumberland County,408 Gray Road,Windham,ME,4062,,(207)892-1820,22,Suburb: Midsize,No,No,–,–,636,47.2,13.5,146,53
231479301034,ME-1455-514,2314793,ME-1455,KG,3,Windham Primary School,RSU 14,Cumberland County,404 Gray Road,Windham,ME,4062,,(207)892-1840,41,Rural: Fringe,No,No,Yes,No,735,53.8,13.7,175,45
231478000633,ME-1451-517,2314780,ME-1451,PK,8,Windsor Elementary School,RSU 12,Kennebec County,366 Ridge Road,Windsor,ME,4363,,(207)445-2356,42,Rural: Distant,No,No,Yes,Yes,339,27.6,12.3,163,29
231386000034,ME-518-521,2313860,ME-518,PK,5,Winslow Elementary School,Winslow Schools,Kennebec County,285 Benton Avenue,Winslow,ME,4901,,(207)872-1967,33,Town: Remote,No,No,Yes,Yes,495,38.9,12.7,243,34
231386000638,ME-518-519,2313860,ME-518,9,12,Winslow High School,Winslow Schools,Kennebec County,20 Danielson Street,Winslow,ME,4901,,(207)872-1990,33,Town: Remote,No,No,Yes,Yes,433,34.8,12.4,166,28
231386000639,ME-518-520,2313860,ME-518,6,8,Winslow Junior High School,Winslow Schools,Kennebec County,6 Danielson Street,Winslow,ME,4901,,(207)872-1973,33,Town: Remote,No,No,Yes,Yes,254,24.6,10.3,98,21
231397000641,ME-524-525,2313970,ME-524,PK,5,Winthrop Grade School,Winthrop Public Schools,Kennebec County,23 Highland Avenue,Winthrop,ME,4364,,(207)377-2241,42,Rural: Distant,No,No,Yes,No,451,33.7,13.4,155,24
231397000732,ME-524-526,2313970,ME-524,9,12,Winthrop High School,Winthrop Public Schools,Kennebec County,211 Rambler Road,Winthrop,ME,4364,,(207)377-2228,42,Rural: Distant,No,No,Yes,No,233,23,10.1,58,11
231397000643,ME-524-527,2313970,ME-524,6,8,Winthrop Middle School,Winthrop Public Schools,Kennebec County,400 Rambler Road,Winthrop,ME,4364,,(207)377-2249,42,Rural: Distant,No,No,Yes,No,201,14.8,13.6,63,6
231398023148,ME-1671-529,2313980,ME-1671,PK,5,Wiscasset Elementary School,Wiscasset Public Schools,Lincoln County,83 Federal Street,Wiscasset,ME,4578,,(207)882-7767,42,Rural: Distant,No,No,Yes,Yes,226,29.5,7.7,107,10
231398023146,ME-1671-530,2313980,ME-1671,6,12,Wiscasset Middle/High School,Wiscasset Public Schools,Lincoln County,272 Gardiner Road,Wiscasset,ME,4578,,(207)882-7722,42,Rural: Distant,No,No,Yes,Yes,275,29,9.5,129,17
231131000439,ME-726-729,2311310,ME-726,7,12,Wisdom Middle High School,RSU 33/MSAD 33,Aroostook County,PO Box 69,Saint Agatha,ME,4772,,(207)543-7717,43,Rural: Remote,No,No,Yes,No,99,11,9,29,10
231401000647,ME-532-533,2314010,ME-532,PK,8,Woodland Consolidated Sch,Woodland Public Schools,Aroostook County,844 Woodland Ctr Road,Woodland,ME,4736,,(207)496-2981,42,Rural: Distant,No,No,Yes,Yes,156,16.2,9.6,71,21
230273000044,ME-38-40,2302730,ME-38,PK,6,Woodland Elementary School,Baileyville Public Schools,Washington County,23 Fourth Avenue,Baileyville,ME,4694,,(207)427-3882,42,Rural: Distant,No,No,Yes,Yes,140,15.9,8.8,70,7
230273000045,ME-38-39,2302730,ME-38,7,12,Woodland Jr-Sr High School,Baileyville Public Schools,Washington County,14 First Avenue,Baileyville,ME,4694,,(207)427-3325,42,Rural: Distant,No,No,Yes,Yes,178,16.2,11,99,13
231476801055,ME-984-992,2314768,ME-984,KG,5,Woodside Elementary School,RSU 75/MSAD 75,Sagadahoc County,42 Barrows Drive,Topsham,ME,4086,,(207)725-1243,31,Town: Fringe,No,No,Yes,No,319,30.6,10.4,85,22
231167000990,ME-789-794,2311670,ME-789,KG,5,Woodstock School,RSU 44/MSAD 44,Oxford County,224 Rumford Avenue,Bryant Pond,ME,4219,,(207)665-2228,42,Rural: Distant,No,No,Yes,Yes,88,7.5,11.7,40,10
231477200648,ME-1438-536,2314772,ME-1438,PK,8,Woolwich Central School,RSU 01 - LKRSU,Sagadahoc County,137 Nequasset Road,Woolwich,ME,4579,,(207)443-9739,41,Rural: Fringe,No,No,–,–,372,27.8,13.4,99,27
231410000651,ME-537-540,2314100,ME-537,2,4,Yarmouth Elementary School,Yarmouth Schools,Cumberland County,121 McCartney Street,Yarmouth,ME,4096,,(207)846-3391,22,Suburb: Midsize,No,No,Yes,No,344,26.3,13.1,39,4
231410000652,ME-537-539,2314100,ME-537,9,12,Yarmouth High School,Yarmouth Schools,Cumberland County,286 West Elm Street,Yarmouth,ME,4096,,(207)846-5535,22,Suburb: Midsize,No,No,Yes,No,540,44.1,12.2,41,11
231413000653,ME-542-545,2314130,ME-542,9,12,York High School,York Public Schools,York County,1 Robert Stevens Drive,York,ME,3909,,(207)363-3621,23,Suburb: Small,No,No,Yes,No,551,51.6,10.7,72,17
231413000654,ME-542-544,2314130,ME-542,5,8,York Middle School,York Public Schools,York County,30 Organug Road,York,ME,3909,,(207)363-4214,23,Suburb: Small,No,No,Yes,No,558,51.5,10.8,68,34
231038000309,ME-1662-410,2310380,ME-1662,PK,2,Young School,Saco Public Schools,York County,36 Tasker St,Saco,ME,4072,,(207)284-7053,22,Suburb: Midsize,No,No,–,–,267,22.9,11.7,36,16
