NCES School ID,State School ID,NCES District ID,State District ID,Low Grade*,High Grade*,School Name,District,County Name*,Street Address,City,State,ZIP,ZIP 4-digit,Phone,Locale Code*,Locale*,Charter,Magnet*,Title I School*,Title 1 School Wide*,Students*,Teachers*,Student Teacher Ratio*,Free Lunch*,Reduced Lunch*
20071000465,AK-45-450040,200710,AK-45,PK,12,"""William """"Sonny"""" Nelson School""",Southwest Region School District,Dillingham Census Area,General Delivery,Ekwok,AK,99580,,(907)464-3344,43,Rural: Remote,No,No,Yes,Yes,16,2,8,16,0
20018000053,AK-05-050010,200180,AK-05,PK,6,Abbott Loop Elementary,Anchorage School District,Anchorage Municipality,8427 Lake Otis Pkwy,Anchorage,AK,99507,3599,(907)742-5400,11,City: Large,No,No,Yes,Yes,308,19.05,16.2,†,†
20051000311,AK-33-339010,200510,AK-33,KG,8,Academy Charter School,Matanuska-Susitna Borough School District,Matanuska-Susitna Borough,801 East Arctic,Palmer,AK,99645,,(907)746-2358,32,Town: Distant,Yes,No,–,–,254,14.61,17.4,–,–
20001000080,AK-04-040080,200010,AK-04,KG,12,Adak School,Aleutian Region School District,Aleutians West Census Area,PO Box 2083,Adak,AK,99546,,(907)592-3820,43,Rural: Remote,No,No,Yes,Yes,12,2,6,†,†
20018000054,AK-05-050020,200180,AK-05,PK,6,Airport Heights Elementary,Anchorage School District,Anchorage Municipality,1510 Alder Dr,Anchorage,AK,99508,2999,(907)742-4550,11,City: Large,No,No,Yes,Yes,330,22.06,15,†,†
20048000180,AK-28-280010,200480,AK-28,KG,12,Akhiok School,Kodiak Island Borough School District,Kodiak Island Borough,PO Box 5049,Akhiok,AK,99615,5049,(907)836-2223,43,Rural: Remote,No,No,Yes,No,14,1.91,7.3,14,0
20000400579,AK-54-540010,200004,AK-54,KG,12,Akiachak School,Yupiit School District,Bethel Census Area,PO Box 51189,Akiachak,AK,99551,189,(907)825-3616,43,Rural: Remote,No,No,Yes,Yes,198,14.85,13.3,205,0
20000400624,AK-54-540030,200004,AK-54,KG,12,Akiak School,Yupiit School District,Bethel Census Area,Box 49,Akiak,AK,99552,49,(907)765-4600,43,Rural: Remote,No,No,Yes,Yes,120,8,15,126,0
20000100619,AK-31-310240,200001,AK-31,PK,12,Akiuk Memorial School,Lower Kuskokwim School District,Bethel Census Area,General Delivery,Kasigluk,AK,99609,,(907)477-6829,43,Rural: Remote,No,No,Yes,Yes,106,5.99,17.7,107,0
20048000435,AK-28-288010,200480,AK-28,KG,12,AKTEACH,Kodiak Island Borough School District,Kodiak Island Borough,722 Mill Bay Rd,Kodiak,AK,99615,,(907)486-7544,33,Town: Remote,No,No,–,–,114,1,114,–,–
20000100391,AK-31-310110,200001,AK-31,PK,12,Akula Elitnaurvik School,Lower Kuskokwim School District,Bethel Census Area,Box 79,Kasigluk,AK,99609,79,(907)477-6615,43,Rural: Remote,No,No,Yes,Yes,134,7.95,16.9,130,0
20000700004,AK-56-560030,200007,AK-56,PK,12,Akutan School,Aleutians East Borough School District,Aleutians East Borough,Box 25,Akutan,AK,99553,,(907)698-2205,43,Rural: Remote,No,No,Yes,Yes,19,2,9.5,–,–
20061000291,AK-36-360100,200610,AK-36,PK,12,Alak School,North Slope Borough School District,North Slope Borough,Box 10,Wainwright,AK,99782,,(907)763-5800,43,Rural: Remote,No,No,Yes,Yes,168,13.25,12.7,105,0
20000300216,AK-32-320010,200003,AK-32,PK,12,Alakanuk School,Lower Yukon School District,Kusilvak Census Area,PO Box 9,Alakanuk,AK,99554,,(907)238-3312,43,Rural: Remote,No,No,Yes,Yes,212,15,14.1,215,0
20018000763,AK-05-057230,200180,AK-05,11,12,Alaska Middle College School,Anchorage School District,Anchorage Municipality,2650 E Northern Lights Blvd,Anchorage,AK,99508,,(907)786-7611,31,Town: Fringe,No,No,–,–,239,3.95,60.5,0,78
20018000736,AK-05-059100,200180,AK-05,PK,8,Alaska Native Cultural Charter School,Anchorage School District,Anchorage Municipality,550 Bragaw St,Anchorage,AK,99508,,(907)742-1370,11,City: Large,Yes,Yes,Yes,Yes,323,22.04,14.7,0,146
20005000023,AK-03-038010,200050,AK-03,PK,12,Alaska REACH Academy,Alaska Gateway School District,Southeast Fairbanks Census Area,Box 454,Tok,AK,99780,,(907)883-2591,43,Rural: Remote,No,No,Yes,Yes,45,0.85,52.9,†,†
20018000341,AK-05-057010,200180,AK-05,PK,12,Alaska State School for Deaf and Hard of Hearing,Anchorage School District,Anchorage Municipality,5530 E Northern Lights Blvd,Anchorage,AK,99504,,(907)742-4281,11,City: Large,No,No,Yes,Yes,27,0,†,†,†
20071000330,AK-45-450020,200710,AK-45,PK,12,Aleknagik School,Southwest Region School District,Dillingham Census Area,PO Box 84,Aleknagik,AK,99555,,(907)842-5681,43,Rural: Remote,No,No,Yes,Yes,24,4,6,14,0
20086200377,AK-52-520010,200862,AK-52,PK,12,Allakaket School,Yukon-Koyukuk School District,Yukon-Koyukuk Census Area,PO Box 69,Allakaket,AK,99720,,(907)968-2205,43,Rural: Remote,No,No,Yes,Yes,24,4.54,5.3,31,0
20018000104,AK-05-051000,200180,AK-05,PK,6,Alpenglow Elementary,Anchorage School District,Anchorage Municipality,19201 Driftwood Bay Dr,Eagle River,AK,99577,8579,(907)742-3300,31,Town: Fringe,No,No,–,–,476,29.87,15.9,†,†
20060000325,AK-16-167010,200600,AK-16,PK,12,Alternative Learning Systems,Fairbanks North Star Borough School District,Fairbanks North Star Borough,520 Fifth Ave,Fairbanks,AK,99701,,(907)452-2000,13,City: Small,No,No,Yes,Yes,117,6.5,18,–,–
20062500292,AK-37-370010,200625,AK-37,PK,12,Ambler School,Northwest Arctic Borough School District,Northwest Arctic Borough,PO Box 109,Ambler,AK,99786,,(907)445-2154,43,Rural: Remote,No,No,Yes,Yes,76,6,12.7,79,0
20051000452,AK-33-337050,200510,AK-33,KG,12,American Charter Academy,Matanuska-Susitna Borough School District,Matanuska-Susitna Borough,244 S Sylvan Ste 110,Wasilla,AK,99623,,(907)352-0150,41,Rural: Fringe,Yes,No,–,–,193,12.25,15.8,–,–
20018000760,AK-05-059120,200180,AK-05,6,8,Anchorage STrEaM Academy,Anchorage School District,Anchorage Municipality,PO Box 210934,Anchorage,AK,99521,934,(907)742-9000,11,City: Large,Yes,No,Yes,Yes,149,9.06,16.4,0,32
20060000256,AK-16-160080,200600,AK-16,PK,2,Anderson Elementary,Fairbanks North Star Borough School District,Fairbanks North Star Borough,768 Kodiak St,Eielson AFB,AK,99702,1205,(907)372-2167,31,Town: Fringe,No,No,–,–,197,12,16.4,39,21
20077000354,AK-02-020010,200770,AK-02,KG,12,Anderson School,Denali Borough School District,Denali Borough,Box 3120,Anderson,AK,99744,,(907)582-2700,43,Rural: Remote,No,No,Yes,No,27,4.44,6.1,–,–
20086200385,AK-52-520090,200862,AK-52,PK,12,Andrew K. Demoski School,Yukon-Koyukuk School District,Yukon-Koyukuk Census Area,PO Box 65029,Nulato,AK,99765,,(907)898-2204,43,Rural: Remote,No,No,Yes,Yes,49,5.12,9.6,48,0
20073000342,AK-09-090010,200730,AK-09,PK,12,Angoon School,Chatham School District,Hoonah-Angoon Census Area,Box 109,Angoon,AK,99820,,(907)788-3302,43,Rural: Remote,No,No,Yes,Yes,73,7.1,10.3,33,0
20076000663,AK-29-290011,200760,AK-29,6,12,Aniak Jr/Sr High School,Kuspuk School District,Bethel Census Area,PO Box 29,Aniak,AK,99557,29,(907)675-4330,43,Rural: Remote,No,No,Yes,Yes,46,0.06,766.7,38,0
20002000421,AK-07-070040,200020,AK-07,PK,12,Aniguiin School,Bering Strait School District,Nome Census Area,PO Box 29,Elim,AK,99739,,(907)890-3021,43,Rural: Remote,No,No,Yes,Yes,122,10.15,12,16,0
20000100214,AK-31-310210,200001,AK-31,PK,12,Anna Tobeluk Memorial School,Lower Kuskokwim School District,Bethel Census Area,PO Box 150,Nunapitchuk,AK,99641,150,(907)527-5701,43,Rural: Remote,No,No,Yes,Yes,203,13.89,14.6,199,0
20060000114,AK-16-160380,200600,AK-16,PK,6,Anne Wien Elementary,Fairbanks North Star Borough School District,Fairbanks North Star Borough,1501 Hampstead Ave,Fairbanks,AK,99701,,(907)451-7500,13,City: Small,No,No,Yes,Yes,397,24,16.5,187,24
20002000467,AK-07-070080,200020,AK-07,PK,12,Anthony A. Andrews School,Bering Strait School District,Nome Census Area,100 Baker St,St. Michael,AK,99659,,(907)923-3041,43,Rural: Remote,No,No,Yes,Yes,161,16.24,9.9,213,14
20057000323,AK-35-359010,200570,AK-35,5,8,Anvil City Science Academy,Nome Public Schools,Nome Census Area,PO Box 131,Nome,AK,99762,131,(907)443-6207,41,Rural: Fringe,Yes,No,Yes,Yes,60,5,12,–,–
20062500302,AK-37-370100,200625,AK-37,PK,12,Aqqaluk High/Noorvik Elementary,Northwest Arctic Borough School District,Northwest Arctic Borough,PO Box 165,Noorvik,AK,99763,,(907)636-2178,43,Rural: Remote,No,No,Yes,Yes,202,10,20.2,205,0
20018000172,AK-05-059010,200180,AK-05,KG,6,Aquarian Charter School,Anchorage School District,Anchorage Municipality,1705 W 32nd Ave,Anchorage,AK,99517,2002,(907)742-4900,11,City: Large,Yes,No,–,–,382,22.71,16.8,–,–
20060000055,AK-16-160360,200600,AK-16,PK,8,Arctic Light Elementary,Fairbanks North Star Borough School District,Fairbanks North Star Borough,4167 Neely Rd,Fort Wainwright,AK,99703,1110,(907)356-2038,13,City: Small,No,No,Yes,Yes,449,28,16,140,121
20077500358,AK-51-510010,200775,AK-51,PK,12,Arctic Village School,Yukon Flats School District,Yukon-Koyukuk Census Area,PO Box 22049,Arctic Village,AK,99722,,(907)587-5211,43,Rural: Remote,No,No,Yes,Yes,37,4,9.3,37,0
20000100215,AK-31-310230,200001,AK-31,KG,12,Arviq School,Lower Kuskokwim School District,Bethel Census Area,PO Box 28,Platinum,AK,99651,,(907)979-8111,43,Rural: Remote,No,No,Yes,Yes,13,0.6,21.7,7,0
20021000127,AK-22-220010,200210,AK-22,PK,5,Auke Bay Elementary,Juneau Borough School District,Juneau City and Borough,10014 Crazy Horse Dr,Juneau,AK,99801,8529,(907)796-5275,41,Rural: Fringe,No,No,–,–,393,20.9,18.8,39,9
20076000346,AK-29-290010,200760,AK-29,PK,5,Auntie Mary Nicoli Elementary,Kuspuk School District,Bethel Census Area,PO Box 29,Aniak,AK,99557,29,(907)675-4363,43,Rural: Remote,No,No,Yes,Yes,84,0.07,1200,79,0
20039000274,AK-24-249010,200390,AK-24,KG,8,Aurora Borealis Charter School,Kenai Peninsula Borough School District,Kenai Peninsula Borough,705 Frontage Rd Ste A,Kenai,AK,99611,,(907)283-0292,33,Town: Remote,Yes,No,–,–,194,11.81,16.4,–,–
20018000056,AK-05-050240,200180,AK-05,PK,6,Aurora Elementary,Anchorage School District,Anchorage Municipality,5085 10th St,JBER,AK,99506,1199,(907)742-0300,11,City: Large,No,No,Yes,Yes,177,13.41,13.2,134,40
20018000714,AK-05-050980,200180,AK-05,6,12,AVAIL School,Anchorage School District,Anchorage Municipality,425 C St,Anchorage,AK,99501,2323,(907)742-4930,11,City: Large,No,No,Yes,Yes,90,3.96,22.7,44,0
20000100211,AK-31-310130,200001,AK-31,PK,12,Ayagina'ar Elitnaurvik,Lower Kuskokwim School District,Bethel Census Area,PO Box 5109,Kongiganak,AK,99545,8998,(907)557-5551,43,Rural: Remote,No,No,Yes,Yes,166,10.97,15.1,166,0
20000100329,AK-31-319010,200001,AK-31,PK,6,Ayaprun Elitnaurvik,Lower Kuskokwim School District,Bethel Census Area,PO Box 1468,Bethel,AK,99559,1468,(907)543-1645,33,Town: Remote,Yes,No,Yes,Yes,169,9.33,18.1,116,0
20000100440,AK-31-310190,200001,AK-31,PK,12,Ayaprun School,Lower Kuskokwim School District,Bethel Census Area,PO Box WWT,Newtok,AK,99559,8996,(907)237-2505,43,Rural: Remote,No,No,Yes,Yes,110,8,13.8,101,0
20024000135,AK-42-420010,200240,AK-42,PK,1,Baranof Elementary,Sitka School District,Sitka City and Borough,305 Baranof St,Sitka,AK,99835,,(907)747-5825,33,Town: Remote,No,No,Yes,No,197,17.8,11.1,62,17
20060000259,AK-16-160020,200600,AK-16,PK,8,Barnette Magnet School,Fairbanks North Star Borough School District,Fairbanks North Star Borough,1000 Barnette St,Fairbanks,AK,99701,4563,(907)456-6072,13,City: Small,No,Yes,–,–,434,26.67,16.3,90,15
20061000286,AK-36-360030,200610,AK-36,9,12,Barrow High School,North Slope Borough School District,North Slope Borough,Box 960,Utqiagvik,AK,99723,960,(907)852-9601,33,Town: Remote,No,No,–,–,241,20.3,11.9,57,3
20070000319,AK-44-440090,200700,AK-44,PK,12,Barry Craig Stewart Kasaan School,Southeast Island School District,Prince of Wales-Hyder Census Area,Box KXA,Ketchikan,AK,99950,340,(907)542-2217,43,Rural: Remote,No,No,Yes,Yes,10,1.1,9.1,11,0
20018000057,AK-05-050050,200180,AK-05,9,12,Bartlett High School,Anchorage School District,Anchorage Municipality,1101 Golden Bear Dr,Anchorage,AK,99504,1698,(907)742-1800,11,City: Large,No,No,Yes,Yes,1402,72.72,19.3,311,56
20018000058,AK-05-050060,200180,AK-05,PK,6,Baxter Elementary,Anchorage School District,Anchorage Municipality,2991 Baxter Rd,Anchorage,AK,99504,3999,(907)742-1750,11,City: Large,No,Yes,Yes,Yes,342,25.32,13.5,181,100
20018000059,AK-05-050800,200180,AK-05,PK,6,Bayshore Elementary,Anchorage School District,Anchorage Municipality,10500 Bayshore Dr,Anchorage,AK,99515,2400,(907)742-5360,11,City: Large,No,No,–,–,463,26.37,17.6,†,†
20018000533,AK-05-050820,200180,AK-05,PK,6,Bear Valley Elementary,Anchorage School District,Anchorage Municipality,15001 Mountain Air Dr,Anchorage,AK,99516,4400,(907)742-5900,41,Rural: Fringe,No,No,–,–,385,23.07,16.7,0,33
20060000260,AK-16-160090,200600,AK-16,7,12,Ben Eielson Jr/Sr High School,Fairbanks North Star Borough School District,Fairbanks North Star Borough,675 Raven's Way,Eielson AFB,AK,99702,1346,(907)372-3110,31,Town: Fringe,No,No,–,–,328,22.45,14.6,47,27
20018000110,AK-05-057100,200180,AK-05,7,12,Benson Secondary/S.E.A.R.C.H.,Anchorage School District,Anchorage Municipality,4515 Campbell Airstrip Rd,Anchorage,AK,99507,1267,(907)742-2050,41,Rural: Fringe,No,No,Yes,Yes,210,13.27,15.8,50,129
20051000726,AK-33-330370,200510,AK-33,KG,12,Beryozova School,Matanuska-Susitna Borough School District,Matanuska-Susitna Borough,PO Box 69,Willow,AK,99688,,(907)495-9390,43,Rural: Remote,No,No,Yes,Yes,28,2,14,–,–
20000100208,AK-31-310070,200001,AK-31,7,12,Bethel Regional High School,Lower Kuskokwim School District,Bethel Census Area,PO Box 700,Bethel,AK,99559,700,(907)543-3957,41,Rural: Fringe,No,No,Yes,Yes,494,34.97,14.1,393,0
20000100620,AK-31-317020,200001,AK-31,5,12,Bethel Youth Facility,Lower Kuskokwim School District,Bethel Census Area,PO Box 1989,Bethel,AK,99559,,(907)543-5200,33,Town: Remote,No,No,Yes,No,12,2,6,–,–
20051000727,AK-33-330380,200510,AK-33,PK,5,Big Lake Elementary,Matanuska-Susitna Borough School District,Matanuska-Susitna Borough,PO Box 520049,Big Lake,AK,99652,,(907)892-9700,42,Rural: Distant,No,No,Yes,Yes,420,23.11,18.2,339,0
20051000744,AK-33-339050,200510,AK-33,KG,8,Birchtree Charter School,Matanuska-Susitna Borough School District,Matanuska-Susitna Borough,1675 N Nadina St,Palmer,AK,99645,,(907)745-1831,32,Town: Distant,Yes,No,–,–,395,22.6,17.5,–,–
20018000060,AK-05-050070,200180,AK-05,PK,6,Birchwood ABC Elementary,Anchorage School District,Anchorage Municipality,17010 Birchtree St,Eagle River,AK,99567,6746,(907)742-3450,31,Town: Fringe,No,Yes,–,–,250,18.07,13.8,42,47
20052000240,AK-21-210010,200520,AK-21,PK,12,Blackwell School,Iditarod Area School District,Yukon-Koyukuk Census Area,Box 90,Anvik,AK,99558,,(907)663-6348,43,Rural: Remote,No,No,Yes,Yes,14,3,4.7,14,0
20024000136,AK-42-420020,200240,AK-42,6,8,Blatchley Middle School,Sitka School District,Sitka City and Borough,601 Halibut Point Rd,Sitka,AK,99835,,(907)747-8672,33,Town: Remote,No,No,Yes,No,283,22.4,12.6,100,17
20060000761,AK-16-169060,200600,AK-16,KG,8,Boreal Sun Charter School,Fairbanks North Star Borough School District,Fairbanks North Star Borough,2404 S Barnette St,Fairbanks,AK,99701,,(907)456-5444,13,City: Small,No,No,–,–,193,10,19.3,–,–
20018000713,AK-05-050970,200180,AK-05,PK,6,Bowman Elementary,Anchorage School District,Anchorage Municipality,11700 Gregory Rd,Anchorage,AK,99516,1907,(907)742-5600,11,City: Large,No,Yes,Yes,No,563,39.56,14.2,148,48
20002000423,AK-07-070010,200020,AK-07,PK,12,Brevig Mission School,Bering Strait School District,Nome Census Area,General Delivery,Brevig Mission,AK,99785,,(907)642-4021,43,Rural: Remote,No,No,Yes,Yes,167,14.15,11.8,8,0
20003000751,AK-08-088010,200030,AK-08,KG,12,Bristol Bay Correspondence,Bristol Bay Borough School District,Bristol Bay Borough,Po Box 169,Naknek,AK,99633,,(907)246-4265,43,Rural: Remote,No,No,–,–,4,0.33,12.1,†,†
20003000020,AK-08-080010,200030,AK-08,7,12,Bristol Bay Middle/High School,Bristol Bay Borough School District,Bristol Bay Borough,Box 169,Naknek,AK,99633,,(907)246-4265,43,Rural: Remote,No,No,Yes,Yes,50,4.92,10.2,50,0
20062500293,AK-37-370020,200625,AK-37,PK,12,Buckland School,Northwest Arctic Borough School District,Northwest Arctic Borough,PO Box 91,Buckland,AK,99727,,(907)494-2127,43,Rural: Remote,No,No,Yes,Yes,187,13,14.4,192,0
20051000720,AK-33-337010,200510,AK-33,9,12,Burchell High School,Matanuska-Susitna Borough School District,Matanuska-Susitna Borough,1775 W Parks Hwy,Wasilla,AK,99654,6935,(907)864-2600,32,Town: Distant,No,No,Yes,Yes,190,12,15.8,209,0
20051000724,AK-33-330350,200510,AK-33,PK,5,Butte Elementary,Matanuska-Susitna Borough School District,Matanuska-Susitna Borough,4006 S Butte Rd,Palmer,AK,99645,,(907)861-5200,42,Rural: Distant,No,No,Yes,Yes,289,19.1,15.1,115,28
20018000062,AK-05-050080,200180,AK-05,PK,6,Campbell STEM Elementary,Anchorage School District,Anchorage Municipality,7206 Rovenna St,Anchorage,AK,99518,2176,(907)742-5560,11,City: Large,No,No,Yes,Yes,373,24.33,15.3,164,0
20077000356,AK-02-020030,200770,AK-02,KG,12,Cantwell School,Denali Borough School District,Denali Borough,Box 29,Cantwell,AK,99729,,(907)768-2372,43,Rural: Remote,No,No,Yes,No,13,2.54,5.1,–,–
20018000063,AK-05-050100,200180,AK-05,7,8,Central Middle School of Science,Anchorage School District,Anchorage Municipality,1405 E St,Anchorage,AK,99501,5098,(907)742-5100,11,City: Large,No,Yes,Yes,Yes,369,21.96,16.8,†,†
20039000152,AK-24-240020,200390,AK-24,PK,8,Chapman School,Kenai Peninsula Borough School District,Kenai Peninsula Borough,PO Box 1109,Anchor Point,AK,99556,,(907)235-8671,43,Rural: Remote,No,No,Yes,No,137,11.25,12.2,51,21
20000100209,AK-31-310080,200001,AK-31,PK,12,Chaputnguak School,Lower Kuskokwim School District,Bethel Census Area,PO Box 50,Chefornak,AK,99561,50,(907)867-8700,43,Rural: Remote,No,No,Yes,Yes,140,10,14,141,0
20052500111,AK-06-060020,200525,AK-06,6,8,Charles R. Leask Sr. Middle School,Annette Island School District,Prince of Wales-Hyder Census Area,PO Box 7,Metlakatla,AK,99926,,(907)886-6095,43,Rural: Remote,No,No,Yes,Yes,70,6,11.7,0,11
20073000477,AK-09-098010,200730,AK-09,KG,12,Chatham Correspondence,Chatham School District,Hoonah-Angoon Census Area,P O Box 109,Tenakee Springs,AK,88941,,(907)788-3302,43,Rural: Remote,No,No,–,–,7,0,†,†,†
20080000553,AK-10-100030,200800,AK-10,PK,12,Chenega School,Chugach School District,Valdez-Cordova Census Area,Box 8030,Chenega Bay,AK,99574,,(907)573-5123,43,Rural: Remote,No,No,Yes,Yes,13,3.42,3.8,–,–
20018000065,AK-05-050110,200180,AK-05,PK,6,Chester Valley Elementary,Anchorage School District,Anchorage Municipality,1751 Patterson Rd,Anchorage,AK,99504,2799,(907)742-0335,11,City: Large,No,No,Yes,Yes,263,18.97,13.9,†,†
20000500582,AK-55-550010,200005,AK-55,PK,12,Chevak School,Kashunamiut School District,Kusilvak Census Area,PO Box 345,Chevak,AK,99563,,(907)858-6127,43,Rural: Remote,No,No,Yes,Yes,328,24.11,13.6,329,0
20071000336,AK-45-450080,200710,AK-45,PK,12,Chief Ivan Blunka School,Southwest Region School District,Dillingham Census Area,PO Box 29,New Stuyahok,AK,99636,,(907)693-3144,43,Rural: Remote,No,No,Yes,Yes,133,11.6,11.5,132,0
20000100210,AK-31-310120,200001,AK-31,PK,12,Chief Paul Memorial School,Lower Kuskokwim School District,Bethel Census Area,PO Box 19,Kipnuk,AK,99614,19,(907)896-5011,43,Rural: Remote,No,No,Yes,Yes,213,15,14.2,207,0
20048500193,AK-30-300010,200485,AK-30,PK,12,Chignik Bay School,Lake and Peninsula Borough School District,Lake and Peninsula Borough,General Delivery,Chignik Bay,AK,99564,,(907)749-2213,43,Rural: Remote,No,No,Yes,Yes,13,2.1,6.2,13,0
20048500194,AK-30-300020,200485,AK-30,PK,12,Chignik Lagoon School,Lake and Peninsula Borough School District,Lake and Peninsula Borough,General Delivery,Chignik Lagoon,AK,99565,,(907)840-2210,43,Rural: Remote,No,No,Yes,Yes,12,2,6,11,0
20048500195,AK-30-300030,200485,AK-30,PK,12,Chignik Lake School,Lake and Peninsula Borough School District,Lake and Peninsula Borough,General Delivery,Chignik Lake,AK,99548,,(907)845-2210,43,Rural: Remote,No,No,Yes,Yes,13,1.1,11.8,11,0
20048000181,AK-28-280020,200480,AK-28,KG,12,Chiniak School,Kodiak Island Borough School District,Kodiak Island Borough,Box 5529,Chiniak,AK,99615,,(907)486-8323,43,Rural: Remote,No,No,Yes,No,23,2,11.5,18,0
20018000066,AK-05-050120,200180,AK-05,PK,6,Chinook Elementary,Anchorage School District,Anchorage Municipality,3101 W 88th Ave,Anchorage,AK,99502,5396,(907)742-6700,11,City: Large,No,Yes,Yes,Yes,486,32.05,15.2,95,0
20060000162,AK-16-169010,200600,AK-16,KG,8,Chinook Montessori Charter School,Fairbanks North Star Borough School District,Fairbanks North Star Borough,3002 International St,Fairbanks,AK,99701,,(907)452-5020,13,City: Small,Yes,Yes,–,–,151,9,16.8,–,–
20018000067,AK-05-050130,200180,AK-05,PK,6,Chugach Optional Elementary,Anchorage School District,Anchorage Municipality,1205 E St,Anchorage,AK,99501,4499,(907)742-3730,11,City: Large,No,Yes,–,–,271,16.47,16.5,†,†
20018000068,AK-05-050150,200180,AK-05,PK,6,Chugiak Elementary,Anchorage School District,Anchorage Municipality,19932 Old Glenn Hwy,Chugiak,AK,99567,30,(907)742-3400,41,Rural: Fringe,No,Yes,–,–,503,26.45,19,†,†
20018000069,AK-05-050160,200180,AK-05,9,12,Chugiak High School,Anchorage School District,Anchorage Municipality,16525 S Birchwood Loop Rd,Chugiak,AK,99567,6701,(907)742-3050,31,Town: Fringe,No,Yes,–,–,891,46.53,19.1,†,†
20077500361,AK-51-510050,200775,AK-51,PK,12,Circle School,Yukon Flats School District,Yukon-Koyukuk Census Area,PO Box 49,Circle,AK,99733,49,(907)773-1250,43,Rural: Remote,No,No,Yes,Yes,14,2.34,6,14,0
20018000064,AK-05-050560,200180,AK-05,6,8,Clark Middle School,Anchorage School District,Anchorage Municipality,150 South Bragaw St,Anchorage,AK,99508,1398,(907)742-4700,11,City: Large,No,No,Yes,Yes,866,51.21,16.9,†,†
20071000331,AK-45-450030,200710,AK-45,KG,12,Clarks Point School,Southwest Region School District,Dillingham Census Area,PO Box 29,Clarks Point,AK,99569,,(907)236-1218,43,Rural: Remote,No,No,Yes,Yes,15,1.75,8.6,8,0
20018000070,AK-05-050170,200180,AK-05,PK,6,College Gate Elementary,Anchorage School District,Anchorage Municipality,3101 Sunflower St,Anchorage,AK,99508,4794,(907)742-1500,11,City: Large,No,No,Yes,Yes,360,19.46,18.5,251,0
20051000711,AK-33-330270,200510,AK-33,9,12,Colony High School,Matanuska-Susitna Borough School District,Matanuska-Susitna Borough,9550 E Bogard Rd,Palmer,AK,99645,,(907)861-5500,32,Town: Distant,No,No,–,–,1054,50,21.1,292,55
20051000719,AK-33-330260,200510,AK-33,6,8,Colony Middle School,Matanuska-Susitna Borough School District,Matanuska-Susitna Borough,9250 E Bogard Rd,Palmer,AK,99645,,(907)761-1500,32,Town: Distant,No,No,–,–,781,33.03,23.6,240,48
20039000397,AK-24-247010,200390,AK-24,KG,12,Connections,Kenai Peninsula Borough School District,Kenai Peninsula Borough,143 E Park Ave,Soldotna,AK,99669,,(907)714-8880,33,Town: Remote,No,No,–,–,766,11.33,67.6,–,–
20039000155,AK-24-240040,200390,AK-24,KG,12,Cooper Landing School,Kenai Peninsula Borough School District,Kenai Peninsula Borough,19030 Bean Creek Rd,Cooper Landing,AK,99572,,(907)595-1244,43,Rural: Remote,No,No,Yes,No,12,1,12,–,–
20006000029,AK-12-120010,200060,AK-12,7,12,Cordova Jr/Sr High School,Cordova City School District,Valdez-Cordova Census Area,PO Box 1330,Cordova,AK,99574,140,(907)424-3266,43,Rural: Remote,No,No,Yes,Yes,158,12.24,12.9,126,0
20006000750,AK-12-128010,200060,AK-12,KG,12,Cordova School District Innovative Learning,Cordova City School District,Valdez-Cordova Census Area,PO Box 1330,Cordova,AK,99574,,(907)424-3266,43,Rural: Remote,No,No,–,–,1,0.1,10,†,†
20051000514,AK-33-330280,200510,AK-33,PK,5,Cottonwood Creek Elementary,Matanuska-Susitna Borough School District,Matanuska-Susitna Borough,800 N Seward Meridian,Wasilla,AK,99645,,(907)864-2100,32,Town: Distant,No,No,Yes,Yes,454,26.01,17.5,162,30
20009000629,AK-13-130020,200090,AK-13,PK,5,Craig Elementary,Craig City School District,Prince of Wales-Hyder Census Area,Box 800,Craig,AK,99921,,(907)826-3274,43,Rural: Remote,No,No,Yes,Yes,119,9.75,12.2,89,11
20009000038,AK-13-130010,200090,AK-13,9,12,Craig High School,Craig City School District,Prince of Wales-Hyder Census Area,Box 800,Craig,AK,99921,,(907)826-2274,43,Rural: Remote,No,No,Yes,Yes,76,7.27,10.5,54,2
20009000433,AK-13-130030,200090,AK-13,6,8,Craig Middle School,Craig City School District,Prince of Wales-Hyder Census Area,Box 800,Craig,AK,99921,,(907)826-3274,43,Rural: Remote,No,No,Yes,Yes,69,5.72,12.1,42,5
20060000238,AK-16-160400,200600,AK-16,3,6,Crawford Elementary,Fairbanks North Star Borough School District,Fairbanks North Star Borough,692 Raven's Way,Eielson AFB,AK,99702,1346,(907)372-3306,41,Rural: Fringe,No,No,–,–,285,15.05,18.9,42,31
20018000071,AK-05-050180,200180,AK-05,PK,6,Creekside Park Elementary,Anchorage School District,Anchorage Municipality,7500 E 6th Ave,Anchorage,AK,99504,1999,(907)742-1550,11,City: Large,No,No,Yes,Yes,440,29.07,15.1,†,†
20018000509,AK-05-057190,200180,AK-05,7,12,Crossroads,Anchorage School District,Anchorage Municipality,4515 Campbell Airstrip Rd,Anchorage,AK,99507,1267,(907)742-2050,11,City: Large,No,No,Yes,No,10,1.07,9.3,–,–
20076000347,AK-29-290020,200760,AK-29,PK,12,Crow Village Sam School,Kuspuk School District,Bethel Census Area,PO Box CHU,Chuathbaluk,AK,99557,,(907)467-4229,43,Rural: Remote,No,No,Yes,Yes,26,0.04,650,27,0
20077500552,AK-51-510140,200775,AK-51,PK,12,Cruikshank School,Yukon Flats School District,Yukon-Koyukuk Census Area,PO Box 24050,Beaver,AK,99724,,(907)628-6313,43,Rural: Remote,No,No,Yes,Yes,10,2,5,10,0
20054000321,AK-34-348010,200540,AK-34,PK,12,CyberLynx Correspondence Program,Nenana City School District,Yukon-Koyukuk Census Area,PO Box 599,Nenana,AK,99760,,(907)832-5423,43,Rural: Remote,No,No,–,–,1128,6.99,161.4,–,–
20052000241,AK-21-210120,200520,AK-21,PK,12,David Louis Memorial School,Iditarod Area School District,Yukon-Koyukuk Census Area,Box 90,Grayling,AK,99590,,(907)453-5135,43,Rural: Remote,No,No,Yes,Yes,48,3,16,48,0
20062500394,AK-37-370210,200625,AK-37,PK,12,Davis-Ramoth School,Northwest Arctic Borough School District,Northwest Arctic Borough,PO Box 119,Selawik,AK,99770,,(907)484-2142,43,Rural: Remote,No,No,Yes,Yes,263,25,10.5,265,0
20062500294,AK-37-370030,200625,AK-37,PK,12,Deering School,Northwest Arctic Borough School District,Northwest Arctic Borough,PO Box 36009,Deering,AK,99736,,(907)363-2121,43,Rural: Remote,No,No,Yes,Yes,40,1,40,41,0
20010000559,AK-14-140020,200100,AK-14,PK,5,Delta Junction Elementary,Delta-Greely School District,Southeast Fairbanks Census Area,PO Box 647,Delta Junction,AK,99737,,(907)895-4696,43,Rural: Remote,No,No,Yes,Yes,389,21.5,18.1,121,38
20010000764,AK-14-140100,200100,AK-14,6,8,Delta Junction Junior High School,Delta-Greely School District,Southeast Fairbanks Census Area,PO Box 546,Delta Junction,AK,99737,,(907)895-5165,43,Rural: Remote,No,No,Yes,Yes,152,10.7,14.2,35,15
20010000630,AK-14-140030,200100,AK-14,9,12,Delta Junction Senior High School,Delta-Greely School District,Southeast Fairbanks Census Area,PO Box 647,Delta Junction,AK,99737,,(907)895-4460,43,Rural: Remote,No,No,Yes,No,187,12.3,15.2,51,16
20010000599,AK-14-148010,200100,AK-14,KG,12,Delta/Greely Homeschool,Delta-Greely School District,Southeast Fairbanks Census Area,PO Box 369,Delta Junction,AK,99737,527,(907)895-4655,43,Rural: Remote,No,No,–,–,61,1,61,–,–
20051000759,AK-33-330550,200510,AK-33,PK,5,Dena?ina Elementary School,Matanuska-Susitna Borough School District,Matanuska-Susitna Borough,PO Box 877469,Wasilla,AK,99687,,(907)864-5600,41,Rural: Fringe,No,No,Yes,Yes,372,22.07,16.9,175,29
20060000262,AK-16-160050,200600,AK-16,PK,6,Denali Elementary,Fairbanks North Star Borough School District,Fairbanks North Star Borough,1042 Lathrop St,Fairbanks,AK,99701,4198,(907)452-2456,13,City: Small,No,No,Yes,Yes,321,19.5,16.5,129,30
20018000072,AK-05-050190,200180,AK-05,PK,6,Denali Montessori Elementary,Anchorage School District,Anchorage Municipality,952 Cordova St,Anchorage,AK,99501,3785,(907)742-4500,11,City: Large,No,Yes,Yes,Yes,430,28.07,15.3,0,105
20077000447,AK-02-028010,200770,AK-02,PK,12,Denali PEAK,Denali Borough School District,Denali Borough,PO Box 280,Healy,AK,99743,280,(907)683-2278,43,Rural: Remote,No,No,–,–,758,6.65,114,–,–
20012000745,AK-15-158010,200120,AK-15,KG,12,Dillingham Correspondence School,Dillingham City School District,Dillingham Census Area,PO Box 170,Dillingham,AK,99576,,(907)842-5221,43,Rural: Remote,No,No,Yes,Yes,5,0.1,50,†,†
20012000042,AK-15-150010,200120,AK-15,PK,5,Dillingham Elementary,Dillingham City School District,Dillingham Census Area,PO Box 170,Dillingham,AK,99576,,(907)842-5642,43,Rural: Remote,No,No,Yes,Yes,238,18.5,12.9,242,0
20012000634,AK-15-150020,200120,AK-15,6,12,Dillingham Middle/High School,Dillingham City School District,Dillingham Census Area,PO Box 170,Dillingham,AK,99576,,(907)842-5221,43,Rural: Remote,No,No,Yes,Yes,224,19.73,11.4,230,0
20018000073,AK-05-050200,200180,AK-05,9,12,Dimond High School,Anchorage School District,Anchorage Municipality,2909 W 88th Ave,Anchorage,AK,99502,5397,(907)742-7000,11,City: Large,No,Yes,Yes,Yes,1526,73.88,20.7,274,159
20002000499,AK-07-070050,200020,AK-07,PK,12,Diomede School,Bering Strait School District,Nome Census Area,PO Box 7099,Diomede,AK,99762,,(907)686-3021,43,Rural: Remote,No,No,Yes,Yes,23,3.15,7.3,62,0
20060000766,AK-16-169070,200600,AK-16,KG,8,Discovery Peak Charter School,Fairbanks North Star Borough School District,†,3340 Badger Road Ste 280,North Pole,AK,99705,,(907)452-2000,†,N,Yes,†,†,†,†,†,†,†,†
20052000327,AK-21-218010,200520,AK-21,KG,12,Distance Learning/Corresp. Ctr.,Iditarod Area School District,Anchorage Municipality,Box 772182,Eagle River,AK,99577,,(907)694-6100,41,Rural: Fringe,No,No,Yes,Yes,142,0.72,197.2,–,–
20005000024,AK-03-030010,200050,AK-03,PK,12,Dot Lake School,Alaska Gateway School District,Southeast Fairbanks Census Area,PO Box 2280,Dot Lake,AK,99737,,(907)882-2663,43,Rural: Remote,No,No,Yes,Yes,11,0.85,12.9,†,†
20021000134,AK-22-220020,200210,AK-22,6,8,Dzantik'i Heeni Middle School,Juneau Borough School District,Juneau City and Borough,10014 Crazy Horse Dr,Juneau,AK,99801,,(907)796-5800,41,Rural: Fringe,No,No,Yes,No,499,29.34,17,142,15
20018000460,AK-05-059080,200180,AK-05,KG,6,Eagle Academy Charter School,Anchorage School District,Anchorage Municipality,10901 Mausel St Ste 101,Eagle River,AK,99577,8019,(907)742-3025,31,Town: Fringe,Yes,No,–,–,176,9.85,17.9,†,†
20005000025,AK-03-030020,200050,AK-03,PK,12,Eagle Community School,Alaska Gateway School District,Southeast Fairbanks Census Area,Box 168,Eagle,AK,99738,,(907)547-2210,43,Rural: Remote,No,No,Yes,Yes,23,2.93,7.8,†,†
20018000074,AK-05-050210,200180,AK-05,PK,6,Eagle River Elementary,Anchorage School District,Anchorage Municipality,19900 Old Eagle River Rd,Eagle River,AK,99577,8096,(907)742-3000,31,Town: Fringe,No,Yes,Yes,Yes,420,24.07,17.4,†,†
20018000458,AK-05-051130,200180,AK-05,9,12,Eagle River High School,Anchorage School District,Anchorage Municipality,8701 Yosemite Dr,Eagle River,AK,99577,6500,(907)742-2700,31,Town: Fringe,No,No,–,–,834,33.35,25,44,54
20072000340,AK-47-470010,200720,AK-47,PK,6,Eagle's View Elementary School,Unalaska City School District,Aleutians West Census Area,PO Box 570,Unalaska,AK,99685,,(907)581-3979,43,Rural: Remote,No,No,Yes,No,230,15.4,14.9,44,16
20048000183,AK-28-280030,200480,AK-28,PK,5,East Elementary,Kodiak Island Borough School District,Kodiak Island Borough,722 Mill Bay Rd,Kodiak,AK,99615,,(907)481-6500,33,Town: Remote,No,No,Yes,Yes,345,25.5,13.5,169,36
20018000075,AK-05-050220,200180,AK-05,9,12,East High School,Anchorage School District,Anchorage Municipality,4025 E Northern Lights Blvd,Anchorage,AK,99508,3599,(907)742-2100,11,City: Large,No,Yes,Yes,Yes,1776,99.25,17.9,†,†
20061000139,AK-36-360120,200610,AK-36,6,8,Eben Hopson Middle School,North Slope Borough School District,North Slope Borough,PO Box 509,Utqiagvik,AK,99723,,(907)852-3880,41,Rural: Fringe,No,No,–,–,264,18.8,14,79,4
20000100392,AK-31-310090,200001,AK-31,PK,12,Eek School,Lower Kuskokwim School District,Bethel Census Area,PO Box 050,Eek,AK,99578,50,(907)536-5227,43,Rural: Remote,No,No,Yes,Yes,116,6,19.3,101,0
20060000464,AK-16-169040,200600,AK-16,7,12,Effie Kokrine Charter School,Fairbanks North Star Borough School District,Fairbanks North Star Borough,601 Loftus Rd,Fairbanks,AK,99709,,(907)474-0958,23,Suburb: Small,Yes,No,Yes,Yes,149,11,13.5,93,8
20086200382,AK-52-520060,200862,AK-52,PK,8,Ella B. Vernetti School,Yukon-Koyukuk School District,Yukon-Koyukuk Census Area,PO Box 70,Koyukuk,AK,99754,,(907)927-2212,43,Rural: Remote,No,No,Yes,Yes,13,2.28,5.7,13,0
20000300217,AK-32-320040,200003,AK-32,PK,12,Emmonak School,Lower Yukon School District,Kusilvak Census Area,PO Box 267,Emmonak,AK,99581,267,(907)949-1248,43,Rural: Remote,No,No,Yes,Yes,221,14.14,15.6,226,0
20081000373,AK-49-490010,200810,AK-49,PK,5,Evergreen Elementary,Wrangell Public School District,Wrangell City and Borough,Box 736,Wrangell,AK,99929,736,(907)874-2321,43,Rural: Remote,No,No,Yes,Yes,167,11.51,14.5,–,–
20057000426,AK-35-358010,200570,AK-35,KG,12,Extensions Correspondence,Nome Public Schools,Nome Census Area,PO Box 131,Nome,AK,99762,131,(907)443-2231,41,Rural: Fringe,No,No,Yes,Yes,17,1.25,13.6,–,–
20060000587,AK-16-168010,200600,AK-16,KG,12,Fairbanks B.E.S.T.,Fairbanks North Star Borough School District,Fairbanks North Star Borough,520 Fifth Ave,Fairbanks,AK,99701,4756,(907)452-2000,13,City: Small,No,No,–,–,287,4,71.8,–,–
20018000076,AK-05-050300,200180,AK-05,PK,6,Fairview Elementary,Anchorage School District,Anchorage Municipality,1327 Nelchina St,Anchorage,AK,99501,4896,(907)742-7600,11,City: Large,No,No,Yes,Yes,391,28.07,13.9,357,147
20000700007,AK-56-560050,200007,AK-56,PK,12,False Pass School,Aleutians East Borough School District,Aleutians East Borough,PO Box 30,False Pass,AK,99583,,(907)548-2224,43,Rural: Remote,No,No,Yes,Yes,8,2,4,†,†
20018000178,AK-05-056010,200180,AK-05,KG,12,Family Partnership Charter School,Anchorage School District,Anchorage Municipality,4400 Business Park Blvd # B22,Anchorage,AK,99503,2111,(907)742-3700,11,City: Large,Yes,No,Yes,No,675,7.32,92.2,†,†
20015000427,AK-25-258010,200150,AK-25,KG,12,Fast Track,Ketchikan Gateway Borough School District,Ketchikan Gateway Borough,333 Schoenbar Rd,Ketchikan,AK,99901,,(907)225-2127,33,Town: Remote,No,No,–,–,61,1,61,–,–
20015000052,AK-25-250050,200150,AK-25,PK,6,Fawn Mountain Elementary,Ketchikan Gateway Borough School District,Ketchikan Gateway Borough,333 Schoenbar Rd,Ketchikan,AK,99901,,(907)228-2200,41,Rural: Fringe,No,No,Yes,Yes,293,21.5,13.6,74,11
20051000585,AK-33-330290,200510,AK-33,PK,5,Finger Lake Elementary,Matanuska-Susitna Borough School District,Matanuska-Susitna Borough,5981 Eek St,Wasilla,AK,99654,,(907)864-2200,32,Town: Distant,No,No,Yes,Yes,406,23.35,17.4,152,19
20018000598,AK-05-050880,200180,AK-05,PK,6,Fire Lake Elementary,Anchorage School District,Anchorage Municipality,13801 Harry McDonald Road,Eagle River,AK,99577,2569,(907)742-3350,31,Town: Fringe,No,No,Yes,Yes,324,21.07,15.4,0,27
20039000296,AK-24-249030,200390,AK-24,KG,6,Fireweed Academy,Kenai Peninsula Borough School District,Kenai Peninsula Borough,995 Soundview Ave. Ste 2,Homer,AK,99603,,(907)235-9728,43,Rural: Remote,Yes,No,–,–,114,8,14.3,32,4
20021000129,AK-22-220030,200210,AK-22,6,8,Floyd Dryden Middle School,Juneau Borough School District,Juneau City and Borough,10014 Crazy Horse Dr,Juneau,AK,99801,,(907)463-1850,33,Town: Remote,No,No,–,–,456,25.2,18.1,98,34
20080000496,AK-10-108010,200800,AK-10,PK,12,FOCUS Homeschool,Chugach School District,Anchorage Municipality,9312 Vanguard Dr,Anchorage,AK,99507,,(907)522-7400,11,City: Large,No,No,Yes,Yes,432,5.39,80.1,–,–
20077500362,AK-51-510070,200775,AK-51,PK,12,Fort Yukon School,Yukon Flats School District,Yukon-Koyukuk Census Area,PO Box 129,Fort Yukon,AK,99740,,(907)662-2352,43,Rural: Remote,No,No,Yes,Yes,95,10,9.5,92,0
20051000741,AK-33-330530,200510,AK-33,PK,5,Fred and Sara Machetanz Elementary School,Matanuska-Susitna Borough School District,Matanuska-Susitna Borough,4961 E Nelson Rd,Wasilla,AK,99654,,(907)864-2300,32,Town: Distant,No,No,–,–,453,24.97,18.1,95,14
20061000285,AK-36-360020,200610,AK-36,PK,5,Fred Ipalook Elementary,North Slope Borough School District,North Slope Borough,Box 450,Utqiagvik,AK,99723,450,(907)852-4711,33,Town: Remote,No,No,–,–,684,38,18,220,10
20051000740,AK-33-339040,200510,AK-33,KG,8,Fronteras Charter School,Matanuska-Susitna Borough School District,Matanuska-Susitna Borough,2315 N Seward Meridian Pky,Wasilla,AK,99654,,(907)376-2223,32,Town: Distant,Yes,No,–,–,310,17,18.2,–,–
20018000530,AK-05-059050,200180,AK-05,KG,12,Frontier Charter School,Anchorage School District,Anchorage Municipality,400 W Northern Lights Blvd Ste 4,Anchorage,AK,99503,3877,(907)742-1180,11,City: Large,Yes,No,–,–,256,2.13,120.2,†,†
20013000252,AK-17-179010,200130,AK-17,9,12,Galena Interior Learning Academy (GILA),Galena City School District,Yukon-Koyukuk Census Area,PO Box 359,Galena,AK,99741,,(907)656-2053,43,Rural: Remote,No,No,Yes,Yes,233,18.93,12.3,152,20
20002000012,AK-07-070180,200020,AK-07,PK,12,Gambell School,Bering Strait School District,Nome Census Area,PO Box 169,Gambell,AK,99742,,(907)985-5515,43,Rural: Remote,No,No,Yes,Yes,175,17.91,9.8,120,24
20078000367,AK-48-480040,200780,AK-48,6,8,George H. Gilson Middle School,Valdez City School District,Valdez-Cordova Census Area,PO Box 398,Valdez,AK,99686,,(907)835-2244,43,Rural: Remote,No,No,Yes,No,146,12.1,12.1,50,4
20076000665,AK-29-290090,200760,AK-29,6,12,George Morgan Sr. H.S.,Kuspuk School District,Bethel Census Area,PO Box 30,Kalskag,AK,99607,,(907)471-2288,43,Rural: Remote,No,No,Yes,Yes,71,1.04,68.3,71,0
20010000510,AK-14-140090,200100,AK-14,KG,12,Gerstle River School,Delta-Greely School District,Southeast Fairbanks Census Area,PO Box 369,Delta Junction,AK,99737,527,(907)895-5165,43,Rural: Remote,No,No,Yes,Yes,29,2,14.5,–,–
20018000077,AK-05-050360,200180,AK-05,PK,8,Girdwood School,Anchorage School District,Anchorage Municipality,PO Box 189,Girdwood,AK,99587,189,(907)742-5300,42,Rural: Distant,No,No,–,–,183,13.02,14.1,†,†
20021000131,AK-22-220050,200210,AK-22,PK,5,Glacier Valley Elementary,Juneau Borough School District,Juneau City and Borough,10014 Crazy Horse Dr,Juneau,AK,99801,8529,(907)780-1400,33,Town: Remote,No,No,Yes,Yes,382,23.95,15.9,127,38
20051000225,AK-33-330030,200510,AK-33,KG,12,Glacier View School,Matanuska-Susitna Borough School District,Matanuska-Susitna Borough,65975 S Wolverine Circle,Sutton,AK,99674,,(907)861-5650,43,Rural: Remote,No,No,Yes,Yes,40,3.33,12,25,5
20086200383,AK-52-520070,200862,AK-52,PK,12,Gladys Dart School,Yukon-Koyukuk School District,Yukon-Koyukuk Census Area,PO Box 29,Manley Hot Springs,AK,99756,,(907)672-3202,43,Rural: Remote,No,No,Yes,Yes,12,2.12,5.7,9,0
20000100207,AK-31-310060,200001,AK-31,3,6,Gladys Jung Elementary,Lower Kuskokwim School District,Bethel Census Area,PO Box 800,Bethel,AK,99559,800,(907)543-4440,41,Rural: Fringe,No,No,Yes,Yes,330,21.5,15.3,299,0
20018000078,AK-05-050370,200180,AK-05,PK,6,Gladys Wood Elementary,Anchorage School District,Anchorage Municipality,7001 Cranberry St,Anchorage,AK,99502,3199,(907)742-6760,11,City: Large,No,No,Yes,Yes,386,22.07,17.5,68,147
20007000034,AK-11-110060,200070,AK-11,PK,6,Glennallen Elementary,Copper River School District,Valdez-Cordova Census Area,Box 108,Glennallen,AK,99588,,(907)822-3232,43,Rural: Remote,No,No,Yes,Yes,130,9.88,13.2,63,14
20007000039,AK-11-110070,200070,AK-11,7,12,Glennallen Jr/Sr High School,Copper River School District,Valdez-Cordova Census Area,Box 108,Glennallen,AK,99588,,(907)822-5286,43,Rural: Remote,No,No,Yes,Yes,123,8.59,14.3,63,14
20060000049,AK-16-167020,200600,AK-16,5,12,Golden Heart Academy,Fairbanks North Star Borough School District,Fairbanks North Star Borough,1502 Wilbur St,Fairbanks,AK,99701,5758,(907)456-1536,13,City: Small,No,No,Yes,Yes,14,2.5,5.6,–,–
20018010162,AK-05-051050,200180,AK-05,7,8,Goldenview Middle School,Anchorage School District,Anchorage Municipality,15800 Goldenview Dr,Anchorage,AK,99516,4924,(907)348-8626,11,City: Large,No,No,–,–,684,39.27,17.4,83,122
20051000011,AK-33-330390,200510,AK-33,PK,2,Goose Bay Elementary,Matanuska-Susitna Borough School District,Matanuska-Susitna Borough,7362 W Parks Hwy #842,Wasilla,AK,99654,,(907)352-6400,41,Rural: Fringe,No,No,Yes,Yes,277,21,13.2,125,36
20018000504,AK-05-050380,200180,AK-05,PK,6,Government Hill Elementary,Anchorage School District,Anchorage Municipality,525 Bluff Dr,Anchorage,AK,99501,1198,(907)742-5000,41,Rural: Fringe,No,Yes,Yes,Yes,478,23.96,19.9,19,154
20018000505,AK-05-050140,200180,AK-05,6,8,Gruening Middle School,Anchorage School District,Anchorage Municipality,16525 S Birchwood Loop Rd,Eagle River,AK,99567,,(907)742-3600,31,Town: Fringe,No,No,–,–,598,30.7,19.5,†,†
20073000344,AK-09-090030,200730,AK-09,KG,12,Gustavus School,Chatham School District,Hoonah-Angoon Census Area,Box 120,Gustavus,AK,99826,,(907)697-2248,43,Rural: Remote,No,No,–,–,65,6,10.8,–,–
20076000353,AK-29-290080,200760,AK-29,PK,12,Gusty Michael School,Kuspuk School District,Bethel Census Area,General Delivery,Stony River,AK,99557,,(907)537-3225,43,Rural: Remote,No,No,Yes,Yes,13,0.02,650,13,0
20027000144,AK-18-180010,200270,AK-18,PK,8,Haines Elementary,Haines Borough School District,Haines Borough,Box 1289,Haines,AK,99827,,(907)766-6700,43,Rural: Remote,No,No,Yes,Yes,171,11.54,14.8,90,10
20027000639,AK-18-180020,200270,AK-18,9,12,Haines High School,Haines Borough School District,Haines Borough,Box 1289,Haines,AK,99827,,(907)766-6700,43,Rural: Remote,No,No,Yes,Yes,75,6.78,11.1,40,5
20027000670,AK-18-188010,200270,AK-18,KG,12,Haines Home School,Haines Borough School District,Haines Borough,Box 1289,Haines,AK,99827,,(907)766-6700,43,Rural: Remote,No,No,–,–,14,0.16,87.5,–,–
20018000534,AK-05-050870,200180,AK-05,7,8,Hanshew Middle School,Anchorage School District,Anchorage Municipality,10121 Lake Otis Pkwy,Anchorage,AK,99507,4298,(907)349-1561,11,City: Large,No,No,Yes,Yes,670,38.85,17.2,327,13
20021000132,AK-22-220060,200210,AK-22,PK,6,Harborview Elementary,Juneau Borough School District,Juneau City and Borough,10014 Crazy Horse Dr,Juneau,AK,99801,8529,(907)523-1850,33,Town: Remote,No,No,Yes,Yes,344,26.55,13,113,25
20061000287,AK-36-360040,200610,AK-36,PK,12,Harold Kaveolook School,North Slope Borough School District,North Slope Borough,Box 20,Kaktovik,AK,99747,,(907)640-6626,43,Rural: Remote,No,No,–,–,60,8,7.5,16,4
20078000495,AK-48-480050,200780,AK-48,PK,5,Hermon Hutchens Elementary,Valdez City School District,Valdez-Cordova Census Area,PO Box 398,Valdez,AK,99686,,(907)835-4728,43,Rural: Remote,No,No,Yes,No,333,25,13.3,100,20
20018000555,AK-05-059060,200180,AK-05,6,12,Highland Academy Charter,Anchorage School District,Anchorage Municipality,5530 E Northern Lights Ste 1,Anchorage,AK,99504,3169,(907)742-1700,11,City: Large,Yes,Yes,Yes,Yes,153,10.6,14.4,†,†
20002000014,AK-07-070200,200020,AK-07,PK,12,Hogarth Kingeekuk Sr. Memorial School,Bering Strait School District,Nome Census Area,PO Box 200,Savoonga,AK,99769,,(907)984-6811,43,Rural: Remote,No,No,Yes,Yes,260,19.21,13.5,0,82
20070000484,AK-44-440250,200700,AK-44,PK,12,Hollis School,Southeast Island School District,Prince of Wales-Hyder Census Area,PO Box 803,Craig,AK,99921,,(907)530-7108,43,Rural: Remote,No,No,Yes,Yes,23,2.1,11,12,0
20021000125,AK-22-228010,200210,AK-22,PK,12,HomeBRIDGE,Juneau Borough School District,Juneau City and Borough,10014 Crazy Horse Dr,Juneau,AK,99801,8529,(907)523-1821,33,Town: Remote,No,No,Yes,Yes,26,0.5,52,–,–
20039000081,AK-24-247020,200390,AK-24,9,12,Homer Flex School,Kenai Peninsula Borough School District,Kenai Peninsula Borough,4122 Ben Walters Ln,Homer,AK,99603,,(907)235-5558,43,Rural: Remote,No,No,Yes,No,34,4.01,8.5,28,0
20039000158,AK-24-240080,200390,AK-24,9,12,Homer High School,Kenai Peninsula Borough School District,Kenai Peninsula Borough,600 E Fairview Ave,Homer,AK,99603,,(907)235-4600,43,Rural: Remote,No,No,–,–,389,24.98,15.6,102,22
20039000543,AK-24-240320,200390,AK-24,7,8,Homer Middle School,Kenai Peninsula Borough School District,Kenai Peninsula Borough,500 Sterling Hwy,Homer,AK,99603,,(907)235-5700,43,Rural: Remote,No,No,–,–,194,14.12,13.7,56,7
20018010080,AK-05-050400,200180,AK-05,PK,6,Homestead Elementary,Anchorage School District,Anchorage Municipality,18001 Baranoff St,Eagle River,AK,99577,8299,(907)742-3550,31,Town: Fringe,No,No,–,–,322,20.07,16,222,97
20030000146,AK-19-190010,200300,AK-19,PK,12,Hoonah City School,Hoonah City School District,Hoonah-Angoon Census Area,PO Box 157,Hoonah,AK,99829,157,(907)945-3613,43,Rural: Remote,No,No,Yes,Yes,118,10.43,11.3,99,0
20000300219,AK-32-320070,200003,AK-32,PK,12,Hooper Bay School,Lower Yukon School District,Kusilvak Census Area,PO Box 249,Hooper Bay,AK,99604,,(907)758-1200,43,Rural: Remote,No,No,Yes,Yes,460,29,15.9,445,0
20039000159,AK-24-240010,200390,AK-24,PK,12,Hope School,Kenai Peninsula Borough School District,Kenai Peninsula Borough,PO Box 47,Hope,AK,99605,,(907)782-3202,42,Rural: Distant,No,No,Yes,No,17,1.25,13.6,–,–
20015000046,AK-25-250010,200150,AK-25,PK,6,Houghtaling Elementary,Ketchikan Gateway Borough School District,Ketchikan Gateway Borough,333 Schoenbar Rd,Ketchikan,AK,99901,,(907)225-4128,33,Town: Remote,No,No,Yes,Yes,379,25,15.2,167,28
20051000586,AK-33-330250,200510,AK-33,6,12,Houston Jr./Sr. High School,Matanuska-Susitna Borough School District,Matanuska-Susitna Borough,PO Box 940315,Houston,AK,99694,,(907)892-9400,42,Rural: Distant,No,No,Yes,Yes,343,23.27,14.7,269,0
20051000450,AK-33-330450,200510,AK-33,6,8,Houston Middle School,Matanuska-Susitna Borough School District,Matanuska-Susitna Borough,PO Box 520920,Big Lake,AK,99652,,(907)892-9500,42,Rural: Distant,No,–,–,–,381,23.83,16,285,0
20070000314,AK-44-440020,200700,AK-44,PK,12,Howard Valentine Coffman Cove School,Southeast Island School District,Prince of Wales-Hyder Census Area,Box 18002,Coffman Cove,AK,99918,,(907)329-2244,43,Rural: Remote,No,No,Yes,Yes,14,2.05,6.8,7,0
20018000082,AK-05-050420,200180,AK-05,PK,6,Huffman Elementary,Anchorage School District,Anchorage Municipality,12000 Lorraine S,Anchorage,AK,99516,2100,(907)742-5650,11,City: Large,No,No,–,–,373,26.23,14.2,†,†
20060000267,AK-16-160180,200600,AK-16,PK,6,Hunter Elementary,Fairbanks North Star Borough School District,Fairbanks North Star Borough,1630 Gillam Way,Fairbanks,AK,99701,6048,(907)456-5775,13,City: Small,No,No,Yes,Yes,382,23.4,16.3,199,40
20060000650,AK-16-167030,200600,AK-16,9,12,Hutchison High School,Fairbanks North Star Borough School District,Fairbanks North Star Borough,3750 Geist Rd,Fairbanks,AK,99709,3547,(907)479-2261,23,Suburb: Small,No,No,–,–,403,26.5,15.2,65,21
20033000148,AK-20-200010,200330,AK-20,PK,12,Hydaburg School,Hydaburg City School District,Prince of Wales-Hyder Census Area,Box 109,Hydaburg,AK,99922,109,(907)285-3491,43,Rural: Remote,No,No,Yes,Yes,93,8.5,10.9,83,0
20070000428,AK-44-440340,200700,AK-44,PK,12,Hyder School,Southeast Island School District,Prince of Wales-Hyder Census Area,PO Box 130,Hyder,AK,99923,,(250)636-2800,43,Rural: Remote,No,No,Yes,Yes,13,1.15,11.3,1,3
20051000226,AK-33-330040,200510,AK-33,PK,5,Iditarod Elementary,Matanuska-Susitna Borough School District,Matanuska-Susitna Borough,455 E Carpenter Cir,Wasilla,AK,99654,6430,(907)352-9100,32,Town: Distant,No,No,Yes,Yes,418,28.93,14.4,314,0
20048500197,AK-30-300050,200485,AK-30,PK,12,Igiugig School,Lake and Peninsula Borough School District,Lake and Peninsula Borough,General Delivery,Igiugig,AK,99613,,(907)533-3220,43,Rural: Remote,No,No,Yes,Yes,21,2.1,10,19,0
20018000083,AK-05-050430,200180,AK-05,PK,6,Inlet View Elementary,Anchorage School District,Anchorage Municipality,1219 N Street,Anchorage,AK,99501,4299,(907)742-7630,11,City: Large,No,No,Yes,No,250,13.55,18.5,†,†
20052000246,AK-21-210090,200520,AK-21,PK,12,Innoko River School,Iditarod Area School District,Yukon-Koyukuk Census Area,Box 49,Shageluk,AK,99665,,(907)473-8233,43,Rural: Remote,No,No,Yes,Yes,27,2,13.5,28,0
20013000253,AK-17-178010,200130,AK-17,PK,12,Interior Distance Education of Alaska (IDEA),Galena City School District,Fairbanks North Star Borough,2157 Van Horn Rd,Fairbanks,AK,99701,,(907)374-2200,23,Suburb: Small,No,No,Yes,Yes,4682,35.7,131.1,–,–
20076000352,AK-29-290070,200760,AK-29,PK,12,Jack Egnaty Sr. School,Kuspuk School District,Bethel Census Area,PO Box 69,Sleetmute,AK,99668,,(907)449-4216,43,Rural: Remote,No,No,Yes,Yes,21,2,10.5,21,0
20002000016,AK-07-070130,200020,AK-07,PK,12,James C. Isabell School,Bering Strait School District,Nome Census Area,100 Airport Ave,Teller,AK,99778,,(907)642-3041,43,Rural: Remote,No,No,Yes,Yes,79,9.24,8.5,33,10
20052000242,AK-21-210030,200520,AK-21,KG,12,Jeffery A. Bader Memorial School,Iditarod Area School District,Yukon-Koyukuk Census Area,Box 210,Holy Cross,AK,99602,,(907)476-7131,43,Rural: Remote,No,No,Yes,Yes,28,2.65,10.6,33,0
20086200380,AK-52-520040,200862,AK-52,PK,12,Jimmy Huntington School,Yukon-Koyukuk School District,Yukon-Koyukuk Census Area,PO Box 110,Huslia,AK,99746,,(907)829-2405,43,Rural: Remote,No,No,Yes,Yes,74,8.46,8.7,71,0
20000100206,AK-31-310030,200001,AK-31,PK,12,Joann A. Alexie Memorial School,Lower Kuskokwim School District,Bethel Census Area,PO Box ATT,Atmautluak,AK,99559,8999,(907)553-5112,43,Rural: Remote,No,No,Yes,Yes,121,7.86,15.4,114,0
20051000758,AK-33-330540,200510,AK-33,6,12,Joe Redington Senior Jr/Sr High School,Matanuska-Susitna Borough School District,Matanuska-Susitna Borough,PO Box 877130,Wasilla,AK,99623,,(907)864-5400,41,Rural: Fringe,No,No,Yes,Yes,599,33.79,17.7,311,54
20077500366,AK-51-510060,200775,AK-51,PK,12,John Fredson School,Yukon Flats School District,Yukon-Koyukuk Census Area,PO Box 881039,Venetie,AK,99781,39,(907)849-8415,43,Rural: Remote,No,No,Yes,Yes,50,4.33,11.5,49,0
20051000480,AK-33-330500,200510,AK-33,PK,5,John Shaw Elementary,Matanuska-Susitna Borough School District,Matanuska-Susitna Borough,3750 E Paradise Ln,Wasilla,AK,99654,,(907)352-0500,41,Rural: Fringe,No,No,Yes,Yes,468,25.1,18.6,178,27
20076000348,AK-29-290030,200760,AK-29,PK,12,Johnnie John Sr. School,Kuspuk School District,Bethel Census Area,PO Box 20,Crooked Creek,AK,99575,,(907)432-2205,43,Rural: Remote,No,No,Yes,Yes,23,0.6,38.3,23,0
20086200379,AK-52-520030,200862,AK-52,PK,12,Johnny Oldman School,Yukon-Koyukuk School District,Yukon-Koyukuk Census Area,PO Box 30,Hughes,AK,99745,,(907)889-2204,43,Rural: Remote,No,No,Yes,Yes,22,2.29,9.6,24,0
20021000396,AK-22-227020,200210,AK-22,5,12,Johnson Youth Center,Juneau Borough School District,Juneau City and Borough,3252 Hospital Dr,Juneau,AK,99801,,(907)523-6835,41,Rural: Fringe,No,No,Yes,No,11,3.8,2.9,–,–
20076000491,AK-29-290040,200760,AK-29,PK,2,Joseph S. & Olinga Gregory Elementary,Kuspuk School District,Bethel Census Area,PO Box 20,Kalskag,AK,99607,,(907)471-2289,43,Rural: Remote,No,No,Yes,Yes,71,0.04,1775,70,0
20060000269,AK-16-160200,200600,AK-16,PK,8,Joy Elementary,Fairbanks North Star Borough School District,Fairbanks North Star Borough,24 Margaret St,Fairbanks,AK,99701,1725,(907)456-5469,13,City: Small,No,No,Yes,Yes,412,27,15.3,197,45
20062500298,AK-37-370080,200625,AK-37,PK,5,June Nelson Elementary,Northwest Arctic Borough School District,Northwest Arctic Borough,PO Box 264,Kotzebue,AK,99752,,(907)442-1877,33,Town: Remote,No,No,Yes,Yes,388,28.5,13.6,340,0
20021000268,AK-22-229010,200210,AK-22,KG,8,Juneau Community Charter School,Juneau Borough School District,Juneau City and Borough,10014 Crazy Horse Dr,Juneau,AK,99801,,(907)523-1679,33,Town: Remote,Yes,No,–,–,92,6.77,13.6,11,3
20021000133,AK-22-220070,200210,AK-22,9,12,Juneau-Douglas High School,Juneau Borough School District,Juneau City and Borough,10014 Crazy Horse Dr,Juneau,AK,99801,8529,(907)523-1501,33,Town: Remote,No,No,–,–,604,31.4,19.2,110,12
20039000718,AK-24-240420,200390,AK-24,PK,12,Kachemak Selo School,Kenai Peninsula Borough School District,Kenai Peninsula Borough,PO Box 15007,Fritz Creek,AK,99603,,(907)235-5552,43,Rural: Remote,No,No,Yes,No,43,4.5,9.6,–,–
20036000150,AK-23-230010,200360,AK-23,PK,12,Kake Elementary & High School,Kake City School District,Prince of Wales-Hyder Census Area,Box 450,Kake,AK,99830,,(907)785-3741,43,Rural: Remote,No,No,Yes,Yes,104,10.64,9.8,129,0
20039000463,AK-24-249050,200390,AK-24,KG,5,Kaleidoscope School of Arts & Science,Kenai Peninsula Borough School District,Kenai Peninsula Borough,549 N Forest Dr,Kenai,AK,99611,,(907)283-0804,33,Town: Remote,Yes,No,–,–,258,16.25,15.9,58,23
20061000290,AK-36-360070,200610,AK-36,PK,12,Kali School,North Slope Borough School District,North Slope Borough,PO Box 59077,Point Lay,AK,99759,,(907)833-2311,43,Rural: Remote,No,No,–,–,107,10,10.7,40,4
20039000539,AK-24-240140,200390,AK-24,PK,6,Kalifornsky Beach Elementary,Kenai Peninsula Borough School District,Kenai Peninsula Borough,1049 E Poppy Ln,Soldotna,AK,99669,,(907)260-1300,41,Rural: Fringe,No,No,–,–,412,25.5,16.2,113,33
20086200381,AK-52-520050,200862,AK-52,PK,12,Kaltag School,Yukon-Koyukuk School District,Yukon-Koyukuk Census Area,PO Box 30,Kaltag,AK,99748,,(907)534-2204,43,Rural: Remote,No,No,Yes,Yes,23,2.08,11.1,10,0
20018000147,AK-05-051010,200180,AK-05,PK,6,Kasuun Elementary,Anchorage School District,Anchorage Municipality,4000 E 68th Ave,Anchorage,AK,99507,2530,(907)349-9444,11,City: Large,No,No,Yes,Yes,371,25.48,14.6,22,132
20024000638,AK-42-420170,200240,AK-42,2,5,Keet Gooshi Heen Elementary,Sitka School District,Sitka City and Borough,307 Kashevaroff,Sitka,AK,99835,,(907)747-8395,33,Town: Remote,No,No,Yes,No,375,29,12.9,128,23
20039000079,AK-24-247030,200390,AK-24,9,12,Kenai Alternative High School,Kenai Peninsula Borough School District,Kenai Peninsula Borough,705 Frontage Road Ste C,Kenai,AK,99611,7769,(907)335-2870,33,Town: Remote,No,No,Yes,Yes,69,7,9.9,45,7
20039000537,AK-24-240090,200390,AK-24,9,12,Kenai Central High School,Kenai Peninsula Borough School District,Kenai Peninsula Borough,9583 Kenai Spur Hwy,Kenai,AK,99611,,(907)283-2100,33,Town: Remote,No,No,–,–,467,28.29,16.5,124,29
20039000538,AK-24-240110,200390,AK-24,6,8,Kenai Middle School,Kenai Peninsula Borough School District,Kenai Peninsula Borough,201 Tinker Lane,Kenai,AK,99611,,(907)283-1700,33,Town: Remote,No,No,Yes,No,362,21.34,17,126,29
20007000036,AK-11-110100,200070,AK-11,PK,12,Kenny Lake School,Copper River School District,Valdez-Cordova Census Area,HC 60 Box 224,Copper Center,AK,99573,,(907)822-3870,43,Rural: Remote,No,No,Yes,Yes,67,7,9.6,–,–
20000100438,AK-31-310140,200001,AK-31,PK,12,Ket'acik/Aapalluk Memorial School,Lower Kuskokwim School District,Bethel Census Area,PO Box 150,Kwethluk,AK,99621,,(907)757-6014,43,Rural: Remote,No,No,Yes,Yes,276,18.94,14.6,271,0
20015000306,AK-25-259010,200150,AK-25,KG,8,Ketchikan Charter School,Ketchikan Gateway Borough School District,Ketchikan Gateway Borough,410 Schoenbar Rd,Ketchikan,AK,99901,,(907)225-8568,33,Town: Remote,Yes,No,Yes,Yes,194,12.8,15.2,119,13
20015000047,AK-25-250020,200150,AK-25,9,12,Ketchikan High School,Ketchikan Gateway Borough School District,Ketchikan Gateway Borough,333 Schoenbar Rd,Ketchikan,AK,99901,,(907)225-9815,33,Town: Remote,No,No,–,–,570,37,15.4,85,17
20062500295,AK-37-370040,200625,AK-37,PK,12,Kiana School,Northwest Arctic Borough School District,Northwest Arctic Borough,PO Box 190,Kiana,AK,99749,,(907)475-2115,43,Rural: Remote,No,No,Yes,Yes,128,8,16,130,0
20061000470,AK-36-367010,200610,AK-36,9,12,Kiita Learning Community,North Slope Borough School District,North Slope Borough,P O Box 169,Utqiagvik,AK,99723,,(907)852-9677,33,Town: Remote,No,No,Yes,Yes,41,3.7,11.1,14,2
20018000149,AK-05-051020,200180,AK-05,PK,6,Kincaid Elementary,Anchorage School District,Anchorage Municipality,4900 Raspberry Rd,Anchorage,AK,99502,1900,(907)245-5530,11,City: Large,No,No,–,–,576,34.07,16.9,26,86
20000700177,AK-56-560010,200007,AK-56,PK,12,King Cove School,Aleutians East Borough School District,Aleutians East Borough,Box 69,King Cove,AK,99612,69,(907)497-2354,43,Rural: Remote,No,No,Yes,No,93,11,8.5,–,–
20018000506,AK-05-050030,200180,AK-05,PK,6,Klatt Elementary,Anchorage School District,Anchorage Municipality,11900 Puma Dr,Anchorage,AK,99515,3200,(907)742-5750,11,City: Large,No,No,Yes,Yes,394,28.16,14,138,0
20045000179,AK-27-270010,200450,AK-27,PK,12,Klawock City School,Klawock City School District,Prince of Wales-Hyder Census Area,PO Box 9,Klawock,AK,99925,9,(907)755-2220,43,Rural: Remote,No,No,Yes,Yes,116,14.31,8.1,89,7
20073000490,AK-09-090090,200730,AK-09,KG,12,Klukwan School,Chatham School District,Hoonah-Angoon Census Area,HCO 60 Box 2222,Haines,AK,99827,,(907)767-5551,43,Rural: Remote,No,No,Yes,No,17,3,5.7,–,–
20051000733,AK-33-330510,200510,AK-33,KG,5,Knik Elementary School,Matanuska-Susitna Borough School District,Matanuska-Susitna Borough,PO Box 877830,Wasilla,AK,99687,,(907)352-0300,41,Rural: Fringe,No,No,Yes,Yes,324,18.22,17.8,175,23
20062500297,AK-37-370070,200625,AK-37,PK,12,Kobuk School,Northwest Arctic Borough School District,Northwest Arctic Borough,PO Box 40,Kobuk,AK,99751,,(907)948-2231,43,Rural: Remote,No,No,Yes,Yes,49,3,16.3,50,0
20048000185,AK-28-280050,200480,AK-28,9,12,Kodiak High School,Kodiak Island Borough School District,Kodiak Island Borough,722 Mill Bay Rd,Kodiak,AK,99615,,(907)486-7400,33,Town: Remote,No,No,Yes,Yes,620,37.87,16.4,291,44
20048000186,AK-28-280070,200480,AK-28,6,8,Kodiak Middle School,Kodiak Island Borough School District,Kodiak Island Borough,722 Mill Bay Rd,Kodiak,AK,99615,,(907)486-7460,33,Town: Remote,No,No,Yes,Yes,481,27.12,17.7,245,50
20048500198,AK-30-300080,200485,AK-30,PK,12,Kokhanok School,Lake and Peninsula Borough School District,Lake and Peninsula Borough,General Delivery,Kokhanok,AK,99606,,(907)282-2210,43,Rural: Remote,No,No,Yes,Yes,35,4.9,7.1,34,0
20071000333,AK-45-450050,200710,AK-45,PK,12,Koliganek School,Southwest Region School District,Dillingham Census Area,PO Box 5052,Koliganek,AK,99576,,(907)596-3444,43,Rural: Remote,No,No,Yes,Yes,53,5.5,9.6,62,0
20000300411,AK-32-320080,200003,AK-32,PK,12,Kotlik School,Lower Yukon School District,Kusilvak Census Area,PO Box 20129,Kotlik,AK,99620,,(907)899-4415,43,Rural: Remote,No,No,Yes,Yes,179,13,13.8,179,0
20062500569,AK-37-370150,200625,AK-37,6,12,Kotzebue Middle/High School,Northwest Arctic Borough School District,Northwest Arctic Borough,PO Box 264,Kotzebue,AK,99752,,(907)442-1875,33,Town: Remote,No,No,Yes,Yes,325,26.1,12.5,317,0
20002000013,AK-07-070070,200020,AK-07,PK,12,Koyuk-Malimiut School,Bering Strait School District,Nome Census Area,PO Box 53009,Koyuk,AK,99753,,(907)963-3021,43,Rural: Remote,No,No,Yes,Yes,117,11.15,10.5,†,†
20000100441,AK-31-310220,200001,AK-31,PK,12,Kuinerrarmiut Elitnaurviat,Lower Kuskokwim School District,Bethel Census Area,PO Box 49,Quinhagak,AK,99655,,(907)556-8628,43,Rural: Remote,No,No,Yes,Yes,223,15.76,14.1,222,0
20000100318,AK-31-317010,200001,AK-31,9,12,Kuskokwim Learning Academy,Lower Kuskokwim School District,Bethel Census Area,Box 1949,Bethel,AK,99559,1949,(907)543-5610,33,Town: Remote,No,No,Yes,Yes,60,7.8,7.7,–,–
20000100212,AK-31-310150,200001,AK-31,PK,12,Kwigillingok School,Lower Kuskokwim School District,Bethel Census Area,PO Box 109,Kwigillingok,AK,99622,,(907)588-8629,43,Rural: Remote,No,No,Yes,Yes,140,8,17.5,140,0
20060000002,AK-16-160350,200600,AK-16,PK,8,Ladd Elementary,Fairbanks North Star Borough School District,Fairbanks North Star Borough,601 F Street,Fairbanks,AK,99701,3800,(907)451-1700,13,City: Small,No,No,–,–,481,34,14.1,80,64
20018000151,AK-05-051030,200180,AK-05,PK,6,Lake Hood Elementary,Anchorage School District,Anchorage Municipality,3601 W 40th Ave,Anchorage,AK,99517,2702,(907)245-5521,11,City: Large,No,No,Yes,Yes,356,23.82,14.9,107,165
20018000086,AK-05-050450,200180,AK-05,PK,6,Lake Otis Elementary,Anchorage School District,Anchorage Municipality,3331 Lake Otis Pkwy,Anchorage,AK,99508,4598,(907)742-7400,11,City: Large,No,No,Yes,Yes,447,27.56,16.2,290,45
20048500473,AK-30-308010,200485,AK-30,PK,12,Lakeview Home School,Lake and Peninsula Borough School District,Bristol Bay Borough,Box 498,King Salmon,AK,99613,,(907)246-4280,43,Rural: Remote,No,No,–,–,1,0.05,20,†,†
20051000443,AK-33-330430,200510,AK-33,PK,5,Larson Elementary,Matanuska-Susitna Borough School District,Matanuska-Susitna Borough,2722 E Seldon Rd,Wasilla,AK,99654,,(907)352-2300,32,Town: Distant,No,No,Yes,Yes,408,25.77,15.8,172,24
20060000270,AK-16-160060,200600,AK-16,9,12,Lathrop High School,Fairbanks North Star Borough School District,Fairbanks North Star Borough,901 Airport Way,Fairbanks,AK,99701,6094,(907)456-7794,13,City: Small,No,No,–,–,941,55.98,16.8,231,64
20084000749,AK-50-508010,200840,AK-50,KG,12,LEAD Correspondence,Yakutat School District,Yakutat City and Borough,Box 429,Yakutat,AK,99689,,(907)784-3317,43,Rural: Remote,No,No,Yes,Yes,23,0.14,164.3,–,–
20048500334,AK-30-300220,200485,AK-30,PK,12,Levelock School,Lake and Peninsula Borough School District,Lake and Peninsula Borough,General Delivery,Levelock,AK,99625,,(907)287-3060,43,Rural: Remote,No,No,Yes,Yes,20,3.1,6.5,20,0
20000100406,AK-31-310200,200001,AK-31,PK,12,Lewis Angapak Memorial School,Lower Kuskokwim School District,Bethel Census Area,PO Box 8087,Tuntutuliak,AK,99680,,(907)256-2415,43,Rural: Remote,No,No,Yes,Yes,141,7.97,17.7,139,0
20048000188,AK-28-280090,200480,AK-28,KG,5,Main Elementary,Kodiak Island Borough School District,Kodiak Island Borough,722 Mill Bay Rd,Kodiak,AK,99615,,(907)486-2100,33,Town: Remote,No,No,Yes,Yes,211,17,12.4,104,32
20071000335,AK-45-450070,200710,AK-45,PK,12,Manokotak School,Southwest Region School District,Dillingham Census Area,PO Box 30,Manokotak,AK,99628,,(907)289-1013,43,Rural: Remote,No,No,Yes,Yes,127,12.5,10.2,130,0
20039000513,AK-24-247050,200390,AK-24,7,12,Marathon School,Kenai Peninsula Borough School District,Kenai Peninsula Borough,405 Marathon Rd,Kenai,AK,99611,,(907)335-3343,33,Town: Remote,No,No,Yes,No,9,1,9,–,–
20000300218,AK-32-320050,200003,AK-32,PK,12,Marshall School,Lower Yukon School District,Kusilvak Census Area,PO Box 89,Marshall,AK,99585,,(907)679-6112,43,Rural: Remote,No,No,Yes,Yes,119,10,11.9,120,0
20002000422,AK-07-070060,200020,AK-07,PK,12,Martin L. Olson School,Bering Strait School District,Nome Census Area,PO Box 62040,Golovin,AK,99762,,(907)779-3021,43,Rural: Remote,No,No,Yes,Yes,49,7.15,6.9,†,†
20018000401,AK-05-057110,200180,AK-05,10,12,Martin Luther King Jr. Technical High School,Anchorage School District,Anchorage Municipality,2650 E Northern Lights Blvd,Anchorage,AK,99508,4170,(907)742-8900,11,City: Large,No,No,–,–,201,37.16,5.4,53,0
20051000731,AK-33-330520,200510,AK-33,9,12,Mat-Su Career & Tech Ed High School,Matanuska-Susitna Borough School District,Matanuska-Susitna Borough,2472 N Seward Meridian Pkwy,Wasilla,AK,99654,,(907)352-0400,32,Town: Distant,No,No,–,–,701,38.54,18.2,159,29
20051000224,AK-33-338010,200510,AK-33,KG,12,Mat-Su Central School,Matanuska-Susitna Borough School District,Matanuska-Susitna Borough,600 E Railroad Ave #6,Wasilla,AK,99654,,(907)352-7480,32,Town: Distant,No,No,–,–,1522,22.88,66.5,–,–
20051000734,AK-33-337060,200510,AK-33,KG,12,Mat-Su Day School,Matanuska-Susitna Borough School District,Matanuska-Susitna Borough,2360 N Tait Dr,Wasilla,AK,99654,,(907)864-6000,32,Town: Distant,No,No,Yes,No,82,18.58,4.4,40,3
20051000747,AK-33-337070,200510,AK-33,8,12,Mat-Su Middle College School,Matanuska-Susitna Borough School District,Matanuska-Susitna Borough,8295 East College Drive,Palmer,AK,99645,,(907)746-8485,41,Rural: Fringe,No,No,–,–,177,1,177,–,–
20051000407,AK-33-337030,200510,AK-33,6,12,Mat-Su Youth Facility,Matanuska-Susitna Borough School District,Matanuska-Susitna Borough,581 S Outer Springer Lp,Palmer,AK,99645,,(907)761-7238,32,Town: Distant,No,No,–,–,14,1,14,–,–
20071500488,AK-53-530010,200715,AK-53,KG,12,Maudrey J. Sommer School,Tanana City School District,Yukon-Koyukuk Census Area,PO Box 89,Tanana,AK,99777,89,(907)366-7203,43,Rural: Remote,No,No,Yes,No,51,4,12.8,–,–
20052000244,AK-21-210060,200520,AK-21,PK,12,McGrath School,Iditarod Area School District,Yukon-Koyukuk Census Area,Box 290,McGrath,AK,99627,290,(907)524-3033,43,Rural: Remote,No,No,Yes,Yes,33,3,11,27,0
20018000432,AK-05-057020,200180,AK-05,6,12,McLaughlin Secondary School,Anchorage School District,Anchorage Municipality,2600 Providence Dr,Anchorage,AK,99508,4678,(907)742-1120,11,City: Large,No,No,Yes,No,83,13.92,6,†,†
20039000512,AK-24-240030,200390,AK-24,KG,6,McNeil Canyon Elementary,Kenai Peninsula Borough School District,Kenai Peninsula Borough,52188 East End Rd,Homer,AK,99603,,(907)235-8181,43,Rural: Remote,No,No,–,–,117,9.37,12.5,27,18
20062500300,AK-37-370060,200625,AK-37,PK,12,McQueen School,Northwest Arctic Borough School District,Northwest Arctic Borough,General Delivery,Kivalina,AK,99750,,(907)645-2125,43,Rural: Remote,No,No,Yes,Yes,160,12,13.3,153,0
20061000284,AK-36-360090,200610,AK-36,PK,12,Meade River School,North Slope Borough School District,North Slope Borough,Box 91030,Atqasuk,AK,99791,,(907)633-6315,43,Rural: Remote,No,No,–,–,87,10,8.7,22,0
20051000416,AK-33-330420,200510,AK-33,PK,5,Meadow Lakes Elementary,Matanuska-Susitna Borough School District,Matanuska-Susitna Borough,7362 W Parks Hwy #824,Wasilla,AK,99654,,(907)352-6100,42,Rural: Distant,No,No,Yes,Yes,369,22.4,16.5,300,0
20018000562,AK-05-050940,200180,AK-05,7,8,Mears Middle School,Anchorage School District,Anchorage Municipality,2700 W 100th,Anchorage,AK,99515,2200,(907)742-6400,11,City: Large,No,Yes,Yes,Yes,788,39.94,19.7,†,†
20021000508,AK-22-220140,200210,AK-22,PK,5,Mendenhall River Community School,Juneau Borough School District,Juneau City and Borough,10014 Crazy Horse Dr,Juneau,AK,99801,8529,(907)796-5600,33,Town: Remote,No,No,–,–,344,22.35,15.4,79,11
20005000026,AK-03-030030,200050,AK-03,PK,12,Mentasta Lake School,Alaska Gateway School District,Valdez-Cordova Census Area,Box 6039,Mentasta Lake,AK,99780,,(907)291-2317,43,Rural: Remote,No,No,Yes,Yes,31,2.09,14.8,†,†
20086200386,AK-52-520110,200862,AK-52,PK,12,Merreline A Kangas School,Yukon-Koyukuk School District,Yukon-Koyukuk Census Area,PO Box 68110,Ruby,AK,99768,,(907)468-4465,43,Rural: Remote,No,No,Yes,Yes,33,4,8.3,31,0
20000100765,AK-31-310290,200001,AK-31,PK,12,Mertarvik School,Lower Kuskokwim School District,†,PO Box 305,Bethel,AK,99559,,(907)542-4912,†,N,No,†,†,†,†,†,†,†,†
20048500205,AK-30-300140,200485,AK-30,PK,12,Meshik School,Lake and Peninsula Borough School District,Lake and Peninsula Borough,General Delivery,Port Heiden,AK,99549,,(907)837-2210,43,Rural: Remote,No,No,Yes,Yes,25,3,8.3,25,0
20052500648,AK-06-060040,200525,AK-06,9,12,Metlakatla High School,Annette Island School District,Prince of Wales-Hyder Census Area,PO Box 7,Metlakatla,AK,99926,,(907)886-6000,43,Rural: Remote,No,No,Yes,Yes,70,9,7.8,7,17
20060000258,AK-16-160170,200600,AK-16,PK,5,Midnight Sun Elementary School,Fairbanks North Star Borough School District,Fairbanks North Star Borough,520 Fifth Ave,Fairbanks,AK,99701,4756,(907)488-0134,23,Suburb: Small,No,No,–,–,454,25.33,17.9,119,28
20051000312,AK-33-339020,200510,AK-33,KG,8,Midnight Sun Family Learning Center,Matanuska-Susitna Borough School District,Matanuska-Susitna Borough,7362 W Parks #714,Wasilla,AK,99654,,(907)357-6786,41,Rural: Fringe,Yes,No,–,–,191,8,23.9,–,–
20000100436,AK-31-310050,200001,AK-31,PK,2,Mikelnguut Elitnaurviat,Lower Kuskokwim School District,Bethel Census Area,PO Box 900,Bethel,AK,99559,900,(907)543-2845,41,Rural: Fringe,No,No,Yes,Yes,331,18.5,17.9,257,0
20086200384,AK-52-520080,200862,AK-52,PK,12,Minto School,Yukon-Koyukuk School District,Yukon-Koyukuk Census Area,PO Box 81,Minto,AK,99758,,(907)798-7212,43,Rural: Remote,No,No,Yes,Yes,49,5.12,9.6,37,0
20018000229,AK-05-051060,200180,AK-05,6,8,Mirror Lake Middle School,Anchorage School District,Anchorage Municipality,22901 Lake Hill Dr,Chugiak,AK,99567,5584,(907)742-3500,31,Town: Fringe,No,Yes,–,–,685,36.62,18.7,187,157
20066000604,AK-39-390030,200660,AK-39,6,8,Mitkof Middle School,Petersburg Borough School District,Petersburg Borough,Box 289,Petersburg,AK,99833,289,(877)526-7656,43,Rural: Remote,No,No,Yes,Yes,101,7.07,14.3,43,6
20021000755,AK-22-227030,200210,AK-22,PK,8,Montessori Borealis Public Alternative School,Juneau Borough School District,Juneau City and Borough,10014 Crazy Horse Dr,Juneau,AK,99801,,(907)523-1848,33,Town: Remote,No,No,–,–,201,12.05,16.7,22,3
20039000163,AK-24-240120,200390,AK-24,KG,8,Moose Pass School,Kenai Peninsula Borough School District,Kenai Peninsula Borough,PO Box 46,Moose Pass,AK,99631,,(907)288-3183,43,Rural: Remote,No,No,–,–,17,1.1,15.5,3,1
20018000089,AK-05-050480,200180,AK-05,PK,6,Mountain View Elementary,Anchorage School District,Anchorage Municipality,4005 Mcphee Av,Anchorage,AK,99508,1499,(907)742-3900,11,City: Large,No,No,Yes,Yes,269,18.07,14.9,186,29
20000300220,AK-32-320090,200003,AK-32,PK,12,Mountain Village School,Lower Yukon School District,Kusilvak Census Area,PO Box 32105,Mountain Village,AK,99632,,(907)591-2204,43,Rural: Remote,No,No,Yes,Yes,232,16,14.5,234,0
20006000627,AK-12-120020,200060,AK-12,PK,6,Mt. Eccles Elementary,Cordova City School District,Valdez-Cordova Census Area,PO Box 1330,Cordova,AK,99574,140,(907)424-3236,43,Rural: Remote,No,No,Yes,Yes,192,11.5,16.7,138,0
20000600558,AK-98-980000,200006,AK-98,9,12,Mt. Edgecumbe High School,Mount Edgecumbe High School Agency,Sitka City and Borough,1330 Seward Ave,Sitka,AK,99835,9438,(907)966-3200,41,Rural: Fringe,No,No,Yes,Yes,434,23.8,18.2,321,0
20039000601,AK-24-240370,200390,AK-24,PK,5,Mt. View Elementary,Kenai Peninsula Borough School District,Kenai Peninsula Borough,315 Swires Rd,Kenai,AK,99611,,(907)283-8600,41,Rural: Fringe,No,No,Yes,No,495,33.16,14.9,232,48
20018000092,AK-05-050490,200180,AK-05,PK,6,Muldoon Elementary,Anchorage School District,Anchorage Municipality,525 Cherry St,Anchorage,AK,99504,2199,(907)742-1460,11,City: Large,No,No,Yes,Yes,435,31.07,14,†,†
20003000626,AK-08-080020,200030,AK-08,PK,6,Naknek Elementary,Bristol Bay Borough School District,Bristol Bay Borough,Box 169,Naknek,AK,99633,169,(907)246-4265,43,Rural: Remote,No,No,Yes,Yes,53,4.55,11.6,53,0
20039000157,AK-24-240060,200390,AK-24,PK,12,Nanwalek School,Kenai Peninsula Borough School District,Kenai Peninsula Borough,PO Box 8007,Nanwalek,AK,99603,,(907)281-2210,43,Rural: Remote,No,No,Yes,No,75,7.64,9.8,78,0
20062500301,AK-37-370090,200625,AK-37,PK,12,Napaaqtugmiut School,Northwest Arctic Borough School District,Northwest Arctic Borough,PO Box 49,Noatak,AK,99761,,(907)485-2153,43,Rural: Remote,No,No,Yes,Yes,171,10.64,16.1,173,0
20070000589,AK-44-440270,200700,AK-44,PK,12,Naukati School,Southeast Island School District,Prince of Wales-Hyder Census Area,Box NKI,Naukati,AK,99950,550,(907)629-4121,43,Rural: Remote,No,No,Yes,Yes,22,2.1,10.5,23,0
20000100474,AK-31-310040,200001,AK-31,PK,12,Negtemiut Elitnaurviat School,Lower Kuskokwim School District,Bethel Census Area,General Delivery,Nightmute,AK,99690,,(907)647-6313,43,Rural: Remote,No,No,Yes,Yes,89,5,17.8,†,†
20000100213,AK-31-310250,200001,AK-31,PK,12,Nelson Island Area School,Lower Kuskokwim School District,Bethel Census Area,101 Sunny Side Rd,Toksook Bay,AK,99637,,(907)427-7815,43,Rural: Remote,No,No,Yes,Yes,183,12.9,14.2,184,0
20054000251,AK-34-340010,200540,AK-34,KG,12,Nenana City School,Nenana City School District,Yukon-Koyukuk Census Area,Box 10,Nenana,AK,99760,10,(907)832-5464,43,Rural: Remote,No,No,Yes,Yes,184,16.14,11.4,150,0
20048500199,AK-30-300090,200485,AK-30,PK,12,Newhalen School,Lake and Peninsula Borough School District,Lake and Peninsula Borough,General Delivery,Iliamna,AK,99606,,(907)571-1211,43,Rural: Remote,No,No,Yes,Yes,84,9.5,8.8,83,0
20018000729,AK-05-051150,200180,AK-05,6,8,Nicholas J. Begich Middle School,Anchorage School District,Anchorage Municipality,7440 Creekside Center Dr,Anchorage,AK,99504,,(907)742-0500,11,City: Large,No,No,Yes,Yes,986,58.5,16.9,†,†
20039000645,AK-24-240390,200390,AK-24,6,12,Nikiski Middle/Senior High School,Kenai Peninsula Borough School District,Kenai Peninsula Borough,Box 7112,Nikiski,AK,99635,,(907)776-9400,43,Rural: Remote,No,No,Yes,Yes,358,26.28,13.6,150,41
20039000602,AK-24-240350,200390,AK-24,PK,5,Nikiski North Star Elementary,Kenai Peninsula Borough School District,Kenai Peninsula Borough,45600 Holt Lamplight Rd,Kenai,AK,99611,,(907)776-2600,42,Rural: Distant,No,No,Yes,No,335,23.5,14.3,131,43
20039000164,AK-24-240130,200390,AK-24,PK,12,Nikolaevsk School,Kenai Peninsula Borough School District,Kenai Peninsula Borough,Box 5129,Nikolaevsk,AK,99556,,(907)235-8972,43,Rural: Remote,No,No,Yes,No,78,7.36,10.6,72,0
20039000165,AK-24-240150,200390,AK-24,PK,12,Ninilchik School,Kenai Peninsula Borough School District,Kenai Peninsula Borough,15735 Sterling Hwy,Ninilchik,AK,99639,,(907)714-0300,43,Rural: Remote,No,No,Yes,No,112,11.26,9.9,61,8
20057000254,AK-35-350010,200570,AK-35,PK,6,Nome Elementary,Nome Public Schools,Nome Census Area,PO Box 131,Nome,AK,99762,131,(907)443-5299,33,Town: Remote,No,No,Yes,Yes,374,26.5,14.1,375,0
20057000568,AK-35-350020,200570,AK-35,7,12,Nome-Beltz Jr/Sr High,Nome Public Schools,Nome Census Area,PO Box 131,Nome,AK,99762,131,(907)443-6154,41,Rural: Fringe,No,No,Yes,Yes,242,18.49,13.1,300,0
20048500200,AK-30-300100,200485,AK-30,PK,12,Nondalton School,Lake and Peninsula Borough School District,Lake and Peninsula Borough,100 School Rd,Nondalton,AK,99640,,(907)294-2210,43,Rural: Remote,No,No,Yes,Yes,26,4.9,5.3,27,0
20060000271,AK-16-160230,200600,AK-16,PK,6,Nordale Elementary,Fairbanks North Star Borough School District,Fairbanks North Star Borough,397 Hamilton Ave,Fairbanks,AK,99701,3595,(907)452-2696,13,City: Small,No,No,Yes,Yes,316,20,15.8,131,23
20060000651,AK-16-160240,200600,AK-16,PK,5,North Pole Elementary,Fairbanks North Star Borough School District,Fairbanks North Star Borough,250 Snowman Ln,North Pole,AK,99705,7707,(907)488-2286,23,Suburb: Small,No,No,Yes,No,432,25.33,17.1,111,26
20060000273,AK-16-160130,200600,AK-16,9,12,North Pole High School,Fairbanks North Star Borough School District,Fairbanks North Star Borough,601 NPHS Blvd,North Pole,AK,99705,7862,(907)488-3761,23,Suburb: Small,No,No,–,–,638,37.17,17.2,135,27
20060000652,AK-16-160250,200600,AK-16,6,8,North Pole Middle School,Fairbanks North Star Borough School District,Fairbanks North Star Borough,300 East 8th Ave,North Pole,AK,99705,7847,(907)488-2271,23,Suburb: Small,No,No,–,–,582,32.8,17.7,149,46
20048000137,AK-28-280180,200480,AK-28,KG,5,North Star Elementary,Kodiak Island Borough School District,Kodiak Island Borough,722 Mill Bay Rd,Kodiak,AK,99615,,(907)481-2000,41,Rural: Fringe,No,No,Yes,Yes,208,15.5,13.4,87,15
20018000093,AK-05-050500,200180,AK-05,PK,6,North Star Elementary,Anchorage School District,Anchorage Municipality,605 W Fireweed Ln,Anchorage,AK,99503,1998,(907)742-3800,11,City: Large,No,No,Yes,Yes,364,25.06,14.5,122,151
20018000094,AK-05-050510,200180,AK-05,PK,8,Northern Lights ABC K-8 School,Anchorage School District,Anchorage Municipality,2424 East Dowling Rd,Anchorage,AK,99507,1972,(907)742-7500,11,City: Large,No,Yes,–,–,634,28.04,22.6,†,†
20018000095,AK-05-050520,200180,AK-05,PK,6,Northwood ABC,Anchorage School District,Anchorage Municipality,4807 Northwood Dr,Anchorage,AK,99517,3145,(907)742-6800,11,City: Large,No,Yes,Yes,Yes,321,22.87,14,183,144
20061000288,AK-36-360050,200610,AK-36,PK,12,Nuiqsut Trapper School,North Slope Borough School District,North Slope Borough,PO Box 89167,Nuiqsut,AK,99789,,(907)480-6712,43,Rural: Remote,No,No,Yes,Yes,174,12,14.5,67,9
20018000096,AK-05-050530,200180,AK-05,PK,6,Nunaka Valley Elementary,Anchorage School District,Anchorage Municipality,1905 Twining Dr,Anchorage,AK,99504,3099,(907)742-0366,11,City: Large,No,No,Yes,Yes,258,16.77,15.4,†,†
20000300413,AK-32-320150,200003,AK-32,PK,12,Nunam Iqua School,Lower Yukon School District,Kusilvak Census Area,PO Box 32,Nunam Iqua,AK,99666,,(907)498-4112,43,Rural: Remote,No,No,Yes,Yes,68,5,13.6,70,0
20061000283,AK-36-360010,200610,AK-36,PK,12,Nunamiut School,North Slope Borough School District,North Slope Borough,PO Box 21029,Anaktuvuk Pass,AK,99721,,(907)661-3226,43,Rural: Remote,No,No,Yes,Yes,104,12,8.7,85,0
20000100408,AK-31-310160,200001,AK-31,PK,12,Nuniwarmiut School,Lower Kuskokwim School District,Bethel Census Area,PO Box 49,Mekoryuk,AK,99630,,(907)827-8415,43,Rural: Remote,No,No,Yes,Yes,51,3.8,13.4,50,0
20062500748,AK-37-378020,200625,AK-37,KG,12,NWABSD Home School,Northwest Arctic Borough School District,Northwest Arctic Borough,Box 51,Kotzebue,AK,99752,,(907)442-1811,33,Town: Remote,No,No,Yes,Yes,39,0.25,156,–,–
20018000097,AK-05-050540,200180,AK-05,PK,6,O'Malley Elementary,Anchorage School District,Anchorage Municipality,11100 Rockridge Dr,Anchorage,AK,99516,1884,(907)742-5800,11,City: Large,No,No,–,–,296,18.07,16.4,†,†
20018000098,AK-05-050550,200180,AK-05,PK,6,Ocean View Elementary,Anchorage School District,Anchorage Municipality,11911 Johns Rd,Anchorage,AK,99515,3438,(907)742-5850,11,City: Large,No,No,Yes,Yes,442,26.04,17,†,†
20048000189,AK-28-280100,200480,AK-28,KG,12,Old Harbor School,Kodiak Island Borough School District,Kodiak Island Borough,PO Box 49,Old Harbor,AK,99643,,(907)286-2213,43,Rural: Remote,No,No,Yes,No,30,4,7.5,30,0
20018000099,AK-05-050250,200180,AK-05,PK,6,Orion Elementary School,Anchorage School District,Anchorage Municipality,5112 Arctic Warrior Dr,JBER,AK,99506,1498,(907)742-0250,11,City: Large,No,No,Yes,Yes,223,14.4,15.5,†,†
20048000192,AK-28-280110,200480,AK-28,KG,12,Ouzinkie School,Kodiak Island Borough School District,Kodiak Island Borough,PO Box 49,Ouzinkie,AK,99644,,(907)680-2204,42,Rural: Distant,No,No,Yes,No,19,2.98,6.4,19,0
20009000160,AK-13-138010,200090,AK-13,KG,12,PACE Correspondence,Craig City School District,Prince of Wales-Hyder Census Area,Box 800,Craig,AK,99921,,(907)826-3274,43,Rural: Remote,No,No,–,–,250,2.5,100,–,–
20024000035,AK-42-427010,200240,AK-42,9,12,Pacific High School,Sitka School District,Sitka City and Borough,509 Lincoln,Sitka,AK,99835,,(907)747-0525,33,Town: Remote,No,No,Yes,Yes,29,4.2,6.9,23,1
20018000756,AK-05-059110,200180,AK-05,KG,12,PAIDEIA Cooperative School,Anchorage School District,Anchorage Municipality,616 W 10th Ave,Anchorage,AK,99501,,(907)742-4164,11,City: Large,No,No,Yes,Yes,155,4.9,31.6,0,69
20051000227,AK-33-330050,200510,AK-33,9,12,Palmer High School,Matanuska-Susitna Borough School District,Matanuska-Susitna Borough,1170 W Bogard Rd,Palmer,AK,99645,,(907)746-8400,32,Town: Distant,No,No,–,–,750,41.05,18.3,234,62
20051000544,AK-33-330020,200510,AK-33,6,8,Palmer Middle School,Matanuska-Susitna Borough School District,Matanuska-Susitna Borough,1159 S Chugach,Palmer,AK,99645,6609,(907)761-4300,32,Town: Distant,No,No,Yes,Yes,563,30.83,18.3,234,54
20039000156,AK-24-240050,200390,AK-24,PK,2,Paul Banks Elementary,Kenai Peninsula Borough School District,Kenai Peninsula Borough,1340 East End Rd,Homer,AK,99603,,(907)226-1801,43,Rural: Remote,No,No,Yes,No,233,16.93,13.8,79,22
20000100389,AK-31-310320,200001,AK-31,PK,12,Paul T. Albert Memorial School,Lower Kuskokwim School District,Bethel Census Area,PO Box 49,Tununak,AK,99681,49,(907)652-6827,43,Rural: Remote,No,No,Yes,Yes,108,6.98,15.5,102,0
20060000516,AK-16-160010,200600,AK-16,PK,6,Pearl Creek Elementary,Fairbanks North Star Borough School District,Fairbanks North Star Borough,700 Auburn Dr,Fairbanks,AK,99709,,(907)479-4234,41,Rural: Fringe,No,No,–,–,480,27,17.8,83,14
20063000304,AK-38-380010,200630,AK-38,KG,12,Pelican School,Pelican City School District,Hoonah-Angoon Census Area,PO Box 90,Pelican,AK,99832,,(907)735-2236,43,Rural: Remote,No,No,–,–,12,0.77,15.6,–,–
20048500202,AK-30-300120,200485,AK-30,PK,12,Perryville School,Lake and Peninsula Borough School District,Lake and Peninsula Borough,General Delivery,Perryville,AK,99648,,(907)853-2210,43,Rural: Remote,No,No,Yes,Yes,31,3.1,10,29,0
20066000570,AK-39-390020,200660,AK-39,9,12,Petersburg High School,Petersburg Borough School District,Petersburg Borough,Box 289,Petersburg,AK,99833,289,(877)526-7656,43,Rural: Remote,No,No,Yes,Yes,136,10.42,13.1,66,2
20048000190,AK-28-280060,200480,AK-28,PK,5,Peterson Elementary,Kodiak Island Borough School District,Kodiak Island Borough,722 Mill Bay Rd,Kodiak,AK,99615,,(907)481-6400,41,Rural: Fringe,No,No,–,–,288,15,19.2,56,13
20048500203,AK-30-300130,200485,AK-30,PK,12,Pilot Point School,Lake and Peninsula Borough School District,Lake and Peninsula Borough,General Delivery,Pilot Point,AK,99649,,(907)797-2210,43,Rural: Remote,No,No,Yes,Yes,14,2,7,6,0
20000300410,AK-32-320110,200003,AK-32,PK,12,Pilot Station School,Lower Yukon School District,Kusilvak Census Area,PO Box 5090,Pilot Station,AK,99650,,(907)549-3212,43,Rural: Remote,No,No,Yes,Yes,183,13,14.1,182,0
20051000565,AK-33-330300,200510,AK-33,PK,5,Pioneer Peak Elementary,Matanuska-Susitna Borough School District,Matanuska-Susitna Borough,1959 N Stringfield Rd,Palmer,AK,99645,,(907)861-5700,32,Town: Distant,No,No,–,–,438,23.36,18.8,123,36
20015000584,AK-25-250100,200150,AK-25,PK,6,Point Higgins School,Ketchikan Gateway Borough School District,Ketchikan Gateway Borough,333 Schoenbar Rd,Ketchikan,AK,99901,,(907)247-1500,41,Rural: Fringe,No,No,Yes,Yes,292,19.5,15,156,27
20018000101,AK-05-050990,200180,AK-05,KG,12,Polaris K-12 School,Anchorage School District,Anchorage Municipality,6200 Ashwood St,Anchorage,AK,99507,1911,(907)742-8700,11,City: Large,No,Yes,–,–,483,27.71,17.4,†,†
20070000322,AK-44-440230,200700,AK-44,PK,12,Port Alexander School,Southeast Island School District,Prince of Wales-Hyder Census Area,Box 8170,Port Alexander,AK,99836,,(907)568-2205,43,Rural: Remote,No,No,Yes,Yes,17,2.05,8.3,8,0
20039000168,AK-24-240180,200390,AK-24,PK,12,Port Graham School,Kenai Peninsula Borough School District,Kenai Peninsula Borough,Box 5550,Port Graham,AK,99603,,(907)284-2210,43,Rural: Remote,No,No,Yes,No,37,3.28,11.3,32,0
20048000191,AK-28-280120,200480,AK-28,KG,12,Port Lions School,Kodiak Island Borough School District,Kodiak Island Borough,PO Box 109,Port Lions,AK,99550,,(907)454-2237,43,Rural: Remote,No,No,Yes,No,10,2,5,4,0
20067000762,AK-40-408010,200670,AK-40,KG,10,PSD Correspondence Program,Pribilof School District,Aleutians West Census Area,PO Box 207,St. Paul,AK,99660,,(907)859-2228,43,Rural: Remote,No,No,–,–,8,0.1,80,†,†
20018000102,AK-05-050580,200180,AK-05,PK,6,Ptarmigan Elementary,Anchorage School District,Anchorage Municipality,888 Edwards St,Anchorage,AK,99504,1699,(907)742-0400,11,City: Large,No,No,Yes,Yes,385,27.07,14.2,163,0
20000100475,AK-31-310280,200001,AK-31,PK,12,Qugcuun Memorial School,Lower Kuskokwim School District,Bethel Census Area,PO Box 6199,Napaskiak,AK,99559,6199,(907)737-7214,42,Rural: Distant,No,No,Yes,Yes,17,0.8,21.3,19,0
20018000103,AK-05-050590,200180,AK-05,PK,6,Rabbit Creek Elementary,Anchorage School District,Anchorage Municipality,13650 Lake Otis Pkwy,Anchorage,AK,99516,3400,(907)742-5700,11,City: Large,No,No,–,–,485,26.85,18.1,105,0
20066000305,AK-39-390010,200660,AK-39,PK,5,Rae C. Stedman Elementary,Petersburg Borough School District,Petersburg Borough,Box 289,Petersburg,AK,99833,289,(877)526-7656,43,Rural: Remote,No,No,Yes,Yes,228,15.5,14.7,93,27
20086200757,AK-52-520120,200862,AK-52,PK,12,Rampart School,Yukon-Koyukuk School District,Yukon-Koyukuk Census Area,General Delivery,Rampart,AK,99767,,(907)358-3320,43,Rural: Remote,No,No,Yes,Yes,13,2.06,6.3,14,0
20060000324,AK-16-160410,200600,AK-16,7,8,Randy Smith Middle School,Fairbanks North Star Borough School District,Fairbanks North Star Borough,1401 Bainbridge,Fairbanks,AK,99701,,(907)458-7600,13,City: Small,No,No,–,–,290,16,18.1,74,9
20086200453,AK-52-528010,200862,AK-52,PK,12,Raven School,Yukon-Koyukuk School District,Fairbanks North Star Borough,4762 Old Airport Way,Fairbanks,AK,99709,,(907)374-9401,23,Suburb: Small,No,No,Yes,Yes,1670,14.11,118.4,–,–
20018000532,AK-05-050810,200180,AK-05,PK,6,Ravenwood Elementary,Anchorage School District,Anchorage Municipality,9500 Wren Ln,Eagle River,AK,99577,8737,(907)742-3250,41,Rural: Fringe,No,No,–,–,477,25.07,19,0,14
20039000536,AK-24-240070,200390,AK-24,PK,12,Razdolna School,Kenai Peninsula Borough School District,Kenai Peninsula Borough,Box 15098,Homer,AK,99603,,(907)235-6870,43,Rural: Remote,No,No,Yes,No,94,8.19,11.5,–,–
20039000403,AK-24-240310,200390,AK-24,PK,6,Redoubt Elementary,Kenai Peninsula Borough School District,Kenai Peninsula Borough,486 W Redoubt Ave,Soldotna,AK,99669,,(907)260-4300,33,Town: Remote,No,No,Yes,No,337,23.47,14.4,102,41
20015000048,AK-25-257010,200150,AK-25,7,12,Revilla Jr/Sr High School,Ketchikan Gateway Borough School District,Ketchikan Gateway Borough,333 Schoenbar Rd,Ketchikan,AK,99901,,(907)225-6681,33,Town: Remote,No,No,Yes,Yes,105,8,13.1,80,14
20052500250,AK-06-060030,200525,AK-06,PK,5,Richard Johnson Elementary,Annette Island School District,Prince of Wales-Hyder Census Area,PO Box 7,Metlakatla,AK,99926,,(907)886-4121,43,Rural: Remote,No,No,Yes,Yes,162,14.5,11.2,†,†
20018000732,AK-05-059090,200180,AK-05,KG,8,Rilke Schule Charter School,Anchorage School District,Anchorage Municipality,1846 E 64th Ave,Anchorage,AK,99507,1911,(907)742-0900,11,City: Large,Yes,Yes,–,–,508,26.61,19.1,77,72
20039000735,AK-24-247060,200390,AK-24,7,12,River City Academy,Kenai Peninsula Borough School District,Kenai Peninsula Borough,46188 Sterling Hwy,Soldotna,AK,99669,,(907)714-6400,33,Town: Remote,No,No,–,–,68,7.03,9.7,20,3
20021000265,AK-22-220100,200210,AK-22,PK,5,Riverbend Elementary,Juneau Borough School District,Juneau City and Borough,10014 Crazy Horse Dr,Juneau,AK,99801,8529,(907)796-5700,33,Town: Remote,No,No,Yes,Yes,306,21.45,14.3,128,29
20000100476,AK-31-310100,200001,AK-31,PK,12,Rocky Mountain School,Lower Kuskokwim School District,Bethel Census Area,PO Box 153,Goodnews Bay,AK,99589,153,(907)967-8213,43,Rural: Remote,No,No,Yes,Yes,63,5.2,12.1,64,0
20018000105,AK-05-050600,200180,AK-05,PK,6,Rogers Park Elementary,Anchorage School District,Anchorage Municipality,1400 E Northern Lights Blvd,Anchorage,AK,99508,4281,(907)742-4800,11,City: Large,No,Yes,Yes,Yes,492,32.07,15.3,181,86
20018000106,AK-05-050610,200180,AK-05,7,8,Romig Middle School,Anchorage School District,Anchorage Municipality,2500 Minnesota Dr,Anchorage,AK,99503,2398,(907)742-5200,11,City: Large,No,Yes,Yes,Yes,737,38.77,19,†,†
20018000107,AK-05-050620,200180,AK-05,PK,6,Russian Jack Elementary,Anchorage School District,Anchorage Municipality,4300 East 20th Ave,Anchorage,AK,99508,3598,(907)742-1300,11,City: Large,No,No,Yes,Yes,356,32.05,11.1,†,†
20000300222,AK-32-320130,200003,AK-32,PK,12,Russian Mission School,Lower Yukon School District,Kusilvak Census Area,PO Box 90,Russian Mission,AK,99657,,(907)584-5126,43,Rural: Remote,No,No,Yes,Yes,124,8,15.5,124,0
20060000275,AK-16-160260,200600,AK-16,7,8,Ryan Middle School,Fairbanks North Star Borough School District,Fairbanks North Star Borough,951 Airport Way,Fairbanks,AK,99701,6095,(907)452-4751,13,City: Small,No,No,Yes,Yes,371,19.1,19.4,153,23
20018000109,AK-05-057130,200180,AK-05,9,12,S.A.V.E. High School,Anchorage School District,Anchorage Municipality,410 East 56th,Anchorage,AK,99518,1244,(907)742-1250,11,City: Large,No,No,Yes,Yes,161,8.82,18.3,†,†
20068000659,AK-46-460010,200680,AK-46,PK,12,Saint Mary's School,Saint Mary's School District,Kusilvak Census Area,Box 9,Saint Mary's,AK,99658,9,(907)438-2411,43,Rural: Remote,No,No,Yes,Yes,199,14,14.2,200,0
20060000276,AK-16-160270,200600,AK-16,PK,6,Salcha Elementary,Fairbanks North Star Borough School District,Fairbanks North Star Borough,520 Fifth Ave,Fairbanks,AK,99701,4756,(907)488-3267,42,Rural: Distant,No,No,Yes,Yes,81,6,13.5,37,8
20018000108,AK-05-050640,200180,AK-05,PK,6,Sand Lake Elementary,Anchorage School District,Anchorage Municipality,7500 Jewel Lake Rd,Anchorage,AK,99502,2878,(907)243-2161,11,City: Large,No,Yes,Yes,Yes,625,34.06,18.3,0,61
20000700461,AK-56-560020,200007,AK-56,PK,12,Sand Point School,Aleutians East Borough School District,Aleutians East Borough,Box 269,Sand Point,AK,99661,,(907)383-2393,43,Rural: Remote,No,No,Yes,No,115,14,8.2,–,–
20021000130,AK-22-220040,200210,AK-22,PK,5,Say?ik: Gastineau Community School,Juneau Borough School District,Juneau City and Borough,10014 Crazy Horse Dr,Douglas,AK,99801,,(907)796-5075,33,Town: Remote,No,No,Yes,No,290,19.4,14.9,77,9
20000300412,AK-32-320140,200003,AK-32,PK,12,Scammon Bay School,Lower Yukon School District,Kusilvak Census Area,PO Box 230,Scammon Bay,AK,99662,,(907)558-2000,43,Rural: Remote,No,No,Yes,Yes,208,16,13,215,0
20018000112,AK-05-050650,200180,AK-05,PK,6,Scenic Park Elementary,Anchorage School District,Anchorage Municipality,3933 Patterson Rd,Anchorage,AK,99504,4599,(907)742-1650,11,City: Large,No,No,Yes,Yes,442,26.06,17,0,101
20015000050,AK-25-250040,200150,AK-25,7,8,Schoenbar Middle School,Ketchikan Gateway Borough School District,Ketchikan Gateway Borough,333 Schoenbar Rd,Ketchikan,AK,99901,,(907)228-7200,33,Town: Remote,No,No,–,–,240,20,12,63,6
20070000486,AK-44-448010,200700,AK-44,PK,12,SE Island Correspondence,Southeast Island School District,Prince of Wales-Hyder Census Area,PO Box 19569,Thorne Bay,AK,99919,,(907)828-8254,43,Rural: Remote,No,No,†,†,0,0.01,†,2,1
20018000531,AK-05-050660,200180,AK-05,9,12,Service High School,Anchorage School District,Anchorage Municipality,5577 Abbott Rd,Anchorage,AK,99507,4399,(907)742-8100,11,City: Large,No,Yes,Yes,Yes,1535,69.66,22,†,†
20039000540,AK-24-240200,200390,AK-24,9,12,Seward High School,Kenai Peninsula Borough School District,Kenai Peninsula Borough,Box 1049,Seward,AK,99664,,(907)224-9040,43,Rural: Remote,No,No,–,–,160,11.18,14.3,41,14
20039000437,AK-24-240500,200390,AK-24,6,8,Seward Middle School,Kenai Peninsula Borough School District,Kenai Peninsula Borough,Box 1149,Seward,AK,99664,,(907)224-9000,43,Rural: Remote,No,No,–,–,120,9.76,12.3,30,8
20002000466,AK-07-070100,200020,AK-07,PK,12,Shaktoolik School,Bering Strait School District,Nome Census Area,PO Box 40,Shaktoolik,AK,99771,,(907)955-3021,43,Rural: Remote,No,No,Yes,Yes,90,9.24,9.7,23,14
20051000230,AK-33-330060,200510,AK-33,KG,5,Sherrod Elementary,Matanuska-Susitna Borough School District,Matanuska-Susitna Borough,561 N Gulkana St,Palmer,AK,99645,,(907)761-4100,32,Town: Distant,No,No,Yes,Yes,418,24.39,17.1,180,30
20002000015,AK-07-070110,200020,AK-07,PK,12,Shishmaref School,Bering Strait School District,Nome Census Area,#1 Seaview Ln,Shishmaref,AK,99772,,(907)649-3021,43,Rural: Remote,No,No,Yes,Yes,198,16.24,12.2,200,49
20062500303,AK-37-370110,200625,AK-37,PK,12,Shungnak School,Northwest Arctic Borough School District,Northwest Arctic Borough,PO Box 79,Shungnak,AK,99773,,(907)437-2151,43,Rural: Remote,No,No,Yes,Yes,59,7.5,7.9,59,0
20013000044,AK-17-170010,200130,AK-17,PK,6,Sidney C. Huntington Elementary,Galena City School District,Yukon-Koyukuk Census Area,PO Box 299,Galena,AK,99741,,(907)656-1205,43,Rural: Remote,No,No,Yes,Yes,50,5.2,9.6,28,0
20013000635,AK-17-170020,200130,AK-17,7,12,Sidney C. Huntington Jr/Sr High School,Galena City School District,Yukon-Koyukuk Census Area,PO Box 299,Galena,AK,99741,,(907)656-1205,43,Rural: Remote,No,No,Yes,Yes,42,4.87,8.6,14,0
20024000143,AK-42-420130,200240,AK-42,9,12,Sitka High School,Sitka School District,Sitka City and Borough,1000 Lake St,Sitka,AK,99835,,(907)747-3263,41,Rural: Fringe,No,No,Yes,No,314,23.64,13.3,91,9
20024000142,AK-42-428010,200240,AK-42,KG,12,Sitka REACH,Sitka School District,Sitka City and Borough,305 Baranof St,Sitka,AK,99835,,(907)747-7514,33,Town: Remote,No,No,–,–,20,0.5,40,–,–
20069000310,AK-43-430010,200690,AK-43,PK,12,Skagway School,Skagway School District,Skagway Municipality,PO Box 497,Skagway,AK,99840,947,(907)983-2960,43,Rural: Remote,No,No,–,–,141,13.7,10.3,–,–
20039000541,AK-24-240220,200390,AK-24,7,8,Skyview Middle School,Kenai Peninsula Borough School District,Kenai Peninsula Borough,46188 Sterling Hwy,Soldotna,AK,99669,,(907)260-2500,41,Rural: Fringe,No,No,Yes,No,411,27.98,14.7,132,32
20007000583,AK-11-110110,200070,AK-11,PK,12,Slana School,Copper River School District,Valdez-Cordova Census Area,P.O. Box 883,Slana,AK,99586,,(907)822-5868,43,Rural: Remote,No,No,Yes,Yes,13,1,13,–,–
20051000414,AK-33-330190,200510,AK-33,PK,5,Snowshoe Elementary,Matanuska-Susitna Borough School District,Matanuska-Susitna Borough,2001 W Fairview Loop,Wasilla,AK,99654,,(907)352-9500,41,Rural: Fringe,No,No,Yes,Yes,390,21.38,18.2,193,32
20039000171,AK-24-240210,200390,AK-24,PK,6,Soldotna Elementary,Kenai Peninsula Borough School District,Kenai Peninsula Borough,162 E Park Ave,Soldotna,AK,99669,,(907)260-5100,33,Town: Remote,No,No,Yes,No,304,21.65,14,112,29
20039000542,AK-24-240300,200390,AK-24,9,12,Soldotna High School,Kenai Peninsula Borough School District,Kenai Peninsula Borough,425 W Marydale Ave,Soldotna,AK,99669,,(907)260-7000,33,Town: Remote,No,No,–,–,547,34.34,15.9,134,34
20039000448,AK-24-249040,200390,AK-24,KG,6,Soldotna Montessori Charter School,Kenai Peninsula Borough School District,Kenai Peninsula Borough,158 E Park Ave,Soldotna,AK,99669,,(907)260-9221,33,Town: Remote,Yes,No,–,–,163,10.35,15.7,25,20
20039000754,AK-24-240510,200390,AK-24,9,9,Soldotna Prep School,Kenai Peninsula Borough School District,Kenai Peninsula Borough,426 West Redoubt,Soldotna,AK,99669,,(907)260-2300,33,Town: Remote,No,No,–,–,189,12.41,15.2,56,19
20018000454,AK-05-051120,200180,AK-05,9,12,South Anchorage High School,Anchorage School District,Anchorage Municipality,13400 Elmore Rd,Anchorage,AK,99516,3607,(907)742-6200,11,City: Large,No,No,–,–,1334,62.53,21.3,83,126
20018000561,AK-05-050890,200180,AK-05,PK,6,Spring Hill Elementary,Anchorage School District,Anchorage Municipality,9911 Lake Otis Pwky,Anchorage,AK,99507,4251,(907)742-5450,11,City: Large,No,No,Yes,Yes,380,25.8,14.7,0,14
20067000308,AK-40-400020,200670,AK-40,PK,12,St Paul School,Pribilof School District,Aleutians West Census Area,PO Box 207,St. Paul,AK,99660,,(907)546-3337,43,Rural: Remote,No,No,Yes,Yes,72,4.35,16.6,–,–
20060000462,AK-16-169030,200600,AK-16,7,12,Star of the North Secondary School,Fairbanks North Star Borough School District,Fairbanks North Star Borough,2945 Monk Ct,North Pole,AK,99705,,(907)490-9025,23,Suburb: Small,Yes,No,Yes,Yes,174,12,14.5,49,12
20018000115,AK-05-050670,200180,AK-05,7,12,Steller Secondary School,Anchorage School District,Anchorage Municipality,2508 Blueberry Ln,Anchorage,AK,99503,2693,(907)742-4950,11,City: Large,No,Yes,–,–,257,15.1,17,†,†
20039000173,AK-24-240230,200390,AK-24,PK,6,Sterling Elementary,Kenai Peninsula Borough School District,Kenai Peninsula Borough,Drawer 89,Sterling,AK,99672,,(907)262-4944,42,Rural: Distant,No,No,Yes,No,217,15.95,13.6,84,19
20081000728,AK-49-490030,200810,AK-49,6,8,Stikine Middle School,Wrangell Public School District,Wrangell City and Borough,PO Box 1935,Wrangell,AK,99929,1935,(907)874-3393,43,Rural: Remote,No,No,Yes,Yes,57,4.59,12.4,–,–
20039000175,AK-24-240250,200390,AK-24,PK,12,Susan B English School,Kenai Peninsula Borough School District,Kenai Peninsula Borough,Box 171,Seldovia,AK,99663,,(907)234-7616,43,Rural: Remote,No,No,Yes,No,32,2.16,14.8,8,8
20018000116,AK-05-050680,200180,AK-05,PK,6,Susitna Elementary,Anchorage School District,Anchorage Municipality,7500 Tyone Ct,Anchorage,AK,99504,3299,(907)742-1400,11,City: Large,No,Yes,Yes,Yes,413,26.07,15.8,†,†
20051000232,AK-33-330070,200510,AK-33,6,12,Susitna Valley High,Matanuska-Susitna Borough School District,Matanuska-Susitna Borough,HC 89 Box 8580,Talkeetna,AK,99676,,(907)733-9300,43,Rural: Remote,No,No,Yes,Yes,203,14.58,13.9,110,22
20051000725,AK-33-330360,200510,AK-33,PK,5,Sutton Elementary,Matanuska-Susitna Borough School District,Matanuska-Susitna Borough,PO Box 216,Sutton,AK,99674,,(907)861-5600,42,Rural: Distant,No,No,Yes,Yes,67,3.5,19.1,59,0
20051000233,AK-33-330080,200510,AK-33,PK,2,Swanson Elementary,Matanuska-Susitna Borough School District,Matanuska-Susitna Borough,507 N Gulkana,Palmer,AK,99645,,(907)861-5300,32,Town: Distant,No,No,Yes,Yes,445,27.8,16,189,49
20052000247,AK-21-210050,200520,AK-21,PK,12,Takotna Community School,Iditarod Area School District,Yukon-Koyukuk Census Area,Box 90,Takotna,AK,99675,,(907)298-2115,43,Rural: Remote,No,No,Yes,Yes,21,1.89,11.1,13,0
20018000117,AK-05-050690,200180,AK-05,PK,6,Taku Elementary,Anchorage School District,Anchorage Municipality,701 E 72nd Ave,Anchorage,AK,99518,2806,(907)742-5940,11,City: Large,No,No,Yes,Yes,319,19.06,16.7,†,†
20051000723,AK-33-330340,200510,AK-33,PK,5,Talkeetna Elementary,Matanuska-Susitna Borough School District,Matanuska-Susitna Borough,HC 89 Box 8010,Talkeetna,AK,99676,,(907)733-9400,43,Rural: Remote,No,No,Yes,Yes,106,8.96,11.8,48,14
20005000424,AK-03-030050,200050,AK-03,PK,8,Tanacross School,Alaska Gateway School District,Southeast Fairbanks Census Area,PO Box 76030,Tanacross,AK,99776,,(907)883-4391,43,Rural: Remote,No,No,Yes,Yes,17,0.85,20,†,†
20051000547,AK-33-330180,200510,AK-33,PK,5,Tanaina Elementary,Matanuska-Susitna Borough School District,Matanuska-Susitna Borough,2550 Lucille St,Wasilla,AK,99654,3810,(907)352-9400,32,Town: Distant,No,No,Yes,Yes,401,25.9,15.5,277,0
20048500204,AK-30-300110,200485,AK-30,PK,12,Tanalian School,Lake and Peninsula Borough School District,Lake and Peninsula Borough,General Delivery,Port Alsworth,AK,99653,,(907)781-2210,43,Rural: Remote,No,No,Yes,Yes,63,7,9,17,0
20060000277,AK-16-160220,200600,AK-16,7,8,Tanana Middle School,Fairbanks North Star Borough School District,Fairbanks North Star Borough,600 Trainor Gate Rd,Fairbanks,AK,99701,3243,(907)452-8145,13,City: Small,No,No,Yes,No,400,19,21.1,105,42
20080000371,AK-10-100010,200800,AK-10,PK,12,Tatitlek Community School,Chugach School District,Valdez-Cordova Census Area,PO Box 167,Tatitlek,AK,99677,,(907)325-2252,43,Rural: Remote,No,No,Yes,Yes,22,2.41,9.1,–,–
20039000153,AK-24-240280,200390,AK-24,PK,12,Tebughna School,Kenai Peninsula Borough School District,Kenai Peninsula Borough,PO Box 82010,Tyonek,AK,99682,10,(907)583-2291,43,Rural: Remote,No,No,Yes,No,31,4,7.8,31,0
20051000444,AK-33-330440,200510,AK-33,6,8,Teeland Middle School,Matanuska-Susitna Borough School District,Matanuska-Susitna Borough,2788 N Seward Meridian Pkwy,Wasilla,AK,99654,,(907)352-7500,32,Town: Distant,No,No,Yes,Yes,797,40.58,19.6,293,54
20005000528,AK-03-030070,200050,AK-03,PK,12,Tetlin School,Alaska Gateway School District,Southeast Fairbanks Census Area,PO Box 277,Tok,AK,99780,,(907)324-2104,43,Rural: Remote,No,No,Yes,Yes,33,3.58,9.2,†,†
20018000399,AK-05-057220,200180,AK-05,7,12,The New Path High School,Anchorage School District,Anchorage Municipality,1400 East 4th Ave,Anchorage,AK,99507,,(907)742-4939,11,City: Large,No,No,Yes,No,17,3.03,5.6,†,†
20070000326,AK-44-440160,200700,AK-44,PK,12,Thorne Bay School,Southeast Island School District,Prince of Wales-Hyder Census Area,PO Box 19005,Thorne Bay,AK,99919,,(907)828-3921,43,Rural: Remote,No,No,Yes,Yes,74,6.45,11.5,37,4
20021000737,AK-22-220150,200210,AK-22,9,12,Thunder Mountain High School,Juneau Borough School District,Juneau City and Borough,10014 Crazy Horse Dr,Juneau,AK,99801,,(907)780-1900,33,Town: Remote,No,No,–,–,704,35.2,20,101,25
20060000600,AK-16-160340,200600,AK-16,PK,5,Ticasuk Brown Elementary,Fairbanks North Star Borough School District,Fairbanks North Star Borough,520 Fifth Ave,Fairbanks,AK,99701,4756,(907)488-3200,23,Suburb: Small,No,No,Yes,Yes,467,27.5,17,134,42
20061000289,AK-36-360060,200610,AK-36,PK,12,Tikigaq School,North Slope Borough School District,North Slope Borough,Box 148,Point Hope,AK,99766,,(907)368-2662,43,Rural: Remote,No,No,Yes,Yes,265,20,13.3,167,0
20071000338,AK-45-450110,200710,AK-45,PK,12,Togiak School,Southwest Region School District,Dillingham Census Area,PO Box 50,Togiak,AK,99678,,(907)493-5829,43,Rural: Remote,No,No,Yes,Yes,213,18.85,11.3,213,0
20005000028,AK-03-030060,200050,AK-03,PK,12,Tok School,Alaska Gateway School District,Southeast Fairbanks Census Area,PO Box 249,Tok,AK,99780,,(907)883-5161,43,Rural: Remote,No,No,Yes,Yes,182,14.28,12.7,0,274
20015000523,AK-25-259020,200150,AK-25,PK,6,Tongass School of Arts and Sciences Charter School,Ketchikan Gateway Borough School District,Ketchikan Gateway Borough,410 Schoenbar Rd Ste 202,Ketchikan,AK,99901,,(907)225-5720,33,Town: Remote,Yes,No,Yes,Yes,180,11,16.4,81,15
20052000245,AK-21-210080,200520,AK-21,PK,12,Top of the Kuskokwim School,Iditarod Area School District,Yukon-Koyukuk Census Area,PO Box 9190,Nikolai,AK,99691,,(907)293-2427,43,Rural: Remote,No,No,Yes,Yes,12,2,6,14,0
20033000746,AK-20-208010,200330,AK-20,PK,12,Totem Correspondence School,Hydaburg City School District,Prince of Wales-Hyder Census Area,Box 109,Hydaburg,AK,99922,,(907)285-3591,43,Rural: Remote,No,No,–,–,4,1,4,†,†
20018000390,AK-05-051110,200180,AK-05,PK,6,Trailside Elementary,Anchorage School District,Anchorage Municipality,5151 Abbott Rd,Anchorage,AK,99507,4379,(907)742-5500,41,Rural: Fringe,No,No,–,–,374,24.18,15.5,†,†
20051000722,AK-33-330330,200510,AK-33,PK,5,Trapper Creek Elementary,Matanuska-Susitna Borough School District,Matanuska-Susitna Borough,PO Box 13108,Trapper Creek,AK,99683,,(907)733-9451,43,Rural: Remote,No,No,Yes,Yes,23,2,11.5,21,0
20077000357,AK-02-020040,200770,AK-02,PK,12,Tri-Valley School,Denali Borough School District,Denali Borough,PO Box 400,Healy,AK,99743,,(907)683-2267,43,Rural: Remote,No,No,–,–,182,16.45,11.1,–,–
20077500360,AK-51-510040,200775,AK-51,PK,12,Tsuk Taih School,Yukon Flats School District,Yukon-Koyukuk Census Area,General Delivery,Chalkyitsik,AK,99788,,(907)848-8113,43,Rural: Remote,No,No,Yes,Yes,11,1.28,8.6,14,0
20018000087,AK-05-050700,200180,AK-05,PK,6,Tudor Elementary,Anchorage School District,Anchorage Municipality,1666 Cache Dr,Anchorage,AK,99507,1399,(907)742-1050,11,City: Large,No,No,Yes,Yes,368,20.57,17.9,86,0
20002000468,AK-07-070120,200020,AK-07,PK,12,Tukurngailnguq School,Bering Strait School District,Nome Census Area,General Delivery,Stebbins,AK,99671,,(907)934-3021,43,Rural: Remote,No,No,Yes,Yes,227,17.24,13.2,60,92
20000400623,AK-54-540040,200004,AK-54,KG,12,Tuluksak School,Yupiit School District,Bethel Census Area,PO Box 115,Tuluksak,AK,99679,,(907)695-5625,43,Rural: Remote,No,No,Yes,Yes,119,10,11.9,125,0
20018000088,AK-05-050710,200180,AK-05,PK,6,Turnagain Elementary,Anchorage School District,Anchorage Municipality,3500 W Northern Lights Blvd,Anchorage,AK,99517,3318,(907)742-7200,11,City: Large,No,Yes,Yes,Yes,398,23.26,17.1,0,172
20039000176,AK-24-240270,200390,AK-24,PK,6,Tustumena Elementary,Kenai Peninsula Borough School District,Kenai Peninsula Borough,PO Box 749,Kasilof,AK,99610,,(907)260-1345,43,Rural: Remote,No,No,Yes,No,187,13.11,14.3,92,22
20071000573,AK-45-450120,200710,AK-45,PK,12,Twin Hills School,Southwest Region School District,Dillingham Census Area,Box TWA,Twin Hills,AK,99576,8996,(907)525-4215,43,Rural: Remote,No,No,Yes,Yes,21,2.75,7.6,23,0
20051000469,AK-33-339030,200510,AK-33,KG,12,Twindly Bridge Charter School,Matanuska-Susitna Borough School District,Matanuska-Susitna Borough,141 E Seldon Rd Ste C,Wasilla,AK,99654,,(907)376-6680,32,Town: Distant,Yes,No,–,–,476,6.47,73.6,–,–
20060000279,AK-16-160280,200600,AK-16,PK,8,Two Rivers School,Fairbanks North Star Borough School District,Fairbanks North Star Borough,520 Fifth Ave,Fairbanks,AK,99701,4756,(907)488-6616,42,Rural: Distant,No,No,Yes,Yes,72,7.32,9.8,22,7
20002000017,AK-07-070260,200020,AK-07,PK,12,Unalakleet School,Bering Strait School District,Nome Census Area,PO Box 130,Unalakleet,AK,99684,,(907)624-3444,43,Rural: Remote,No,No,Yes,Yes,196,17.21,11.4,0,10
20072000661,AK-47-470020,200720,AK-47,7,12,Unalaska Jr/Sr High School,Unalaska City School District,Aleutians West Census Area,PO Box 570,Unalaska,AK,99685,,(907)581-1222,43,Rural: Remote,No,No,Yes,No,188,14.4,13.1,24,9
20060000045,AK-16-160290,200600,AK-16,PK,6,University Park Elementary,Fairbanks North Star Borough School District,Fairbanks North Star Borough,554 Loftus Rd,Fairbanks,AK,99709,3426,(907)479-6963,23,Suburb: Small,No,No,Yes,Yes,470,28,16.8,171,23
20007000398,AK-11-118010,200070,AK-11,PK,12,Upstream Learning Correspondence,Copper River School District,Valdez-Cordova Census Area,Box 108,Glennallen,AK,99588,,(907)822-8526,43,Rural: Remote,No,No,Yes,Yes,111,1.7,65.3,–,–
20018000400,AK-05-050340,200180,AK-05,PK,6,Ursa Major Elementary,Anchorage School District,Anchorage Municipality,454 Dyea St,JBER,AK,99505,1198,(907)742-1600,41,Rural: Fringe,No,No,Yes,Yes,484,30.07,16.1,†,†
20018000118,AK-05-050350,200180,AK-05,PK,6,Ursa Minor Elementary,Anchorage School District,Anchorage Municipality,336 Hoonah Ave,JBER,AK,99505,1299,(907)428-1311,11,City: Large,No,No,Yes,Yes,302,14.57,20.7,†,†
20078000370,AK-48-480030,200780,AK-48,9,12,Valdez High School,Valdez City School District,Valdez-Cordova Census Area,PO Box 398,Valdez,AK,99686,,(907)835-4767,43,Rural: Remote,No,No,–,–,165,14.38,11.5,51,6
20078000753,AK-48-488010,200780,AK-48,PK,12,Valdez Home School,Valdez City School District,Valdez-Cordova Census Area,PO Box 398,Valdez,AK,99686,,(907)835-4357,43,Rural: Remote,No,No,–,–,42,0.6,70,–,–
20051000425,AK-33-337020,200510,AK-33,9,12,Valley Pathways,Matanuska-Susitna Borough School District,Matanuska-Susitna Borough,PO Box 4897,Palmer,AK,99645,,(907)761-4650,41,Rural: Fringe,No,No,Yes,Yes,163,9.9,16.5,86,14
20039000612,AK-24-240380,200390,AK-24,PK,12,Voznesenka School,Kenai Peninsula Borough School District,Kenai Peninsula Borough,33002 Voznesenka Loop,Voznesenka,AK,99603,,(907)235-8549,43,Rural: Remote,No,No,Yes,No,111,8.6,12.9,–,–
20002000018,AK-07-070150,200020,AK-07,PK,12,Wales School,Bering Strait School District,Nome Census Area,Box 490,Wales,AK,99783,490,(907)664-3021,43,Rural: Remote,No,No,Yes,Yes,46,5.21,8.8,57,0
20005000027,AK-03-030040,200050,AK-03,PK,12,Walter Northway School,Alaska Gateway School District,Southeast Fairbanks Census Area,PO Box 519,Northway,AK,99764,,(907)778-2287,43,Rural: Remote,No,No,Yes,Yes,53,5.18,10.2,0,50
20051000237,AK-33-330120,200510,AK-33,9,12,Wasilla High School,Matanuska-Susitna Borough School District,Matanuska-Susitna Borough,701 E Bogard Rd,Wasilla,AK,99654,7192,(907)352-8200,32,Town: Distant,No,No,Yes,Yes,881,48.58,18.1,362,52
20051000545,AK-33-330140,200510,AK-33,6,8,Wasilla Middle School,Matanuska-Susitna Borough School District,Matanuska-Susitna Borough,650 Bogard Rd,Wasilla,AK,99654,,(907)352-5300,32,Town: Distant,No,No,Yes,Yes,648,31.48,20.6,325,44
20060000742,AK-16-169050,200600,AK-16,KG,8,Watershed Charter School,Fairbanks North Star Borough School District,Fairbanks North Star Borough,4975 Decathlon Ave,Fairbanks,AK,99709,,(907)374-9350,23,Suburb: Small,Yes,No,–,–,197,10.8,18.2,–,–
20060000519,AK-16-160070,200600,AK-16,PK,6,Weller Elementary,Fairbanks North Star Borough School District,Fairbanks North Star Borough,520 Fifth Ave,Fairbanks,AK,99701,4756,(907)457-1629,23,Suburb: Small,No,No,–,–,461,26.34,17.5,96,14
20018000119,AK-05-050720,200180,AK-05,7,8,Wendler Middle School,Anchorage School District,Anchorage Municipality,2905 Lake Otis Pkwy,Anchorage,AK,99508,4599,(907)742-7300,11,City: Large,No,No,Yes,Yes,474,30.07,15.8,0,100
20018000120,AK-05-050730,200180,AK-05,9,12,West High School,Anchorage School District,Anchorage Municipality,1700 Hillcrest Dr,Anchorage,AK,99517,1399,(907)742-2500,11,City: Large,No,Yes,Yes,Yes,1760,83.71,21,†,†
20039000299,AK-24-240490,200390,AK-24,3,6,West Homer Elementary,Kenai Peninsula Borough School District,Kenai Peninsula Borough,995 Soundview Ave Ste 1,Homer,AK,99603,,(907)235-5750,43,Rural: Remote,No,No,Yes,No,245,17.75,13.8,74,28
20060000281,AK-16-160210,200600,AK-16,9,12,West Valley High School,Fairbanks North Star Borough School District,Fairbanks North Star Borough,3800 Geist Rd,Fairbanks,AK,99709,3547,(907)479-4221,23,Suburb: Small,No,No,–,–,979,54.18,18.1,162,41
20070000526,AK-44-440190,200700,AK-44,PK,12,Whale Pass School,Southeast Island School District,Prince of Wales-Hyder Census Area,PO Box WWP,Whale Pass,AK,99950,,(907)846-5320,43,Rural: Remote,No,No,Yes,Yes,18,2.05,8.8,17,0
20018000121,AK-05-057140,200180,AK-05,PK,12,Whaley School,Anchorage School District,Anchorage Municipality,2220 Nichols St,Anchorage,AK,99508,3496,(907)742-2350,11,City: Large,No,No,Yes,Yes,403,49.76,8.1,33,45
20002000019,AK-07-070160,200020,AK-07,PK,12,White Mountain School,Bering Strait School District,Nome Census Area,Box 55,White Mountain,AK,99784,,(907)638-3021,43,Rural: Remote,No,No,Yes,Yes,63,8.21,7.7,54,31
20080000372,AK-10-100020,200800,AK-10,PK,12,Whittier Community School,Chugach School District,Valdez-Cordova Census Area,Box 638,Whittier,AK,99693,,(907)472-2575,43,Rural: Remote,No,No,Yes,Yes,47,6.32,7.4,–,–
20039000169,AK-24-240190,200390,AK-24,PK,5,William H. Seward Elementary School,Kenai Peninsula Borough School District,Kenai Peninsula Borough,Box 247,Seward,AK,99664,,(907)224-3356,43,Rural: Remote,No,No,Yes,No,302,19.93,15.2,99,24
20000100409,AK-31-310170,200001,AK-31,PK,12,William Miller Memorial School,Lower Kuskokwim School District,Bethel Census Area,PO Box 34050,Napakiak,AK,99634,,(907)589-2420,42,Rural: Distant,No,No,Yes,Yes,96,5.98,16.1,92,0
20018000154,AK-05-051040,200180,AK-05,PK,6,William Tyson Elementary,Anchorage School District,Anchorage Municipality,2801 Richmond Ave,Anchorage,AK,99508,1099,(907)742-8000,11,City: Large,No,No,Yes,Yes,394,26.32,15,149,138
20018000122,AK-05-050750,200180,AK-05,PK,6,Williwaw Elementary,Anchorage School District,Anchorage Municipality,1200 San Antonio St,Anchorage,AK,99508,2766,(907)742-2000,11,City: Large,No,No,Yes,Yes,351,23.06,15.2,†,†
20018000123,AK-05-050760,200180,AK-05,PK,6,Willow Crest Elementary,Anchorage School District,Anchorage Municipality,1004 W Tudor Rd,Anchorage,AK,99503,7096,(907)742-1000,11,City: Large,No,No,Yes,Yes,377,24.07,15.7,†,†
20051000721,AK-33-330320,200510,AK-33,PK,5,Willow Elementary,Matanuska-Susitna Borough School District,Matanuska-Susitna Borough,PO Box 69,Willow,AK,99688,,(907)495-9300,43,Rural: Remote,No,No,Yes,Yes,146,9.88,14.8,75,4
20018000459,AK-05-059070,200180,AK-05,KG,8,Winterberry School,Anchorage School District,Anchorage Municipality,4802 Bryn Mawr Ct,Anchorage,AK,99508,,(907)742-0139,11,City: Large,Yes,Yes,–,–,242,15,16.1,†,†
20018000124,AK-05-050770,200180,AK-05,PK,5,Wonder Park Elementary,Anchorage School District,Anchorage Municipality,5101 E 4th Ave,Anchorage,AK,99508,2599,(907)337-1569,11,City: Large,No,No,Yes,Yes,399,27.37,14.6,†,†
20060000280,AK-16-160300,200600,AK-16,PK,6,Woodriver Elementary,Fairbanks North Star Borough School District,Fairbanks North Star Borough,5000 Palo Verde Dr,Fairbanks,AK,99709,3127,(907)479-4211,23,Suburb: Small,No,No,–,–,470,26,18.1,125,26
20081000576,AK-49-490020,200810,AK-49,9,12,Wrangell High School,Wrangell Public School District,Wrangell City and Borough,PO Box 651,Wrangell,AK,99929,651,(907)874-3395,43,Rural: Remote,No,No,Yes,Yes,79,7.91,10,–,–
20021000738,AK-22-227010,200210,AK-22,9,12,Yaakoosge Daakahidi Alt. H.S.,Juneau Borough School District,Juneau City and Borough,10014 Crazy Horse Dr,Juneau,AK,99801,,(907)523-1800,33,Town: Remote,No,No,Yes,Yes,93,6.3,14.8,51,3
20001000005,AK-04-040020,200010,AK-04,KG,12,Yakov E. Netsvetov School,Aleutian Region School District,Aleutians West Census Area,PO Box 47050,Atka,AK,99547,,(907)839-2210,43,Rural: Remote,No,No,Yes,Yes,6,1,6,†,†
20084000667,AK-50-500010,200840,AK-50,PK,12,Yakutat School,Yakutat School District,Yakutat City and Borough,Box 429,Yakutat,AK,99689,429,(907)784-3317,43,Rural: Remote,No,No,Yes,No,64,6.26,10.2,–,–
20077500446,AK-51-518010,200775,AK-51,KG,12,Yukon Flats Distance Education Program,Yukon Flats School District,Yukon-Koyukuk Census Area,PO Box 350,Fort Yukon,AK,99740,359,(907)662-2515,43,Rural: Remote,No,No,†,†,0,0.05,†,2,1
20000100439,AK-31-310180,200001,AK-31,PK,12,Z. John Williams Memorial School,Lower Kuskokwim School District,Bethel Census Area,PO Box 6089,Napaskiak,AK,99559,8997,(907)737-7212,42,Rural: Distant,No,No,Yes,Yes,144,13.85,10.4,141,0
20076000350,AK-29-290050,200760,AK-29,3,5,Zackar Levi Elementary,Kuspuk School District,Bethel Census Area,PO Box 92,Lower Kalskag,AK,99626,,(907)471-2318,43,Rural: Remote,No,No,Yes,Yes,44,0.03,1466.7,44,0
