NCES School ID,State School ID,NCES District ID,State District ID,Low Grade*,High Grade*,School Name,District,County Name*,Street Address,City,State,ZIP,ZIP 4-digit,Phone,Locale Code*,Locale*,Charter,Magnet*,Title I School*,Title 1 School Wide*,Students*,Teachers*,Student Teacher Ratio*,Free Lunch*,Reduced Lunch*
540045001186,WV-2900000-29210,5400450,WV-2900000,PK,4,A. T. ALLISON ELEMENTARY SCHOOL,HANCOCK COUNTY SCHOOLS,Hancock County,600 RAILROAD STREET,CHESTER,WV,26034,,(304)387-1915,31,Town: Fringe,†,No,Yes,Yes,439,32.5,13.5,–,–
540123000977,WV-7400000-74701,5401230,WV-7400000,–,–,ACADEMY OF CAREERS AND TECHNOLOGY,RALEIGH COUNTY SCHOOLS,Raleigh County,390 STANAFORD ROAD,BECKLEY,WV,25801,,(304)256-4615,13,City: Small,†,No,–,–,–,18,†,–,–
540051101471,WV-3400000-34138,5400511,WV-3400000,–,–,ACADEMY PROGRAMS,INSTITUTIONAL EDUCATIONAL PROGRAMS,Marion County,#5 CROSSWIND DRIVE,FAIRMONT,WV,26554,,(304)363-3348,32,Town: Distant,†,No,–,–,†,–,†,–,–
540051000282,WV-3300000-33201,5400510,WV-3300000,PK,5,ADAMSTON ELEMENTARY SCHOOL,HARRISON COUNTY SCHOOLS,Harrison County,1636 W PIKE ST,CLARKSBURG,WV,26301,,(304)326-7070,32,Town: Distant,†,No,Yes,Yes,277,28.08,9.9,–,–
540060000353,WV-3900000-39201,5400600,WV-3900000,PK,5,ALBAN ELEMENTARY SCHOOL,KANAWHA COUNTY SCHOOLS,Kanawha County,2030 HARRISON AVENUE,ST. ALBANS,WV,25177,,(304)722-0234,22,Suburb: Midsize,†,No,–,–,311,20,15.6,–,–
540039000224,WV-2600000-26201,5400390,WV-2600000,PK,5,ALDERSON ELEMENTARY,GREENBRIER COUNTY SCHOOLS,Greenbrier County,RR1 BOX 162F,ALDERSON,WV,24910,,(304)445-7241,32,Town: Distant,†,No,Yes,Yes,235,19.7,11.9,–,–
540018000088,WV-1200000-12203,5400180,WV-1200000,PK,5,ALTIZER ELEMENTARY SCHOOL,CABELL COUNTY SCHOOLS,Cabell County,250 THIRD STREET ALTIZER,HUNTINGTON,WV,25705,,(304)528-5100,13,City: Small,†,No,Yes,Yes,263,19.67,13.4,–,–
540060000354,WV-3900000-39202,5400600,WV-3900000,PK,5,ALUM CREEK ELEMENTARY SCHOOL,KANAWHA COUNTY SCHOOLS,Kanawha County,RT 7 BOX 279A,SO CHARLESTON,WV,25309,,(304)348-1935,22,Suburb: Midsize,†,No,Yes,Yes,179,14.5,12.3,–,–
540081000633,WV-6000000-60203,5400810,WV-6000000,KG,5,ANAWALT ELEMENTARY SCHOOL,MCDOWELL COUNTY SCHOOLS,McDowell County,POST OFFICE BOX 230,ANAWALT,WV,24808,,(304)383-4849,42,Rural: Distant,†,No,–,–,56,4,14,–,–
540060000355,WV-3900000-39402,5400600,WV-3900000,6,8,ANDREW JACKSON MIDDLE SCHOOL,KANAWHA COUNTY SCHOOLS,Kanawha County,5445 BIG TYLER ROAD,CHARLESTON,WV,25313,,(304)776-3310,22,Suburb: Midsize,†,No,–,–,564,37,15.2,–,–
540060000356,WV-3900000-39203,5400600,WV-3900000,PK,5,ANDREWS HEIGHTS ELEMENTARY SCHOOL,KANAWHA COUNTY SCHOOLS,Kanawha County,7776 COAL RIVER ROAD,TORNADO,WV,25202,,(304)722-0232,22,Suburb: Midsize,†,No,–,–,317,18.6,17,–,–
540138001050,WV-8300000-83201,5401380,WV-8300000,PK,4,ANNA JARVIS ELEMENTARY SCHOOL,TAYLOR COUNTY SCHOOLS,Taylor County,650 N. PIKE STREET,GRAFTON,WV,26354,,(304)304-4090,41,Rural: Fringe,†,No,Yes,Yes,611,38.33,15.9,–,–
540060000357,WV-3900000-39204,5400600,WV-3900000,PK,5,ANNE BAILEY ELEMENTARY SCHOOL,KANAWHA COUNTY SCHOOLS,Kanawha County,405 WINFIELD ROAD,ST. ALBANS,WV,25177,,(304)722-0230,22,Suburb: Midsize,†,No,Yes,Yes,267,21,12.7,–,–
540030000167,WV-2000000-20201,5400300,WV-2000000,PK,5,ANSTED ELEMENTARY,FAYETTE COUNTY SCHOOLS,Fayette County,PO BOX 609,ANSTED,WV,25812,,(304)658-5961,41,Rural: Fringe,†,No,Yes,Yes,220,16.1,13.7,–,–
540051100118,WV-3400000-34102,5400511,WV-3400000,–,–,ANTHONY CENTER,INSTITUTIONAL EDUCATIONAL PROGRAMS,Greenbrier County,HC 70 ROUTE 92,WHITE SULPHUR SPRINGS,WV,24986,,(304)536-4151,43,Rural: Remote,†,No,–,–,†,–,†,–,–
540021000139,WV-1400000-14201,5400210,WV-1400000,PK,4,ARNOLDSBURG SCHOOL,CALHOUN COUNTY SCHOOLS,Calhoun County,90 SPRING RUN ROAD,ARNOLDSBURG,WV,25234,,(304)655-8616,42,Rural: Distant,†,No,Yes,Yes,228,16.25,14,–,–
540144001068,WV-8500000-85201,5401440,WV-8500000,PK,5,ARTHUR I BOREMAN ELEMENTARY SCHOOL,TYLER COUNTY SCHOOLS,Tyler County,PO BOX 299,MIDDLEBOURNE,WV,26149,,(304)758-2152,42,Rural: Distant,†,No,Yes,Yes,346,28,12.4,–,–
540009000035,WV-0600000-06201,5400090,WV-0600000,PK,5,ASHFORD-RUMBLE ELEMENTARY,BOONE COUNTY SCHOOLS,Boone County,1649 ASHFORD NELLIS ROAD,ASHFORD,WV,25009,,(304)836-5381,42,Rural: Distant,†,No,Yes,Yes,152,13,11.7,–,–
540078001505,WV-4900000-49216,5400780,WV-4900000,PK,6,ASHTON ELEMENTARY SCHOOL,MASON COUNTY SCHOOLS,Mason County,997 ASHTON UPLAND ROAD,ASHTON,WV,25503,,(304)576-9931,42,Rural: Distant,†,No,Yes,Yes,396,29,13.7,–,–
540084000672,WV-5100000-51201,5400840,WV-5100000,PK,5,ATHENS ELEMENTARY SCHOOL,MERCER COUNTY SCHOOLS,Mercer County,PO BOX 568,ATHENS,WV,24712,,(304)384-9229,32,Town: Distant,†,No,Yes,Yes,276,17.5,15.8,–,–
540042001232,WV-2800000-28201,5400420,WV-2800000,PK,5,AUGUSTA ELEMENTARY SCHOOL,HAMPSHIRE COUNTY SCHOOLS,Hampshire County,61 PANCIONE LOOP,AUGUSTA,WV,26704,,(304)496-7001,42,Rural: Distant,†,No,Yes,Yes,280,19.25,14.5,–,–
540117001358,WV-7000000-70101,5401170,WV-7000000,PK,8,AURORA SCHOOL,PRESTON COUNTY SCHOOLS,Preston County,125 AURORA SCHOOL ROAD,AURORA,WV,26705,,(304)735-3781,42,Rural: Distant,†,No,–,–,173,13.5,12.8,–,–
540147001077,WV-8700000-87301,5401470,WV-8700000,6,8,B-U MIDDLE SCHOOL,UPSHUR COUNTY SCHOOLS,Upshur County,553 ROUTE 20 SOUTH ROAD,BUCKHANNON,WV,26201,,(304)472-1520,33,Town: Remote,†,No,–,–,877,58.7,14.9,–,–
540006000012,WV-0400000-04201,5400060,WV-0400000,PK,2,BACK CREEK VALLEY ELEMENTARY SCHOOL,BERKELEY COUNTY SCHOOLS,Berkeley County,1962 BACK CREEK VALLEY ROAD,HEDGESVILLE,WV,25427,,(304)229-1975,41,Rural: Fringe,†,No,Yes,Yes,170,10.83,15.7,–,–
540165001191,WV-9800000-98201,5401650,WV-9800000,PK,8,BAILEYSVILLE ELEMENTARY & MIDDLE SCHOOL,WYOMING COUNTY SCHOOLS,Wyoming County,DRAWER 409,BRENTON,WV,24818,,(304)732-6399,42,Rural: Distant,†,No,Yes,Yes,333,24.5,13.6,–,–
540018000091,WV-1200000-12301,5400180,WV-1200000,6,8,BARBOURSVILLE MIDDLE SCHOOL,CABELL COUNTY SCHOOLS,Cabell County,1400 CENTRAL AVE,BARBOURSVILLE,WV,25504,,(304)733-3003,22,Suburb: Midsize,†,No,–,–,803,56,14.3,–,–
540051100110,WV-3400000-34103,5400511,WV-3400000,–,–,BARBOURSVILLE SCHOOL,INSTITUTIONAL EDUCATIONAL PROGRAMS,Cabell County,1535 MARTHA ROAD,BARBOURSVILLE,WV,25504,,(304)736-0915,41,Rural: Fringe,†,No,–,–,†,–,†,–,–
540072000997,WV-4700000-47504,5400720,WV-4700000,–,–,BARNES LEARNING CENTER (ALC),MARION COUNTY SCHOOLS,Marion County,100 NAOMI STREET,FAIRMONT,WV,26554,1834,(304)367-2127,32,Town: Distant,†,No,–,–,–,9,†,–,–
540072000542,WV-4700000-47101,5400720,WV-4700000,PK,8,BARRACKVILLE ELEMENTARY/MIDDLE SCHOOL,MARION COUNTY SCHOOLS,Marion County,P O BOX 150,BARRACKVILLE,WV,26559,150,(304)367-2128,32,Town: Distant,†,No,–,–,357,22,16.2,–,–
540078000609,WV-4900000-49201,5400780,WV-4900000,PK,6,BEALE ELEMENTARY SCHOOL,MASON COUNTY SCHOOLS,Mason County,12897 HUNTINGTON ROAD,GALLIPOLIS FERRY,WV,25515,,(304)675-1260,41,Rural: Fringe,†,No,Yes,Yes,252,24,10.5,–,–
540051101130,WV-3400000-34132,5400511,WV-3400000,–,–,BECKLEY CENTER,INSTITUTIONAL EDUCATIONAL PROGRAMS,Raleigh County,4712 ROBERT C. BYRD DRIVE,BECKLEY,WV,25801,,(304)250-6570,41,Rural: Fringe,†,No,–,–,†,–,†,–,–
540123001176,WV-7400000-74234,5401230,WV-7400000,PK,5,BECKLEY ELEMENTARY,RALEIGH COUNTY SCHOOLS,Raleigh County,399 GRAY FLATS ROAD,BECKLEY,WV,25801,,(304)256-4575,13,City: Small,†,No,Yes,Yes,402,28,14.4,–,–
540123000940,WV-7400000-74409,5401230,WV-7400000,6,8,BECKLEY-STRATTON MIDDLE SCHOOL,RALEIGH COUNTY SCHOOLS,Raleigh County,401 GRAY FLATS ROAD,BECKLEY,WV,25801,,(304)256-4616,13,City: Small,†,No,–,–,679,50,13.6,–,–
540006000013,WV-0400000-04202,5400060,WV-0400000,PK,2,BEDINGTON ELEMENTARY SCHOOL,BERKELEY COUNTY SCHOOLS,Berkeley County,149 BEDINGTON ROAD,MARTINSBURG,WV,25404,,(304)274-2535,22,Suburb: Midsize,†,No,Yes,Yes,156,9.7,16.1,–,–
540003000001,WV-0200000-02201,5400030,WV-0200000,PK,4,BELINGTON ELEMENTARY,BARBOUR COUNTY SCHOOLS,Barbour County,471 MORGANTOWN PIKE,BELINGTON,WV,26250,7711,(304)823-1411,42,Rural: Distant,†,No,Yes,Yes,310,22.87,13.6,–,–
540003000002,WV-0200000-02302,5400030,WV-0200000,5,8,BELINGTON MIDDLE SCHOOL,BARBOUR COUNTY SCHOOLS,Barbour County,469 MORGANTOWN PIKE,BELINGTON,WV,26250,7711,(304)823-1281,42,Rural: Distant,†,No,Yes,Yes,318,20.51,15.5,–,–
540060000359,WV-3900000-39206,5400600,WV-3900000,PK,5,BELLE ELEMENTARY SCHOOL,KANAWHA COUNTY SCHOOLS,Kanawha County,401 E 6TH STREET,BELLE,WV,25015,,(304)949-2612,22,Suburb: Midsize,†,No,–,–,264,16.4,16.1,–,–
540111001265,WV-6700000-67201,5401110,WV-6700000,PK,4,BELMONT ELEMENTARY SCHOOL,PLEASANTS COUNTY SCHOOLS,Pleasants County,512 RIVERVIEW DRIVE,BELMONT,WV,26134,,(304)299-5274,32,Town: Distant,†,No,Yes,Yes,197,16.88,11.7,–,–
540060000361,WV-3900000-39701,5400600,WV-3900000,–,–,BEN FRANKLIN CAREER CENTER,KANAWHA COUNTY SCHOOLS,Kanawha County,500 28TH STREET,DUNBAR,WV,25064,,(304)766-0369,22,Suburb: Midsize,†,No,–,–,–,26,†,–,–
540006001222,WV-0400000-04203,5400060,WV-0400000,PK,3,BERKELEY HEIGHTS ELEMENTARY SCHOOL,BERKELEY COUNTY SCHOOLS,Berkeley County,726 HACK WILSON WAY,MARTINSBURG,WV,25401,,(304)267-3520,13,City: Small,†,No,Yes,Yes,816,41.68,19.6,–,–
540099000819,WV-5800000-58501,5400990,WV-5800000,9,12,BERKELEY SPRINGS HIGH SCHOOL,MORGAN COUNTY SCHOOLS,Morgan County,149 CONCORD AVENUE,BERKELEY SPRINGS,WV,25411,,(304)258-2871,42,Rural: Distant,†,No,–,–,643,42.75,15,–,–
540165001274,WV-9800000-98202,5401650,WV-9800000,PK,4,BERLIN MCKINNEY ELEMENTARY SCHOOL,WYOMING COUNTY SCHOOLS,Wyoming County,HC 65 BOX 402,OCEANA,WV,24870,,(304)682-6481,32,Town: Distant,†,No,Yes,Yes,390,26,15,–,–
540105000853,WV-6400000-64201,5401050,WV-6400000,PK,5,BETHLEHEM ELEMENTARY SCHOOL,OHIO COUNTY SCHOOLS,Ohio County,22 CHAPEL RD,WHEELING,WV,26003,4816,(304)243-0350,23,Suburb: Small,†,No,–,–,122,6.5,18.8,–,–
540126000992,WV-7500000-75201,5401260,WV-7500000,PK,5,BEVERLY ELEMENTARY SCHOOL,RANDOLPH COUNTY SCHOOLS,Randolph County,505 MAIN STREET,BEVERLY,WV,26253,,(304)636-9162,33,Town: Remote,†,No,Yes,Yes,263,17.5,15,–,–
540051000586,WV-3300000-33231,5400510,WV-3300000,PK,5,BIG ELM ELEMENTARY SCHOOL,HARRISON COUNTY SCHOOLS,Harrison County,200 TETRICK RD,SHINNSTON,WV,26431,,(304)326-7280,41,Rural: Fringe,†,No,Yes,Yes,716,45.07,15.9,–,–
540024001467,WV-1600000-16209,5400240,WV-1600000,PK,5,BIG OTTER ELEMENTARY SCHOOL,CLAY COUNTY SCHOOLS,Clay County,59 OSSIA ROAD,IVYDALE,WV,25063,,(304)286-3111,42,Rural: Distant,†,No,Yes,Yes,242,17.9,13.5,–,–
540102000828,WV-6200000-62202,5401020,WV-6200000,PK,5,BIRCH RIVER ELEMENTARY SCHOOL,NICHOLAS COUNTY SCHOOLS,Nicholas County,379 BIRCH RIVER ROAD,BIRCH RIVER,WV,26610,,(304)649-2651,43,Rural: Remote,†,No,Yes,Yes,101,9.5,10.6,–,–
540072000104,WV-4700000-47216,5400720,WV-4700000,PK,4,BLACKSHERE ELEMENTARY SCHOOL,MARION COUNTY SCHOOLS,Marion County,77 BLACKSHERE DRIVE,MANNINGTON,WV,26582,9091,(304)986-2707,42,Rural: Distant,†,No,Yes,Yes,349,26,13.4,–,–
540162001142,WV-9600000-96201,5401620,WV-9600000,PK,5,BLENNERHASSETT ELEMENTARY SCHOOL,WOOD COUNTY SCHOOLS,Wood County,448 JEWEL RD,PARKERSBURG,WV,26101,9545,(304)863-5128,23,Suburb: Small,†,No,–,–,463,25.5,18.2,–,–
540162001365,WV-9600000-96401,5401620,WV-9600000,6,8,BLENNERHASSETT MIDDLE SCHOOL,WOOD COUNTY SCHOOLS,Wood County,444 JEWEL RD,PARKERSBURG,WV,26101,9545,(304)863-3356,23,Suburb: Small,†,No,–,–,482,33,14.6,–,–
540057000340,WV-3700000-37201,5400570,WV-3700000,PK,5,BLUE RIDGE ELEMENTARY SCHOOL,JEFFERSON COUNTY SCHOOLS,Jefferson County,18866 CHARLES TOWN ROAD,HARPERS FERRY,WV,25425,5503,(304)725-2995,41,Rural: Fringe,†,No,Yes,Yes,459,28,16.4,–,–
540084000674,WV-5100000-51502,5400840,WV-5100000,9,12,BLUEFIELD HIGH SCHOOL,MERCER COUNTY SCHOOLS,Mercer County,535 W. CUMBERLAND ROAD,BLUEFIELD,WV,24701,4654,(304)325-9116,32,Town: Distant,†,No,–,–,609,38,16,–,–
540084001101,WV-5100000-51240,5400840,WV-5100000,3,5,BLUEFIELD INTERMEDIATE SCHOOL,MERCER COUNTY SCHOOLS,Mercer County,1301 SOUTHVIEW DRIVE,BLUEFIELD,WV,24701,4317,(304)327-8339,41,Rural: Fringe,†,No,Yes,Yes,338,27,12.5,–,–
540084000737,WV-5100000-51301,5400840,WV-5100000,6,8,BLUEFIELD MIDDLE SCHOOL,MERCER COUNTY SCHOOLS,Mercer County,2002 STADIUM DRIVE,BLUEFIELD,WV,24701,3325,(304)325-2481,32,Town: Distant,†,No,Yes,Yes,493,34,14.5,–,–
540084000675,WV-5100000-51202,5400840,WV-5100000,PK,5,BLUEWELL ELEMENTARY SCHOOL,MERCER COUNTY SCHOOLS,Mercer County,RT 4 BOX 480,BLUEFIELD,WV,24701,9286,(304)589-5057,32,Town: Distant,†,No,Yes,Yes,192,15,12.8,–,–
540051101143,WV-3400000-34114,5400511,WV-3400000,–,–,BOARD OF CHILD CARE,INSTITUTIONAL EDUCATIONAL PROGRAMS,Berkeley County,715 BROWN ROAD,MARTINSBURG,WV,25404,,(304)274-3688,22,Suburb: Midsize,†,No,–,–,†,–,†,–,–
540009000036,WV-0600000-06701,5400090,WV-0600000,–,–,BOONE CAREER-TECHNICAL CENTER,BOONE COUNTY SCHOOLS,Boone County,3505 DANIEL BOONE PARKWAY,FOSTER,WV,25081,,(304)369-4585,41,Rural: Fringe,†,No,–,–,–,16.94,†,–,–
540123000941,WV-7400000-74202,5401230,WV-7400000,PK,5,BRADLEY ELEMENTARY SCHOOL,RALEIGH COUNTY SCHOOLS,Raleigh County,210 BRADLEY SCHOOL ROAD,MT HOPE,WV,25880,,(304)256-4605,41,Rural: Fringe,†,No,–,–,438,26,16.8,–,–
540081001398,WV-6000000-60206,5400810,WV-6000000,PK,5,BRADSHAW ELEMENTARY SCHOOL,MCDOWELL COUNTY SCHOOLS,McDowell County,POST OFFICE BOX 40,BRADSHAW,WV,24817,,(304)967-7700,43,Rural: Remote,†,No,Yes,Yes,293,19,15.4,–,–
540108000878,WV-6600000-66201,5401080,WV-6600000,PK,6,BRANDYWINE ELEMENTARY SCHOOL,PENDLETON COUNTY SCHOOLS,Pendleton County,PO BOX 247,BRANDYWINE,WV,26802,,(304)249-5381,42,Rural: Distant,†,No,–,–,105,10.25,10.2,–,–
540012000061,WV-0800000-08501,5400120,WV-0800000,9,12,BRAXTON COUNTY HIGH SCHOOL,BRAXTON COUNTY SCHOOLS,Braxton County,200 JERRY BURTON DRIVE,SUTTON,WV,26601,,(304)765-7331,43,Rural: Remote,†,No,–,–,549,36.5,15,–,–
540012000006,WV-0800000-08303,5400120,WV-0800000,6,8,BRAXTON COUNTY MIDDLE SCHOOL,BRAXTON COUNTY SCHOOLS,Braxton County,100 CARTER BRAXTON DRIVE,SUTTON,WV,26601,,(304)765-2644,43,Rural: Remote,†,No,–,–,425,25.5,16.7,–,–
540060000365,WV-3900000-39211,5400600,WV-3900000,PK,5,BRIDGE ELEMENTARY SCHOOL,KANAWHA COUNTY SCHOOLS,Kanawha County,5120 ELK RIVER ROAD N,ELKVIEW,WV,25071,,(304)965-5501,22,Suburb: Midsize,†,No,Yes,Yes,105,8.5,12.4,–,–
540105000854,WV-6400000-64301,5401050,WV-6400000,6,8,BRIDGE STREET MIDDLE SCHOOL,OHIO COUNTY SCHOOLS,Ohio County,19 JUNIOR AVE,WHEELING,WV,26003,4897,(304)243-0381,13,City: Small,†,No,Yes,Yes,323,25,12.9,–,–
540051000284,WV-3300000-33501,5400510,WV-3300000,9,12,BRIDGEPORT HIGH SCHOOL,HARRISON COUNTY SCHOOLS,Harrison County,515 JOHNSON AVE,BRIDGEPORT,WV,26330,,(304)326-7137,32,Town: Distant,†,No,–,–,830,48.25,17.2,–,–
540051000285,WV-3300000-33303,5400510,WV-3300000,6,8,BRIDGEPORT MIDDLE SCHOOL,HARRISON COUNTY SCHOOLS,Harrison County,413 JOHNSON AVE,BRIDGEPORT,WV,26330,,(304)326-7142,32,Town: Distant,†,No,–,–,645,42.37,15.2,–,–
540060000063,WV-3900000-39280,5400600,WV-3900000,PK,5,BRIDGEVIEW ELEMENTARY SCHOOL,KANAWHA COUNTY SCHOOLS,Kanawha County,5100 OHIO STREET,SOUTH CHARLESTON,WV,25309,,(304)766-0383,22,Suburb: Midsize,†,No,Yes,Yes,447,30,14.9,–,–
540015001587,WV-1000000-10599,5400150,WV-1000000,–,–,BROOKE HANCOCK ALTERNATIIVE LEARNING CTR,BROOKE COUNTY SCHOOLS,Brooke County,1401 LEGION RD,WEIRTON,WV,26062,,(304)748-7760,13,City: Small,†,No,–,–,–,2,†,–,–
540045001588,WV-2900000-29599,5400450,WV-2900000,–,–,BROOKE HANCOCK ALTERNATIVE LEARNING CTR,HANCOCK COUNTY SCHOOLS,Brooke County,1401 LEGION RD,WEIRTON,WV,26062,,(304)748-7760,13,City: Small,†,No,–,–,–,3,†,–,–
540015000075,WV-1000000-10502,5400150,WV-1000000,9,12,BROOKE HIGH SCHOOL,BROOKE COUNTY SCHOOLS,Brooke County,29 BRUIN DRIVE,WELLSBURG,WV,26070,,(304)527-1410,41,Rural: Fringe,†,No,–,–,1017,72,14.1,–,–
540015001585,WV-1000000-10210,5400150,WV-1000000,3,4,BROOKE INTERMEDIATE SCHOOL NORTH,BROOKE COUNTY SCHOOLS,Brooke County,1098 JEFFERSON ST,FOLLANSBEE,WV,26037,,(304)527-2250,23,Suburb: Small,†,No,Yes,Yes,204,15,13.6,–,–
540015001581,WV-1000000-10211,5400150,WV-1000000,3,4,BROOKE INTERMEDIATE SCHOOL SOUTH,BROOKE COUNTY SCHOOLS,Brooke County,1305 WASHINGTON PIKE,WELLSBURG,WV,26070,,(304)737-1760,41,Rural: Fringe,†,No,Yes,Yes,184,13,14.2,–,–
540015001582,WV-1000000-10304,5400150,WV-1000000,5,8,BROOKE MIDDLE SCHOOL,BROOKE COUNTY SCHOOLS,Brooke County,5 BRUIN DRIVE,WELLSBURG,WV,26070,,(304)737-3481,41,Rural: Fringe,†,No,–,–,912,56,16.3,–,–
540015001584,WV-1000000-10208,5400150,WV-1000000,KG,2,BROOKE PRIMARY SCHOOL NORTH,BROOKE COUNTY SCHOOLS,Brooke County,200 ROCKDALE RD,FOLLANSBEE,WV,26037,,(304)527-0870,23,Suburb: Small,†,No,Yes,Yes,288,18,16,–,–
540015001583,WV-1000000-10209,5400150,WV-1000000,KG,2,BROOKE PRIMARY SCHOOL SOUTH,BROOKE COUNTY SCHOOLS,Brooke County,1448 MAIN ST,WELLSBURG,WV,26070,,(304)737-0133,23,Suburb: Small,†,No,Yes,Yes,228,18,12.7,–,–
540093000762,WV-5600000-56203,5400930,WV-5600000,PK,5,BROOKHAVEN ELEMENTARY SCHOOL,MONONGALIA COUNTY SCHOOLS,Monongalia County,1215 BAKER STREET,MORGANTOWN,WV,26508,,(304)291-9236,23,Suburb: Small,†,No,Yes,Yes,579,38,15.2,–,–
540009000880,WV-0600000-06220,5400090,WV-0600000,PK,5,BROOKVIEW ELEMENTARY,BOONE COUNTY SCHOOLS,Boone County,1 LEARNING WAY,FOSTER,WV,25081,,(304)369-1012,41,Rural: Fringe,†,No,Yes,Yes,411,31,13.3,–,–
540117000901,WV-7000000-70104,5401170,WV-7000000,PK,8,BRUCETON SCHOOL,PRESTON COUNTY SCHOOLS,Preston County,PO BOX 141,BRUCETON MILLS,WV,26525,,(304)379-2593,42,Rural: Distant,†,No,–,–,614,38,16.2,–,–
540084000678,WV-5100000-51204,5400840,WV-5100000,KG,5,BRUSHFORK ELEMENTARY SCHOOL,MERCER COUNTY SCHOOLS,Mercer County,140 BRUSHFORK SCHOOL ROAD,BLUEFIELD,WV,24701,9213,(304)325-7066,32,Town: Distant,†,No,Yes,Yes,187,15,12.5,–,–
540147001472,WV-8700000-87202,5401470,WV-8700000,PK,5,BUCKHANNON ACADEMY ELEMENTARY SCHOOL,UPSHUR COUNTY SCHOOLS,Upshur County,16 COLLEGE AVENUE,BUCKHANNON,WV,26201,,(304)472-3310,33,Town: Remote,†,No,Yes,Yes,565,32.31,17.5,–,–
540147001078,WV-8700000-87501,5401470,WV-8700000,9,12,BUCKHANNON UPSHUR HIGH SCHOOL,UPSHUR COUNTY SCHOOLS,Upshur County,270 B-U DRIVE,BUCKHANNON,WV,26201,,(304)472-3720,41,Rural: Fringe,†,No,–,–,1048,73.25,14.3,–,–
540150001091,WV-8900000-89202,5401500,WV-8900000,PK,5,BUFFALO ELEMENTARY SCHOOL,WAYNE COUNTY SCHOOLS,Wayne County,331 BUFFALO CREEK ROAD,KENOVA,WV,25530,,(304)429-2911,22,Suburb: Midsize,†,No,–,–,420,29,14.5,–,–
540069000506,WV-4500000-45203,5400690,WV-4500000,PK,4,BUFFALO ELEMENTARY SCHOOL,LOGAN COUNTY SCHOOLS,Logan County,2367 BUFFALO CREEK ROAD,ACCOVILLE,WV,25606,,(304)583-9132,42,Rural: Distant,†,No,Yes,Yes,220,15.5,14.2,–,–
540120000918,WV-7200000-72205,5401200,WV-7200000,PK,5,BUFFALO ELEMENTARY SCHOOL,PUTNAM COUNTY SCHOOLS,Putnam County,19366 BUFFALO ROAD,BUFFALO,WV,25033,7468,(304)937-2651,41,Rural: Fringe,†,No,Yes,Yes,220,20,11,–,–
540120000919,WV-7200000-72505,5401200,WV-7200000,9,12,BUFFALO HIGH SCHOOL,PUTNAM COUNTY SCHOOLS,Putnam County,19005 CHARLESTON ROAD,BUFFALO,WV,25033,,(304)937-2661,41,Rural: Fringe,†,No,–,–,345,24,14.4,–,–
540150001294,WV-8900000-89301,5401500,WV-8900000,6,8,BUFFALO MIDDLE SCHOOL,WAYNE COUNTY SCHOOLS,Wayne County,298 BUFFALO CREEK ROAD,KENOVA,WV,25530,,(304)429-6062,41,Rural: Fringe,†,No,–,–,271,22.5,12,–,–
540006000014,WV-0400000-04204,5400060,WV-0400000,KG,3,BUNKER HILL ELEMENTARY,BERKELEY COUNTY SCHOOLS,Berkeley County,58 HAPPY SCHOOL AVENUE,BUNKER HILL,WV,25413,,(304)229-1980,22,Suburb: Midsize,†,No,Yes,Yes,395,30.63,12.9,–,–
540090001492,WV-5400000-54406,5400900,WV-5400000,PK,8,BURCH PK8,MINGO COUNTY SCHOOLS,Mingo County,RT. 2 BOX 52-1A,DELBARTON,WV,25670,,(304)475-2700,42,Rural: Distant,†,No,Yes,Yes,534,38,14.1,–,–
540006000015,WV-0400000-04205,5400060,WV-0400000,PK,3,BURKE STREET ELEMENTARY SCHOOL,BERKELEY COUNTY SCHOOLS,Berkeley County,422 WEST BURKE STREET,MARTINSBURG,WV,25401,,(304)267-3525,13,City: Small,†,No,Yes,Yes,276,13.85,19.9,–,–
540051101227,WV-3400000-34135,5400511,WV-3400000,–,–,BURLINGTON CENTER,INSTITUTIONAL EDUCATIONAL PROGRAMS,Mineral County,161 HOPE LANE,BURLINGTON,WV,26710,,(304)289-6018,42,Rural: Distant,†,No,–,–,†,–,†,–,–
540087000711,WV-5300000-53201,5400870,WV-5300000,PK,4,BURLINGTON PRIMARY,MINERAL COUNTY SCHOOLS,Mineral County,10474 PATTERSON CREEK ROAD,BURLINGTON,WV,26710,,(304)289-3073,42,Rural: Distant,†,No,Yes,Yes,126,10,12.6,–,–
540012001328,WV-0800000-08101,5400120,WV-0800000,PK,5,BURNSVILLE ELEMENTARY SCHOOL,BRAXTON COUNTY SCHOOLS,Braxton County,PO BOX 35,BURNSVILLE,WV,26335,,(304)853-2523,42,Rural: Distant,†,No,Yes,Yes,145,9.81,14.8,–,–
540057000342,WV-3700000-37206,5400570,WV-3700000,PK,5,C. W. SHIPLEY ELEMENTARY SCHOOL,JEFFERSON COUNTY SCHOOLS,Jefferson County,652 SHIPLEY SCHOOL ROAD,HARPERS FERRY,WV,25425,3131,(304)725-4395,41,Rural: Fringe,†,No,–,–,447,26.5,16.9,–,–
540018000884,WV-1200000-12502,5400180,WV-1200000,PK,12,CABELL ALTERNATIVE SCHOOL,CABELL COUNTY SCHOOLS,Cabell County,2800 5TH AVE,HUNTINGTON,WV,25702,,(304)528-5060,13,City: Small,†,No,–,–,35,6,5.8,–,–
540018001307,WV-1200000-12701,5400180,WV-1200000,–,–,CABELL COUNTY CAREER TECHNOLOGY CENTER,CABELL COUNTY SCHOOLS,Cabell County,1035 NORWAY AVE,HUNTINGTON,WV,25705,,(304)528-5106,22,Suburb: Midsize,†,No,–,–,–,30.7,†,–,–
540018000686,WV-1200000-12550,5400180,WV-1200000,9,12,CABELL MIDLAND HIGH SCHOOL,CABELL COUNTY SCHOOLS,Cabell County,2300 US ROUTE 60 EAST,ONA,WV,25545,,(304)743-7400,41,Rural: Fringe,†,No,–,–,1887,103.25,18.3,–,–
540021000142,WV-1400000-14501,5400210,WV-1400000,5,12,CALHOUN MIDDLE/HIGH SCHOOL,CALHOUN COUNTY SCHOOLS,Calhoun County,50 UNDERWOOD CIRCLE,MT. ZION,WV,26151,,(304)354-6148,43,Rural: Remote,†,No,–,–,553,39,14.2,–,–
540021001379,WV-1400000-14701,5400210,WV-1400000,–,–,CALHOUN-GILMER CAREER CENTER,CALHOUN COUNTY SCHOOLS,Calhoun County,5260 EAST LITTLE KANAWHA HWY,GRANTSVILLE,WV,26147,,(304)354-6151,42,Rural: Distant,†,No,–,–,–,12,†,2,1
540075000588,WV-4800000-48202,5400750,WV-4800000,PK,6,CAMERON ELEMENTARY SCHOOL,MARSHALL COUNTY SCHOOLS,Marshall County,12 CHURCH ST,CAMERON,WV,26033,,(304)686-3305,42,Rural: Distant,†,No,–,–,325,23.5,13.8,–,–
540075000589,WV-4800000-48501,5400750,WV-4800000,7,12,CAMERON HIGH SCHOOL,MARSHALL COUNTY SCHOOLS,Marshall County,2012 BLUE AND GOLD RD,CAMERON,WV,26033,,(304)686-3336,42,Rural: Distant,†,No,–,–,294,34.5,8.5,–,–
540051101593,WV-3400000-34140,5400511,WV-3400000,–,–,CAMMACK CHILDREN?S CENTER,INSTITUTIONAL EDUCATIONAL PROGRAMS,Cabell County,64 WEST 6TH AVENUE,HUNTINGTON,WV,25701,,(304)523-3497,13,City: Small,†,No,–,–,†,–,†,–,–
540162001530,WV-9600000-96702,5401620,WV-9600000,–,–,CAPERTON CENTER FOR APPLIED TECHNOLOGY,WOOD COUNTY SCHOOLS,Wood County,212 TECHNOLOGY DR,PARKERSBURG,WV,26104,,(304)424-8365,23,Suburb: Small,†,No,–,–,–,–,†,–,–
540060001443,WV-3900000-39513,5400600,WV-3900000,9,12,CAPITAL HIGH SCHOOL,KANAWHA COUNTY SCHOOLS,Kanawha County,1500 GREENBRIER ST,CHARLESTON,WV,25311,,(304)348-6500,41,Rural: Fringe,†,No,–,–,1271,73.5,17.3,–,–
540042000245,WV-2800000-28209,5400420,WV-2800000,PK,5,CAPON BRIDGE ELEMENTARY SCHOOL,HAMPSHIRE COUNTY SCHOOLS,Hampshire County,99 CAPON SCHOOL STREET,CAPON BRIDGE,WV,26711,,(304)856-3329,42,Rural: Distant,†,No,Yes,Yes,314,22.8,13.8,–,–
540042001336,WV-2800000-28401,5400420,WV-2800000,6,8,CAPON BRIDGE MIDDLE SCHOOL,HAMPSHIRE COUNTY SCHOOLS,Hampshire County,75 CAPON SCHOOL STREET,CAPON BRIDGE,WV,26711,,(304)856-2534,42,Rural: Distant,†,No,–,–,298,21.65,13.8,–,–
540081000657,WV-6000000-60731,5400810,WV-6000000,–,–,CAREER AND TECHNOLOGY CENTER,MCDOWELL COUNTY SCHOOLS,McDowell County,DRAWER V,WELCH,WV,24801,,(304)436-3488,32,Town: Distant,†,No,–,–,–,11,†,–,–
540060000367,WV-3900000-39702,5400600,WV-3900000,–,–,CARVER CAREER CENTER,KANAWHA COUNTY SCHOOLS,Kanawha County,4799 MIDLAND DR,CHARLESTON,WV,25306,,(304)348-1965,22,Suburb: Midsize,†,No,–,–,–,27,†,–,–
540060001340,WV-3900000-39213,5400600,WV-3900000,PK,5,CEDAR GROVE ELEMENTARY SCHOOL,KANAWHA COUNTY SCHOOLS,Kanawha County,200 JOHN STREET,CEDAR GROVE,WV,25039,,(304)949-1642,22,Suburb: Midsize,†,No,Yes,Yes,216,16.5,13.1,–,–
540060001252,WV-3900000-39403,5400600,WV-3900000,6,8,CEDAR GROVE MIDDLE SCHOOL,KANAWHA COUNTY SCHOOLS,Kanawha County,200 JOHN STREET,CEDAR GROVE,WV,25039,,(304)595-2541,22,Suburb: Midsize,†,No,Yes,Yes,168,13.5,12.4,–,–
540075000597,WV-4800000-48206,5400750,WV-4800000,PK,5,CENTER MCMECHEN ELEMENTARY SCHOOL,MARSHALL COUNTY SCHOOLS,Marshall County,800 MARSHALL ST,MCMECHEN,WV,26041,,(304)232-6530,23,Suburb: Small,†,No,Yes,Yes,227,20.25,11.2,–,–
540018000938,WV-1200000-12290,5400180,WV-1200000,PK,5,CENTRAL CITY ELEMENTARY SCHOOL,CABELL COUNTY SCHOOLS,Cabell County,2100 WASHINGTON AVE,HUNTINGTON,WV,25704,,(304)528-5231,13,City: Small,†,No,Yes,Yes,526,32,16.4,–,–
540060000370,WV-3900000-39214,5400600,WV-3900000,PK,5,CENTRAL ELEMENTARY SCHOOL,KANAWHA COUNTY SCHOOLS,Kanawha County,900 HELENE STREET,ST. ALBANS,WV,25177,,(304)722-0226,22,Suburb: Midsize,†,No,–,–,387,20,19.4,–,–
540075000590,WV-4800000-48203,5400750,WV-4800000,3,5,CENTRAL ELEMENTARY SCHOOL,MARSHALL COUNTY SCHOOLS,Marshall County,750 TOMLINSON AVENUE,MOUNDSVILLE,WV,26041,,(304)843-4425,23,Suburb: Small,†,No,Yes,Yes,284,24.3,11.7,–,–
540117000903,WV-7000000-70401,5401170,WV-7000000,5,8,CENTRAL PRESTON MIDDLE SCHOOL,PRESTON COUNTY SCHOOLS,Preston County,64 WILDCAT WAY,KINGWOOD,WV,26537,,(304)329-0033,41,Rural: Fringe,†,No,Yes,Yes,332,21.5,15.4,–,–
540150001580,WV-8900000-89217,5401500,WV-8900000,PK,5,CEREDO-KENOVA ELEMENTARY,WAYNE COUNTY SCHOOLS,Wayne County,1 WONDERS LANE,KENOVA,WV,25530,,(304)453-1521,22,Suburb: Midsize,†,No,–,–,628,34.5,18.2,–,–
540150001293,WV-8900000-89302,5401500,WV-8900000,6,8,CEREDO-KENOVA MIDDLE SCHOOL,WAYNE COUNTY SCHOOLS,Wayne County,P.O. BOX 705,CEREDO,WV,25507,,(304)453-3588,22,Suburb: Midsize,†,No,–,–,225,18,12.5,–,–
540084000681,WV-5100000-51205,5400840,WV-5100000,KG,5,CERES ELEMENTARY SCHOOL,MERCER COUNTY SCHOOLS,Mercer County,977 BLUE PRINCE ROAD,BLUEFIELD,WV,24701,5062,(304)325-6786,41,Rural: Fringe,†,No,Yes,Yes,150,11,13.6,–,–
540060000371,WV-3900000-39215,5400600,WV-3900000,KG,5,CHAMBERLAIN ELEMENTARY SCHOOL,KANAWHA COUNTY SCHOOLS,Kanawha County,4901 VENABLE AV S E,CHARLESTON,WV,25304,,(304)348-1969,13,City: Small,†,No,–,–,191,13.1,14.6,–,–
540060000898,WV-3900000-39599,5400600,WV-3900000,PK,12,CHANDLER ACADEMY,KANAWHA COUNTY SCHOOLS,Kanawha County,1900 SCHOOL STREET,CHARLESTON,WV,25312,,(304)348-6133,13,City: Small,†,No,–,–,195,13,15,–,–
540069001590,WV-4500000-45229,5400690,WV-4500000,2,4,CHAPMANVILLE INTERMEDIATE SCHOOL,LOGAN COUNTY SCHOOLS,Logan County,100 WEST TIGER LANE,CHAPMANVILLE,WV,25508,,(304)855-0021,32,Town: Distant,†,No,Yes,Yes,351,24,14.6,–,–
540069000729,WV-4500000-45405,5400690,WV-4500000,5,8,CHAPMANVILLE MIDDLE SCHOOL,LOGAN COUNTY SCHOOLS,Logan County,774 CRAWLEY CREEK ROAD,CHAPMANVILLE,WV,25508,,(304)855-8378,32,Town: Distant,†,No,–,–,576,39,14.8,–,–
540069001589,WV-4500000-45228,5400690,WV-4500000,PK,1,CHAPMANVILLE PRIMARY SCHOOL,LOGAN COUNTY SCHOOLS,Logan County,100 WEST TIGER LANE,CHAPMANVILLE,WV,25508,,(304)855-3209,32,Town: Distant,†,No,Yes,Yes,309,20,15.5,–,–
540069000508,WV-4500000-45501,5400690,WV-4500000,9,12,CHAPMANVILLE REGIONAL HIGH SCHOOL,LOGAN COUNTY SCHOOLS,Logan County,506 CRAWLEY CREEK ROAD,CHAPMANVILLE,WV,25508,,(304)855-4522,32,Town: Distant,†,No,–,–,730,39.5,18.5,–,–
540057000341,WV-3700000-37401,5400570,WV-3700000,6,8,CHARLES TOWN MIDDLE SCHOOL,JEFFERSON COUNTY SCHOOLS,Jefferson County,193 HIGH STREET,CHARLES TOWN,WV,25414,1244,(304)725-7821,31,Town: Fringe,†,No,–,–,638,47.5,13.4,–,–
540093000073,WV-5600000-56232,5400930,WV-5600000,PK,5,CHEAT LAKE ELEMENTARY SCHOOL,MONONGALIA COUNTY SCHOOLS,Monongalia County,154 CROSBY ROAD,MORGANTOWN,WV,26508,,(304)594-2772,23,Suburb: Small,†,No,–,–,830,51,16.3,–,–
540102001263,WV-6200000-62204,5401020,WV-6200000,PK,5,CHERRY RIVER ELEMENTARY SCHOOL,NICHOLAS COUNTY SCHOOLS,Nicholas County,190 RIVERSIDE DRIVE,RICHWOOD,WV,26261,,(304)846-6646,43,Rural: Remote,†,No,Yes,Yes,212,19,11.2,–,–
540060000375,WV-3900000-39218,5400600,WV-3900000,PK,5,CHESAPEAKE ELEMENTARY SCHOOL,KANAWHA COUNTY SCHOOLS,Kanawha County,13620 MCCORKLE AVE,CHESAPEAKE,WV,25315,,(304)949-1121,22,Suburb: Midsize,†,No,Yes,Yes,153,13.1,11.7,–,–
540024000147,WV-1600000-16501,5400240,WV-1600000,9,12,CLAY COUNTY HIGH SCHOOL,CLAY COUNTY SCHOOLS,Clay County,PO BOX 729,CLAY,WV,25043,,(304)587-4226,42,Rural: Distant,†,No,Yes,Yes,541,36.9,14.7,–,–
540024000148,WV-1600000-16202,5400240,WV-1600000,PK,5,CLAY ELEMENTARY SCHOOL,CLAY COUNTY SCHOOLS,Clay County,PO BOX 600,CLAY,WV,25043,,(304)587-4276,42,Rural: Distant,†,No,Yes,Yes,410,35.9,11.4,–,–
540024000030,WV-1600000-16301,5400240,WV-1600000,6,8,CLAY MIDDLE SCHOOL,CLAY COUNTY SCHOOLS,Clay County,PO BOX 489,CLAY,WV,25043,,(304)587-2343,42,Rural: Distant,†,No,Yes,Yes,423,30.9,13.7,–,–
540093000769,WV-5600000-56501,5400930,WV-5600000,6,12,CLAY-BATTELLE HIGH SCHOOL,MONONGALIA COUNTY SCHOOLS,Monongalia County,DRAWER A,BLACKSVILLE,WV,26521,,(304)432-8208,42,Rural: Distant,†,No,–,–,387,29,13.3,–,–
540123000945,WV-7400000-74204,5401230,WV-7400000,PK,5,CLEAR FORK DISTRICT ELEMENTARY,RALEIGH COUNTY SCHOOLS,Raleigh County,4851 CLEAR FORK ROAD,ARTIE,WV,25044,,(304)854-1000,42,Rural: Distant,†,No,Yes,Yes,135,11,12.3,–,–
540060000376,WV-3900000-39219,5400600,WV-3900000,PK,5,CLENDENIN ELEMENTARY SCHOOL,KANAWHA COUNTY SCHOOLS,Kanawha County,5120 ELK RIVER ROAD N,ELKVIEW,WV,25071,,(304)965-5311,22,Suburb: Midsize,†,No,Yes,Yes,256,18,14.2,–,–
540123000947,WV-7400000-74205,5401230,WV-7400000,PK,5,COAL CITY ELEMENTARY,RALEIGH COUNTY SCHOOLS,Raleigh County,P.O. BOX 1240,COAL CITY,WV,25823,,(304)683-5001,41,Rural: Fringe,†,No,Yes,Yes,410,31,13.2,–,–
540126000993,WV-7500000-75101,5401260,WV-7500000,PK,5,COALTON ELEMENTARY SCHOOL,RANDOLPH COUNTY SCHOOLS,Randolph County,P.O. BOX 129,COALTON,WV,26257,,(304)636-9164,42,Rural: Distant,†,No,Yes,Yes,139,10,13.9,–,–
540120000920,WV-7200000-72210,5401200,WV-7200000,PK,5,CONFIDENCE ELEMENTARY,PUTNAM COUNTY SCHOOLS,Putnam County,8786 MCLANE PIKE,LIBERTY,WV,25124,,(304)586-2041,42,Rural: Distant,†,No,–,–,151,12,12.6,–,–
540120000921,WV-7200000-72215,5401200,WV-7200000,PK,5,CONNER STREET ELEMENTARY,PUTNAM COUNTY SCHOOLS,Putnam County,445 CONNER ST,HURRICANE,WV,25526,,(304)562-9351,22,Suburb: Midsize,†,No,–,–,361,22.5,16,–,–
540054000326,WV-3500000-35201,5400540,WV-3500000,PK,5,COTTAGEVILLE ELEMENTARY SCHOOL,JACKSON COUNTY SCHOOLS,Jackson County,270 SECOND STREET,COTTAGEVILLE,WV,25239,,(304)372-7330,42,Rural: Distant,†,No,Yes,Yes,141,11.2,12.6,–,–
540018000097,WV-1200000-12218,5400180,WV-1200000,PK,5,COX LANDING ELEMENTARY SCHOOL,CABELL COUNTY SCHOOLS,Cabell County,6358 COX LANE,LESAGE,WV,25537,,(304)733-3019,41,Rural: Fringe,†,No,–,–,186,14,13.3,–,–
540123000949,WV-7400000-74207,5401230,WV-7400000,PK,5,CRANBERRY-PROSPERITY ELEMENTARY,RALEIGH COUNTY SCHOOLS,Raleigh County,4575 ROBERT C BYRD DR,BECKLEY,WV,25801,,(304)256-4574,23,Suburb: Small,†,No,Yes,Yes,247,20,12.4,–,–
540129001018,WV-7700000-77205,5401290,WV-7700000,PK,4,CREED COLLINS ELEMENTARY,RITCHIE COUNTY SCHOOLS,Ritchie County,512 COLLINS AVENUE,PENNSBORO WV 26415,WV,26415,,(304)659-2140,43,Rural: Remote,†,No,Yes,Yes,208,18,11.6,–,–
540123000950,WV-7400000-74208,5401230,WV-7400000,PK,5,CRESCENT ELEMENTARY,RALEIGH COUNTY SCHOOLS,Raleigh County,205 CRESCENT ROAD,BECKLEY,WV,25801,,(304)256-4576,13,City: Small,†,No,–,–,362,17,21.3,–,–
540039000227,WV-2600000-26101,5400390,WV-2600000,PK,5,CRICHTON ELEMENTARY,GREENBRIER COUNTY SCHOOLS,Greenbrier County,PO BOX 205,QUINWOOD,WV,25981,,(304)438-6958,42,Rural: Distant,†,No,Yes,Yes,104,10,10.4,–,–
540162001147,WV-9600000-96205,5401620,WV-9600000,PK,5,CRISS ELEMENTARY SCHOOL,WOOD COUNTY SCHOOLS,Wood County,2800 22ND ST,PARKERSBURG,WV,26101,3812,(304)420-9522,13,City: Small,†,No,–,–,263,15.5,17,–,–
540060000378,WV-3900000-39220,5400600,WV-3900000,PK,5,CROSS LANES ELEMENTARY SCHOOL,KANAWHA COUNTY SCHOOLS,Kanawha County,5525 BIG TYLER ROAD,CHARLESTON,WV,25313,,(304)776-2022,22,Suburb: Midsize,†,No,–,–,330,20.6,16,–,–
540150001579,WV-8900000-89102,5401500,WV-8900000,PK,8,CRUM PRE K-8 SCHOOL,WAYNE COUNTY SCHOOLS,Wayne County,150 CRUM ROAD,CRUM,WV,25669,,(304)393-3200,43,Rural: Remote,†,No,Yes,Yes,281,23.7,11.9,–,–
540018000099,WV-1200000-12221,5400180,WV-1200000,PK,5,CULLODEN ELEMENTARY SCHOOL,CABELL COUNTY SCHOOLS,Cabell County,2100 U.S. ROUTE 60,CULLODEN,WV,25510,,(304)743-7301,22,Suburb: Midsize,†,No,–,–,203,16,12.7,–,–
540123000951,WV-7400000-74209,5401230,WV-7400000,PK,5,DANIELS ELEMENTARY,RALEIGH COUNTY SCHOOLS,Raleigh County,351 4-H LAKE ROAD,DANIELS,WV,25832,,(304)256-4622,41,Rural: Fringe,†,No,–,–,616,34,18.1,–,–
540018000100,WV-1200000-12224,5400180,WV-1200000,PK,5,DAVIS CREEK ELEMENTARY SCHOOL,CABELL COUNTY SCHOOLS,Cabell County,6330 DAVIS CREEK RD,BARBOURSVILLE,WV,25504,,(304)733-3024,22,Suburb: Midsize,†,No,–,–,260,14.5,17.9,–,–
540012000064,WV-0800000-08201,5400120,WV-0800000,PK,5,DAVIS ELEMENTARY SCHOOL,BRAXTON COUNTY SCHOOLS,Braxton County,113 FIFTH STREET,GASSAWAY,WV,26624,,(304)364-5291,43,Rural: Remote,†,No,Yes,Yes,205,14,14.6,–,–
540141001067,WV-8400000-84101,5401410,WV-8400000,PK,8,DAVIS THOMAS ELEMENTARY MIDDLE SCHOOL,TUCKER COUNTY SCHOOLS,Tucker County,426 SECOND STREET,THOMAS,WV,26292,,(304)463-4422,43,Rural: Remote,†,No,Yes,Yes,211,17.58,12,–,–
540051100796,WV-3400000-34112,5400511,WV-3400000,–,–,DAVIS-STUART SCHOOL,INSTITUTIONAL EDUCATIONAL PROGRAMS,Greenbrier County,163 COTTAGE DRIVE,LEWISBURG,WV,24901,,(304)647-5407,41,Rural: Fringe,†,No,–,–,†,–,†,–,–
540093000772,WV-5600000-56208,5400930,WV-5600000,PK,PK,DAYBROOK EARLY HEADSTART CENTER(CLSD 97),MONONGALIA COUNTY SCHOOLS,Monongalia County,2097 DAYBROOK RD,FAIRVIEW,WV,26570,,(304)798-3230,42,Rural: Distant,†,No,–,–,109,–,†,–,–
540090000736,WV-5400000-54207,5400900,WV-5400000,PK,5,DINGESS ELEMENTARY SCHOOL,MINGO COUNTY SCHOOLS,Mingo County,101 SCHOOLHOUSE ROAD,DINGESS,WV,25671,,(304)752-7036,42,Rural: Distant,†,No,Yes,Yes,195,14,13.9,–,–
540030000175,WV-2000000-20206,5400300,WV-2000000,PK,5,DIVIDE ELEMENTARY,FAYETTE COUNTY SCHOOLS,Fayette County,PO BOX 180,LOOKOUT,WV,25868,,(304)574-1443,42,Rural: Distant,†,No,Yes,Yes,232,17,13.6,–,–
540027001059,WV-1800000-18211,5400270,WV-1800000,KG,4,DODDRIDGE COUNTY ELEMENTARY SCHOOL,DODDRIDGE COUNTY SCHOOLS,Doddridge County,182 DODDRIDGE COUNTY SCHOOL RO,WEST UNION,WV,26456,,(304)873-3294,43,Rural: Remote,†,No,Yes,Yes,409,33,12.4,–,–
540027000159,WV-1800000-18501,5400270,WV-1800000,9,12,DODDRIDGE COUNTY HIGH SCHOOL,DODDRIDGE COUNTY SCHOOLS,Doddridge County,79 BULLDOG DRIVE,WEST UNION,WV,26456,,(304)873-2521,43,Rural: Remote,†,No,–,–,293,32.25,9.1,–,–
540027000043,WV-1800000-18301,5400270,WV-1800000,5,8,DODDRIDGE COUNTY MIDDLE SCHOOL,DODDRIDGE COUNTY SCHOOLS,Doddridge County,65 DODDRIDGE COUNTY SCHOOL ROA,WEST UNION,WV,26456,,(304)873-2390,43,Rural: Remote,†,No,–,–,352,27,13,–,–
540027001493,WV-1800000-18212,5400270,WV-1800000,PK,PK,DODDRIDGE COUNTY PRESCHOOL CENTER,DODDRIDGE COUNTY SCHOOLS,Doddridge County,2945 SMITHTON ROAD,WEST UNION,WV,26456,,(304)873-3955,43,Rural: Remote,†,No,–,–,70,4,17.5,–,–
540051101144,WV-3400000-34124,5400511,WV-3400000,–,–,DONALD R. KUHN JUVENILE CENTER,INSTITUTIONAL EDUCATIONAL PROGRAMS,Boone County,1 LORY PLACE,JULIAN,WV,25529,,(304)369-2987,41,Rural: Fringe,†,No,–,–,†,–,†,–,–
540057001478,WV-3700000-37210,5400570,WV-3700000,PK,5,DRISWOOD ELEMENTARY SCHOOL,JEFFERSON COUNTY SCHOOLS,Jefferson County,75 CASPIAN WAY,SHENANDOAH JUNCTION,WV,25442,4804,(304)885-5020,41,Rural: Fringe,†,No,–,–,469,30,15.6,–,–
540060000384,WV-3900000-39406,5400600,WV-3900000,6,8,DU PONT MIDDLE SCHOOL,KANAWHA COUNTY SCHOOLS,Kanawha County,1 PANTHER WAY,BELLE,WV,25015,,(304)348-1978,22,Suburb: Midsize,†,No,–,–,330,19,17.4,–,–
540060001124,WV-3900000-39283,5400600,WV-3900000,3,5,DUNBAR INTERMEDIATE CENTER,KANAWHA COUNTY SCHOOLS,Kanawha County,1330 MYERS AVENUE,DUNBAR,WV,25064,,(304)766-1570,22,Suburb: Midsize,†,No,Yes,Yes,290,18,16.1,–,–
540060000382,WV-3900000-39405,5400600,WV-3900000,6,8,DUNBAR MIDDLE SCHOOL,KANAWHA COUNTY SCHOOLS,Kanawha County,325 27TH STREET,DUNBAR,WV,25064,,(304)766-0363,22,Suburb: Midsize,†,No,Yes,Yes,375,29,12.9,–,–
540060000380,WV-3900000-39222,5400600,WV-3900000,PK,2,DUNBAR PRIMARY CENTER,KANAWHA COUNTY SCHOOLS,Kanawha County,2401 MYERS AVENUE,DUNBAR,WV,25064,,(304)766-0367,22,Suburb: Midsize,†,No,Yes,Yes,312,21.5,14.5,–,–
540150001099,WV-8900000-89207,5401500,WV-8900000,PK,5,DUNLOW ELEMENTARY SCHOOL,WAYNE COUNTY SCHOOLS,Wayne County,32800 ROUTE 152,DUNLOW,WV,25511,,(304)385-4376,42,Rural: Distant,†,No,Yes,Yes,92,7.2,12.8,–,–
540066001236,WV-4300000-43101,5400660,WV-4300000,PK,8,DUVAL PK-8,LINCOLN COUNTY SCHOOLS,Lincoln County,5304 STRAIGHT FORK ROAD,GRIFFITHSVILLE,WV,25521,,(304)524-2101,42,Rural: Distant,†,No,Yes,Yes,502,41,12.2,–,–
540006001121,WV-0400000-04218,5400060,WV-0400000,3,5,EAGLE SCHOOL INTERMEDIATE,BERKELEY COUNTY SCHOOLS,Berkeley County,730 EAGLE SCHOOL ROAD,MARTINSBURG,WV,25404,,(304)263-0422,22,Suburb: Midsize,†,No,Yes,Yes,719,49.65,14.5,–,–
540060000386,WV-3900000-39407,5400600,WV-3900000,6,8,EAST BANK MIDDLE SCHOOL,KANAWHA COUNTY SCHOOLS,Kanawha County,1ST AVE AND BRANNON STREET,EAST BANK,WV,25067,,(304)595-2311,22,Suburb: Midsize,†,No,Yes,Yes,384,28,13.7,–,–
540072000550,WV-4700000-47205,5400720,WV-4700000,PK,4,EAST DALE ELEMENTARY SCHOOL,MARION COUNTY SCHOOLS,Marion County,57 E. DALE RD,FAIRMONT,WV,26554,9803,(304)367-2132,32,Town: Distant,†,No,–,–,488,28,17.4,–,–
540072000551,WV-4700000-47501,5400720,WV-4700000,9,12,EAST FAIRMONT HIGH SCHOOL,MARION COUNTY SCHOOLS,Marion County,1993 AIRPORT ROAD,FAIRMONT,WV,26554,9138,(304)367-2140,32,Town: Distant,†,No,–,–,710,50,14.2,–,–
540072000627,WV-4700000-47402,5400720,WV-4700000,5,8,EAST FAIRMONT MIDDLE SCHOOL,MARION COUNTY SCHOOLS,Marion County,221 MASON STREET,FAIRMONT,WV,26554,4098,(304)367-2123,32,Town: Distant,†,No,–,–,698,44,15.9,–,–
540048000056,WV-3100000-31204,5400480,WV-3100000,PK,8,EAST HARDY EARLY/MIDDLE SCHOOL,HARDY COUNTY SCHOOLS,Hardy County,P. O. BOX 260,BAKER,WV,26801,,(304)897-5970,42,Rural: Distant,†,No,Yes,Yes,476,33.99,14,–,–
540048001279,WV-3100000-31501,5400480,WV-3100000,9,12,EAST HARDY HIGH SCHOOL,HARDY COUNTY SCHOOLS,Hardy County,P.O. BOX 120,BAKER,WV,26801,,(304)897-5948,42,Rural: Distant,†,No,–,–,236,19.01,12.4,–,–
540150001100,WV-8900000-89216,5401500,WV-8900000,PK,5,EAST LYNN ELEMENTARY SCHOOL,WAYNE COUNTY SCHOOLS,Wayne County,19594 EAST LYNN ROAD,EAST LYNN,WV,25512,,(304)849-3171,42,Rural: Distant,†,No,Yes,Yes,151,13.7,11,–,–
540072000552,WV-4700000-47206,5400720,WV-4700000,PK,4,EAST PARK ELEMENTARY SCHOOL,MARION COUNTY SCHOOLS,Marion County,1025 FAIRFAX STREET,FAIRMONT,WV,26554,4298,(304)367-2134,32,Town: Distant,†,No,Yes,Yes,351,27,13,–,–
540120001301,WV-7200000-72220,5401200,WV-7200000,PK,5,EASTBROOK ELEMENTARY SCHOOL,PUTNAM COUNTY SCHOOLS,Putnam County,2092 BILLS CREEK RD,WINFIELD,WV,25213,,(304)755-9835,41,Rural: Fringe,†,No,–,–,266,16.2,16.4,–,–
540039000050,WV-2600000-26406,5400390,WV-2600000,6,8,EASTERN GREENBRIER MIDDLE SCHOOL,GREENBRIER COUNTY SCHOOLS,Greenbrier County,403 KNIGHT DRIVE,RONCEVERTE,WV,24970,,(304)647-6498,41,Rural: Fringe,†,No,–,–,758,52,14.6,–,–
540093001490,WV-5600000-56242,5400930,WV-5600000,PK,5,EASTWOOD ELEMENTARY SCHOOL,MONONGALIA COUNTY SCHOOLS,Monongalia County,677 201ST MEMORIAL HWY,MORGANTOWN,WV,26505,,(304)284-8226,13,City: Small,†,No,–,–,660,44,15,–,–
540060001499,WV-3900000-39285,5400600,WV-3900000,PK,5,EDGEWOOD ELEMENTARY,KANAWHA COUNTY SCHOOLS,Kanawha County,550 HAWKS RIDGE,CHARLESTON,WV,25302,,(304)348-6635,13,City: Small,†,No,Yes,Yes,451,32,14.1,–,–
540162001148,WV-9600000-96402,5401620,WV-9600000,6,8,EDISON MIDDLE SCHOOL,WOOD COUNTY SCHOOLS,Wood County,1201 HILLCREST ST,PARKERSBURG,WV,26101,9527,(304)420-9525,13,City: Small,†,No,–,–,658,36.5,18,–,–
540060000060,WV-3900000-39279,5400600,WV-3900000,PK,5,ELK ELEMENTARY CENTER,KANAWHA COUNTY SCHOOLS,Kanawha County,3320 PENNSYLVANIA AVE,CHARLESTON,WV,25302,,(304)348-7776,22,Suburb: Midsize,†,No,–,–,516,35.5,14.5,–,–
540087001346,WV-5300000-53101,5400870,WV-5300000,PK,4,ELK GARDEN SCHOOL,MINERAL COUNTY SCHOOLS,Mineral County,86 ELK GARDEN HIGHWAY,ELK GARDEN,WV,26717,,(304)446-5141,42,Rural: Distant,†,No,Yes,Yes,82,7.5,10.9,–,–
540126000662,WV-7500000-75504,5401260,WV-7500000,9,12,ELKINS HIGH SCHOOL,RANDOLPH COUNTY SCHOOLS,Randolph County,100 KENNEDY DRIVE,ELKINS,WV,26241,9547,(304)636-9170,33,Town: Remote,†,No,–,–,796,45.5,17.5,–,–
540126000996,WV-7500000-75401,5401260,WV-7500000,6,8,ELKINS MIDDLE SCHOOL,RANDOLPH COUNTY SCHOOLS,Randolph County,308 ROBERT E. LEE AVENUE,ELKINS,WV,26241,3299,(304)636-9176,33,Town: Remote,†,No,–,–,635,39.5,16.1,–,–
540051100105,WV-3400000-34106,5400511,WV-3400000,–,–,ELKINS MOUNTAIN SCHOOL,INSTITUTIONAL EDUCATIONAL PROGRAMS,Randolph County,100 BELL STREET,ELKINS,WV,26241,,(304)637-0313,33,Town: Remote,†,No,–,–,†,–,†,–,–
540126001010,WV-7500000-75203,5401260,WV-7500000,PK,5,ELKINS THIRD WARD ELEMENTARY SCHOOL,RANDOLPH COUNTY SCHOOLS,Randolph County,111 NATHAN STREET,ELKINS,WV,26241,3399,(304)636-9183,33,Town: Remote,†,No,Yes,Yes,295,21,14,–,–
540060000390,WV-3900000-39408,5400600,WV-3900000,6,8,ELKVIEW MIDDLE SCHOOL,KANAWHA COUNTY SCHOOLS,Kanawha County,5090 N ELK RIVER RD,ELKVIEW,WV,25071,,(304)348-1947,22,Suburb: Midsize,†,No,–,–,608,39,15.6,–,–
540105000857,WV-6400000-64203,5401050,WV-6400000,PK,5,ELM GROVE ELEMENTARY SCHOOL,OHIO COUNTY SCHOOLS,Ohio County,85 MIL ACRES DR,WHEELING,WV,26003,9614,(304)243-0363,13,City: Small,†,No,Yes,Yes,348,23.25,15,–,–
540162001149,WV-9600000-96206,5401620,WV-9600000,KG,5,EMERSON ELEMENTARY SCHOOL,WOOD COUNTY SCHOOLS,Wood County,1605 36TH ST,PARKERSBURG,WV,26101,1939,(304)420-9528,13,City: Small,†,No,Yes,Yes,356,27.5,12.9,–,–
540054000328,WV-3500000-35203,5400540,WV-3500000,PK,5,EVANS ELEMENTARY SCHOOL,JACKSON COUNTY SCHOOLS,Jackson County,205 SCHOOL HOUSE DRIVE,EVANS,WV,25241,,(304)372-7333,32,Town: Distant,†,No,–,–,171,13.15,13,–,–
540018001517,WV-1200000-12227,5400180,WV-1200000,PK,5,EXPLORER ACADEMY,CABELL COUNTY SCHOOLS,Cabell County,2901 SALTWELL ROAD,HUNTINGTON,WV,25705,,(304)528-5126,13,City: Small,†,No,Yes,Yes,470,30,15.7,–,–
540123000954,WV-7400000-74211,5401230,WV-7400000,PK,5,FAIRDALE ELEMENTARY SCHOOL,RALEIGH COUNTY SCHOOLS,Raleigh County,P.O. BOX 10,FAIRDALE,WV,25839,,(304)934-7217,42,Rural: Distant,†,No,–,–,498,26,19.2,–,–
540072000553,WV-4700000-47502,5400720,WV-4700000,9,12,FAIRMONT SENIOR HIGH SCHOOL,MARION COUNTY SCHOOLS,Marion County,1 LOOP PARK DRIVE,FAIRMONT,WV,26554,2599,(304)367-2150,32,Town: Distant,†,No,–,–,819,45,18.2,–,–
540054000329,WV-3500000-35204,5400540,WV-3500000,PK,5,FAIRPLAIN ELEMENTARY SCHOOL,JACKSON COUNTY SCHOOLS,Jackson County,51 PANTHER DRIVE,RIPLEY,WV,25271,,(304)372-7340,42,Rural: Distant,†,No,Yes,Yes,188,13,14.5,–,–
540162001150,WV-9600000-96207,5401620,WV-9600000,PK,5,FAIRPLAINS ELEMENTARY SCHOOL,WOOD COUNTY SCHOOLS,Wood County,615 BROADWAY AVE,PARKERSBURG,WV,26101,6636,(304)420-9531,13,City: Small,†,No,Yes,Yes,215,18.4,11.7,–,–
540072000554,WV-4700000-47207,5400720,WV-4700000,PK,3,FAIRVIEW ELEMENTARY SCHOOL,MARION COUNTY SCHOOLS,Marion County,PO BOX 39,FAIRVIEW,WV,26570,39,(304)449-1752,42,Rural: Distant,†,No,Yes,Yes,169,11,15.4,–,–
540072001281,WV-4700000-47302,5400720,WV-4700000,4,8,FAIRVIEW MIDDLE SCHOOL,MARION COUNTY SCHOOLS,Marion County,17 JESSES RUN ROAD,FAIRVIEW,WV,26570,9300,(304)449-1312,42,Rural: Distant,†,No,–,–,212,16,13.3,–,–
540081001248,WV-6000000-60210,5400810,WV-6000000,PK,5,FALL RIVER ELEMENTARY SCHOOL,MCDOWELL COUNTY SCHOOLS,McDowell County,DRAWER 70,BIG SANDY,WV,24816,,(304)656-7665,42,Rural: Distant,†,No,Yes,Yes,166,12.33,13.5,–,–
540030001380,WV-2000000-20701,5400300,WV-2000000,–,–,FAYETTE INSTITUTE OF TECHNOLOGY,FAYETTE COUNTY SCHOOLS,Fayette County,300 WEST OYLER AVENUE,OAK HILL,WV,25901,,(304)469-2911,23,Suburb: Small,†,No,–,–,–,25,†,2,1
540030000179,WV-2000000-20208,5400300,WV-2000000,PK,6,FAYETTEVILLE ELEMENTARY,FAYETTE COUNTY SCHOOLS,Fayette County,200 WISEMAN AVENUE,FAYETTEVILLE,WV,25840,,(304)574-1011,23,Suburb: Small,†,No,Yes,Yes,489,28.5,17.2,–,–
540030000180,WV-2000000-20501,5400300,WV-2000000,7,12,FAYETTEVILLE HIGH,FAYETTE COUNTY SCHOOLS,Fayette County,515 WEST MAPLE AVENUE,FAYETTEVILLE,WV,25840,,(304)574-0560,23,Suburb: Small,†,No,–,–,408,29,14.1,–,–
540030001595,WV-2000000-20101,5400300,WV-2000000,–,–,FAYETTEVILLE PK-8,FAYETTE COUNTY SCHOOLS,Fayette County,515 W. MAPLE AVENUE,FAYETTEVILLE,WV,25840,,(304)574-0560,23,Suburb: Small,†,†,†,†,†,†,†,†,†
540117000905,WV-7000000-70203,5401170,WV-7000000,PK,5,FELLOWSVILLE ELEMENTARY,PRESTON COUNTY SCHOOLS,Preston County,139 FELLOWSVILLE SCHOOL RD,TUNNELTON,WV,26444,,(304)892-3866,42,Rural: Distant,†,No,Yes,Yes,71,7.5,9.5,–,–
540012000065,WV-0800000-08202,5400120,WV-0800000,PK,5,FLATWOODS ELEMENTARY SCHOOL,BRAXTON COUNTY SCHOOLS,Braxton County,P O BOX 134,FLATWOODS,WV,26621,,(304)765-5821,43,Rural: Remote,†,No,Yes,Yes,203,13.5,15,–,–
540138001051,WV-8300000-83202,5401380,WV-8300000,PK,4,FLEMINGTON ELEMENTARY SCHOOL,TAYLOR COUNTY SCHOOLS,Taylor County,824 SIMPSON ROAD,FLEMINGTON,WV,26347,,(304)739-4749,42,Rural: Distant,†,No,Yes,Yes,154,11.23,13.7,–,–
540060000393,WV-3900000-39226,5400600,WV-3900000,KG,4,FLINN ELEMENTARY SCHOOL,KANAWHA COUNTY SCHOOLS,Kanawha County,2006 MCCLURE PARKWAY,CHARLESTON,WV,25312,,(304)348-1960,31,Town: Fringe,†,No,–,–,489,27.5,17.8,–,–
540087000715,WV-5300000-53202,5400870,WV-5300000,KG,2,FORT ASHBY PRIMARY SCHOOL,MINERAL COUNTY SCHOOLS,Mineral County,44 FT ASHBY PRIMARY SCHOOL RD,FT. ASHBY,WV,26719,,(304)298-3632,42,Rural: Distant,†,No,Yes,No,187,12.56,14.9,–,–
540150001495,WV-8900000-89101,5401500,WV-8900000,PK,8,FORT GAY PRE K-8,WAYNE COUNTY SCHOOLS,Wayne County,#1 VIKING DRIVE,FORT GAY,WV,25514,,(304)648-5404,32,Town: Distant,†,No,Yes,Yes,565,40,14.1,–,–
540087000716,WV-5300000-53203,5400870,WV-5300000,PK,4,FOUNTAIN PRIMARY SCHOOL,MINERAL COUNTY SCHOOLS,Mineral County,289 FOUNTAIN SCHOOL ROAD,KEYSER,WV,26726,,(304)788-4215,41,Rural: Fringe,†,No,Yes,No,115,8.5,13.5,–,–
540012000066,WV-0800000-08203,5400120,WV-0800000,PK,5,FRAMETOWN ELEMENTARY SCHOOL,BRAXTON COUNTY SCHOOLS,Braxton County,65 JEANIE ELLIS DRIVE,FRAMETOWN,WV,26623,,(304)364-5526,43,Rural: Remote,†,No,Yes,Yes,136,10,13.6,–,–
540039000229,WV-2600000-26204,5400390,WV-2600000,PK,5,FRANKFORD ELEMENTARY,GREENBRIER COUNTY SCHOOLS,Greenbrier County,21692 SENECA TRAIL NORTH,FRANKFORD,WV,24938,,(304)497-2921,42,Rural: Distant,†,No,Yes,Yes,215,19.5,11,–,–
540087000717,WV-5300000-53501,5400870,WV-5300000,9,12,FRANKFORT HIGH SCHOOL,MINERAL COUNTY SCHOOLS,Mineral County,393 FALCON WAY,RIDGELEY,WV,26753,,(304)726-4767,41,Rural: Fringe,†,No,–,–,508,34,14.9,–,–
540087000747,WV-5300000-53303,5400870,WV-5300000,1,4,FRANKFORT INTERMEDIATE SCHOOL,MINERAL COUNTY SCHOOLS,Mineral County,284 INTERMEDIATE DRIVE,FT. ASHBY,WV,26719,,(304)298-3616,42,Rural: Distant,†,No,–,–,303,19.62,15.4,–,–
540087000071,WV-5300000-53302,5400870,WV-5300000,5,8,FRANKFORT MIDDLE SCHOOL,MINERAL COUNTY SCHOOLS,Mineral County,356 GOLDEN DRIVE,RIDGELEY,WV,26753,,(304)726-4339,41,Rural: Fringe,†,No,–,–,480,32.85,14.6,–,–
540162000679,WV-9600000-96237,5401620,WV-9600000,PK,5,FRANKLIN ELEMENTARY CENTER,WOOD COUNTY SCHOOLS,Wood County,1511 DIVISION ST EXT,PARKERSBURG,WV,26101,9364,(304)420-9534,13,City: Small,†,No,Yes,Yes,273,27,10.1,–,–
540108000881,WV-6600000-66202,5401080,WV-6600000,PK,6,FRANKLIN ELEMENTARY SCHOOL,PENDLETON COUNTY SCHOOLS,Pendleton County,PO BOX 848,FRANKLIN,WV,26807,,(304)304-2206,42,Rural: Distant,†,No,Yes,Yes,308,27,11.4,–,–
540147001423,WV-8700000-87701,5401470,WV-8700000,–,–,FRED W EBERLE TECH CENTER,UPSHUR COUNTY SCHOOLS,Upshur County,208 MORTON AVENUE,BUCKHANNON,WV,26201,,(304)472-1259,33,Town: Remote,†,No,–,–,–,12,†,–,–
540147001080,WV-8700000-87205,5401470,WV-8700000,PK,5,FRENCH CREEK ELEMENTARY,UPSHUR COUNTY SCHOOLS,Upshur County,7619 ROUTE 20 SOUTH ROAD,FRENCH CREEK,WV,26218,,(304)924-6381,42,Rural: Distant,†,No,Yes,Yes,247,17.69,14,–,–
540060001535,WV-3900000-39703,5400600,WV-3900000,–,–,GARNET CAREER CENTER,KANAWHA COUNTY SCHOOLS,Kanawha County,422 DICKINSON STREET,CHARLESTON,WV,25301,,(304)348-6195,13,City: Small,†,No,–,–,–,–,†,–,–
540075001481,WV-4800000-48503,5400750,WV-4800000,PK,12,GATEWAY ACHIEVEMENT CENTER,MARSHALL COUNTY SCHOOLS,Marshall County,37 OAK AVE,MOUNDSVILLE,WV,26041,,(304)843-4526,23,Suburb: Small,†,No,–,–,24,5,4.8,–,–
540030000182,WV-2000000-20210,5400300,WV-2000000,PK,4,GATEWOOD ELEMENTARY,FAYETTE COUNTY SCHOOLS,Fayette County,5094 GATEWOOD ROAD,FAYETTEVILLE,WV,25840,,(304)574-2025,41,Rural: Fringe,†,No,Yes,Yes,74,6.1,12.1,–,–
540030000183,WV-2000000-20211,5400300,WV-2000000,PK,5,GAULEY BRIDGE ELEMENTARY,FAYETTE COUNTY SCHOOLS,Fayette County,PO BOX 519,GAULEY BRIDGE,WV,25085,,(304)632-2661,41,Rural: Fringe,†,No,Yes,Yes,136,10.4,13.1,–,–
540102001496,WV-6200000-62210,5401020,WV-6200000,PK,5,GAULEY RIVER ELEMENTARY SCHOOL,NICHOLAS COUNTY SCHOOLS,Nicholas County,100 SCHOOL STREET,CRAIGSVILLE,WV,26205,,(304)742-5271,42,Rural: Distant,†,No,Yes,Yes,367,24,15.3,–,–
540132001305,WV-7900000-79202,5401320,WV-7900000,PK,8,GEARY ELEMENTARY/MIDDLE SCHOOL,ROANE COUNTY SCHOOLS,Roane County,P O BOX 89,LEFT HAND,WV,25251,,(304)565-3721,42,Rural: Distant,†,No,Yes,Yes,275,25,11,–,–
540051101482,WV-3400000-34128,5400511,WV-3400000,–,–,GENE SPADARO REGIONAL JUVENILE CENTER,INSTITUTIONAL EDUCATIONAL PROGRAMS,Fayette County,106 MARTIN DRIVE,MT. HOPE,WV,25880,,(304)877-6904,41,Rural: Fringe,†,No,–,–,†,–,†,–,–
540150001104,WV-8900000-89209,5401500,WV-8900000,KG,5,GENOA ELEMENTARY SCHOOL,WAYNE COUNTY SCHOOLS,Wayne County,21269 RT 152,GENOA,WV,25517,,(304)385-4421,42,Rural: Distant,†,No,Yes,Yes,68,7,9.7,–,–
540060000398,WV-3900000-39276,5400600,WV-3900000,PK,5,GEORGE C. WEIMER ELEMENTARY SCHOOL,KANAWHA COUNTY SCHOOLS,Kanawha County,3040 KANAWHA TERRACE,ST. ALBANS,WV,25177,,(304)722-0205,22,Suburb: Midsize,†,No,Yes,Yes,180,15,12,–,–
540126000998,WV-7500000-75204,5401260,WV-7500000,PK,5,GEORGE WARD ELEMENTARY SCHOOL,RANDOLPH COUNTY SCHOOLS,Randolph County,10007 SENECA TRAIL,MILL CREEK,WV,26280,278,(304)335-4975,42,Rural: Distant,†,No,Yes,Yes,362,25,14.5,–,–
540120000922,WV-7200000-72225,5401200,WV-7200000,PK,5,GEORGE WASHINGTON ELEMENTARY SCHOOL,PUTNAM COUNTY SCHOOLS,Putnam County,P.O. BOX 680,ELEANOR,WV,25070,,(304)586-2184,22,Suburb: Midsize,†,No,–,–,255,17,15,–,–
540060000397,WV-3900000-39506,5400600,WV-3900000,9,12,GEORGE WASHINGTON HIGH SCHOOL,KANAWHA COUNTY SCHOOLS,Kanawha County,1522 TENNIS CLUB RD,CHARLESTON,WV,25314,,(304)348-7729,13,City: Small,†,No,–,–,1120,51,22,–,–
540120000923,WV-7200000-72305,5401200,WV-7200000,6,8,GEORGE WASHINGTON MIDDLE SCHOOL,PUTNAM COUNTY SCHOOLS,Putnam County,P.O. BOX 600,ELEANOR,WV,25070,,(304)586-2875,22,Suburb: Midsize,†,No,–,–,288,23,12.5,–,–
540006000017,WV-0400000-04206,5400060,WV-0400000,KG,2,GERRARDSTOWN ELEMENTARY SCHOOL,BERKELEY COUNTY SCHOOLS,Berkeley County,15 DOMINION ROAD,GERRARDSTOWN,WV,25420,,(304)229-1985,41,Rural: Fringe,†,No,Yes,Yes,257,15.93,16.1,–,–
540123000956,WV-7400000-74212,5401230,WV-7400000,PK,5,GHENT ELEMENTARY,RALEIGH COUNTY SCHOOLS,Raleigh County,2750 FLAT TOP ROAD,GHENT,WV,25843,,(304)787-3631,41,Rural: Fringe,†,No,–,–,231,16,14.4,–,–
540162001152,WV-9600000-96208,5401620,WV-9600000,PK,5,GIHON ELEMENTARY SCHOOL,WOOD COUNTY SCHOOLS,Wood County,2000 BELMONT RD,PARKERSBURG,WV,26101,9024,(304)420-9539,13,City: Small,†,No,–,–,326,21,15.5,–,–
540090001491,WV-5400000-54407,5400900,WV-5400000,PK,8,GILBERT MIDDLE SCHOOL,MINGO COUNTY SCHOOLS,Mingo County,#1 LION COUNTRY WAY,GILBERT,WV,25621,,(304)664-8197,42,Rural: Distant,†,No,Yes,Yes,519,33,15.7,–,–
540033001521,WV-2200000-22206,5400330,WV-2200000,PK,6,GILMER COUNTY ELEMENTARY SCHOOL,GILMER COUNTY SCHOOLS,Gilmer County,99 FAIRGROUND ROAD,GLENVILLE,WV,26351,,(304)462-8578,33,Town: Remote,†,No,Yes,Yes,459,31,14.8,–,–
540033000210,WV-2200000-22501,5400330,WV-2200000,7,12,GILMER COUNTY HIGH SCHOOL,GILMER COUNTY SCHOOLS,Gilmer County,300 PINE STREET,GLENVILLE,WV,26351,,(304)462-7960,33,Town: Remote,†,No,–,–,355,31,11.5,–,–
540054000331,WV-3500000-35205,5400540,WV-3500000,PK,5,GILMORE ELEMENTARY SCHOOL,JACKSON COUNTY SCHOOLS,Jackson County,7412 PARKERSBURG ROAD,SANDYVILLE,WV,25275,,(304)273-3511,42,Rural: Distant,†,No,Yes,Yes,223,15.5,14.4,–,–
540102000834,WV-6200000-62209,5401020,WV-6200000,PK,5,GLADE CREEK ELEMENTARY SCHOOL,NICHOLAS COUNTY SCHOOLS,Nicholas County,7950 WEBSTER ROAD,SUMMERSVILLE,WV,26651,,(304)872-2882,41,Rural: Fringe,†,No,–,–,157,10.5,15,–,–
540153001116,WV-9100000-91202,5401530,WV-9100000,PK,6,GLADE ELEMENTARY SCHOOL,WEBSTER COUNTY SCHOOLS,Webster County,25 MILL STREET,COWEN,WV,26206,,(304)226-5353,43,Rural: Remote,†,No,Yes,Yes,398,26.22,15.2,–,–
540075000593,WV-4800000-48204,5400750,WV-4800000,PK,5,GLEN DALE ELEMENTARY SCHOOL,MARSHALL COUNTY SCHOOLS,Marshall County,407 SEVENTH STREET,GLEN DALE,WV,26038,,(304)843-4427,23,Suburb: Small,†,No,–,–,264,19.2,13.8,–,–
540165001196,WV-9800000-98204,5401650,WV-9800000,PK,8,GLEN FORK ELEMENTARY & MIDDLE SCHOOL,WYOMING COUNTY SCHOOLS,Wyoming County,PO BOX 50,GLEN FORK,WV,25845,,(304)682-6423,42,Rural: Distant,†,No,Yes,Yes,166,13,12.8,–,–
540084000685,WV-5100000-51208,5400840,WV-5100000,KG,8,GLENWOOD SCHOOL (K-8),MERCER COUNTY SCHOOLS,Mercer County,1734 GLENWOOD PARK ROAD,PRINCETON,WV,24739,,(304)425-2445,32,Town: Distant,†,No,–,–,674,44.5,15.1,–,–
540138001053,WV-8300000-83502,5401380,WV-8300000,9,12,GRAFTON HIGH SCHOOL,TAYLOR COUNTY SCHOOLS,Taylor County,400 YATES AVENUE,GRAFTON,WV,26354,,(304)265-3046,32,Town: Distant,†,No,–,–,657,39,16.8,–,–
540060000400,WV-3900000-39231,5400600,WV-3900000,PK,5,GRANDVIEW ELEMENTARY SCHOOL,KANAWHA COUNTY SCHOOLS,Kanawha County,959 WOODWARD DRIVE,CHARLESTON,WV,25312,,(304)348-1928,13,City: Small,†,No,Yes,Yes,224,17,13.2,–,–
540114001448,WV-6900000-69102,5401140,WV-6900000,PK,8,GREEN BANK ELEMENTARY-MIDDLE SCHOOL,POCAHONTAS COUNTY SCHOOLS,Pocahontas County,5917POTOMAC HIGHLANDS TRAIL,GREEN BANK,WV,34944,,(304)456-4865,43,Rural: Remote,†,No,Yes,Yes,247,23.7,10.4,–,–
540039000230,WV-2600000-26501,5400390,WV-2600000,9,12,GREENBRIER EAST HIGH SCHOOL,GREENBRIER COUNTY SCHOOLS,Greenbrier County,273 SPARTAN LANE,LEWISBURG,WV,24901,,(304)647-6464,32,Town: Distant,†,No,–,–,1079,68,15.9,–,–
540039001523,WV-2600000-26701,5400390,WV-2600000,–,–,GREENBRIER SCHOOL OF PRACTICAL NURSING,GREENBRIER COUNTY SCHOOLS,Greenbrier County,273 SPARTAN LANE,LEWSIBURG,WV,24901,,(304)647-6487,32,Town: Distant,†,No,–,–,–,–,†,–,–
540039000232,WV-2600000-26502,5400390,WV-2600000,9,12,GREENBRIER WEST HIGH SCHOOL,GREENBRIER COUNTY SCHOOLS,Greenbrier County,PO BOX 325,CHARMCO,WV,24958,,(304)438-6191,42,Rural: Distant,†,No,–,–,373,30.5,12.2,–,–
540162001153,WV-9600000-96209,5401620,WV-9600000,PK,5,GREENMONT ELEMENTARY SCHOOL,WOOD COUNTY SCHOOLS,Wood County,209 58TH ST,VIENNA,WV,26105,2027,(304)420-9544,13,City: Small,†,No,–,–,227,16.5,13.8,–,–
540066001242,WV-4300000-43301,5400660,WV-4300000,6,8,GUYAN VALLEY MIDDLE,LINCOLN COUNTY SCHOOLS,Lincoln County,5312 MCCLELLAN HIGHWAY,BRANCHLAND,WV,25506,,(304)824-3235,42,Rural: Distant,†,No,Yes,Yes,277,19.5,14.2,–,–
540018000109,WV-1200000-12236,5400180,WV-1200000,PK,5,GUYANDOTTE ELEMENTARY SCHOOL,CABELL COUNTY SCHOOLS,Cabell County,607 5TH AVE GUY,HUNTINGTON,WV,25702,,(304)528-5128,13,City: Small,†,No,Yes,Yes,250,18,13.9,–,–
540024000151,WV-1600000-16208,5400240,WV-1600000,PK,5,H E WHITE ELEMENTARY SCHOOL,CLAY COUNTY SCHOOLS,Clay County,501 BOMONT ROAD,BOMONT,WV,25030,,(304)548-7101,42,Rural: Distant,†,No,Yes,Yes,108,9.9,10.9,–,–
540153001117,WV-9100000-91203,5401530,WV-9100000,PK,8,HACKER VALLEY ELEMENTARY SCHOOL,WEBSTER COUNTY SCHOOLS,Webster County,11 SCHOOL LOOP ROAD,HACKER VALLEY,WV,26222,,(304)493-6488,43,Rural: Remote,†,No,Yes,Yes,62,7.29,8.5,–,–
540162001154,WV-9600000-96404,5401620,WV-9600000,6,8,HAMILTON MIDDLE SCHOOL,WOOD COUNTY SCHOOLS,Wood County,3501 CADILLAC DR,PARKERSBURG,WV,26104,2199,(304)420-9547,13,City: Small,†,No,–,–,492,34.5,14.3,–,–
540066001237,WV-4300000-43102,5400660,WV-4300000,PK,8,HAMLIN PK-8,LINCOLN COUNTY SCHOOLS,Lincoln County,8130 COURT AVENUE,HAMLIN,WV,25523,,(304)824-3036,42,Rural: Distant,†,No,Yes,Yes,485,34,14.3,–,–
540042000248,WV-2800000-28501,5400420,WV-2800000,9,12,HAMPSHIRE SENIOR HIGH SCHOOL,HAMPSHIRE COUNTY SCHOOLS,Hampshire County,157 TROJAN WAY,ROMNEY,WV,26757,,(304)822-5016,42,Rural: Distant,†,No,–,–,880,61.83,14.2,–,–
540078000614,WV-4900000-49501,5400780,WV-4900000,7,12,HANNAN HIGH SCHOOL,MASON COUNTY SCHOOLS,Mason County,1 WILDCAT WAY,ASHTON,WV,25503,,(304)743-3212,41,Rural: Fringe,†,No,–,–,272,20,13.6,–,–
540126000999,WV-7500000-75102,5401260,WV-7500000,PK,12,HARMAN ELEMENTARY/HIGH SCHOOL,RANDOLPH COUNTY SCHOOLS,Randolph County,PO BOX 130,HARMAN,WV,26270,9999,(304)227-4114,43,Rural: Remote,†,No,–,–,170,15,11.3,–,–
540057000343,WV-3700000-37402,5400570,WV-3700000,6,8,HARPERS FERRY MIDDLE SCHOOL,JEFFERSON COUNTY SCHOOLS,Jefferson County,1710 WEST WASHINGTON STREET,HARPERS FERRY,WV,25425,6325,(304)535-6357,41,Rural: Fringe,†,No,–,–,646,44.5,14.5,–,–
540051001469,WV-3300000-33509,5400510,WV-3300000,PK,12,HARRISON CO EVOLUTION HIGH SCHOOL,HARRISON COUNTY SCHOOLS,Harrison County,1349 SHINNSTON PK,CLARKSBURG,WV,26301,,(304)326-7560,32,Town: Distant,†,No,–,–,35,16.07,2.2,–,–
540051001514,WV-3300000-33310,5400510,WV-3300000,PK,12,HARRISON CO EVOLUTION MIDDLE SCHOOL,HARRISON COUNTY SCHOOLS,Harrison County,1349 SHINNSTON PK,CLARKSBURG,WV,26301,,(304)326-7560,32,Town: Distant,†,No,–,–,19,–,†,–,–
540051001594,WV-3300000-33235,5400510,WV-3300000,–,–,HARRISON COUNTY EVOLUTION ELEMENTARY,HARRISON COUNTY SCHOOLS,Harrison County,1349 SHINNSTON PK,CLARKSBURG,WV,26301,,(304)326-7560,32,Town: Distant,†,No,–,–,†,–,†,†,†
540129001020,WV-7700000-77204,5401290,WV-7700000,PK,4,HARRISVILLE ELEMENTARY,RITCHIE COUNTY SCHOOLS,Ritchie County,1201 E MAIN STREET,HARRISVILLE,WV,26362,,(304)643-2220,42,Rural: Distant,†,No,Yes,Yes,211,19,11.1,–,–
540066001484,WV-4300000-43103,5400660,WV-4300000,PK,8,HARTS PK-8,LINCOLN COUNTY SCHOOLS,Lincoln County,1246 MCCLELLAN HIGHWAY,HARTS,WV,25524,,(304)855-4881,42,Rural: Distant,†,No,Yes,Yes,376,31,12.1,–,–
540060000402,WV-3900000-39409,5400600,WV-3900000,6,8,HAYES MIDDLE SCHOOL,KANAWHA COUNTY SCHOOLS,Kanawha County,830 STRAWBERRY ROAD,ST. ALBANS,WV,25177,,(304)722-0222,22,Suburb: Midsize,†,No,–,–,428,26,16.5,–,–
540006000018,WV-0400000-04207,5400060,WV-0400000,PK,2,HEDGESVILLE ELEMENTARY SCHOOL,BERKELEY COUNTY SCHOOLS,Berkeley County,88 SCHOOL HOUSE DRIVE,HEDGESVILLE,WV,25427,,(304)754-3341,22,Suburb: Midsize,†,No,–,–,642,36.08,17.8,–,–
540006000019,WV-0400000-04501,5400060,WV-0400000,9,12,HEDGESVILLE HIGH SCHOOL,BERKELEY COUNTY SCHOOLS,Berkeley County,109 RIDGE ROAD NORTH,HEDGESVILLE,WV,25427,,(304)754-3354,41,Rural: Fringe,†,No,–,–,1314,89,14.8,–,–
540006000020,WV-0400000-04301,5400060,WV-0400000,6,8,HEDGESVILLE MIDDLE SCHOOL,BERKELEY COUNTY SCHOOLS,Berkeley County,334 SCHOOL HOUSE DRIVE,HEDGESVILLE,WV,25427,,(304)754-3313,22,Suburb: Midsize,†,No,–,–,726,47.3,15.3,–,–
540054000334,WV-3500000-35207,5400540,WV-3500000,PK,2,HENRY J KAISER ELEMENTARY SCHOOL,JACKSON COUNTY SCHOOLS,Jackson County,803 KAISER AVENUE,RAVENSWOOD,WV,26164,,(304)273-2692,41,Rural: Fringe,†,No,Yes,Yes,345,24.2,14.3,–,–
540060000403,WV-3900000-39507,5400600,WV-3900000,9,12,HERBERT HOOVER HIGH SCHOOL,KANAWHA COUNTY SCHOOLS,Kanawha County,5096 ELK RIVER ROAD NORTH,ELKVIEW,WV,25071,,(304)965-3394,22,Suburb: Midsize,†,No,–,–,785,38,20.7,–,–
540165001201,WV-9800000-98206,5401650,WV-9800000,PK,8,HERNDON CONS ELEMENTARY & MIDDLE SCHOOL,WYOMING COUNTY SCHOOLS,Wyoming County,PO BOX 309,BUD,WV,24716,,(304)294-7668,42,Rural: Distant,†,No,Yes,Yes,191,16,11.9,–,–
540018000111,WV-1200000-12239,5400180,WV-1200000,PK,5,HIGHLAWN ELEMENTARY SCHOOL,CABELL COUNTY SCHOOLS,Cabell County,2549 1ST AVENUE,HUNTINGTON,WV,25703,,(304)528-5130,13,City: Small,†,No,Yes,Yes,280,19,14.7,–,–
540114000892,WV-6900000-69101,5401140,WV-6900000,PK,5,HILLSBORO ELEMENTARY SCHOOL,POCAHONTAS COUNTY SCHOOLS,Pocahontas County,7530 SENECA TRAIL,HILLSBORO,WV,24946,,(304)653-4221,43,Rural: Remote,†,No,Yes,Yes,98,8.5,11.5,–,–
540075001474,WV-4800000-48213,5400750,WV-4800000,PK,5,HILLTOP ELEMENTARY SCHOOL,MARSHALL COUNTY SCHOOLS,Marshall County,2 RAM DR,WHEELING,WV,26003,,(304)232-8640,41,Rural: Fringe,†,No,–,–,406,24,16.9,–,–
540135001306,WV-8100000-81203,5401350,WV-8100000,PK,5,HINTON AREA ELEMENTARY,SUMMERS COUNTY SCHOOLS,Summers County,121 PARK AVENUE,HINTON,WV,25951,,(304)466-6024,31,Town: Fringe,†,No,Yes,Yes,437,30,14.6,–,–
540018000112,WV-1200000-12242,5400180,WV-1200000,PK,5,HITE SAUNDERS ELEMENTARY SCHOOL,CABELL COUNTY SCHOOLS,Cabell County,3708 GREEN VALLEY ROAD,HUNTINGTON,WV,25701,,(304)528-5132,41,Rural: Fringe,†,No,–,–,248,15.5,16,–,–
540147001082,WV-8700000-87206,5401470,WV-8700000,PK,5,HODGESVILLE ELEMENTARY,UPSHUR COUNTY SCHOOLS,Upshur County,918 TETER ROAD,BUCKHANNON,WV,26201,,(304)304-3212,42,Rural: Distant,†,No,Yes,Yes,200,10.1,19.8,–,–
540069000515,WV-4500000-45209,5400690,WV-4500000,PK,4,HOLDEN CENTRAL ELEMENTARY SCHOOL,LOGAN COUNTY SCHOOLS,Logan County,BOX M,HOLDEN,WV,25625,,(304)239-2771,41,Rural: Fringe,†,No,Yes,Yes,180,15,12,–,–
540123000957,WV-7400000-74213,5401230,WV-7400000,PK,5,HOLLYWOOD ELEMENTARY,RALEIGH COUNTY SCHOOLS,Raleigh County,412 OLD MILL ROAD,BECKLEY,WV,25801,,(304)256-4579,23,Suburb: Small,†,No,–,–,259,16,16.2,–,–
540060000405,WV-3900000-39234,5400600,WV-3900000,PK,5,HOLZ ELEMENTARY SCHOOL,KANAWHA COUNTY SCHOOLS,Kanawha County,1505 HAMPTON RD,CHARLESTON,WV,25314,,(304)348-1906,13,City: Small,†,No,–,–,254,17,14.9,–,–
540120000924,WV-7200000-72230,5401200,WV-7200000,PK,4,HOMETOWN ELEMENTARY,PUTNAM COUNTY SCHOOLS,Putnam County,P.O. BOX 194,RED HOUSE,WV,25168,,(304)586-2395,22,Suburb: Midsize,†,No,Yes,Yes,59,9,6.6,–,–
540060000406,WV-3900000-39410,5400600,WV-3900000,6,8,HORACE MANN MIDDLE SCHOOL,KANAWHA COUNTY SCHOOLS,Kanawha County,4300 MACCORKLE AVENUE,CHARLESTON,WV,25304,,(304)348-1971,13,City: Small,†,No,–,–,452,28,16.1,–,–
540165001203,WV-9800000-98207,5401650,WV-9800000,PK,8,HUFF CONS ELEMENTARY & MIDDLE SCHOOL,WYOMING COUNTY SCHOOLS,Wyoming County,374 LIZARD CREEK ROAD,HANOVER,WV,24839,,(304)938-3672,42,Rural: Distant,†,No,Yes,Yes,256,19,13.5,–,–
540069000516,WV-4500000-45210,5400690,WV-4500000,PK,4,HUGH DINGESS ELEMENTARY SCHOOL,LOGAN COUNTY SCHOOLS,Logan County,RT. 1 BOX 607,HARTS,WV,25524,,(304)855-3585,42,Rural: Distant,†,No,Yes,Yes,95,8.5,11.2,–,–
540156001123,WV-9200000-92501,5401560,WV-9200000,9,12,HUNDRED HIGH SCHOOL,WETZEL COUNTY SCHOOLS,Wetzel County,PO BOX 830,HUNDRED,WV,26575,,(304)775-5221,42,Rural: Distant,†,No,–,–,109,13,8.4,–,–
540018001483,WV-1200000-12311,5400180,WV-1200000,6,8,HUNTINGTON EAST MIDDLE SCHOOL,CABELL COUNTY SCHOOLS,Cabell County,1 CAMPBELL DRIVE,HUNTINGTON,WV,25705,,(304)528-9508,22,Suburb: Midsize,†,No,Yes,Yes,674,53.5,12.6,–,–
540018000860,WV-1200000-12560,5400180,WV-1200000,9,12,HUNTINGTON HIGH SCHOOL,CABELL COUNTY SCHOOLS,Cabell County,1 HIGHLANDER WAY,HUNTINGTON,WV,25701,,(304)528-6400,13,City: Small,†,No,Yes,Yes,1656,102.75,16.1,–,–
540018001465,WV-1200000-12310,5400180,WV-1200000,6,8,HUNTINGTON MIDDLE SCHOOL,CABELL COUNTY SCHOOLS,Cabell County,925 THIRD STREET,HUNTINGTON,WV,25701,,(304)528-5180,13,City: Small,†,No,Yes,Yes,618,46.5,13.3,–,–
540120000926,WV-7200000-72510,5401200,WV-7200000,9,12,HURRICANE HIGH SCHOOL,PUTNAM COUNTY SCHOOLS,Putnam County,3350 TEAYS VALLEY ROAD,HURRICANE,WV,25526,,(304)562-3991,22,Suburb: Midsize,†,No,–,–,1284,77,16.7,–,–
540120000927,WV-7200000-72310,5401200,WV-7200000,6,8,HURRICANE MIDDLE,PUTNAM COUNTY SCHOOLS,Putnam County,518 MIDLAND TRAIL,HURRICANE,WV,25526,,(304)562-9271,22,Suburb: Midsize,†,No,–,–,954,61.5,15.5,–,–
540120000925,WV-7200000-72235,5401200,WV-7200000,PK,5,HURRICANE TOWN ELEMENTARY,PUTNAM COUNTY SCHOOLS,Putnam County,300 HARBOUR LANE,HURRICANE,WV,25526,,(304)562-3610,22,Suburb: Midsize,†,No,–,–,370,20,18.5,–,–
540081001247,WV-6000000-60213,5400810,WV-6000000,PK,5,IAEGER ELEMENTARY SCHOOL,MCDOWELL COUNTY SCHOOLS,McDowell County,POST OFFICE BOX 359,IAEGER,WV,24844,,(304)967-7167,43,Rural: Remote,†,No,Yes,Yes,271,21,12.9,–,–
540123000958,WV-7400000-74502,5401230,WV-7400000,9,12,INDEPENDENCE HIGH SCHOOL,RALEIGH COUNTY SCHOOLS,Raleigh County,BOX 1595,COAL CITY,WV,25823,1595,(304)683-3228,41,Rural: Fringe,†,No,–,–,583,37,15.8,–,–
540123000779,WV-7400000-74408,5401230,WV-7400000,6,8,INDEPENDENCE MIDDLE SCHOOL,RALEIGH COUNTY SCHOOLS,Raleigh County,P.O. BOX 1171,SOPHIA,WV,25921,,(304)683-4542,41,Rural: Fringe,†,No,–,–,450,39.5,11.4,–,–
540006000021,WV-0400000-04208,5400060,WV-0400000,PK,2,INWOOD PRIMARY SCHOOL,BERKELEY COUNTY SCHOOLS,Berkeley County,7864 WINCHESTER AVE,INWOOD,WV,25428,,(304)229-1990,22,Suburb: Midsize,†,No,Yes,Yes,156,10.83,14.4,–,–
540051101159,WV-3400000-34126,5400511,WV-3400000,–,–,J.M. CHICK BUCKBEE JUVENILE CENTER,INSTITUTIONAL EDUCATIONAL PROGRAMS,Hampshire County,#1 JERRY LANE,AUGUSTA,WV,26704,,(304)496-1369,42,Rural: Distant,†,No,–,–,†,–,†,–,–
540162001156,WV-9600000-96405,5401620,WV-9600000,6,8,JACKSON MIDDLE SCHOOL,WOOD COUNTY SCHOOLS,Wood County,1601 34TH ST,VIENNA,WV,26105,2499,(304)420-9551,23,Suburb: Small,†,No,–,–,455,32,14.2,–,–
540051101146,WV-3400000-34125,5400511,WV-3400000,–,–,JAMES H. TIGER MORTON JUVENILE CENTER,INSTITUTIONAL EDUCATIONAL PROGRAMS,Kanawha County,60 MANFRED HOLLAND WAY,DUNBAR,WV,25064,,(304)766-3502,41,Rural: Fringe,†,No,–,–,†,–,†,–,–
540096000768,WV-5700000-57503,5400960,WV-5700000,9,12,JAMES MONROE HIGH SCHOOL,MONROE COUNTY SCHOOLS,Monroe County,142 JAMES MONROE DRIVE,LINDSIDE,WV,24951,,(304)753-5182,42,Rural: Distant,†,No,–,–,480,26.5,18.1,†,†
540006001376,WV-0400000-04701,5400060,WV-0400000,–,–,JAMES RUMSEY TECHNICAL INSTITUTE,BERKELEY COUNTY SCHOOLS,Berkeley County,3274 HEDGESVILLE RD,MARTINSBURG,WV,25403,,(304)754-7925,22,Suburb: Midsize,†,No,–,–,–,23.5,†,–,–
540063000699,WV-4100000-41208,5400630,WV-4100000,PK,4,JANE LEW ELEMENTARY SCHOOL,LEWIS COUNTY SCHOOLS,Lewis County,6536 MAIN STREET,JANE LEW,WV,26378,,(304)884-7836,42,Rural: Distant,†,No,Yes,Yes,287,20.95,13.7,–,–
540072000564,WV-4700000-47209,5400720,WV-4700000,PK,4,JAYENNE ELEMENTARY SCHOOL,MARION COUNTY SCHOOLS,Marion County,1504 COUNTRY CLUB ROAD,FAIRMONT,WV,26554,1307,(304)367-2136,32,Town: Distant,†,No,Yes,Yes,409,21,19.5,–,–
540162001157,WV-9600000-96211,5401620,WV-9600000,PK,5,JEFFERSON ELEMENTARY CENTER,WOOD COUNTY SCHOOLS,Wood County,1103 PLUM ST,PARKERSBURG,WV,26101,4936,(304)420-9554,13,City: Small,†,No,Yes,Yes,393,46,8.5,–,–
540057000344,WV-3700000-37501,5400570,WV-3700000,9,12,JEFFERSON HIGH SCHOOL,JEFFERSON COUNTY SCHOOLS,Jefferson County,4141 FLOWING SPRINGS ROAD,SHENANDOAH JUNCTION,WV,25442,4712,(304)725-8491,41,Rural: Fringe,†,No,–,–,1440,86,16.7,–,–
540126001371,WV-7500000-75202,5401260,WV-7500000,PK,5,JENNINGS RANDOLPH ELEMENTARY SCHOOL,RANDOLPH COUNTY SCHOOLS,Randolph County,101 SCOTT FORD ROAD,ELKINS,WV,26241,3099,(304)636-9181,33,Town: Remote,†,No,Yes,Yes,271,18.5,14.6,–,–
540060000352,WV-3900000-39401,5400600,WV-3900000,6,8,JOHN ADAMS MIDDLE SCHOOL,KANAWHA COUNTY SCHOOLS,Kanawha County,2002 PRESIDENTIAL DR,CHARLESTON,WV,25314,,(304)348-6652,13,City: Small,†,No,–,–,788,43.5,18.1,–,–
540045001386,WV-2900000-29701,5400450,WV-2900000,–,–,JOHN D. ROCKEFELLER CAREER CENTER,HANCOCK COUNTY SCHOOLS,Hancock County,95 ROCKYSIDE ROAD,NEW CUMBERLAND,WV,26047,9802,(304)564-3337,41,Rural: Fringe,†,No,–,–,–,15,†,–,–
540042000249,WV-2800000-28204,5400420,WV-2800000,KG,5,JOHN J. CORNWELL,HAMPSHIRE COUNTY SCHOOLS,Hampshire County,12092 JERSEY MOUNTAIN ROAD,LEVELS,WV,25431,,(304)492-5520,42,Rural: Distant,†,No,Yes,Yes,98,8.5,11.5,–,–
540075001536,WV-4800000-48701,5400750,WV-4800000,–,–,JOHN MARSHALL ADULT PREP,MARSHALL COUNTY SCHOOLS,Marshall County,1300 WHEELING AVENUE,GLEN DALE,WV,26038,,(304)843-4444,23,Suburb: Small,†,No,–,–,–,–,†,–,–
540075000594,WV-4800000-48502,5400750,WV-4800000,9,12,JOHN MARSHALL HIGH SCHOOL,MARSHALL COUNTY SCHOOLS,Marshall County,1300 WHEELING AVE,GLEN DALE,WV,26038,,(304)843-4444,23,Suburb: Small,†,No,–,–,1100,90,12.2,–,–
540051000296,WV-3300000-33208,5400510,WV-3300000,PK,5,JOHNSON ELEMENTARY SCHOOL,HARRISON COUNTY SCHOOLS,Harrison County,601 JOHNSON AVE,BRIDGEPORT,WV,26330,,(304)326-7109,32,Town: Distant,†,No,–,–,619,35.5,17.4,–,–
540135001042,WV-8100000-81204,5401350,WV-8100000,PK,5,JUMPING BRANCH ELEMENTARY SCHOOL,SUMMERS COUNTY SCHOOLS,Summers County,HC 85 BOX 900,JUMPING BRANCH,WV,25969,,(304)466-6025,42,Rural: Distant,†,No,Yes,Yes,104,9,11.6,–,–
540003000004,WV-0200000-02202,5400030,WV-0200000,PK,4,JUNIOR ELEMENTARY,BARBOUR COUNTY SCHOOLS,Barbour County,415 FIRST STREET,JUNIOR,WV,26275,2128,(304)823-1200,42,Rural: Distant,†,No,Yes,Yes,110,8.43,13,–,–
540069000517,WV-4500000-45211,5400690,WV-4500000,PK,4,JUSTICE ELEMENTARY SCHOOL,LOGAN COUNTY SCHOOLS,Logan County,407 CIRCLE DRIVE,LOGAN,WV,25601,,(304)752-3250,32,Town: Distant,†,No,Yes,Yes,116,8,14.5,–,–
540060000409,WV-3900000-39235,5400600,WV-3900000,PK,5,KANAWHA CITY ELEMENTARY SCHOOL,KANAWHA COUNTY SCHOOLS,Kanawha County,3601 STAUNTON AVENUE SE,CHARLESTON,WV,25304,,(304)348-1985,13,City: Small,†,No,–,–,277,19.1,14.5,–,–
540162001158,WV-9600000-96212,5401620,WV-9600000,PK,5,KANAWHA ELEMENTARY SCHOOL,WOOD COUNTY SCHOOLS,Wood County,6465 STAUNTON TPKE,DAVISVILLE,WV,26142,9754,(304)420-9557,41,Rural: Fringe,†,No,Yes,Yes,280,22,12.7,–,–
540003000005,WV-0200000-02101,5400030,WV-0200000,PK,8,KASSON ELEMENTARY/MIDDLE SCHOOL,BARBOUR COUNTY SCHOOLS,Barbour County,19 KASSON ROAD,MOATSVILLE,WV,26405,8220,(304)457-1485,42,Rural: Distant,†,No,–,–,202,14.46,14,–,–
540150001105,WV-8900000-89210,5401500,WV-8900000,PK,5,KELLOGG ELEMENTARY SCHOOL,WAYNE COUNTY SCHOOLS,Wayne County,4415 PIEDMONT ROAD,HUNTINGTON,WV,25704,,(304)429-4441,13,City: Small,†,No,–,–,438,25,17.5,–,–
540060000410,WV-3900000-39237,5400600,WV-3900000,PK,5,KENNA ELEMENTARY SCHOOL,KANAWHA COUNTY SCHOOLS,Kanawha County,198 EUREKA RD,CHARLESTON,WV,25314,,(304)348-6104,13,City: Small,†,No,–,–,159,12.4,12.8,–,–
540054000333,WV-3500000-35206,5400540,WV-3500000,PK,5,KENNA ELEMENTARY SCHOOL,JACKSON COUNTY SCHOOLS,Jackson County,275 BUSINESS PARK DR,KENNA,WV,25248,,(304)372-2262,42,Rural: Distant,†,No,Yes,Yes,281,18.45,15.2,–,–
540051100136,WV-3400000-34105,5400511,WV-3400000,–,–,KENNETH HONEY RUBENSTEIN CENTER,INSTITUTIONAL EDUCATIONAL PROGRAMS,Tucker County,141 FORESTRY CAMP ROAD,DAVIS,WV,26260,,(304)259-2218,43,Rural: Remote,†,No,–,–,†,–,†,–,–
540090000906,WV-5400000-54223,5400900,WV-5400000,PK,8,KERMIT PRE K-8,MINGO COUNTY SCHOOLS,Mingo County,US RT 52,KERMIT,WV,25674,,(304)393-4130,42,Rural: Distant,†,No,Yes,Yes,306,22.33,13.7,–,–
540087000718,WV-5300000-53503,5400870,WV-5300000,9,12,KEYSER HIGH SCHOOL,MINERAL COUNTY SCHOOLS,Mineral County,328 ONE TORNADO WAY,KEYSER,WV,26726,,(304)788-4230,41,Rural: Fringe,†,No,–,–,672,37.38,18,–,–
540087001402,WV-5300000-53103,5400870,WV-5300000,5,8,KEYSER MIDDLE SCHOOL,MINERAL COUNTY SCHOOLS,Mineral County,879 HARLEY O. STAGGERS DRIVE,KEYSER,WV,26726,,(304)788-4220,32,Town: Distant,†,No,–,–,701,43.35,16.2,–,–
540087001498,WV-5300000-53210,5400870,WV-5300000,PK,4,KEYSER PRIMARY SCHOOL,MINERAL COUNTY SCHOOLS,Mineral County,1123 HARLEY O. STAGGERS DRIVE,KEYSER,WV,26726,,(304)788-4508,32,Town: Distant,†,No,Yes,Yes,633,44.6,14.2,–,–
540081000654,WV-6000000-60217,5400810,WV-6000000,PK,5,KIMBALL ELEMENTARY SCHOOL,MCDOWELL COUNTY SCHOOLS,McDowell County,POST OFFICE BOX 308,KIMBALL,WV,24853,,(304)585-7570,42,Rural: Distant,†,No,Yes,Yes,205,18.73,10.9,–,–
540117000907,WV-7000000-70204,5401170,WV-7000000,PK,4,KINGWOOD ELEMENTARY,PRESTON COUNTY SCHOOLS,Preston County,207 S PRICE STREET,KINGWOOD,WV,26537,,(304)329-1034,32,Town: Distant,†,No,Yes,Yes,424,29.79,14.2,–,–
540120001302,WV-7200000-72240,5401200,WV-7200000,PK,5,LAKESIDE ELEMENTARY,PUTNAM COUNTY SCHOOLS,Putnam County,2554 US-60,HURRICANE,WV,25526,,(304)562-3630,22,Suburb: Midsize,†,No,Yes,Yes,224,21,10.7,–,–
540060000412,WV-3900000-39239,5400600,WV-3900000,PK,5,LAKEWOOD ELEMENTARY SCHOOL,KANAWHA COUNTY SCHOOLS,Kanawha County,2089 LAKEWOOD DRIVE,ST. ALBANS,WV,25177,,(304)722-0200,22,Suburb: Midsize,†,No,–,–,270,18.9,14.3,–,–
540084000689,WV-5100000-51210,5400840,WV-5100000,PK,5,LASHMEET/MATOAKA ELEMENTARY SCHOOL,MERCER COUNTY SCHOOLS,Mercer County,5709 MATOAKA ROAD,MATOAKA,WV,24736,,(304)467-8282,42,Rural: Distant,†,No,Yes,Yes,219,19,11.5,–,–
540150001107,WV-8900000-89212,5401500,WV-8900000,PK,5,LAVALETTE ELEMENTARY SCHOOL,WAYNE COUNTY SCHOOLS,Wayne County,P.O. BOX 380,LAVALETTE,WV,25535,,(304)525-3221,22,Suburb: Midsize,†,No,–,–,218,16.2,13.5,–,–
540063001518,WV-4100000-41202,5400630,WV-4100000,PK,6,LEADING CREEK ELEMENTARY,LEWIS COUNTY SCHOOLS,Lewis County,15300 US HIGHWAY 33W,LINN,WV,26384,,(304)462-7127,42,Rural: Distant,†,No,Yes,Yes,154,12,12.8,–,–
540090001063,WV-5400000-54101,5400900,WV-5400000,PK,8,LENORE PRE K-8 SCHOOL,MINGO COUNTY SCHOOLS,Mingo County,#1 RANGER DRIVE,WILLIAMSON,WV,25661,,(304)475-5231,42,Rural: Distant,†,No,Yes,Yes,520,35.33,14.7,–,–
540078000616,WV-4900000-49206,5400780,WV-4900000,PK,6,LEON ELEMENTARY SCHOOL,MASON COUNTY SCHOOLS,Mason County,1226 BURDETTE STREET,LEON,WV,25123,,(304)458-1710,42,Rural: Distant,†,No,Yes,Yes,163,13,12.5,–,–
540063000472,WV-4100000-41501,5400630,WV-4100000,9,12,LEWIS COUNTY HIGH SCHOOL,LEWIS COUNTY SCHOOLS,Lewis County,205 MINUTEMAN DRIVE,WESTON,WV,26452,,(304)269-8315,41,Rural: Fringe,†,No,–,–,679,48,14.1,–,–
540039000233,WV-2600000-26205,5400390,WV-2600000,PK,5,LEWISBURG ELEMENTARY,GREENBRIER COUNTY SCHOOLS,Greenbrier County,492 WASHINGTON STREET WEST,LEWISBURG,WV,24901,,(304)647-6477,32,Town: Distant,†,No,Yes,Yes,533,33.5,15.9,–,–
540051000298,WV-3300000-33502,5400510,WV-3300000,9,12,LIBERTY HIGH SCHOOL,HARRISON COUNTY SCHOOLS,Harrison County,1 MOUNTAINEER DR,CLARKSBURG,WV,26301,,(304)326-7470,41,Rural: Fringe,†,No,–,–,517,39.62,13,–,–
540123000961,WV-7400000-74503,5401230,WV-7400000,9,12,LIBERTY HIGH SCHOOL,RALEIGH COUNTY SCHOOLS,Raleigh County,P.O. BOX 265,GLEN DANIEL,WV,25844,,(304)934-5306,41,Rural: Fringe,†,No,–,–,513,38,13.5,–,–
540066001245,WV-4300000-43506,5400660,WV-4300000,9,12,LINCOLN COUNTY HIGH SCHOOL,LINCOLN COUNTY SCHOOLS,Lincoln County,81 PANTHER WAY,HAMLIN,WV,25523,,(304)824-6000,42,Rural: Distant,†,No,–,–,845,60,14.1,–,–
540051001238,WV-3300000-33503,5400510,WV-3300000,9,12,LINCOLN HIGH SCHOOL,HARRISON COUNTY SCHOOLS,Harrison County,100 JERRY TOTH DR,SHINNSTON,WV,26431,,(304)326-7400,32,Town: Distant,†,No,–,–,576,37.86,15.2,–,–
540051001453,WV-3300000-33304,5400510,WV-3300000,6,8,LINCOLN MIDDLE SCHOOL,HARRISON COUNTY SCHOOLS,Harrison County,78 JERRY TOTH DR,SHINNSTON,WV,26431,,(304)326-7540,32,Town: Distant,†,No,–,–,487,34.08,14.3,–,–
540012000068,WV-0800000-08204,5400120,WV-0800000,PK,5,LITTLE BIRCH ELEMENTARY SCHOOL,BRAXTON COUNTY SCHOOLS,Braxton County,55 LITTLE BIRCH ROAD,SUTTON,WV,26601,,(304)765-2042,43,Rural: Remote,†,No,Yes,Yes,135,11,12.3,–,–
540024000153,WV-1600000-16205,5400240,WV-1600000,PK,5,LIZEMORE ELEMENTARY SCHOOL,CLAY COUNTY SCHOOLS,Clay County,PO BOX 70,LIZEMORE,WV,25125,70,(304)587-4823,42,Rural: Distant,†,No,Yes,Yes,156,9.9,15.8,–,–
540069000520,WV-4500000-45213,5400690,WV-4500000,PK,4,LOGAN ELEMENTARY SCHOOL,LOGAN COUNTY SCHOOLS,Logan County,18 WILDCAT WAY,LOGAN,WV,25601,,(304)752-4180,32,Town: Distant,†,No,Yes,Yes,275,19,14.5,–,–
540069000519,WV-4500000-45301,5400690,WV-4500000,5,8,LOGAN MIDDLE SCHOOL,LOGAN COUNTY SCHOOLS,Logan County,14 WILDCAT WAY MIDELBURG ISLAN,LOGAN,WV,25601,,(304)752-1804,32,Town: Distant,†,No,–,–,631,46,13.7,–,–
540069000521,WV-4500000-45502,5400690,WV-4500000,9,12,LOGAN SENIOR HIGH SCHOOL,LOGAN COUNTY SCHOOLS,Logan County,1 WILDCAT WAY MIDELBURG ISLAN,LOGAN,WV,25601,,(304)752-6606,32,Town: Distant,†,No,–,–,656,41.5,15.8,–,–
540156001125,WV-9200000-92201,5401560,WV-9200000,PK,8,LONG DRAIN SCHOOL,WETZEL COUNTY SCHOOLS,Wetzel County,RT 1 BOX 108-A,METZ,WV,26585,,(304)775-4221,42,Rural: Distant,†,No,Yes,Yes,199,22,9,–,–
540051100974,WV-3400000-34123,5400511,WV-3400000,–,–,LORRIE YEAGER JUVENILE CENTER,INSTITUTIONAL EDUCATIONAL PROGRAMS,Wood County,907 MISSION DRIVE,PARKERSBURG,WV,26101,,(304)420-4862,13,City: Small,†,No,–,–,†,–,†,–,–
540051000300,WV-3300000-33210,5400510,WV-3300000,PK,5,LOST CREEK ELEMENTARY SCHOOL,HARRISON COUNTY SCHOOLS,Harrison County,128 COLLEGE ST,LOST CREEK,WV,26385,,(304)326-7040,42,Rural: Distant,†,No,–,–,164,12.62,13,–,–
540162001161,WV-9600000-96215,5401620,WV-9600000,PK,5,LUBECK ELEMENTARY SCHOOL,WOOD COUNTY SCHOOLS,Wood County,206 LUBECK RD,PARKERSBURG,WV,26101,3848,(304)863-3321,23,Suburb: Small,†,No,–,–,375,25.5,14.7,–,–
540051000301,WV-3300000-33211,5400510,WV-3300000,PK,5,LUMBERPORT ELEMENTARY SCHOOL,HARRISON COUNTY SCHOOLS,Harrison County,PO BOX 317,LUMBERPORT,WV,26386,,(304)326-7020,32,Town: Distant,†,No,Yes,Yes,280,21.37,13.1,–,–
540123000963,WV-7400000-74217,5401230,WV-7400000,PK,5,MABSCOTT ELEMENTARY,RALEIGH COUNTY SCHOOLS,Raleigh County,104 PERSHING STREET,MABSCOTT,WV,25871,,(304)256-4583,23,Suburb: Small,†,No,Yes,Yes,264,21,12.6,–,–
540009000042,WV-0600000-06207,5400090,WV-0600000,PK,5,MADISON ELEMENTARY,BOONE COUNTY SCHOOLS,Boone County,150 JOSEPHINE AVENUE,MADISON,WV,25130,,(304)369-2241,41,Rural: Fringe,†,No,–,–,358,24,14.9,–,–
540105000861,WV-6400000-64205,5401050,WV-6400000,PK,5,MADISON ELEMENTARY SCHOOL,OHIO COUNTY SCHOOLS,Ohio County,91 ZANE ST,WHEELING,WV,26003,2292,(304)243-0366,13,City: Small,†,No,Yes,Yes,306,23,13.3,–,–
540162001162,WV-9600000-96216,5401620,WV-9600000,PK,5,MADISON ELEMENTARY SCHOOL,WOOD COUNTY SCHOOLS,Wood County,1426 32ND ST,PARKERSBURG,WV,26101,1893,(304)420-9563,13,City: Small,†,No,Yes,Yes,308,21.5,14.3,–,–
540009001324,WV-0600000-06301,5400090,WV-0600000,6,8,MADISON MIDDLE SCHOOL,BOONE COUNTY SCHOOLS,Boone County,404 RIVERSIDE DR-W,MADISON,WV,25130,,(304)369-4464,32,Town: Distant,†,No,–,–,488,30,16.3,–,–
540156001126,WV-9200000-92502,5401560,WV-9200000,9,12,MAGNOLIA HIGH SCHOOL,WETZEL COUNTY SCHOOLS,Wetzel County,601 MAPLE AVENUE,NEW MARTINSVILLE,WV,26155,,(304)455-1991,32,Town: Distant,†,No,–,–,414,32.5,12.7,–,–
540060000416,WV-3900000-39241,5400600,WV-3900000,PK,5,MALDEN ELEMENTARY SCHOOL,KANAWHA COUNTY SCHOOLS,Kanawha County,4001 SALINAS DRIVE,CHARLESTON,WV,25306,,(304)348-1973,22,Suburb: Midsize,†,No,Yes,Yes,231,16.5,14,–,–
540069001251,WV-4500000-45227,5400690,WV-4500000,PK,4,MAN ELEMENTARY SCHOOL,LOGAN COUNTY SCHOOLS,Logan County,PO BOX 269,MALLORY,WV,25634,,(304)583-8316,42,Rural: Distant,†,No,Yes,Yes,233,15.5,15,–,–
540069001060,WV-4500000-45103,5400690,WV-4500000,5,8,MAN MIDDLE SCHOOL,LOGAN COUNTY SCHOOLS,Logan County,PO BOX 390,MALLORY WV,WV,25634,,(304)583-8037,42,Rural: Distant,†,No,–,–,367,29.5,12.4,–,–
540069000524,WV-4500000-45503,5400690,WV-4500000,9,12,MAN SENIOR HIGH SCHOOL,LOGAN COUNTY SCHOOLS,Logan County,1 HILLBILLY CIRCLE,MAN,WV,25635,,(304)583-6521,42,Rural: Distant,†,No,–,–,414,29,14.3,–,–
540072001284,WV-4700000-47303,5400720,WV-4700000,5,8,MANNINGTON MIDDLE SCHOOL,MARION COUNTY SCHOOLS,Marion County,113 CLARKSBURG STREET,MANNINGTON,WV,26582,1396,(304)986-1050,42,Rural: Distant,†,No,–,–,280,22,12.7,–,–
540072001541,WV-4700000-47716,5400720,WV-4700000,–,–,MARION CO. ADULT & COMMUNITY ED. CENTER,MARION COUNTY SCHOOLS,Marion County,601 LOCUST AVE,FAIRMONT,WV,26554,,(304)363-7323,32,Town: Distant,†,No,–,–,–,3,†,–,–
540072001396,WV-4700000-47701,5400720,WV-4700000,–,–,MARION COUNTY TECHNICAL CENTER,MARION COUNTY SCHOOLS,Marion County,2 NORTH MARION DRIVE,FARMINGTON,WV,26571,9709,(304)986-3590,42,Rural: Distant,†,No,–,–,–,13,†,–,–
540114000894,WV-6900000-69202,5401140,WV-6900000,PK,5,MARLINTON ELEMENTARY SCHOOL,POCAHONTAS COUNTY SCHOOLS,Pocahontas County,926 FIFTH AVENUE,MARLINTON,WV,24954,,(304)799-6551,43,Rural: Remote,†,No,Yes,Yes,236,19,12.4,–,–
540114000895,WV-6900000-69302,5401140,WV-6900000,6,8,MARLINTON MIDDLE SCHOOL,POCAHONTAS COUNTY SCHOOLS,Pocahontas County,1 COPPERHEAD WAY,BUCKEYE,WV,24924,,(304)799-6773,43,Rural: Remote,†,No,–,–,131,12.7,10.3,–,–
540006000023,WV-0400000-04209,5400060,WV-0400000,PK,2,MARLOWE ELEMENTARY SCHOOL,BERKELEY COUNTY SCHOOLS,Berkeley County,9580 WILLIAMSPORT PIKE,FALLING WATERS,WV,25419,,(304)274-2291,22,Suburb: Midsize,†,No,–,–,281,16.7,16.8,–,–
540060000417,WV-3900000-39242,5400600,WV-3900000,PK,5,MARMET ELEMENTARY SCHOOL,KANAWHA COUNTY SCHOOLS,Kanawha County,408 94TH ST,MARMET,WV,25315,,(304)949-2382,22,Suburb: Midsize,†,No,Yes,Yes,153,11,13.9,–,–
540123000848,WV-7400000-74232,5401230,WV-7400000,PK,5,MARSH FORK ELEMENTARY,RALEIGH COUNTY SCHOOLS,Raleigh County,5960 COAL RIVER ROAD,ROCK CREEK,WV,25140,,(304)854-1951,42,Rural: Distant,†,No,Yes,Yes,228,20,11.4,–,–
540018000120,WV-1200000-12251,5400180,WV-1200000,PK,5,MARTHA ELEMENTARY SCHOOL,CABELL COUNTY SCHOOLS,Cabell County,3067 MARTHA ROAD,BARBOURSVILLE,WV,25504,,(304)733-3027,22,Suburb: Midsize,†,No,–,–,202,15.67,12.9,–,–
540162000792,WV-9600000-96238,5401620,WV-9600000,PK,5,MARTIN ELEMENTARY SCHOOL,WOOD COUNTY SCHOOLS,Wood County,1301 HILLCREST ST,PARKERSBURG,WV,26101,7082,(304)420-9625,13,City: Small,†,No,Yes,Yes,253,25.5,9.9,–,–
540006000026,WV-0400000-04502,5400060,WV-0400000,9,12,MARTINSBURG HIGH SCHOOL,BERKELEY COUNTY SCHOOLS,Berkeley County,701 SOUTH QUEEN STREET,MARTINSBURG,WV,25401,,(304)267-3530,13,City: Small,†,No,–,–,1397,91.5,15.3,–,–
540006000024,WV-0400000-04302,5400060,WV-0400000,6,8,MARTINSBURG NORTH MIDDLE SCHOOL,BERKELEY COUNTY SCHOOLS,Berkeley County,250 EAST ROAD,MARTINSBURG,WV,25404,,(304)267-3540,13,City: Small,†,No,–,–,719,59,12.2,–,–
540006000025,WV-0400000-04303,5400060,WV-0400000,6,8,MARTINSBURG SOUTH MIDDLE SCHOOL,BERKELEY COUNTY SCHOOLS,Berkeley County,150 BULLDOG BOULEVARD,MARTINSBURG,WV,25401,,(304)267-3545,13,City: Small,†,No,–,–,815,55.5,14.7,–,–
540060001476,WV-3900000-39284,5400600,WV-3900000,PK,5,MARY C. SNOW WEST SIDE ELEMENTARY,KANAWHA COUNTY SCHOOLS,Kanawha County,100 FLORIDA STREET,CHARLESTON,WV,25302,,(304)348-1902,13,City: Small,†,No,Yes,Yes,304,32,9.5,–,–
540060000419,WV-3900000-39243,5400600,WV-3900000,PK,5,MARY INGLES ELEMENTARY SCHOOL,KANAWHA COUNTY SCHOOLS,Kanawha County,559 BIG BOTTOM HOLLOW ROAD,CHARLESTON,WV,25306,,(304)348-1975,41,Rural: Fringe,†,No,Yes,Yes,157,13.1,12,–,–
540078000618,WV-4900000-49701,5400780,WV-4900000,–,–,MASON COUNTY CAREER CENTER,MASON COUNTY SCHOOLS,Mason County,281 SCENIC DRIVE,POINT PLEASANT,WV,25550,,(304)675-3039,41,Rural: Fringe,†,No,–,–,–,16,†,–,–
540078001516,WV-4900000-49505,5400780,WV-4900000,PK,12,MASON COUNTY SCHOOL FOR SUCCESS,MASON COUNTY SCHOOLS,Mason County,758 SCENIC DRIVE,POINT PLEASANT,WV,25550,,(304)773-5539,41,Rural: Fringe,†,No,–,–,29,3,9.7,–,–
540093000750,WV-5600000-56236,5400930,WV-5600000,PK,5,MASON-DIXON ELEMENTARY,MONONGALIA COUNTY SCHOOLS,Monongalia County,7041 MASON DIXON HIGHWAY,BLACKSVILLE,WV,26521,,(304)662-6113,42,Rural: Distant,†,No,Yes,Yes,320,23,13.9,–,–
540090001404,WV-5400000-54403,5400900,WV-5400000,PK,8,MATEWAN PRE K-8,MINGO COUNTY SCHOOLS,Mingo County,100 CHAMBERS STREET,MATEWAN,WV,25678,,(304)426-4719,42,Rural: Distant,†,No,Yes,Yes,477,30,15.9,–,–
540123000968,WV-7400000-74218,5401230,WV-7400000,PK,5,MAXWELL HILL ELEMENTARY,RALEIGH COUNTY SCHOOLS,Raleigh County,1001 MAXWELL HILL ROAD,BECKLEY,WV,25801,,(304)256-4599,13,City: Small,†,No,–,–,249,16,15.6,–,–
540036000218,WV-2400000-24202,5400360,WV-2400000,PK,6,MAYSVILLE ELEMENTARY SCHOOL,GRANT COUNTY SCHOOLS,Grant County,7 ELEMENTARY SCHOOL DR,MAYSVILLE,WV,26833,,(304)749-7441,42,Rural: Distant,†,No,–,–,155,10.2,15.2,–,–
540162001164,WV-9600000-96218,5401620,WV-9600000,PK,5,MCKINLEY ELEMENTARY SCHOOL,WOOD COUNTY SCHOOLS,Wood County,1130 19TH ST,PARKERSBURG,WV,26101,2607,(304)420-9581,13,City: Small,†,No,Yes,Yes,257,23.5,10.9,–,–
540060000420,WV-3900000-39413,5400600,WV-3900000,6,8,MCKINLEY MIDDLE SCHOOL,KANAWHA COUNTY SCHOOLS,Kanawha County,3000 KANAWHA TERRACE,ST. ALBANS,WV,25177,,(304)722-0218,22,Suburb: Midsize,†,No,–,–,315,20,15.8,–,–
540075001285,WV-4800000-48207,5400750,WV-4800000,PK,2,MCNINCH PRIMARY SCHOOL,MARSHALL COUNTY SCHOOLS,Marshall County,119 TIGER LN,MOUNDSVILLE,WV,26041,,(304)843-4431,23,Suburb: Small,†,No,Yes,Yes,471,29.25,16.1,–,–
540030000189,WV-2000000-20215,5400300,WV-2000000,PK,6,MEADOW BRIDGE ELEMENTARY,FAYETTE COUNTY SCHOOLS,Fayette County,804 MAIN STREET,MEADOW BRIDGE,WV,25976,,(304)484-7914,42,Rural: Distant,†,No,Yes,Yes,224,17.5,12.8,–,–
540030000190,WV-2000000-20503,5400300,WV-2000000,7,12,MEADOW BRIDGE HIGH,FAYETTE COUNTY SCHOOLS,Fayette County,870 MAIN STREET,MEADOW BRIDGE,WV,25976,,(304)484-7917,42,Rural: Distant,†,No,–,–,202,16,12.6,–,–
540018000122,WV-1200000-12254,5400180,WV-1200000,PK,5,MEADOWS ELEMENTARY SCHOOL,CABELL COUNTY SCHOOLS,Cabell County,1601 WASHINGTON BLVD,HUNTINGTON,WV,25701,,(304)528-5166,13,City: Small,†,No,–,–,268,16.34,16.4,–,–
540084000692,WV-5100000-51212,5400840,WV-5100000,KG,5,MELROSE ELEMENTARY SCHOOL,MERCER COUNTY SCHOOLS,Mercer County,2121 ATHENS ROAD,PRINCETON,WV,24739,,(304)425-3757,32,Town: Distant,†,No,–,–,290,12,24.2,–,–
540084000693,WV-5100000-51213,5400840,WV-5100000,KG,2,MEMORIAL ELEMENTARY SCHOOL,MERCER COUNTY SCHOOLS,Mercer County,319 MEMORIAL AVENUE,BLUEFIELD,WV,24701,4939,(304)327-8016,32,Town: Distant,†,No,Yes,Yes,168,11,15.3,–,–
540084001087,WV-5100000-51227,5400840,WV-5100000,PK,PK,MERCER COUNTY EARLY LEARNING CENTER,MERCER COUNTY SCHOOLS,Mercer County,751 COVE STREET,PRINCETON,WV,24740,2831,(304)425-4251,32,Town: Distant,†,No,–,–,479,11,43.5,–,–
540084001400,WV-5100000-51701,5400840,WV-5100000,–,–,MERCER COUNTY TECHNICAL EDUCATION CENTER,MERCER COUNTY SCHOOLS,Mercer County,1397 STAFFORD DRIVE,PRINCETON,WV,24740,,(304)425-9551,32,Town: Distant,†,No,–,–,–,24,†,–,–
540084000695,WV-5100000-51214,5400840,WV-5100000,3,5,MERCER ELEMENTARY,MERCER COUNTY SCHOOLS,Mercer County,1200 MERCER STREET,PRINCETON,WV,24740,3032,(304)425-3160,32,Town: Distant,†,No,Yes,Yes,350,23,15.2,–,–
540111001411,WV-6700000-67701,5401110,WV-6700000,–,–,MID OHIO VALLEY TECHNICAL INSTITUTE,PLEASANTS COUNTY SCHOOLS,Pleasants County,2134 N PLEASANTS HIGHWAY,ST. MARYS,WV,26170,,(304)684-2464,32,Town: Distant,†,No,–,–,–,14,†,–,–
540105000862,WV-6400000-64206,5401050,WV-6400000,PK,5,MIDDLE CREEK ELEMENTARY SCHOOL,OHIO COUNTY SCHOOLS,Ohio County,579 MIDDLE CREEK ROAD,TRIADELPHIA,WV,26059,9710,(304)243-0369,41,Rural: Fringe,†,No,Yes,Yes,300,19.5,15.4,–,–
540126001002,WV-7500000-75206,5401260,WV-7500000,PK,5,MIDLAND ELEMENTARY SCHOOL,RANDOLPH COUNTY SCHOOLS,Randolph County,150 KENNEDY DRIVE,ELKINS,WV,26241,9547,(304)636-9186,33,Town: Remote,†,No,Yes,Yes,243,17,14.3,–,–
540060000421,WV-3900000-39244,5400600,WV-3900000,PK,5,MIDLAND TRAIL ELEMENTARY SCHOOL,KANAWHA COUNTY SCHOOLS,Kanawha County,200 FERRY ST,DIAMOND,WV,25015,,(304)949-1823,22,Suburb: Midsize,†,No,Yes,Yes,224,15.5,14.5,–,–
540030000191,WV-2000000-20504,5400300,WV-2000000,5,12,MIDLAND TRAIL HIGH,FAYETTE COUNTY SCHOOLS,Fayette County,PO BOX 89,HICO,WV,25854,,(304)658-5184,42,Rural: Distant,†,No,–,–,586,38,15.4,–,–
540066000498,WV-4300000-43212,5400660,WV-4300000,PK,5,MIDWAY ELEMENTARY SCHOOL,LINCOLN COUNTY SCHOOLS,Lincoln County,267 MIDWAY ROAD,ALUM CREEK,WV,25003,,(304)756-3121,41,Rural: Fringe,†,No,Yes,Yes,307,19,16.2,–,–
540006001029,WV-0400000-04217,5400060,WV-0400000,3,5,MILL CREEK INTERMEDIATE SCHOOL,BERKELEY COUNTY SCHOOLS,Berkeley County,8785 WINCHESTER AVENUE,BUNKER HILL,WV,25413,,(304)229-4570,41,Rural: Fringe,†,No,–,–,575,35.69,16.1,–,–
540018000125,WV-1200000-12263,5400180,WV-1200000,PK,5,MILTON ELEMENTARY SCHOOL,CABELL COUNTY SCHOOLS,Cabell County,1201 PIKE ST.,MILTON,WV,25541,,(304)743-7303,22,Suburb: Midsize,†,No,–,–,627,39,16.1,–,–
540018000683,WV-1200000-12308,5400180,WV-1200000,6,8,MILTON MIDDLE SCHOOL,CABELL COUNTY SCHOOLS,Cabell County,1 PANTHER TRAIL,MILTON,WV,25541,,(304)743-7308,22,Suburb: Midsize,†,No,–,–,610,45.5,13.4,–,–
540087000712,WV-5300000-53601,5400870,WV-5300000,PK,12,MINERAL COUNTY ALTERNATIVE PROGRAM,MINERAL COUNTY SCHOOLS,Mineral County,89 BAKER PLACE,KEYSER,WV,26726,,(304)788-4213,32,Town: Distant,†,No,–,–,8,4,2,†,†
540087000720,WV-5300000-53701,5400870,WV-5300000,–,–,MINERAL COUNTY TECHNICAL CENTER,MINERAL COUNTY SCHOOLS,Mineral County,981 HARLEY O. STAGGERS DRIVE,KEYSER,WV,26726,,(304)788-4240,32,Town: Distant,†,No,–,–,–,13.68,†,–,–
540162001165,WV-9600000-96219,5401620,WV-9600000,PK,5,MINERAL WELLS ELEMENTARY SCHOOL,WOOD COUNTY SCHOOLS,Wood County,1776 ELIZABETH PIKE,MINERAL WELLS,WV,26150,2637,(304)489-1670,23,Suburb: Small,†,No,–,–,535,33.5,16,–,–
540090001485,WV-5400000-54508,5400900,WV-5400000,9,12,MINGO CENTRAL COMPREHENSIVE HIGH SCHOOL,MINGO COUNTY SCHOOLS,Mingo County,1000 KING COAL HIGHWAY,DELBARTON,WV,25670,,(304)426-6603,42,Rural: Distant,†,No,–,–,702,54,13,–,–
540090001488,WV-5400000-54102,5400900,WV-5400000,–,–,MINGO COUNTY EXTENDED LEARNING CENTER,MINGO COUNTY SCHOOLS,Mingo County,RT 2 BOX 52-A,DELBARTON,WV,25670,,(304)475-3347,42,Rural: Distant,†,No,–,–,–,1,†,2,1
540072000570,WV-4700000-47211,5400720,WV-4700000,PK,4,MONONGAH ELEMENTARY SCHOOL,MARION COUNTY SCHOOLS,Marion County,628 WALNUT STREET,MONONGAH,WV,26554,1199,(304)367-2159,32,Town: Distant,†,No,Yes,Yes,338,26,13,–,–
540072001283,WV-4700000-47304,5400720,WV-4700000,5,8,MONONGAH MIDDLE SCHOOL,MARION COUNTY SCHOOLS,Marion County,550 CAMDEN AVENUE,MONONGAH,WV,26554,1198,(304)367-2164,32,Town: Distant,†,No,–,–,219,17,12.9,–,–
540096001409,WV-5700000-57701,5400960,WV-5700000,–,–,MONROE COUNTY VOCATIONAL CENTER,MONROE COUNTY SCHOOLS,Monroe County,74 JAMES MONROE DRIVE,LINDSIDE,WV,24951,,(304)753-9971,42,Rural: Distant,†,No,–,–,–,12,†,–,–
540084000696,WV-5100000-51215,5400840,WV-5100000,PK,6,MONTCALM ELEMENTARY SCHOOL,MERCER COUNTY SCHOOLS,Mercer County,838 ROCK ROAD,ROCK,WV,24747,9610,(304)589-5202,41,Rural: Fringe,†,No,Yes,Yes,303,18.5,16.4,–,–
540084000697,WV-5100000-51505,5400840,WV-5100000,7,12,MONTCALM HIGH SCHOOL,MERCER COUNTY SCHOOLS,Mercer County,5366 SIMMONS RIVER ROAD,ROCK,WV,24747,,(304)589-3719,41,Rural: Fringe,†,No,–,–,318,20.5,15.5,–,–
540060000423,WV-3900000-39246,5400600,WV-3900000,PK,5,MONTROSE ELEMENTARY SCHOOL,KANAWHA COUNTY SCHOOLS,Kanawha County,631 MONTROSE DRIVE,SO. CHARLESTON,WV,25303,,(304)348-1930,22,Suburb: Midsize,†,No,–,–,256,14.6,17.5,–,–
540048000277,WV-3100000-31202,5400480,WV-3100000,PK,2,MOOREFIELD ELEMENTARY SCHOOL,HARDY COUNTY SCHOOLS,Hardy County,400 NORTH MAIN STREET,MOOREFIELD,WV,26836,,(304)530-6356,41,Rural: Fringe,†,No,Yes,Yes,482,25.25,19.1,–,–
540048000278,WV-3100000-31502,5400480,WV-3100000,9,12,MOOREFIELD HIGH SCHOOL,HARDY COUNTY SCHOOLS,Hardy County,401 NORTH MAIN STREET,MOOREFIELD,WV,26836,1098,(304)530-6034,33,Town: Remote,†,No,–,–,440,25.8,17.1,–,–
540048001253,WV-3100000-31205,5400480,WV-3100000,3,5,MOOREFIELD INTERMEDIATE SCHOOL,HARDY COUNTY SCHOOLS,Hardy County,345 CALEDONIA HEIGHTS ROAD,MOOREFIELD,WV,26836,,(304)530-3450,41,Rural: Fringe,†,No,Yes,Yes,360,22.5,16,–,–
540048000886,WV-3100000-31301,5400480,WV-3100000,6,8,MOOREFIELD MIDDLE SCHOOL,HARDY COUNTY SCHOOLS,Hardy County,303 CALEDONIA HEIGHTS ROAD,MOOREFIELD,WV,26836,9507,(304)434-3000,41,Rural: Fringe,†,No,Yes,Yes,376,24.45,15.4,–,–
540093000786,WV-5600000-56502,5400930,WV-5600000,9,12,MORGANTOWN HIGH SCHOOL,MONONGALIA COUNTY SCHOOLS,Monongalia County,109 WILSON AVENUE,MORGANTOWN,WV,26501,,(304)291-9260,13,City: Small,†,No,–,–,1845,94.5,19.5,–,–
540075000598,WV-4800000-48401,5400750,WV-4800000,6,8,MOUNDSVILLE MIDDLE SCHOOL,MARSHALL COUNTY SCHOOLS,Marshall County,223 TOMLINSON AVE,MOUNDSVILLE,WV,26041,,(304)843-4440,23,Suburb: Small,†,No,–,–,435,38,11.4,–,–
540030000194,WV-2000000-20217,5400300,WV-2000000,PK,5,MOUNT HOPE ELEMENTARY,FAYETTE COUNTY SCHOOLS,Fayette County,408 LINCOLN STREET,MOUNT HOPE,WV,25880,,(304)877-2891,23,Suburb: Small,†,No,Yes,Yes,328,21.4,15.3,–,–
540081001246,WV-6000000-60527,5400810,WV-6000000,6,12,MOUNT VIEW HIGH SCHOOL,MCDOWELL COUNTY SCHOOLS,McDowell County,950 MOUNT VIEW ROAD,WELCH,WV,24801,,(304)436-2939,41,Rural: Fringe,†,No,–,–,664,43,15.4,–,–
540006001229,WV-0400000-04220,5400060,WV-0400000,3,5,MOUNTAIN RIDGE INTERMEDIATE,BERKELEY COUNTY SCHOOLS,Berkeley County,2691 GERRARDSTOWN ROAD,GERRARDSTOWN,WV,25420,,(304)229-6791,41,Rural: Fringe,†,No,Yes,Yes,600,36.69,16.4,–,–
540006001497,WV-0400000-04306,5400060,WV-0400000,6,8,MOUNTAIN RIDGE MIDDLE SCHOOL.,BERKELEY COUNTY SCHOOLS,Berkeley County,2771 GERRARDSTOWN ROAD,GERRARDSTOWN,WV,25420,,(304)229-8833,41,Rural: Fringe,†,No,–,–,603,44.35,13.6,–,–
540096001044,WV-5700000-57204,5400960,WV-5700000,PK,8,MOUNTAIN VIEW ELEMENTARY & MIDDLE SCHOOL,MONROE COUNTY SCHOOLS,Monroe County,121 MOUNTAIN VIEW DRIVE,UNION,WV,24983,,(304)772-4903,42,Rural: Distant,†,No,Yes,Yes,562,41.5,13.5,–,–
540120001470,WV-7200000-72280,5401200,WV-7200000,PK,5,MOUNTAIN VIEW ELEMENTARY SCHOOL,PUTNAM COUNTY SCHOOLS,Putnam County,3967 TEAYS VALLEY ROAD,HURRICANE,WV,25526,,(304)757-5667,22,Suburb: Midsize,†,No,–,–,439,26.5,16.6,–,–
540093000655,WV-5600000-56301,5400930,WV-5600000,6,8,MOUNTAINEER MIDDLE SCHOOL,MONONGALIA COUNTY SCHOOLS,Monongalia County,991 PRICE STREET,MORGANTOWN,WV,26505,,(304)284-2856,13,City: Small,†,No,–,–,645,40,16.1,–,–
540051001231,WV-3300000-33309,5400510,WV-3300000,6,8,MOUNTAINEER MIDDLE SCHOOL,HARRISON COUNTY SCHOOLS,Harrison County,2 MOUNTAINEER DR,CLARKSBURG,WV,26301,,(304)326-7620,41,Rural: Fringe,†,No,–,–,412,35.87,11.5,–,–
540093000078,WV-5600000-56233,5400930,WV-5600000,PK,5,MOUNTAINVIEW ELEMENTARY SCHOOL,MONONGALIA COUNTY SCHOOLS,Monongalia County,661 GREENBAG ROAD,MORGANTOWN,WV,26508,,(304)291-9255,13,City: Small,†,No,Yes,Yes,726,49,14.8,–,–
540102000838,WV-6200000-62212,5401020,WV-6200000,PK,5,MT LOOKOUT ELEMENTARY SCHOOL,NICHOLAS COUNTY SCHOOLS,Nicholas County,1945 MT. LOOKOUT ROAD,MT LOOKOUT,WV,26678,,(304)872-2731,42,Rural: Distant,†,No,Yes,Yes,144,11.5,12.5,–,–
540102000839,WV-6200000-62213,5401020,WV-6200000,PK,5,MT NEBO ELEMENTARY SCHOOL,NICHOLAS COUNTY SCHOOLS,Nicholas County,110 SCHOOLHOUSE LANE,MT. NEBO,WV,26679,,(304)872-2440,42,Rural: Distant,†,No,–,–,103,8.5,12.1,–,–
540165001209,WV-9800000-98211,5401650,WV-9800000,PK,4,MULLENS ELEMENTARY SCHOOL,WYOMING COUNTY SCHOOLS,Wyoming County,2107 CALORIC ROAD,MULLENS,WV,25882,,(304)294-5252,42,Rural: Distant,†,No,Yes,Yes,231,14.5,15.9,–,–
540165001211,WV-9800000-98301,5401650,WV-9800000,5,8,MULLENS MIDDLE SCHOOL,WYOMING COUNTY SCHOOLS,Wyoming County,801 MORAN AVENUE,MULLENS,WV,25882,,(304)294-5757,42,Rural: Distant,†,No,Yes,Yes,176,11,16,–,–
540006000027,WV-0400000-04503,5400060,WV-0400000,9,12,MUSSELMAN HIGH SCHOOL,BERKELEY COUNTY SCHOOLS,Berkeley County,126 EXCELLENCE WAY,INWOOD,WV,25428,,(304)229-1950,22,Suburb: Midsize,†,No,–,–,1609,98.95,16.3,–,–
540006001375,WV-0400000-04304,5400060,WV-0400000,6,8,MUSSELMAN MIDDLE SCHOOL,BERKELEY COUNTY SCHOOLS,Berkeley County,105 PRIDE AVENUE,BUNKER HILL,WV,25413,,(304)229-1965,22,Suburb: Midsize,†,No,–,–,697,51.45,13.5,–,–
540093001224,WV-5600000-56241,5400930,WV-5600000,PK,5,MYLAN PARK ELEMENTARY SCHOOL,MONONGALIA COUNTY SCHOOLS,Monongalia County,901 MYLAN PARK LANE,MORGANTOWN,WV,26501,,(304)983-7700,41,Rural: Fringe,†,No,Yes,Yes,473,35,13.5,–,–
540162001168,WV-9600000-96222,5401620,WV-9600000,PK,5,NEALE ELEMENTARY SCHOOL,WOOD COUNTY SCHOOLS,Wood County,2305 GRAND CENTRAL AVE,VIENNA,WV,26105,9589,(304)420-9587,13,City: Small,†,No,Yes,Yes,395,27,14.6,–,–
540087000721,WV-5300000-53205,5400870,WV-5300000,PK,4,NEW CREEK PRIMARY SCHOOL,MINERAL COUNTY SCHOOLS,Mineral County,P. O. BOX 97,NEW CREEK,WV,26743,,(304)788-4249,41,Rural: Fringe,†,No,Yes,Yes,147,10.01,14.7,–,–
540078000622,WV-4900000-49210,5400780,WV-4900000,PK,6,NEW HAVEN ELEMENTARY SCHOOL,MASON COUNTY SCHOOLS,Mason County,135 MILL STREET,NEW HAVEN,WV,25265,,(304)882-2025,32,Town: Distant,†,No,–,–,518,30.25,17.1,–,–
540045000267,WV-2900000-29208,5400450,WV-2900000,PK,4,NEW MANCHESTER ELEMENTARY SCHOOL,HANCOCK COUNTY SCHOOLS,Hancock County,128 FRANKFORT ROAD,NEW CUMBERLAND,WV,26047,9462,(304)564-3242,41,Rural: Fringe,†,No,Yes,Yes,297,21.5,13.8,–,–
540156001127,WV-9200000-92202,5401560,WV-9200000,PK,8,NEW MARTINSVILLE SCHOOL,WETZEL COUNTY SCHOOLS,Wetzel County,20 E BENJAMIN DRIVE,NEW MARTINSVILLE,WV,26155,,(304)455-2291,32,Town: Distant,†,No,Yes,Yes,859,67,12.8,–,–
540030001475,WV-2000000-20226,5400300,WV-2000000,PK,4,NEW RIVER ELEMENTARY,FAYETTE COUNTY SCHOOLS,Fayette County,262 OYLER AVENUE,OAK HILL,WV,25901,,(304)465-3806,23,Suburb: Small,†,No,Yes,Yes,779,48,16.2,–,–
540030001597,WV-2000000-20228,5400300,WV-2000000,–,–,NEW RIVER INTERMEDIATE,FAYETTE COUNTY SCHOOLS,Fayette County,320 W. OYLER AVENUE,OAK HILL,WV,25901,,(304)465-3806,23,Suburb: Small,†,†,†,†,†,†,†,†,†
540030001598,WV-2000000-20227,5400300,WV-2000000,–,–,NEW RIVER PRIMARY,FAYETTE COUNTY SCHOOLS,Fayette County,308 W. OYLER AVENUE,OAK HILL,WV,25901,,(304)640-8649,23,Suburb: Small,†,†,†,†,†,†,†,†,†
540102001410,WV-6200000-62701,5401020,WV-6200000,–,–,NICHOLAS COUNTY CAREER/TECHNICAL CENTER,NICHOLAS COUNTY SCHOOLS,Nicholas County,215 MILAM ADDITION RD,CRAIGSVILLE,WV,26205,,(304)742-5416,42,Rural: Distant,†,No,–,–,–,11,†,–,–
540102000843,WV-6200000-62501,5401020,WV-6200000,9,12,NICHOLAS COUNTY HIGH SCHOOL,NICHOLAS COUNTY SCHOOLS,Nicholas County,30 GRIZZLY RD,SUMMERSVILLE,WV,26651,,(304)872-2141,41,Rural: Fringe,†,No,–,–,668,44,15.2,–,–
540018000129,WV-1200000-12269,5400180,WV-1200000,PK,5,NICHOLS ELEMENTARY SCHOOL,CABELL COUNTY SCHOOLS,Cabell County,3505 ERWIN ROAD,BARBOURSVILLE,WV,25504,,(304)733-3031,22,Suburb: Midsize,†,No,–,–,251,15.33,16.4,–,–
540060000425,WV-3900000-39248,5400600,WV-3900000,PK,5,NITRO ELEMENTARY SCHOOL,KANAWHA COUNTY SCHOOLS,Kanawha County,1921 19TH STREET,NITRO,WV,25143,,(304)755-2451,22,Suburb: Midsize,†,No,Yes,Yes,374,24,15.6,–,–
540060000426,WV-3900000-39508,5400600,WV-3900000,9,12,NITRO HIGH SCHOOL,KANAWHA COUNTY SCHOOLS,Kanawha County,1300 PARK AVENUE,NITRO,WV,25143,,(304)755-4321,22,Suburb: Midsize,†,No,–,–,783,41,19.1,–,–
540093001291,WV-5600000-56220,5400930,WV-5600000,PK,5,NORTH ELEMENTARY SCHOOL,MONONGALIA COUNTY SCHOOLS,Monongalia County,825 CHESTNUT RIDGE ROAD,MORGANTOWN,WV,26505,,(304)291-9280,13,City: Small,†,No,–,–,650,43.1,15.1,–,–
540126001004,WV-7500000-75207,5401260,WV-7500000,PK,5,NORTH ELEMENTARY SCHOOL,RANDOLPH COUNTY SCHOOLS,Randolph County,RT 2 BOX 320,ELKINS,WV,26241,9629,(304)636-9188,41,Rural: Fringe,†,No,Yes,Yes,256,19,13.5,–,–
540108001007,WV-6600000-66205,5401080,WV-6600000,PK,6,NORTH FORK ELEMENTARY SCHOOL,PENDLETON COUNTY SCHOOLS,Pendleton County,PO BOX 186,CIRCLEVILLE,WV,26804,,(304)567-3193,43,Rural: Remote,†,No,Yes,Yes,119,11.25,10.6,–,–
540057000345,WV-3700000-37202,5400570,WV-3700000,PK,5,NORTH JEFFERSON ELEMENTARY,JEFFERSON COUNTY SCHOOLS,Jefferson County,6996 CHARLES TOWN ROAD,KEARNEYSVILLE,WV,25430,2770,(304)725-9587,41,Rural: Fringe,†,No,Yes,Yes,285,22,13,–,–
540072001282,WV-4700000-47503,5400720,WV-4700000,9,12,NORTH MARION HIGH SCHOOL,MARION COUNTY SCHOOLS,Marion County,1 NORTH MARION DRIVE,FARMINGTON,WV,26571,3086,(304)986-3063,42,Rural: Distant,†,No,–,–,712,45,15.8,–,–
540051001437,WV-3300000-33213,5400510,WV-3300000,PK,5,NORTH VIEW ELEMENTARY SCHOOL,HARRISON COUNTY SCHOOLS,Harrison County,1400 N 19TH STREET,CLARKSBURG,WV,26301,,(304)326-7650,32,Town: Distant,†,No,Yes,Yes,324,23.87,13.6,–,–
540051000305,WV-3300000-33214,5400510,WV-3300000,PK,5,NORWOOD ELEMENTARY SCHOOL,HARRISON COUNTY SCHOOLS,Harrison County,208 KIDD AVE,STONEWOOD,WV,26301,,(304)326-7050,32,Town: Distant,†,No,–,–,347,20.74,16.7,–,–
540051000592,WV-3300000-33233,5400510,WV-3300000,3,5,NUTTER FORT INTERMEDIATE SCHOOL,HARRISON COUNTY SCHOOLS,Harrison County,1302 BUCKHANNON PK,NUTTER FORT,WV,26301,,(304)326-7501,32,Town: Distant,†,No,Yes,Yes,480,36.42,13.2,–,–
540051000591,WV-3300000-33232,5400510,WV-3300000,PK,2,NUTTER FORT PRIMARY SCHOOL,HARRISON COUNTY SCHOOLS,Harrison County,1302 BUCKHANNON PK,NUTTER FORT,WV,26301,,(304)326-7520,32,Town: Distant,†,No,Yes,Yes,629,45.98,13.7,–,–
540045000268,WV-2900000-29501,5400450,WV-2900000,9,12,OAK GLEN HIGH SCHOOL,HANCOCK COUNTY SCHOOLS,Hancock County,195 GOLDEN BEAR DRIVE,NEW CUMBERLAND,WV,26047,9172,(304)564-3500,41,Rural: Fringe,†,No,–,–,560,31.5,17.8,–,–
540045001193,WV-2900000-29303,5400450,WV-2900000,5,8,OAK GLEN MIDDLE SCHOOL,HANCOCK COUNTY SCHOOLS,Hancock County,39 GOLDEN BEAR DRIVE,NEW CUMBERLAND,WV,26047,,(304)387-2363,41,Rural: Fringe,†,No,Yes,Yes,506,39,13,–,–
540030000200,WV-2000000-20506,5400300,WV-2000000,9,12,OAK HILL HIGH,FAYETTE COUNTY SCHOOLS,Fayette County,350 WEST OYLER AVENUE,OAK HILL,WV,25901,,(304)469-3551,23,Suburb: Small,†,No,–,–,819,58,14.1,–,–
540030000172,WV-2000000-20302,5400300,WV-2000000,5,8,OAK HILL MIDDLE SCHOOL,FAYETTE COUNTY SCHOOLS,Fayette County,320 W. OYLER AVENUE,OAK HILL,WV,25901,,(304)469-3711,23,Suburb: Small,†,No,Yes,Yes,792,50,15.8,–,–
540084000698,WV-5100000-51216,5400840,WV-5100000,PK,5,OAKVALE SCHOOL,MERCER COUNTY SCHOOLS,Mercer County,2503 GOODWINS CHAPEL ROAD,PRINCETON,WV,24739,,(304)898-3731,42,Rural: Distant,†,No,Yes,Yes,165,14,11.8,–,–
540165001213,WV-9800000-98302,5401650,WV-9800000,5,8,OCEANA MIDDLE SCHOOL,WYOMING COUNTY SCHOOLS,Wyoming County,HC 65 BOX 403,OCEANA,WV,24870,,(304)682-6296,32,Town: Distant,†,No,Yes,Yes,244,17,14.4,–,–
540069000611,WV-4500000-45101,5400690,WV-4500000,PK,4,OMAR ELEMENTARY,LOGAN COUNTY SCHOOLS,Logan County,PO BOX 590,OMAR WV,WV,25638,,(304)946-2660,32,Town: Distant,†,No,Yes,Yes,189,15,12.6,–,–
540018000130,WV-1200000-12272,5400180,WV-1200000,PK,5,ONA ELEMENTARY SCHOOL,CABELL COUNTY SCHOOLS,Cabell County,2701 ELEMENTARY DR,ONA,WV,25545,,(304)743-7318,22,Suburb: Midsize,†,No,–,–,345,23,15,–,–
540006000028,WV-0400000-04210,5400060,WV-0400000,PK,2,OPEQUON ELEMENTARY SCHOOL,BERKELEY COUNTY SCHOOLS,Berkeley County,395 EAST ROAD,MARTINSBURG,WV,25404,,(304)267-3550,22,Suburb: Midsize,†,No,Yes,Yes,421,30.35,13.9,–,–
540006001122,WV-0400000-04219,5400060,WV-0400000,4,5,ORCHARD VIEW INTERMEDIATE SCHOOL,BERKELEY COUNTY SCHOOLS,Berkeley County,1455 DELMAR ORCHARD RD,MARTINSBURG,WV,25403,,(304)263-4143,13,City: Small,†,No,Yes,Yes,566,39,14.5,–,–
540060000429,WV-3900000-39250,5400600,WV-3900000,PK,5,OVERBROOK ELEMENTARY SCHOOL,KANAWHA COUNTY SCHOOLS,Kanawha County,218 OVERBROOK RD,CHARLESTON,WV,25314,,(304)348-6179,13,City: Small,†,No,–,–,366,22,16.6,–,–
540156001128,WV-9200000-92203,5401560,WV-9200000,PK,6,PADEN CITY ELEMENTARY SCHOOL,WETZEL COUNTY SCHOOLS,Wetzel County,510 N SECOND AVENUE,PADEN CITY,WV,26159,,(304)337-2221,32,Town: Distant,†,No,Yes,Yes,205,20.2,10.1,–,–
540156001129,WV-9200000-92503,5401560,WV-9200000,7,12,PADEN CITY HIGH SCHOOL,WETZEL COUNTY SCHOOLS,Wetzel County,201 N FOURTH AVENUE,PADEN CITY,WV,26159,,(304)337-2267,32,Town: Distant,†,No,–,–,199,16.8,11.8,–,–
540057000346,WV-3700000-37203,5400570,WV-3700000,KG,2,PAGE JACKSON ELEMENTARY,JEFFERSON COUNTY SCHOOLS,Jefferson County,370 PAGE JACKSON SCHOOL ROAD,CHARLES TOWN,WV,25414,5502,(304)728-9212,31,Town: Fringe,†,No,–,–,367,22,16.7,–,–
540102000837,WV-6200000-62220,5401020,WV-6200000,PK,5,PANTHER CREEK ELEMENTARY SCHOOL,NICHOLAS COUNTY SCHOOLS,Nicholas County,10068 CANVAS NETTIE ROAD,NETTIE,WV,26681,,(304)846-6808,42,Rural: Distant,†,No,–,–,255,17.5,14.6,–,–
540123000972,WV-7400000-74402,5401230,WV-7400000,6,8,PARK MIDDLE SCHOOL,RALEIGH COUNTY SCHOOLS,Raleigh County,212 PARK AVENUE,BECKLEY,WV,25801,,(304)256-4586,13,City: Small,†,No,–,–,415,32.5,12.8,–,–
540162001170,WV-9600000-96501,5401620,WV-9600000,9,12,PARKERSBURG HIGH SCHOOL,WOOD COUNTY SCHOOLS,Wood County,2101 DUDLEY AVE,PARKERSBURG,WV,26101,3492,(304)420-9595,13,City: Small,†,No,–,–,1739,98,17.7,–,–
540162001171,WV-9600000-96502,5401620,WV-9600000,9,12,PARKERSBURG SOUTH HIGH SCHOOL,WOOD COUNTY SCHOOLS,Wood County,1511 BLIZZARD DR,PARKERSBURG,WV,26101,6424,(304)420-9610,13,City: Small,†,No,–,–,1501,91,16.5,–,–
540099000823,WV-5800000-58204,5400990,WV-5800000,KG,6,PAW PAW ELEMENTARY SCHOOL,MORGAN COUNTY SCHOOLS,Morgan County,60 PIRATE CIRCLE,PAW PAW,WV,25434,,(304)304-7425,42,Rural: Distant,†,No,Yes,Yes,107,11.05,9.7,–,–
540099000824,WV-5800000-58502,5400990,WV-5800000,7,12,PAW PAW HIGH SCHOOL,MORGAN COUNTY SCHOOLS,Morgan County,60 PIRATE CIRCLE,PAW PAW,WV,25434,,(304)947-7425,42,Rural: Distant,†,No,–,–,88,9.5,9.3,–,–
540108000882,WV-6600000-66502,5401080,WV-6600000,7,12,PENDLETON COUNTY MIDDLE/HIGH SCHOOL,PENDLETON COUNTY SCHOOLS,Pendleton County,PO BOX 40,FRANKLIN,WV,26807,,(304)358-2573,42,Rural: Distant,†,No,–,–,399,34.5,11.6,–,–
540036000219,WV-2400000-24203,5400360,WV-2400000,PK,6,PETERSBURG ELEMENTARY SCHOOL,GRANT COUNTY SCHOOLS,Grant County,333 RIG STREET,PETERSBURG,WV,26847,,(304)257-1110,33,Town: Remote,†,No,Yes,Yes,650,38,17.1,–,–
540036000220,WV-2400000-24501,5400360,WV-2400000,7,12,PETERSBURG HIGH SCHOOL,GRANT COUNTY SCHOOLS,Grant County,207 JEFFERSON AVENUE,PETERSBURG,WV,26847,,(304)257-1444,33,Town: Remote,†,No,–,–,657,42.5,15.5,–,–
540063000478,WV-4100000-41207,5400630,WV-4100000,PK,4,PETERSON-CENTRAL ELEMENTARY SCHOOL,LEWIS COUNTY SCHOOLS,Lewis County,509 BERLIN ROAD,WESTON,WV,26452,,(304)269-8330,33,Town: Remote,†,No,Yes,Yes,517,32.55,15.9,–,–
540096000814,WV-5700000-57202,5400960,WV-5700000,PK,4,PETERSTOWN ELEMENTARY SCHOOL,MONROE COUNTY SCHOOLS,Monroe County,150 COLLEGE DRIVE,PETERSTOWN,WV,24963,,(304)753-4328,32,Town: Distant,†,No,Yes,Yes,433,30,14.4,–,–
540096000765,WV-5700000-57301,5400960,WV-5700000,5,8,PETERSTOWN MIDDLE SCHOOL,MONROE COUNTY SCHOOLS,Monroe County,56 COLLEGE DRIVE,PETERSTOWN,WV,24963,,(304)753-4322,32,Town: Distant,†,No,–,–,287,19.5,14.7,–,–
540003000008,WV-0200000-02501,5400030,WV-0200000,9,12,PHILIP BARBOUR HIGH SCHOOL COMPLEX,BARBOUR COUNTY SCHOOLS,Barbour County,99 HORSESHOE DRIVE,PHILIPPI,WV,26416,9686,(304)457-1360,41,Rural: Fringe,†,No,–,–,631,40.8,15.5,–,–
540003000009,WV-0200000-02204,5400030,WV-0200000,PK,4,PHILIPPI ELEMENTARY SCHOOL,BARBOUR COUNTY SCHOOLS,Barbour County,547 CHERRY HILL ROAD,PHILIPPI,WV,26416,7709,(304)457-4229,32,Town: Distant,†,No,Yes,Yes,434,29.86,14.5,–,–
540003000010,WV-0200000-02303,5400030,WV-0200000,5,8,PHILIPPI MIDDLE SCHOOL,BARBOUR COUNTY SCHOOLS,Barbour County,611 CHERRY HILL ROAD,PHILIPPI,WV,26416,7709,(304)457-2999,32,Town: Distant,†,No,Yes,Yes,341,24.08,14.2,–,–
540126001363,WV-7500000-75103,5401260,WV-7500000,PK,12,PICKENS ELEMENTARY/HIGH SCHOOL,RANDOLPH COUNTY SCHOOLS,Randolph County,ONE PANTHER PLACE,PICKENS,WV,26230,9999,(304)924-5525,43,Rural: Remote,†,No,–,–,33,6.5,5.1,–,–
540060000872,WV-3900000-39282,5400600,WV-3900000,PK,5,PIEDMONT YEAR-ROUND EDUCATION,KANAWHA COUNTY SCHOOLS,Kanawha County,203 BRADFORD STREET,CHARLESTON,WV,25301,,(304)348-1910,13,City: Small,†,No,Yes,Yes,349,25,14,–,–
540006001586,WV-0400000-04602,5400060,WV-0400000,–,–,PIKESIDE LEARNING CENTER,BERKELEY COUNTY SCHOOLS,Berkeley County,3635 WINCHESTER AVE,MARTINSBURG,WV,25405,,(304)267-3555,22,Suburb: Midsize,†,No,–,–,†,3.2,†,†,†
540084000741,WV-5100000-51509,5400840,WV-5100000,9,12,PIKEVIEW HIGH SCHOOL,MERCER COUNTY SCHOOLS,Mercer County,3566 EADS MILL ROAD,PRINCETON,WV,24739,,(304)384-7586,41,Rural: Fringe,†,No,–,–,650,31.5,20.6,–,–
540084001480,WV-5100000-51302,5400840,WV-5100000,6,8,PIKEVIEW MIDDLE SCHOOL,MERCER COUNTY SCHOOLS,Mercer County,3550 EADS MILL ROAD,PRINCETON,WV,24739,8307,(304)384-3600,41,Rural: Fringe,†,No,–,–,524,32,16.4,–,–
540060000433,WV-3900000-39253,5400600,WV-3900000,PK,5,PINCH ELEMENTARY SCHOOL,KANAWHA COUNTY SCHOOLS,Kanawha County,300 SOUTH PINCH RD,ELKVIEW,WV,25071,,(304)348-1943,22,Suburb: Midsize,†,No,–,–,344,21.6,15.9,–,–
540165001215,WV-9800000-98212,5401650,WV-9800000,PK,4,PINEVILLE ELEMENTARY SCHOOL,WYOMING COUNTY SCHOOLS,Wyoming County,PO BOX 700,PINEVILLE,WV,24874,,(304)732-7966,42,Rural: Distant,†,No,Yes,Yes,405,28,14.5,–,–
540165001217,WV-9800000-98303,5401650,WV-9800000,5,8,PINEVILLE MIDDLE SCHOOL,WYOMING COUNTY SCHOOLS,Wyoming County,PO BOX 470,PINEVILLE,WV,24874,,(304)732-6442,42,Rural: Distant,†,No,Yes,Yes,256,16,16,–,–
540021000144,WV-1400000-14203,5400210,WV-1400000,PK,4,PLEASANT HILL SCHOOL,CALHOUN COUNTY SCHOOLS,Calhoun County,3254 N CALHOUN HWY,GRANTSVILLE,WV,26147,7012,(304)354-6022,43,Rural: Remote,†,No,Yes,Yes,190,16.75,11.3,–,–
540072000572,WV-4700000-47212,5400720,WV-4700000,KG,4,PLEASANT VALLEY ELEMENTARY SCHOOL,MARION COUNTY SCHOOLS,Marion County,1858 VALLEY SCHOOL ROAD,PLEASANT VALLEY,WV,26554,9219,(304)304-2148,32,Town: Distant,†,No,–,–,192,14,13.7,–,–
540099000825,WV-5800000-58205,5400990,WV-5800000,KG,5,PLEASANT VIEW ELEMENTARY SCHOOL,MORGAN COUNTY SCHOOLS,Morgan County,10500 MARTINSBURG ROAD,HEDGESVILLE,WV,25427,,(304)304-2606,42,Rural: Distant,†,No,Yes,Yes,136,8.7,15.6,–,–
540111001264,WV-6700000-67301,5401110,WV-6700000,5,8,PLEASANTS COUNTY MIDDLE SCHOOL,PLEASANTS COUNTY SCHOOLS,Pleasants County,510 RIVERVIEW DRIVE,BELMONT,WV,26134,,(304)299-5275,32,Town: Distant,†,No,Yes,Yes,330,23.4,14.1,–,–
540120000930,WV-7200000-72255,5401200,WV-7200000,PK,5,POCA ELEMENTARY,PUTNAM COUNTY SCHOOLS,Putnam County,P.O. BOX 430,POCA,WV,25159,,(304)755-7561,22,Suburb: Midsize,†,No,Yes,Yes,309,21,14.7,–,–
540120000931,WV-7200000-72515,5401200,WV-7200000,9,12,POCA HIGH SCHOOL,PUTNAM COUNTY SCHOOLS,Putnam County,#1 DOT WAY,POCA,WV,25159,,(304)755-5001,22,Suburb: Midsize,†,No,–,–,488,39,12.5,–,–
540120000932,WV-7200000-72315,5401200,WV-7200000,6,8,POCA MIDDLE SCHOOL,PUTNAM COUNTY SCHOOLS,Putnam County,2884 CHARLESTON ROAD,POCA,WV,25159,,(304)755-7343,22,Suburb: Midsize,†,No,–,–,297,25,11.9,–,–
540114000896,WV-6900000-69501,5401140,WV-6900000,9,12,POCAHONTAS COUNTY HIGH SCHOOL,POCAHONTAS COUNTY SCHOOLS,Pocahontas County,271 WARRIOR WAY,DUNMORE,WV,24934,,(304)799-6565,43,Rural: Remote,†,No,–,–,302,28.1,10.7,–,–
540060000434,WV-3900000-39254,5400600,WV-3900000,KG,5,POINT HARMONY ELEMENTARY SCHOOL,KANAWHA COUNTY SCHOOLS,Kanawha County,5312 BIG TYLER ROAD,CROSS LANES,WV,25313,,(304)776-3482,22,Suburb: Midsize,†,No,–,–,549,32,17.2,–,–
540078000625,WV-4900000-49502,5400780,WV-4900000,7,12,POINT PLEASANT JUNIOR/SENIOR HIGH SCHOOL,MASON COUNTY SCHOOLS,Mason County,280 SCENIC ROAD,POINT PLEASANT,WV,25550,,(304)675-1350,32,Town: Distant,†,No,–,–,1102,62.5,17.6,–,–
540006000910,WV-0400000-04216,5400060,WV-0400000,3,5,POTOMACK INTERMEDIATE SCHOOL,BERKELEY COUNTY SCHOOLS,Berkeley County,5308 WILLIAMSPORT PIKE,MARTINSBURG,WV,25404,,(304)274-6592,22,Suburb: Midsize,†,No,–,–,874,52.55,16.6,–,–
540060000435,WV-3900000-39255,5400600,WV-3900000,PK,5,PRATT ELEMENTARY SCHOOL,KANAWHA COUNTY SCHOOLS,Kanawha County,206 PRATT AVENUE,PRATT,WV,25162,,(304)949-4838,31,Town: Fringe,†,No,Yes,Yes,202,17,11.9,–,–
540051101473,WV-3400000-34137,5400511,WV-3400000,–,–,PRESSLEY RIDGE @ GRANT GARDENS,INSTITUTIONAL EDUCATIONAL PROGRAMS,Cabell County,2580 GRANT GARDENS ROAD,ONA,WV,25545,,(304)743-3974,22,Suburb: Midsize,†,No,–,–,†,–,†,–,–
540051101519,WV-3400000-34139,5400511,WV-3400000,–,–,PRESSLEY RIDGE AT LAUREL PARK,INSTITUTIONAL EDUCATIONAL PROGRAMS,Harrison County,591 PRESSLEY RIDGE ROAD,CLARKSBURG,WV,26301,,(304)627-2331,41,Rural: Fringe,†,No,–,–,†,–,†,–,–
540117001511,WV-7000000-70507,5401170,WV-7000000,9,12,PRESTON HIGH SCHOOL,PRESTON COUNTY SCHOOLS,Preston County,400 KNIGHT DRIVE,KINGWOOD,WV,26537,1553,(304)329-0400,41,Rural: Fringe,†,No,–,–,1213,81.5,14.9,–,–
540150001108,WV-8900000-89213,5401500,WV-8900000,PK,5,PRICHARD ELEMENTARY SCHOOL,WAYNE COUNTY SCHOOLS,Wayne County,500 PRICHARD ROAD,PRICHARD,WV,25555,,(304)486-5096,42,Rural: Distant,†,No,–,–,160,10,16,–,–
540084000702,WV-5100000-51403,5400840,WV-5100000,6,8,PRINCETON MIDDLE SCHOOL,MERCER COUNTY SCHOOLS,Mercer County,300 N. JOHNSTON STREET,PRINCETON,WV,24740,2650,(304)425-7517,32,Town: Distant,†,No,Yes,Yes,508,44.5,11.4,–,–
540084001120,WV-5100000-51245,5400840,WV-5100000,KG,2,PRINCETON PRIMARY SCHOOL,MERCER COUNTY SCHOOLS,Mercer County,180 TIGER DRIVE,PRINCETON,WV,24739,8904,(304)487-3904,32,Town: Distant,†,No,Yes,Yes,507,32.5,15.6,–,–
540084000701,WV-5100000-51507,5400840,WV-5100000,9,12,PRINCETON SENIOR HIGH SCHOOL,MERCER COUNTY SCHOOLS,Mercer County,1321 STAFFORD DRIVE,PRINCETON,WV,24740,2467,(304)425-8101,32,Town: Distant,†,No,–,–,992,55,18,–,–
540078001136,WV-4900000-49218,5400780,WV-4900000,3,6,PT. PLEASANT INTERMEDIATE,MASON COUNTY SCHOOLS,Mason County,1 WALDEN WAY,PT. PLEASANT,WV,25550,,(304)675-1430,32,Town: Distant,†,No,Yes,Yes,367,26.5,13.8,–,–
540078001086,WV-4900000-49217,5400780,WV-4900000,PK,2,PT. PLEASANT PRIMARY,MASON COUNTY SCHOOLS,Mason County,2200 LINCOLN AVE,PT. PLEASANT,WV,25550,,(304)675-1420,32,Town: Distant,†,No,Yes,Yes,354,21,16.9,–,–
540120000933,WV-7200000-72705,5401200,WV-7200000,–,–,PUTNAM CAREER & TECHNICAL CENTER,PUTNAM COUNTY SCHOOLS,Putnam County,P.O. BOX 640,ELEANOR,WV,25070,,(304)586-3494,22,Suburb: Midsize,†,No,–,–,–,23.5,†,–,–
540039000237,WV-2600000-26102,5400390,WV-2600000,PK,5,RAINELLE ELEMENTARY,GREENBRIER COUNTY SCHOOLS,Greenbrier County,643 KANAWHA AVENUE,RAINELLE,WV,25962,,(304)438-8861,42,Rural: Distant,†,No,Yes,Yes,240,19.2,12.5,–,–
540069001395,WV-4500000-45701,5400690,WV-4500000,–,–,RALPH R WILLIS CAREER/TECHNICAL CENTER,LOGAN COUNTY SCHOOLS,Logan County,PO BOX 1747,LOGAN,WV,25601,,(304)752-4687,41,Rural: Fringe,†,No,–,–,–,15,†,–,–
540009000048,WV-0600000-06212,5400090,WV-0600000,PK,5,RAMAGE ELEMENTARY,BOONE COUNTY SCHOOLS,Boone County,15908 SPRUCE RIVER ROAD,DANVILLE,WV,25053,,(304)369-0763,41,Rural: Fringe,†,No,Yes,Yes,249,20,12.5,–,–
540126001017,WV-7500000-75505,5401260,WV-7500000,PK,12,RANDOLPH COUNTY ALTERNATIVE CENTER,RANDOLPH COUNTY SCHOOLS,Randolph County,1425 SOUTH DAVIS AVENUE,ELKINS,WV,26241,3598,(304)636-9156,33,Town: Remote,†,No,–,–,11,2,5.5,–,–
540126001416,WV-7500000-75701,5401260,WV-7500000,–,–,RANDOLPH TECHNICAL CENTER,RANDOLPH COUNTY SCHOOLS,Randolph County,200 KENNEDY DRIVE,ELKINS,WV,26241,9527,(304)636-9195,33,Town: Remote,†,No,–,–,–,17,†,–,–
540066000500,WV-4300000-43214,5400660,WV-4300000,PK,5,RANGER ELEMENTARY,LINCOLN COUNTY SCHOOLS,Lincoln County,59 VANATTERS CREEK,RANGER,WV,25557,,(304)778-3454,42,Rural: Distant,†,No,Yes,Yes,100,10.5,9.5,–,–
540057000347,WV-3700000-37204,5400570,WV-3700000,PK,5,RANSON ELEMENTARY SCHOOL,JEFFERSON COUNTY SCHOOLS,Jefferson County,600 NORTH PRESTON STREET,RANSON,WV,25438,1546,(304)725-7310,31,Town: Fringe,†,No,Yes,Yes,382,28.5,13.4,–,–
540054000335,WV-3500000-35208,5400540,WV-3500000,3,5,RAVENSWOOD GRADE SCHOOL,JACKSON COUNTY SCHOOLS,Jackson County,#1 GRADE SCHOOL ROAD,RAVENSWOOD,WV,26164,,(304)273-5391,41,Rural: Fringe,†,No,Yes,Yes,270,20.25,13.3,–,–
540054000336,WV-3500000-35501,5400540,WV-3500000,9,12,RAVENSWOOD HIGH SCHOOL,JACKSON COUNTY SCHOOLS,Jackson County,100 PLAZA DRIVE,RAVENSWOOD,WV,26164,,(304)273-9301,32,Town: Distant,†,No,–,–,432,28.55,15.1,–,–
540054001240,WV-3500000-35301,5400540,WV-3500000,6,8,RAVENSWOOD MIDDLE SCHOOL,JACKSON COUNTY SCHOOLS,Jackson County,514 SOUTH RITCHIE AVENUE,RAVENSWOOD,WV,26164,,(304)273-5480,32,Town: Distant,†,No,–,–,326,24.85,13.1,–,–
540060000437,WV-3900000-39257,5400600,WV-3900000,PK,5,RICHMOND ELEMENTARY SCHOOL,KANAWHA COUNTY SCHOOLS,Kanawha County,4620 SPRING HILL AVENUE,SOUTH CHARLESTON,WV,25309,,(304)766-0357,22,Suburb: Midsize,†,No,Yes,Yes,280,18.5,15.1,–,–
540102000847,WV-6200000-62502,5401020,WV-6200000,9,12,RICHWOOD HIGH SCHOOL,NICHOLAS COUNTY SCHOOLS,Nicholas County,16414 WEBSTER RD,CRAIGSVILLE,WV,26205,,(304)846-2591,42,Rural: Distant,†,No,–,–,366,24,15.3,–,–
540102000846,WV-6200000-62401,5401020,WV-6200000,6,8,RICHWOOD MIDDLE SCHOOL,NICHOLAS COUNTY SCHOOLS,Nicholas County,200 RIVERSIDE DRIVE,RICHWOOD,WV,26261,,(304)846-2638,43,Rural: Remote,†,No,–,–,262,19,13.8,–,–
540093000763,WV-5600000-56204,5400930,WV-5600000,PK,5,RIDGEDALE ELEMENTARY SCHOOL,MONONGALIA COUNTY SCHOOLS,Monongalia County,1550 GOSHEN ROAD,MORGANTOWN,WV,26508,,(304)291-9231,41,Rural: Fringe,†,No,–,–,466,29,16.1,–,–
540123001591,WV-7400000-74220,5401230,WV-7400000,PK,5,RIDGEVIEW ELEMENTARY,RALEIGH COUNTY SCHOOLS,Raleigh County,388 TANK HILL ROAD,SOPHIA,WV,25921,,(304)683-4572,41,Rural: Fringe,†,No,Yes,Yes,528,30,17.6,–,–
540054000337,WV-3500000-35209,5400540,WV-3500000,PK,5,RIPLEY ELEMENTARY SCHOOL,JACKSON COUNTY SCHOOLS,Jackson County,404 SECOND AVENUE,RIPLEY,WV,25271,,(304)372-7345,32,Town: Distant,†,No,Yes,Yes,616,45.4,13.6,–,–
540054000338,WV-3500000-35502,5400540,WV-3500000,9,12,RIPLEY HIGH SCHOOL,JACKSON COUNTY SCHOOLS,Jackson County,2 SCHOOL STREET,RIPLEY,WV,25271,,(304)372-7355,32,Town: Distant,†,No,–,–,919,54.9,16.7,–,–
540054001239,WV-3500000-35302,5400540,WV-3500000,6,8,RIPLEY MIDDLE SCHOOL,JACKSON COUNTY SCHOOLS,Jackson County,#1 WEST SCHOOL STREET,RIPLEY,WV,25271,,(304)372-7350,41,Rural: Fringe,†,No,–,–,677,42.05,16.1,–,–
540129001021,WV-7700000-77501,5401290,WV-7700000,9,12,RITCHIE COUNTY HIGH SCHOOL,RITCHIE COUNTY SCHOOLS,Ritchie County,201 RITCHIE CO SCHOOL RD STE 2,ELLENBORO,WV,26346,6704,(304)869-3526,42,Rural: Distant,†,No,–,–,437,29,15.1,–,–
540129000663,WV-7700000-77302,5401290,WV-7700000,5,8,RITCHIE COUNTY MIDDLE,RITCHIE COUNTY SCHOOLS,Ritchie County,201 RITCHIE CO SCHOOL RD STE 1,ELLENBORO,WV,26346,6704,(304)869-3512,42,Rural: Distant,†,No,Yes,Yes,406,30.45,13.3,–,–
540105000866,WV-6400000-64209,5401050,WV-6400000,PK,5,RITCHIE ELEMENTARY SCHOOL,OHIO COUNTY SCHOOLS,Ohio County,3700 WOOD ST,WHEELING,WV,26003,4399,(304)243-0372,13,City: Small,†,No,Yes,Yes,306,24.5,12.5,–,–
540081001477,WV-6000000-60520,5400810,WV-6000000,9,12,RIVER VIEW HIGH SCHOOL,MCDOWELL COUNTY SCHOOLS,McDowell County,POST OFFICE BOX 800,BRADSHAW,WV,24817,,(304)967-7480,43,Rural: Remote,†,No,–,–,481,26,18.5,–,–
540060001043,WV-3900000-39514,5400600,WV-3900000,9,12,RIVERSIDE HIGH SCHOOL,KANAWHA COUNTY SCHOOLS,Kanawha County,#1 WARRIOR WAY,BELLE,WV,25015,,(304)348-1996,22,Suburb: Midsize,†,No,–,–,1097,58,18.9,–,–
540072000574,WV-4700000-47102,5400720,WV-4700000,PK,8,RIVESVILLE ELEMENTARY/MIDDLE SCHOOL,MARION COUNTY SCHOOLS,Marion County,229 PHILLIPS AVENUE,RIVESVILLE,WV,26588,9838,(304)278-5331,32,Town: Distant,†,No,Yes,Yes,359,25,14.4,–,–
540165001218,WV-9800000-98214,5401650,WV-9800000,PK,8,ROAD BRANCH ELEMENTARY & MIDDLE SCHOOL,WYOMING COUNTY SCHOOLS,Wyoming County,HC 80 BOX 422,CYCLONE,WV,24827,,(304)682-5916,42,Rural: Distant,†,No,Yes,Yes,183,15,12.2,–,–
540132000666,WV-7900000-79503,5401320,WV-7900000,9,12,ROANE COUNTY HIGH,ROANE COUNTY SCHOOLS,Roane County,ONE RAIDER WAY,SPENCER,WV,25276,,(304)927-6420,41,Rural: Fringe,†,No,–,–,617,40,15.4,–,–
540054001391,WV-3500000-35701,5400540,WV-3500000,–,–,ROANE-JACKSON VO-TECH CENTER,JACKSON COUNTY SCHOOLS,Jackson County,9450 SPENCER ROAD,LEROY,WV,25252,,(304)372-7335,42,Rural: Distant,†,No,–,–,–,17,†,–,–
540063000475,WV-4100000-41205,5400630,WV-4100000,PK,4,ROANOKE ELEMENTARY SCHOOL,LEWIS COUNTY SCHOOLS,Lewis County,1176 OIL CREEK ROAD,ROANOKE,WV,26447,,(304)452-8887,42,Rural: Distant,†,No,Yes,Yes,167,12.6,13.3,–,–
540051000320,WV-3300000-33506,5400510,WV-3300000,9,12,ROBERT C BYRD HIGH SCHOOL,HARRISON COUNTY SCHOOLS,Harrison County,1 EAGLE WAY,CLARKSBURG,WV,26301,,(304)326-7200,41,Rural: Fringe,†,No,–,–,700,51.34,13.6,–,–
540063001459,WV-4100000-41301,5400630,WV-4100000,5,8,ROBERT L. BLAND MIDDLE SCHOOL,LEWIS COUNTY SCHOOLS,Lewis County,358 COURT AVENUE,WESTON,WV,26452,,(304)269-8325,33,Town: Remote,†,No,–,–,777,50.9,15.3,–,–
540051101234,WV-3400000-34129,5400511,WV-3400000,–,–,ROBERT L. SHELL JUVENILE CENTER,INSTITUTIONAL EDUCATIONAL PROGRAMS,Cabell County,2 O?HANLON PLACE,BARBOURSVILLE,WV,25504,,(304)733-2069,22,Suburb: Midsize,†,No,–,–,†,–,†,–,–
540120000934,WV-7200000-72260,5401200,WV-7200000,PK,5,ROCK BRANCH ELEMENTARY,PUTNAM COUNTY SCHOOLS,Putnam County,4616 1ST AVE,NITRO,WV,25143,,(304)755-1443,22,Suburb: Midsize,†,No,Yes,Yes,229,19.2,11.9,–,–
540147001084,WV-8700000-87208,5401470,WV-8700000,PK,5,ROCK CAVE ELEMENTARY,UPSHUR COUNTY SCHOOLS,Upshur County,122092 ROUTE 20 SOUTH ROAD,ROCK CAVE,WV,26201,,(304)924-6969,42,Rural: Distant,†,No,Yes,Yes,136,10.34,13.2,–,–
540042000251,WV-2800000-28206,5400420,WV-2800000,PK,5,ROMNEY ELEMENTARY SCHOOL,HAMPSHIRE COUNTY SCHOOLS,Hampshire County,45 SCHOOL STREET,ROMNEY,WV,26757,,(304)822-3018,42,Rural: Distant,†,No,Yes,Yes,431,29.35,14.7,–,–
540042000252,WV-2800000-28402,5400420,WV-2800000,6,8,ROMNEY MIDDLE SCHOOL,HAMPSHIRE COUNTY SCHOOLS,Hampshire County,296 CALVERT DRIVE,ROMNEY,WV,26757,,(304)822-5014,42,Rural: Distant,†,No,–,–,405,29.55,13.7,–,–
540051100967,WV-3400000-34122,5400511,WV-3400000,–,–,RONALD C MULHOLLAND JUVENILE CENTER,INSTITUTIONAL EDUCATIONAL PROGRAMS,Ohio County,1000 CHAPLINE STREET,WHEELING,WV,26003,,(304)233-9506,13,City: Small,†,No,–,–,†,–,†,–,–
540039000239,WV-2600000-26207,5400390,WV-2600000,PK,5,RONCEVERTE ELEMENTARY,GREENBRIER COUNTY SCHOOLS,Greenbrier County,879 ROCKY HILL,RONCEVERTE,WV,24970,,(304)647-6480,41,Rural: Fringe,†,No,Yes,Yes,365,26.5,13.8,–,–
540078000628,WV-4900000-49213,5400780,WV-4900000,PK,6,ROOSEVELT ELEMENTARY SCHOOL,MASON COUNTY SCHOOLS,Mason County,7953 RIPLEY ROAD,POINT PLEASANT,WV,25550,,(304)675-3337,41,Rural: Fringe,†,No,–,–,263,14,18.8,–,–
540030000205,WV-2000000-20223,5400300,WV-2000000,PK,4,ROSEDALE ELEMENTARY,FAYETTE COUNTY SCHOOLS,Fayette County,3950 SUMMERLEE RD,OAK HILL,WV,25901,,(304)469-6661,23,Suburb: Small,†,No,Yes,Yes,237,17,13.9,–,–
540006000031,WV-0400000-04211,5400060,WV-0400000,PK,3,ROSEMONT ELEMENTARY SCHOOL,BERKELEY COUNTY SCHOOLS,Berkeley County,301 SOUTH ALABAMA AVENUE,MARTINSBURG,WV,25401,,(304)267-3560,13,City: Small,†,No,Yes,Yes,435,31.8,13.7,–,–
540117001431,WV-7000000-70103,5401170,WV-7000000,KG,8,ROWLESBURG SCHOOL,PRESTON COUNTY SCHOOLS,Preston County,46 CENTER STREET,ROWLESBURG,WV,26425,,(304)454-9311,42,Rural: Distant,†,No,Yes,Yes,87,10,8.7,–,–
540060000440,WV-3900000-39260,5400600,WV-3900000,PK,5,RUFFNER ELEMENTARY SCHOOL,KANAWHA COUNTY SCHOOLS,Kanawha County,809 LITZ DRIVE,CHARLESTON,WV,25311,,(304)348-1130,13,City: Small,†,No,–,–,288,20,14.4,–,–
540039000240,WV-2600000-26103,5400390,WV-2600000,PK,5,RUPERT ELEMENTARY,GREENBRIER COUNTY SCHOOLS,Greenbrier County,190 CRIMSON TIDE WAY,RUPERT,WV,24931,,(304)392-5235,42,Rural: Distant,†,No,Yes,Yes,180,14.8,12.2,–,–
540060000441,WV-3900000-39261,5400600,WV-3900000,PK,5,RUTHLAWN ELEMENTARY SCHOOL,KANAWHA COUNTY SCHOOLS,Kanawha County,736 RUTHDALE ROAD,SO CHARLESTON,WV,25309,,(304)744-9481,22,Suburb: Midsize,†,No,–,–,252,17.5,14.4,–,–
540060000444,WV-3900000-39509,5400600,WV-3900000,9,12,SAINT ALBANS HIGH SCHOOL,KANAWHA COUNTY SCHOOLS,Kanawha County,2100 KANAWHA TERRACE,ST. ALBANS,WV,25177,,(304)722-0212,22,Suburb: Midsize,†,No,–,–,1092,55,19.9,–,–
540051001230,WV-3300000-33234,5400510,WV-3300000,PK,5,SALEM ELEMENTARY,HARRISON COUNTY SCHOOLS,Harrison County,273 EDUCATION WAY,SALEM,WV,26426,,(304)326-7180,42,Rural: Distant,†,No,Yes,Yes,259,21.17,12.2,–,–
540018000680,WV-1200000-12285,5400180,WV-1200000,PK,5,SALT ROCK ELEMENTARY SCHOOL,CABELL COUNTY SCHOOLS,Cabell County,5570 MADISON CREEK RD,SALT ROCK,WV,25559,,(304)733-3037,41,Rural: Fringe,†,No,–,–,219,14.67,14.9,–,–
540051100964,WV-3400000-34121,5400511,WV-3400000,–,–,SAM PERDUE JUVENILE CENTER,INSTITUTIONAL EDUCATIONAL PROGRAMS,Mercer County,843 SHELTER ROAD,PRINCETON,WV,24739,,(304)425-4689,41,Rural: Fringe,†,No,–,–,†,–,†,–,–
540075000601,WV-4800000-48209,5400750,WV-4800000,KG,5,SAND HILL ELEMENTARY SCHOOL,MARSHALL COUNTY SCHOOLS,Marshall County,169 SAND HILL RD,DALLAS,WV,26036,,(304)547-5041,41,Rural: Fringe,†,No,–,–,70,5,14,–,–
540081001046,WV-6000000-60304,5400810,WV-6000000,6,8,SANDY RIVER MIDDLE SCHOOL,MCDOWELL COUNTY SCHOOLS,McDowell County,POST OFFICE BOX 419,AVONDALE,WV,24811,,(304)938-2407,42,Rural: Distant,†,No,–,–,244,15,16.3,–,–
540009000049,WV-0600000-06501,5400090,WV-0600000,9,12,SCOTT HIGH SCHOOL,BOONE COUNTY SCHOOLS,Boone County,1 SKYHAWK PLACE,MADISON,WV,25130,,(304)369-3011,32,Town: Distant,†,No,–,–,655,35.5,18.5,–,–
540120000935,WV-7200000-72265,5401200,WV-7200000,PK,5,SCOTT TEAYS ELEMENTARY,PUTNAM COUNTY SCHOOLS,Putnam County,6153 TEAYS VALLEY ROAD,SCOTT DEPOT,WV,25560,,(304)757-7279,22,Suburb: Midsize,†,No,–,–,479,21.7,22.1,–,–
540123000979,WV-7400000-74227,5401230,WV-7400000,PK,5,SHADY SPRING ELEMENTARY,RALEIGH COUNTY SCHOOLS,Raleigh County,600 FLAT TOP ROAD,SHADY SPRING,WV,25918,,(304)256-4633,41,Rural: Fringe,†,No,–,–,510,32,15.9,–,–
540123000980,WV-7400000-74505,5401230,WV-7400000,9,12,SHADY SPRING HIGH,RALEIGH COUNTY SCHOOLS,Raleigh County,300 HINTON ROAD,SHADY SPRING,WV,25918,,(304)256-4647,23,Suburb: Small,†,No,–,–,787,53,14.8,–,–
540123000981,WV-7400000-74403,5401230,WV-7400000,6,8,SHADY SPRING MIDDLE SCHOOL,RALEIGH COUNTY SCHOOLS,Raleigh County,500 FLAT TOP ROAD,SHADY SPRING,WV,25918,,(304)256-4570,41,Rural: Fringe,†,No,–,–,700,40,17.5,–,–
540060000446,WV-3900000-39262,5400600,WV-3900000,PK,5,SHARON DAWES ELEMENTARY SCHOOL,KANAWHA COUNTY SCHOOLS,Kanawha County,4933 CABIN CREEK ROAD,MIAMI,WV,25134,,(304)595-3323,22,Suburb: Midsize,†,No,Yes,Yes,153,14.5,10.6,–,–
540057000348,WV-3700000-37205,5400570,WV-3700000,PK,5,SHEPHERDSTOWN ELEMENTARY SCHOOL,JEFFERSON COUNTY SCHOOLS,Jefferson County,662 SOUTH CHURCH STREET,SHEPHERDSTOWN,WV,25443,4717,(304)876-6270,41,Rural: Fringe,†,No,–,–,414,26,15.9,–,–
540057000349,WV-3700000-37403,5400570,WV-3700000,6,8,SHEPHERDSTOWN MIDDLE SCHOOL,JEFFERSON COUNTY SCHOOLS,Jefferson County,54 MINDEN AVENUE,SHEPHERDSTOWN,WV,25443,4771,(304)876-6120,41,Rural: Fringe,†,No,–,–,374,28.5,13.1,–,–
540009000793,WV-0600000-06219,5400090,WV-0600000,PK,5,SHERMAN ELEMENTARY SCHOOL,BOONE COUNTY SCHOOLS,Boone County,PO BOX 369,COMFORT,WV,25049,,(304)837-8310,42,Rural: Distant,†,No,–,–,304,24,12.7,–,–
540009000051,WV-0600000-06502,5400090,WV-0600000,9,12,SHERMAN HIGH SCHOOL,BOONE COUNTY SCHOOLS,Boone County,PO BOX AB,SETH,WV,25181,,(304)837-3301,42,Rural: Distant,†,No,–,–,425,25,17,–,–
540009001325,WV-0600000-06401,5400090,WV-0600000,6,8,SHERMAN JUNIOR HIGH SCHOOL,BOONE COUNTY SCHOOLS,Boone County,PO BOX AA,SETH,WV,25181,,(304)837-3694,42,Rural: Distant,†,No,–,–,295,17,17.4,–,–
540075000604,WV-4800000-48402,5400750,WV-4800000,6,8,SHERRARD MIDDLE SCHOOL,MARSHALL COUNTY SCHOOLS,Marshall County,1000 FAIRMONT PK,WHEELING,WV,26003,,(304)233-3331,41,Rural: Fringe,†,No,–,–,412,30,13.7,–,–
540060000448,WV-3900000-39263,5400600,WV-3900000,PK,5,SHOALS ELEMENTARY SCHOOL,KANAWHA COUNTY SCHOOLS,Kanawha County,100 DUTCH RD,CHARLESTON,WV,25302,,(304)348-1900,22,Suburb: Midsize,†,No,–,–,225,15.4,14.6,–,–
540156001295,WV-9200000-92204,5401560,WV-9200000,PK,8,SHORT LINE SCHOOL,WETZEL COUNTY SCHOOLS,Wetzel County,HC 60 BOX 170,READER,WV,26167,,(304)386-4115,42,Rural: Distant,†,No,Yes,Yes,380,33.5,11.3,–,–
540051000313,WV-3300000-33220,5400510,WV-3300000,PK,5,SIMPSON ELEMENTARY SCHOOL,HARRISON COUNTY SCHOOLS,Harrison County,250 WORTHINGTON DR,BRIDGEPORT,WV,26330,,(304)326-7060,32,Town: Distant,†,No,–,–,452,26.5,17.1,–,–
540060000449,WV-3900000-39264,5400600,WV-3900000,PK,4,SISSONVILLE ELEMENTARY SCHOOL,KANAWHA COUNTY SCHOOLS,Kanawha County,8324 SISSONVILLE DRIVE,SISSONVILLE,WV,25320,,(304)348-1961,41,Rural: Fringe,†,No,Yes,Yes,265,18.5,14.3,–,–
540060000450,WV-3900000-39510,5400600,WV-3900000,9,12,SISSONVILLE HIGH SCHOOL,KANAWHA COUNTY SCHOOLS,Kanawha County,6100 SISSONVILLE DR.,CHARLESTON,WV,25312,,(304)348-1954,41,Rural: Fringe,†,No,–,–,598,39,15.3,–,–
540060000451,WV-3900000-39417,5400600,WV-3900000,5,8,SISSONVILLE MIDDLE SCHOOL,KANAWHA COUNTY SCHOOLS,Kanawha County,100 MIDDLE SCHOOL LANE,CHARLESTON,WV,25312,,(304)348-1993,41,Rural: Fringe,†,No,–,–,610,36,16.9,–,–
540144001071,WV-8500000-85202,5401440,WV-8500000,PK,5,SISTERSVILLE ELEMENTARY SCHOOL,TYLER COUNTY SCHOOLS,Tyler County,651 SCHOOL ROAD,SISTERSVILLE,WV,26175,9763,(304)652-2601,42,Rural: Distant,†,No,Yes,Yes,294,25.5,11.5,–,–
540093001220,WV-5600000-56240,5400930,WV-5600000,PK,5,SKYVIEW ELEMENTARY SCHOOL,MONONGALIA COUNTY SCHOOLS,Monongalia County,668 RIVER ROAD,MORGANTOWN,WV,26501,,(304)284-2890,41,Rural: Fringe,†,No,Yes,Yes,492,34,14.5,–,–
540042000254,WV-2800000-28207,5400420,WV-2800000,PK,5,SLANESVILLE ELEMENTARY SCHOOL,HAMPSHIRE COUNTY SCHOOLS,Hampshire County,6550 BLOOMERY PIKE,SLANESVILLE,WV,25444,,(304)496-7069,42,Rural: Distant,†,No,Yes,Yes,203,14.3,14.2,–,–
540129001024,WV-7700000-77207,5401290,WV-7700000,PK,4,SMITHVILLE ELEMENTARY,RITCHIE COUNTY SCHOOLS,Ritchie County,STATE RT. 47-PO BOX 30,SMITHVILLE,WV,26178,,(304)477-3273,42,Rural: Distant,†,No,Yes,Yes,95,9,10.6,–,–
540039001334,WV-2600000-26104,5400390,WV-2600000,PK,5,SMOOT ELEMENTARY,GREENBRIER COUNTY SCHOOLS,Greenbrier County,GENERAL DELIVERY,SMOOT,WV,24977,,(304)392-5295,42,Rural: Distant,†,No,Yes,Yes,149,10.2,14.6,–,–
540036001383,WV-2400000-24701,5400360,WV-2400000,–,–,SOUTH BRANCH VOCATIONAL SCHOOL,GRANT COUNTY SCHOOLS,Grant County,401 PIERPONT STREET,PETERSBURG,WV,26847,,(304)257-1331,33,Town: Remote,†,No,–,–,–,12,†,–,–
540060000442,WV-3900000-39511,5400600,WV-3900000,9,12,SOUTH CHARLESTON HIGH SCHOOL,KANAWHA COUNTY SCHOOLS,Kanawha County,1 EAGLE WAY,SOUTH CHARLESTON,WV,25309,,(304)766-0352,22,Suburb: Midsize,†,No,–,–,917,52,17.6,–,–
540060000443,WV-3900000-39418,5400600,WV-3900000,6,8,SOUTH CHARLESTON MIDDLE SCHOOL,KANAWHA COUNTY SCHOOLS,Kanawha County,400 THIRD AVENUE,SOUTH CHARLESTON,WV,25303,,(304)348-1918,22,Suburb: Midsize,†,No,–,–,352,21,16.8,–,–
540051000314,WV-3300000-33505,5400510,WV-3300000,9,12,SOUTH HARRISON HIGH SCHOOL,HARRISON COUNTY SCHOOLS,Harrison County,3073 HAWK HWY,LOST CREEK,WV,26385,,(304)326-7440,42,Rural: Distant,†,No,–,–,334,26.4,12.7,–,–
540051000864,WV-3300000-33308,5400510,WV-3300000,6,8,SOUTH HARRISON MIDDLE SCHOOL,HARRISON COUNTY SCHOOLS,Harrison County,3003 HAWK HWY,LOST CREEK,WV,26385,,(304)326-7460,42,Rural: Distant,†,No,–,–,301,21.7,13.9,–,–
540057000350,WV-3700000-37207,5400570,WV-3700000,PK,5,SOUTH JEFFERSON ELEMENTARY SCHOOL,JEFFERSON COUNTY SCHOOLS,Jefferson County,4599 SUMMIT POINT ROAD,CHARLES TOWN,WV,25414,4673,(304)728-9216,41,Rural: Fringe,†,No,–,–,477,28.5,16.7,–,–
540069000532,WV-4500000-45217,5400690,WV-4500000,PK,4,SOUTH MAN ELEMENTARY SCHOOL,LOGAN COUNTY SCHOOLS,Logan County,301 EAST MCDONALD AVENUE,MAN,WV,25635,,(304)583-7522,42,Rural: Distant,†,No,Yes,Yes,171,10,17.1,–,–
540093001299,WV-5600000-56401,5400930,WV-5600000,6,8,SOUTH MIDDLE SCHOOL,MONONGALIA COUNTY SCHOOLS,Monongalia County,500 EAST PARKWAY DRIVE,MORGANTOWN,WV,26501,,(304)291-9340,13,City: Small,†,No,–,–,786,57.5,13.7,–,–
540117001522,WV-7000000-70106,5401170,WV-7000000,PK,8,SOUTH PRESTON SCHOOL,PRESTON COUNTY SCHOOLS,Preston County,5258 SOUTH PRESTON HIGHWAY,TUNNELTON,WV,26444,,(304)568-2292,42,Rural: Distant,†,No,Yes,Yes,385,24,16,–,–
540018001466,WV-1200000-12292,5400180,WV-1200000,PK,5,SOUTHSIDE ELEMENTARY,CABELL COUNTY SCHOOLS,Cabell County,930 SECOND STREET,HUNTINGTON,WV,25701,,(304)528-5168,13,City: Small,†,No,–,–,522,29,18,–,–
540081001468,WV-6000000-60223,5400810,WV-6000000,PK,8,SOUTHSIDE K-8,MCDOWELL COUNTY SCHOOLS,McDowell County,POST OFFICE BOX 730,WAR,WV,24892,,(304)875-2283,42,Rural: Distant,†,No,Yes,Yes,372,31,12,–,–
540084000705,WV-5100000-51220,5400840,WV-5100000,PK,5,SPANISHBURG,MERCER COUNTY SCHOOLS,Mercer County,8544 BECKLEY ROAD,SPANISHBURG,WV,25922,7,(304)425-5854,42,Rural: Distant,†,No,Yes,Yes,178,16,11.1,–,–
540132001031,WV-7900000-79205,5401320,WV-7900000,PK,4,SPENCER ELEMENTARY SCHOOL,ROANE COUNTY SCHOOLS,Roane County,85 CLAY ROAD,SPENCER,WV,25276,,(304)927-6428,41,Rural: Fringe,†,No,Yes,Yes,503,31,16.2,–,–
540132001270,WV-7900000-79301,5401320,WV-7900000,5,8,SPENCER MIDDLE SCHOOL,ROANE COUNTY SCHOOLS,Roane County,102 CHAPMAN AVENUE,SPENCER,WV,25276,,(304)927-6415,32,Town: Distant,†,No,Yes,Yes,377,26.25,14.4,–,–
540018001308,WV-1200000-12287,5400180,WV-1200000,PK,5,SPRING HILL ELEMENTARY SCHOOL,CABELL COUNTY SCHOOLS,Cabell County,1901 HALL AVENUE,HUNTINGTON,WV,25701,,(304)528-5175,13,City: Small,†,No,Yes,Yes,427,34,12.6,–,–
540006001487,WV-0400000-04504,5400060,WV-0400000,9,12,SPRING MILLS HIGH SCHOOL,BERKELEY COUNTY SCHOOLS,Berkeley County,499 CAMPUS DRIVE,MARTINSBURG,WV,25404,,(304)274-5141,22,Suburb: Midsize,†,No,–,–,1321,82.5,16,–,–
540006001207,WV-0400000-04305,5400060,WV-0400000,6,8,SPRING MILLS MIDDLE SCHOOL,BERKELEY COUNTY SCHOOLS,Berkeley County,255 CAMPUS DRIVE,MARTINSBURG,WV,25404,,(304)274-5030,22,Suburb: Midsize,†,No,–,–,877,56.35,15.6,–,–
540006001479,WV-0400000-04221,5400060,WV-0400000,PK,2,SPRING MILLS PRIMARY,BERKELEY COUNTY SCHOOLS,Berkeley County,401 CAMPUS DRIVE,MARTINSBURG,WV,25404,,(304)274-5892,22,Suburb: Midsize,†,No,–,–,511,30.5,16.8,–,–
540150001023,WV-8900000-89508,5401500,WV-8900000,9,12,SPRING VALLEY HIGH SCHOOL,WAYNE COUNTY SCHOOLS,Wayne County,#1 TIMBERWOLF DRIVE,HUNTINGTON,WV,25704,,(304)429-1699,41,Rural: Fringe,†,No,–,–,1014,66.5,15.2,–,–
540042000255,WV-2800000-28208,5400420,WV-2800000,PK,5,SPRINGFIELD-GREEN SPRING ELEMENTARY SCH,HAMPSHIRE COUNTY SCHOOLS,Hampshire County,43 EDUCATION LANE,SPRINGFIELD,WV,26763,,(304)822-4317,42,Rural: Distant,†,No,Yes,Yes,115,9.5,12.1,–,–
540111000888,WV-6700000-67202,5401110,WV-6700000,PK,4,ST. MARYS ELEMENTARY SCHOOL,PLEASANTS COUNTY SCHOOLS,Pleasants County,317 WASHINGTON STREET,ST. MARYS,WV,26170,,(304)684-3510,32,Town: Distant,†,No,Yes,Yes,240,17.72,13.5,–,–
540111000889,WV-6700000-67501,5401110,WV-6700000,9,12,ST. MARYS HIGH SCHOOL,PLEASANTS COUNTY SCHOOLS,Pleasants County,2330 N PLEASANTS HIGHWAY,ST. MARYS,WV,26170,,(304)684-2421,41,Rural: Fringe,†,No,–,–,335,23,14.6,–,–
540123000985,WV-7400000-74226,5401230,WV-7400000,PK,5,STANAFORD ELEMENTARY SCHOOL,RALEIGH COUNTY SCHOOLS,Raleigh County,950 STANAFORD ROAD,BECKLEY,WV,25801,,(304)256-4626,23,Suburb: Small,†,No,Yes,Yes,270,20,13.5,–,–
540105000868,WV-6400000-64210,5401050,WV-6400000,PK,5,STEENROD ELEMENTARY SCHOOL,OHIO COUNTY SCHOOLS,Ohio County,100 CLARKS LN,WHEELING,WV,26003,1454,(304)243-0356,13,City: Small,†,No,–,–,279,16.25,17.2,–,–
540060001442,WV-3900000-39421,5400600,WV-3900000,6,8,STONEWALL JACKSON MIDDLE SCHOOL,KANAWHA COUNTY SCHOOLS,Kanawha County,812 PARK AVENUE,CHARLESTON,WV,25302,,(304)348-6123,13,City: Small,†,No,Yes,Yes,406,39,10.4,–,–
540084001311,WV-5100000-51221,5400840,WV-5100000,3,5,STRALEY ELEMENTARY SCHOOL,MERCER COUNTY SCHOOLS,Mercer County,810 STRALEY AVENUE,PRINCETON,WV,24740,2926,(304)425-3173,32,Town: Distant,†,No,Yes,Yes,163,19.5,8.4,–,–
540123001012,WV-7400000-74233,5401230,WV-7400000,PK,5,STRATTON ELEMENTARY,RALEIGH COUNTY SCHOOLS,Raleigh County,1129 SOUTH FAYETTE STREET,BECKLEY,WV,25801,,(304)256-4604,13,City: Small,†,No,Yes,Yes,227,22,10.3,–,–
540135000787,WV-8100000-81502,5401350,WV-8100000,9,12,SUMMERS COUNTY HIGH SCHOOL,SUMMERS COUNTY SCHOOLS,Summers County,37 BOBCAT DRIVE,HINTON,WV,25951,9103,(304)466-6040,41,Rural: Fringe,†,No,–,–,438,32,13.7,–,–
540135000785,WV-8100000-81301,5401350,WV-8100000,6,8,SUMMERS MIDDLE SCHOOL,SUMMERS COUNTY SCHOOLS,Summers County,400 TEMPLE ST,HINTON,WV,25951,,(304)466-6030,31,Town: Fringe,†,No,–,–,341,26,13.1,–,–
540102000849,WV-6200000-62218,5401020,WV-6200000,PK,5,SUMMERSVILLE ELEMENTARY SCHOOL,NICHOLAS COUNTY SCHOOLS,Nicholas County,108 MCKEES CREEK RD,SUMMERSVILLE,WV,26651,,(304)872-1421,32,Town: Distant,†,No,Yes,Yes,422,31.5,13.4,–,–
540102001262,WV-6200000-62402,5401020,WV-6200000,6,8,SUMMERSVILLE MIDDLE SCHOOL,NICHOLAS COUNTY SCHOOLS,Nicholas County,40 GRIZZLY RD,SUMMERSVILLE,WV,26651,,(304)872-5092,41,Rural: Fringe,†,No,–,–,589,35,16.8,–,–
540084000707,WV-5100000-51222,5400840,WV-5100000,KG,5,SUN VALLEY ELEMENTARY SCHOOL,MERCER COUNTY SCHOOLS,Mercer County,5281 HINTON RD.,LERONA,WV,25971,10,(304)384-7441,42,Rural: Distant,†,No,Yes,Yes,131,9,14.6,–,–
540093000802,WV-5600000-56226,5400930,WV-5600000,PK,5,SUNCREST ELEMENTARY SCHOOL,MONONGALIA COUNTY SCHOOLS,Monongalia County,3647 COLLINS FERRY RD,MORGANTOWN,WV,26505,,(304)291-9347,23,Suburb: Small,†,No,–,–,515,32,16.1,–,–
540093000801,WV-5600000-56402,5400930,WV-5600000,6,8,SUNCREST MIDDLE SCHOOL,MONONGALIA COUNTY SCHOOLS,Monongalia County,360 BALDWIN STREET,MORGANTOWN,WV,26505,,(304)291-9335,13,City: Small,†,No,–,–,510,35.4,14.4,–,–
540012000069,WV-0800000-08205,5400120,WV-0800000,PK,5,SUTTON ELEMENTARY SCHOOL,BRAXTON COUNTY SCHOOLS,Braxton County,288 N HILL ROAD,SUTTON,WV,26601,,(304)765-5202,43,Rural: Remote,†,No,Yes,Yes,215,16.5,13,–,–
540057000057,WV-3700000-37209,5400570,WV-3700000,PK,5,T A LOWERY ELEMENTARY SCHOOL,JEFFERSON COUNTY SCHOOLS,Jefferson County,103 SHENANDOAH JUNCTION ROAD,SHENANDOAH JUNCTION,WV,25442,4757,(304)728-7250,41,Rural: Fringe,†,No,Yes,Yes,529,31,17.1,–,–
540135001048,WV-8100000-81102,5401350,WV-8100000,PK,5,TALCOTT ELEMENTARY SCHOOL,SUMMERS COUNTY SCHOOLS,Summers County,P O BOX 140,TALCOTT,WV,24981,,(304)466-6004,42,Rural: Distant,†,No,Yes,Yes,190,13.5,14.1,–,–
540138001462,WV-8300000-83302,5401380,WV-8300000,5,8,TAYLOR COUNTY MIDDLE SCHOOL,TAYLOR COUNTY SCHOOLS,Taylor County,670 SPRING HILLS ROAD,GRAFTON,WV,26354,,(304)265-0722,32,Town: Distant,†,No,Yes,Yes,697,48.5,14.4,–,–
540093000804,WV-5600000-56701,5400930,WV-5600000,–,–,TECHNICAL EDUCATION CENTER,MONONGALIA COUNTY SCHOOLS,Monongalia County,1000 MISSISSIPPI STREET,MORGANTOWN,WV,26501,,(304)291-9240,13,City: Small,†,No,–,–,–,25,†,2,1
540147001088,WV-8700000-87209,5401470,WV-8700000,PK,5,TENNERTON ELEMENTARY,UPSHUR COUNTY SCHOOLS,Upshur County,167 GAWTHROP ROAD,BUCKHANNON,WV,26201,,(304)472-1278,33,Town: Remote,†,No,Yes,Yes,296,17.83,16.6,–,–
540117000913,WV-7000000-70105,5401170,WV-7000000,PK,8,TERRA ALTA/EAST PRESTON SCHOOL,PRESTON COUNTY SCHOOLS,Preston County,1103 EAST STATE AVENUE,TERRA ALTA,WV,26764,,(304)789-2344,42,Rural: Distant,†,No,Yes,Yes,354,25,14.2,–,–
540150001435,WV-8900000-89507,5401500,WV-8900000,9,12,TOLSIA HIGH SCHOOL,WAYNE COUNTY SCHOOLS,Wayne County,#1 REBEL DRIVE,FORT GAY,WV,25514,,(304)648-5566,42,Rural: Distant,†,No,Yes,Yes,393,36.25,10.8,–,–
540006001449,WV-0400000-04215,5400060,WV-0400000,3,5,TOMAHAWK INTERMEDIATE SCHOOL,BERKELEY COUNTY SCHOOLS,Berkeley County,6665 HEDGESVILLE ROAD,HEDGESVILLE,WV,25427,,(304)754-3171,41,Rural: Fringe,†,No,–,–,600,33.59,17.9,–,–
540123000990,WV-7400000-74302,5401230,WV-7400000,6,8,TRAP HILL MIDDLE SCHOOL,RALEIGH COUNTY SCHOOLS,Raleigh County,665 COAL RIVER ROAD,GLEN DANIEL,WV,25844,,(304)934-5392,41,Rural: Fringe,†,No,–,–,407,34.5,11.8,–,–
540105000869,WV-6400000-64302,5401050,WV-6400000,6,8,TRIADELPHIA MIDDLE SCHOOL,OHIO COUNTY SCHOOLS,Ohio County,1636 NATIONAL RD,WHEELING,WV,26003,5598,(304)243-0387,13,City: Small,†,No,–,–,468,31.25,15,–,–
540141001272,WV-8400000-84501,5401410,WV-8400000,9,12,TUCKER COUNTY HIGH SCHOOL,TUCKER COUNTY SCHOOLS,Tucker County,116 MOUNTAIN LION WAY,HAMBLETON,WV,26269,,(304)478-2651,43,Rural: Remote,†,No,–,–,321,26.84,12,–,–
540141000851,WV-8400000-84103,5401410,WV-8400000,PK,8,TUCKER VALLEY ELEMENTARY MIDDLE SCHOOL,TUCKER COUNTY SCHOOLS,Tucker County,81 TUCKER VALLEY ROAD,HAMBLETON,WV,26269,,(304)478-3606,43,Rural: Remote,†,No,Yes,Yes,481,36.08,13.3,–,–
540090001407,WV-5400000-54507,5400900,WV-5400000,9,12,TUG VALLEY HIGH SCHOOL,MINGO COUNTY SCHOOLS,Mingo County,555 PANTHER AVENUE,WILLIAMSON,WV,25661,,(304)235-2266,42,Rural: Distant,†,No,–,–,364,30,12.1,–,–
540006000032,WV-0400000-04212,5400060,WV-0400000,PK,2,TUSCARORA ELEMENTARY SCHOOL,BERKELEY COUNTY SCHOOLS,Berkeley County,2000 TAVERN ROAD,MARTINSBURG,WV,25401,,(304)267-3565,13,City: Small,†,No,Yes,Yes,350,28.55,12.3,–,–
540126001011,WV-7500000-75503,5401260,WV-7500000,6,12,TYGARTS VALLEY MIDDLE/HIGH SCHOOL,RANDOLPH COUNTY SCHOOLS,Randolph County,10189 SENECA TRAIL,MILL CREEK,WV,26280,,(304)335-4575,42,Rural: Distant,†,No,–,–,481,33.5,14.4,–,–
540144000671,WV-8500000-85503,5401440,WV-8500000,9,12,TYLER CONSOLIDATED HIGH SCHOOL,TYLER COUNTY SCHOOLS,Tyler County,1993 SILVER KNIGHT DRIVE,SISTERSVILLE,WV,26175,,(304)758-9000,42,Rural: Distant,†,No,–,–,348,29.5,11.8,–,–
540144000667,WV-8500000-85303,5401440,WV-8500000,6,8,TYLER CONSOLIDATED MIDDLE SCHOOL,TYLER COUNTY SCHOOLS,Tyler County,1993 SILVER KNIGHT DRIVE,SISTERSVILLE,WV,26175,,(304)758-9000,42,Rural: Distant,†,No,–,–,280,21,13.3,–,–
540036000687,WV-2400000-24101,5400360,WV-2400000,PK,12,UNION EDUCATIONAL COMPLEX,GRANT COUNTY SCHOOLS,Grant County,51 TIGER DRIVE,MOUNT STORM,WV,26839,,(304)693-7612,42,Rural: Distant,†,No,Yes,Yes,191,15.3,12.5,–,–
540147001432,WV-8700000-87211,5401470,WV-8700000,PK,5,UNION ELEMENTARY SCHOOL,UPSHUR COUNTY SCHOOLS,Upshur County,481 HEAVENER GROVE ROAD,BUCKHANNON,WV,26201,,(304)472-1394,41,Rural: Fringe,†,No,Yes,Yes,306,18.18,16.8,–,–
540051001544,WV-3300000-33507,5400510,WV-3300000,PK,12,UNITED HIGH SCHOOL,HARRISON COUNTY SCHOOLS,Harrison County,1349 SHINNSTON PK,CLARKBURG,WV,26301,,(304)326-7560,32,Town: Distant,†,No,–,–,177,–,†,–,–
540051001389,WV-3300000-33701,5400510,WV-3300000,–,–,UNITED TECHNICAL CENTER,HARRISON COUNTY SCHOOLS,Harrison County,251 MARIETTA ST,CLARKSBURG,WV,26301,,(304)326-7580,32,Town: Distant,†,No,–,–,–,18,†,–,–
540093000803,WV-5600000-56503,5400930,WV-5600000,9,12,UNIVERSITY HIGH SCHOOL,MONONGALIA COUNTY SCHOOLS,Monongalia County,131 BAKER`S RIDGE ROAD,MORGANTOWN,WV,26508,,(304)291-9270,41,Rural: Fringe,†,No,–,–,1307,77,17,–,–
540030000208,WV-2000000-20225,5400300,WV-2000000,PK,5,VALLEY ELEMENTARY,FAYETTE COUNTY SCHOOLS,Fayette County,PO BOX 215,SMITHERS,WV,25186,,(304)442-2321,31,Town: Fringe,†,No,Yes,Yes,322,22.5,14.3,–,–
540030000209,WV-2000000-20507,5400300,WV-2000000,6,12,VALLEY HIGH SCHOOL,FAYETTE COUNTY SCHOOLS,Fayette County,PO BOX 459,SMITHERS,WV,25186,,(304)442-8284,31,Town: Fringe,†,No,–,–,420,34.5,12.2,–,–
540156001132,WV-9200000-92504,5401560,WV-9200000,9,12,VALLEY HIGH SCHOOL,WETZEL COUNTY SCHOOLS,Wetzel County,44 LUMBERJACK LANE,PINE GROVE,WV,26419,8200,(304)889-3151,42,Rural: Distant,†,No,–,–,146,19,7.7,–,–
540030001596,WV-2000000-20102,5400300,WV-2000000,–,–,VALLEY PK-8,FAYETTE COUNTY SCHOOLS,Fayette County,1 GREYHOUND LANE,SMITHERS,WV,25186,,(304)442-8284,31,Town: Fringe,†,†,†,†,†,†,†,†,†
540006000033,WV-0400000-04213,5400060,WV-0400000,PK,2,VALLEY VIEW ELEMENTARY SCHOOL,BERKELEY COUNTY SCHOOLS,Berkeley County,140 NADENBOUSCH LANE,MARTINSBURG,WV,25405,,(304)229-1970,41,Rural: Fringe,†,No,Yes,Yes,406,26.1,15.6,–,–
540162001180,WV-9600000-96406,5401620,WV-9600000,6,8,VAN DEVENDER MIDDLE SCHOOL,WOOD COUNTY SCHOOLS,Wood County,918 31ST ST,PARKERSBURG,WV,26104,2496,(304)420-9645,13,City: Small,†,No,Yes,Yes,370,28.5,13,–,–
540009000054,WV-0600000-06215,5400090,WV-0600000,PK,5,VAN ELEMENTARY,BOONE COUNTY SCHOOLS,Boone County,PO BOX 360,VAN,WV,25206,,(304)245-8811,42,Rural: Distant,†,No,Yes,Yes,169,14,12.1,–,–
540009000055,WV-0600000-06503,5400090,WV-0600000,6,12,VAN JUNIOR/SENIOR HIGH SCHOOL,BOONE COUNTY SCHOOLS,Boone County,PO BOX 100,VAN,WV,25206,,(304)245-8237,42,Rural: Distant,†,No,–,–,225,15,15,–,–
540069000536,WV-4500000-45221,5400690,WV-4500000,PK,4,VERDUNVILLE ELEMENTARY SCHOOL,LOGAN COUNTY SCHOOLS,Logan County,251 MUSTANG HILL RD.,VERDUNVILLE,WV,25649,,(304)752-1656,41,Rural: Fringe,†,No,Yes,Yes,131,10,13.1,–,–
540051101040,WV-3400000-34119,5400511,WV-3400000,–,–,VICKI DOUGLAS JUVENILE CENTER,INSTITUTIONAL EDUCATIONAL PROGRAMS,Berkeley County,900 EMMETT ROUSCH DRIVE,MARTINSBURG,WV,25401,,(304)420-4862,13,City: Small,†,No,–,–,†,–,†,–,–
540162001181,WV-9600000-96231,5401620,WV-9600000,PK,5,VIENNA ELEMENTARY SCHOOL,WOOD COUNTY SCHOOLS,Wood County,700 41ST ST,VIENNA,WV,26105,2899,(304)420-9648,13,City: Small,†,No,–,–,303,20,15.2,–,–
540018001049,WV-1200000-12291,5400180,WV-1200000,PK,5,VILLAGE OF BARBOURSVILLE ELEMENTARY SCH,CABELL COUNTY SCHOOLS,Cabell County,718 CENTRAL AVE,BARBOURSVILLE,WV,25504,,(304)733-3035,22,Suburb: Midsize,†,No,–,–,687,39,17.6,–,–
540150001114,WV-8900000-89306,5401500,WV-8900000,6,8,VINSON MIDDLE SCHOOL,WAYNE COUNTY SCHOOLS,Wayne County,3851 PIEDMONT ROAD,HUNTINGTON,WV,25704,,(304)429-1641,13,City: Small,†,No,–,–,196,18.5,10.6,–,–
540078000630,WV-4900000-49503,5400780,WV-4900000,7,12,WAHAMA HIGH SCHOOL,MASON COUNTY SCHOOLS,Mason County,#1 WHITE FALCON DRIVE,MASON,WV,25260,,(304)773-5539,32,Town: Distant,†,No,–,–,368,23.75,15.5,–,–
540132001033,WV-7900000-79206,5401320,WV-7900000,PK,8,WALTON ELEMENTARY/MIDDLE SCHOOL,ROANE COUNTY SCHOOLS,Roane County,90 SCHOOL DRIVE,WALTON,WV,25286,,(304)577-6731,42,Rural: Distant,†,No,Yes,Yes,321,26,12.3,–,–
540099001141,WV-5800000-58208,5400990,WV-5800000,3,5,WARM SPRINGS INTERMEDIATE SCHOOL,MORGAN COUNTY SCHOOLS,Morgan County,575 WARM SPRINGS WAY,BERKELEY SPRINGS,WV,25411,,(304)258-0031,42,Rural: Distant,†,No,Yes,Yes,374,26.5,14.1,–,–
540099000909,WV-5800000-58301,5400990,WV-5800000,6,8,WARM SPRINGS MIDDLE SCHOOL,MORGAN COUNTY SCHOOLS,Morgan County,271 WARM SPRINGS WAY,BERKELEY SPRINGS,WV,25411,,(304)258-1500,42,Rural: Distant,†,No,–,–,492,33.65,14.6,–,–
540105000871,WV-6400000-64303,5401050,WV-6400000,PK,8,WARWOOD SCHOOL,OHIO COUNTY SCHOOLS,Ohio County,150 VIKING DR,WHEELING,WV,26003,7027,(304)243-0394,13,City: Small,†,No,Yes,Yes,562,41.25,13.6,–,–
540147001320,WV-8700000-87210,5401470,WV-8700000,PK,5,WASHINGTON DISTRICT ELEMENTARY,UPSHUR COUNTY SCHOOLS,Upshur County,5078 TALLMANSVILLE ROAD,BUCKHANNON,WV,26201,,(304)472-6599,42,Rural: Distant,†,No,Yes,Yes,132,9.1,14.5,–,–
540057001464,WV-3700000-37502,5400570,WV-3700000,9,12,WASHINGTON HIGH SCHOOL,JEFFERSON COUNTY SCHOOLS,Jefferson County,300 WASHINGTON PATRIOTS DRIVE,CHARLES TOWN,WV,25414,4961,(304)885-5110,31,Town: Fringe,†,No,–,–,1304,80,16.3,–,–
540051000605,WV-3300000-33307,5400510,WV-3300000,6,8,WASHINGTON IRVING MIDDLE SCHOOL,HARRISON COUNTY SCHOOLS,Harrison County,443 LEE AVE,CLARKSBURG,WV,26301,,(304)326-7420,32,Town: Distant,†,No,–,–,529,41.05,12.9,–,–
540075000607,WV-4800000-48212,5400750,WV-4800000,PK,5,WASHINGTON LANDS ELEMENTARY SCHOOL,MARSHALL COUNTY SCHOOLS,Marshall County,116 SCHOOL RD,MOUNDSVILLE,WV,26041,,(304)843-4420,41,Rural: Fringe,†,No,–,–,335,21,16,–,–
540072000579,WV-4700000-47214,5400720,WV-4700000,PK,4,WATSON ELEMENTARY SCHOOL,MARION COUNTY SCHOOLS,Marion County,1579 MARY LOU RETTON DR,FAIRMONT,WV,26554,2238,(304)367-2156,32,Town: Distant,†,No,Yes,Yes,405,27,15,–,–
540162001185,WV-9600000-96234,5401620,WV-9600000,PK,6,WAVERLY ELEMENTARY SCHOOL,WOOD COUNTY SCHOOLS,Wood County,422 VIRGINIA ST,WAVERLY,WV,26184,9766,(304)464-4250,41,Rural: Fringe,†,No,Yes,Yes,132,11.2,11.8,–,–
540150001111,WV-8900000-89215,5401500,WV-8900000,PK,5,WAYNE ELEMENTARY SCHOOL,WAYNE COUNTY SCHOOLS,Wayne County,P.O. BOX 308,WAYNE,WV,25570,,(304)272-6342,41,Rural: Fringe,†,No,Yes,Yes,544,37.2,14.6,–,–
540150001112,WV-8900000-89506,5401500,WV-8900000,9,12,WAYNE HIGH SCHOOL,WAYNE COUNTY SCHOOLS,Wayne County,100 PIONEER ROAD,WAYNE,WV,25570,,(304)272-5639,41,Rural: Fringe,†,No,–,–,633,47.25,13.4,–,–
540150001113,WV-8900000-89305,5401500,WV-8900000,6,8,WAYNE MIDDLE SCHOOL,WAYNE COUNTY SCHOOLS,Wayne County,P.O. BOX 458,WAYNE,WV,25570,,(304)272-3227,41,Rural: Fringe,†,No,–,–,469,32,14.7,–,–
540060000464,WV-3900000-39275,5400600,WV-3900000,PK,5,WEBERWOOD ELEMENTARY SCHOOL,KANAWHA COUNTY SCHOOLS,Kanawha County,732 GORDON ROAD,SO. CHARLESTON,WV,25303,,(304)348-1924,13,City: Small,†,No,–,–,249,13.9,17.9,–,–
540153001118,WV-9100000-91501,5401530,WV-9100000,7,12,WEBSTER COUNTY HIGH SCHOOL,WEBSTER COUNTY SCHOOLS,Webster County,ONE HIGHLANDER DRIVE,UPPERGLADE,WV,26266,,(304)226-5772,43,Rural: Remote,†,No,Yes,Yes,556,42.5,13.1,–,–
540153001119,WV-9100000-91204,5401530,WV-9100000,PK,6,WEBSTER SPRINGS ELEMENTARY SCHOOL,WEBSTER COUNTY SCHOOLS,Webster County,318 RIVER DRIVE,WEBSTER SPRINGS,WV,26288,,(304)847-5321,43,Rural: Remote,†,No,Yes,Yes,299,23.79,12.6,–,–
540045000269,WV-2900000-29502,5400450,WV-2900000,9,12,WEIR HIGH SCHOOL,HANCOCK COUNTY SCHOOLS,Hancock County,100 RED RIDER ROAD,WEIRTON,WV,26062,4295,(304)748-7600,13,City: Small,†,No,–,–,647,40,16.2,–,–
540045001501,WV-2900000-29301,5400450,WV-2900000,5,8,WEIR MIDDLE SCHOOL,HANCOCK COUNTY SCHOOLS,Hancock County,125 SINCLAIR AVENUE,WEIRTON,WV,26062,3351,(304)748-6080,13,City: Small,†,No,Yes,Yes,652,44.5,14.7,–,–
540045001513,WV-2900000-29211,5400450,WV-2900000,PK,4,WEIRTON ELEMENTARY,HANCOCK COUNTY SCHOOLS,Hancock County,3428 PENNSYLVANIA AVE,WEIRTON,WV,26062,,(304)748-8370,13,City: Small,†,No,Yes,Yes,940,58,16.2,–,–
540081000669,WV-6000000-60222,5400810,WV-6000000,PK,5,WELCH ELEMENTARY SCHOOL,MCDOWELL COUNTY SCHOOLS,McDowell County,1235 STEWART STREET,WELCH,WV,24801,,(304)436-4645,41,Rural: Fringe,†,No,Yes,Yes,311,20.94,14.9,–,–
540072001249,WV-4700000-47306,5400720,WV-4700000,5,8,WEST FAIRMONT MIDDLE SCHOOL,MARION COUNTY SCHOOLS,Marion County,110 TENTH STREET,FAIRMONT,WV,26554,,(304)366-5631,32,Town: Distant,†,No,–,–,675,46,14.7,–,–
540066000502,WV-4300000-43215,5400660,WV-4300000,PK,5,WEST HAMLIN ELEMENTARY,LINCOLN COUNTY SCHOOLS,Lincoln County,114 DAIRY ROAD,WEST HAMLIN,WV,25571,,(304)824-3630,42,Rural: Distant,†,No,Yes,Yes,521,32,16.3,–,–
540105000873,WV-6400000-64212,5401050,WV-6400000,PK,5,WEST LIBERTY ELEMENTARY SCHOOL,OHIO COUNTY SCHOOLS,Ohio County,745 VAN METER WAY,WHEELING,WV,26003,9205,(304)336-7221,41,Rural: Fringe,†,No,–,–,112,7,16,–,–
540051000321,WV-3300000-33225,5400510,WV-3300000,PK,5,WEST MILFORD ELEMENTARY SCHOOL,HARRISON COUNTY SCHOOLS,Harrison County,182 SCHOOL ST,WEST MILFORD,WV,26451,,(304)326-7030,42,Rural: Distant,†,No,–,–,466,26.42,17.6,–,–
540117001520,WV-7000000-70107,5401170,WV-7000000,PK,8,WEST PRESTON SCHOOL,PRESTON COUNTY SCHOOLS,Preston County,113 EBY SCHOOL ROAD,ARTHURDALE,WV,26520,,(304)864-3835,42,Rural: Distant,†,No,Yes,Yes,762,43,17.7,–,–
540138001056,WV-8300000-83204,5401380,WV-8300000,PK,4,WEST TAYLOR ELEMENTARY SCHOOL,TAYLOR COUNTY SCHOOLS,Taylor County,200 MORROW CROSS ROAD,FLEMINGTON,WV,26347,,(304)842-0490,42,Rural: Distant,†,No,–,–,316,18.44,17.1,–,–
540120001303,WV-7200000-72270,5401200,WV-7200000,PK,5,WEST TEAYS ELEMENTARY,PUTNAM COUNTY SCHOOLS,Putnam County,3676 TEAYS VALLEY ROAD,HURRICANE,WV,25526,,(304)757-6711,22,Suburb: Midsize,†,No,–,–,508,34.7,14.6,–,–
540162101204,WV-9700000-97602,5401621,WV-9700000,–,–,WEST VIRGINIA SCHOOL FOR THE BLIND,WV SCHOOLS FOR THE DEAF AND THE BLIND,Hampshire County,301 EAST MAIN STREET,ROMNEY,WV,26757,,(304)822-4880,42,Rural: Distant,†,No,–,–,†,–,†,–,–
540162101200,WV-9700000-97501,5401621,WV-9700000,–,–,WEST VIRGINIA SCHOOL FOR THE DEAF,WV SCHOOLS FOR THE DEAF AND THE BLIND,Hampshire County,301 EAST MAIN STREET,ROMNEY,WV,26757,,(304)822-4860,42,Rural: Distant,†,No,–,–,†,–,†,–,–
540039001038,WV-2600000-26407,5400390,WV-2600000,6,8,WESTERN GREENBRIER MIDDLE SCHOOL,GREENBRIER COUNTY SCHOOLS,Greenbrier County,315 TIMBERWOLF DRIVE,CRAWLEY,WV,24931,,(304)392-6446,42,Rural: Distant,†,No,–,–,300,19,15.8,–,–
540165001085,WV-9800000-98508,5401650,WV-9800000,9,12,WESTSIDE HIGH SCHOOL,WYOMING COUNTY SCHOOLS,Wyoming County,HC 65 BOX 275,CLEAR FORK,WV,24822,,(304)682-8965,41,Rural: Fringe,†,No,–,–,628,31,20.3,–,–
540093000755,WV-5600000-56302,5400930,WV-5600000,6,8,WESTWOOD MIDDLE SCHOOL,MONONGALIA COUNTY SCHOOLS,Monongalia County,670 RIVER ROAD,MORGANTOWN,WV,26501,,(304)291-9300,41,Rural: Fringe,†,No,–,–,379,33.5,11.3,–,–
540156001592,WV-9200000-92701,5401560,WV-9200000,–,–,WETZEL COUNTY TECHNICAL EDUCATION CENTER,WETZEL COUNTY SCHOOLS,Wetzel County,2213 MOUNTAINEER HIGHWAY,NEW MARTINSVILLE,WV,26155,,(304)425-9551,41,Rural: Fringe,†,No,–,–,–,1,†,–,–
540105000874,WV-6400000-64304,5401050,WV-6400000,6,8,WHEELING MIDDLE SCHOOL,OHIO COUNTY SCHOOLS,Ohio County,3500 CHAPLINE ST,WHEELING,WV,26003,1916,(304)243-0425,13,City: Small,†,No,Yes,Yes,169,22.5,7.5,–,–
540105000875,WV-6400000-64501,5401050,WV-6400000,9,12,WHEELING PARK HIGH SCHOOL,OHIO COUNTY SCHOOLS,Ohio County,1976 PARK VIEW RD,WHEELING,WV,26003,9311,(304)243-0400,41,Rural: Fringe,†,No,–,–,1501,111.5,13.5,–,–
540072000581,WV-4700000-47215,5400720,WV-4700000,PK,4,WHITE HALL ELEMENTARY SCHOOL,MARION COUNTY SCHOOLS,Marion County,38 EMERALD LANE,WHITE HALL,WV,26554,8906,(304)367-2158,32,Town: Distant,†,No,–,–,217,13,16.7,–,–
540039000242,WV-2600000-26208,5400390,WV-2600000,PK,5,WHITE SULPHUR ELEMENTARY,GREENBRIER COUNTY SCHOOLS,Greenbrier County,150 REED STREET,WHITE SULPHUR SPRINGS,WV,24986,,(304)536-2244,32,Town: Distant,†,No,Yes,Yes,337,26,13,–,–
540009000059,WV-0600000-06102,5400090,WV-0600000,PK,5,WHITESVILLE ELEMENTARY SCHOOL,BOONE COUNTY SCHOOLS,Boone County,37949 COAL RIVER ROAD,WHITESVILLE,WV,25209,,(304)854-1301,42,Rural: Distant,†,No,Yes,Yes,109,10,10.9,–,–
540084000710,WV-5100000-51225,5400840,WV-5100000,KG,2,WHITETHORN ELEMENTARY SCHOOL,MERCER COUNTY SCHOOLS,Mercer County,1919 MARYLAND AVENUE,BLUEFIELD,WV,24701,4425,(304)327-6217,32,Town: Distant,†,No,Yes,Yes,140,12.5,11.2,–,–
540099001139,WV-5800000-58207,5400990,WV-5800000,PK,2,WIDMYER ELEMENTARY,MORGAN COUNTY SCHOOLS,Morgan County,128 WIDMYER CIRCLE,BERKELEY SPRINGS,WV,25411,,(304)258-2024,42,Rural: Distant,†,No,Yes,Yes,489,26.1,18.7,–,–
540057001463,WV-3700000-37404,5400570,WV-3700000,6,8,WILDWOOD MIDDLE SCHOOL,JEFFERSON COUNTY SCHOOLS,Jefferson County,1209 SHENANDOAH JUNCTION ROAD,SHENANDOAH JUNCTION,WV,25442,4035,(304)728-4518,31,Town: Fringe,†,No,–,–,422,38,11.1,–,–
540087000725,WV-5300000-53208,5400870,WV-5300000,PK,2,WILEY FORD PRIMARY SCHOOL,MINERAL COUNTY SCHOOLS,Mineral County,71 WILEY FORD SCHOOL ROAD,WILEY FORD,WV,26767,,(304)738-0400,23,Suburb: Small,†,No,Yes,No,203,14.97,13.6,–,–
540060001458,WV-3900000-39278,5400600,WV-3900000,PK,PK,WILLIAM J RAGLIN CENTER,KANAWHA COUNTY SCHOOLS,Kanawha County,142 MARSHALL AVENUE,DUNBAR,WV,25064,,(304)766-0378,22,Suburb: Midsize,†,No,–,–,60,4,15,–,–
540090001254,WV-5400000-54402,5400900,WV-5400000,PK,8,WILLIAMSON PRE K-8,MINGO COUNTY SCHOOLS,Mingo County,5 PARKWAY DRIVE,WILLIAMSON,WV,25661,,(304)235-2520,33,Town: Remote,†,No,Yes,Yes,595,37.34,15.9,–,–
540162001187,WV-9600000-96235,5401620,WV-9600000,PK,6,WILLIAMSTOWN ELEMENTARY SCHOOL,WOOD COUNTY SCHOOLS,Wood County,418 WILLIAMS AVE,WILLIAMSTOWN,WV,26187,1246,(304)375-7675,31,Town: Fringe,†,No,–,–,573,31,18.5,–,–
540162001188,WV-9600000-96503,5401620,WV-9600000,7,12,WILLIAMSTOWN HIGH SCHOOL,WOOD COUNTY SCHOOLS,Wood County,219 W 5TH ST,WILLIAMSTOWN,WV,26187,1524,(304)375-6151,31,Town: Fringe,†,No,–,–,603,38,15.9,–,–
540051000322,WV-3300000-33226,5400510,WV-3300000,PK,5,WILSONBURG ELEMENTARY SCHOOL,HARRISON COUNTY SCHOOLS,Harrison County,1040 WILSONBURG RD,CLARKSBURG,WV,26301,,(304)326-7640,32,Town: Distant,†,No,Yes,Yes,230,19.4,11.9,–,–
540006000034,WV-0400000-04214,5400060,WV-0400000,PK,3,WINCHESTER AVENUE ELEMENTARY SCHOOL,BERKELEY COUNTY SCHOOLS,Berkeley County,650 WINCHESTER AVENUE,MARTINSBURG,WV,25401,,(304)267-3570,13,City: Small,†,No,Yes,Yes,246,12.7,19.4,–,–
540120000936,WV-7200000-72275,5401200,WV-7200000,PK,5,WINFIELD ELEMENTARY,PUTNAM COUNTY SCHOOLS,Putnam County,75 WALL ST,WINFIELD,WV,25213,9663,(304)586-2565,22,Suburb: Midsize,†,No,–,–,567,38,14.9,–,–
540120000937,WV-7200000-72520,5401200,WV-7200000,9,12,WINFIELD HIGH SCHOOL,PUTNAM COUNTY SCHOOLS,Putnam County,11268 WINFIELD ROAD,WINFIELD,WV,25213,,(304)586-3279,22,Suburb: Midsize,†,No,–,–,827,59.5,13.9,–,–
540120001304,WV-7200000-72320,5401200,WV-7200000,6,8,WINFIELD MIDDLE SCHOOL,PUTNAM COUNTY SCHOOLS,Putnam County,11883 WINFIELD ROAD,WINFIELD,WV,25213,,(304)586-3072,22,Suburb: Midsize,†,No,–,–,623,41.7,14.9,–,–
540159001140,WV-9400000-94501,5401590,WV-9400000,9,12,WIRT COUNTY HIGH SCHOOL,WIRT COUNTY SCHOOLS,Wirt County,P.O. BOX 219,ELIZABETH,WV,26143,,(304)275-4241,42,Rural: Distant,†,No,–,–,262,24.4,10.7,–,–
540159000102,WV-9400000-94301,5401590,WV-9400000,5,8,WIRT COUNTY MIDDLE SCHOOL,WIRT COUNTY SCHOOLS,Wirt County,P.O. BOX 699,ELIZABETH,WV,26143,,(304)275-3977,42,Rural: Distant,†,No,Yes,Yes,315,20.9,15.1,–,–
540159001135,WV-9400000-94201,5401590,WV-9400000,PK,4,WIRT COUNTY PRIMARY CENTER,WIRT COUNTY SCHOOLS,Wirt County,P.O. BOX 220,ELIZABETH,WV,26143,,(304)275-4263,42,Rural: Distant,†,No,Yes,Yes,433,30.7,14.1,–,–
540162001427,WV-9600000-96701,5401620,WV-9600000,–,–,WOOD CO VOC TECH CTR,WOOD COUNTY SCHOOLS,Wood County,1515 BLIZZARD DR,PARKERSBURG,WV,26101,6424,(304)420-9501,13,City: Small,†,No,–,–,–,19,†,–,–
540123000991,WV-7400000-74506,5401230,WV-7400000,9,12,WOODROW WILSON HIGH SCHOOL,RALEIGH COUNTY SCHOOLS,Raleigh County,400 STANAFORD ROAD,BECKLEY,WV,25801,,(304)256-4646,13,City: Small,†,No,–,–,1293,76,17,–,–
540105000876,WV-6400000-64213,5401050,WV-6400000,PK,5,WOODSDALE ELEMENTARY SCHOOL,OHIO COUNTY SCHOOLS,Ohio County,1 BETHANY PIKE,WHEELING,WV,26003,6193,(304)243-0378,13,City: Small,†,No,–,–,482,30,16.1,–,–
540162001190,WV-9600000-96236,5401620,WV-9600000,PK,5,WORTHINGTON ELEMENTARY SCHOOL,WOOD COUNTY SCHOOLS,Wood County,2500 36TH ST,PARKERSBURG,WV,26104,2459,(304)420-9660,13,City: Small,†,No,Yes,Yes,196,17.9,10.9,–,–
540057000351,WV-3700000-37208,5400570,WV-3700000,3,5,WRIGHT DENNY INTERMEDIATE SCHOOL,JEFFERSON COUNTY SCHOOLS,Jefferson County,209 WEST CONGRESS STREET,CHARLES TOWN,WV,25414,1623,(304)725-2513,31,Town: Fringe,†,No,–,–,402,24,16.8,–,–
540051101047,WV-3400000-34133,5400511,WV-3400000,–,–,WV CHILDRENS HOME,INSTITUTIONAL EDUCATIONAL PROGRAMS,Randolph County,109 MAPLE STREET,ELKINS,WV,26241,,(304)637-0278,33,Town: Remote,†,No,–,–,†,–,†,–,–
540165001429,WV-9800000-98701,5401650,WV-9800000,–,–,WYOMING COUNTY CAREER & TECHNICAL CENTER,WYOMING COUNTY SCHOOLS,Wyoming County,HCR 72 BOX 200,PINEVILLE,WV,24874,,(304)732-8050,42,Rural: Distant,†,No,–,–,–,18,†,–,–
540165001028,WV-9800000-98507,5401650,WV-9800000,9,12,WYOMING COUNTY EAST HIGH SCHOOL,WYOMING COUNTY SCHOOLS,Wyoming County,PO BOX 390,NEW RICHMOND,WV,24867,,(304)294-5200,42,Rural: Distant,†,No,–,–,488,28,17.4,–,–
540102000852,WV-6200000-62219,5401020,WV-6200000,KG,5,ZELA ELEMENTARY SCHOOL,NICHOLAS COUNTY SCHOOLS,Nicholas County,165 COUNTRY ROAD,SUMMERSVILLE,WV,26651,,(304)872-1481,42,Rural: Distant,†,No,Yes,Yes,89,9,9.9,–,–
