NCES School ID,State School ID,NCES District ID,State District ID,Low Grade*,High Grade*,School Name,District,County Name*,Street Address,City,State,ZIP,ZIP 4-digit,Phone,Locale Code*,Locale*,Charter,Magnet*,Title I School*,Title 1 School Wide*,Students*,Teachers*,Student Teacher Ratio*,Free Lunch*,Reduced Lunch*
160153000605,ID-091-1152,1601530,ID-091,4,12,3B JUVENILE DETENTION CENTER,IDAHO FALLS DISTRICT,Bonneville County,950 ENVIRONMENTAL WAY,IDAHO FALLS,ID,83401,1621,(208)542-2947,13,City: Small,No,No,–,–,44,1.25,35.2,2,1
160222000390,ID-281-0756,1602220,ID-281,PK,5,A B MCDONALD ELEMENTARY SCHOOL,MOSCOW DISTRICT,Latah County,2323 EAST D STREET,MOSCOW,ID,83843,9577,(208)882-0228,32,Town: Distant,No,No,–,–,399,23.17,17.2,84,15
160153000252,ID-091-0415,1601530,ID-091,PK,6,A H BUSH ELEMENTARY SCHOOL,IDAHO FALLS DISTRICT,Bonneville County,380 WEST ANDERSON STREET,IDAHO FALLS,ID,83402,2141,(208)525-7602,13,City: Small,No,Yes,Yes,Yes,408,23.33,17.5,241,59
160024000016,ID-033-0370,1600240,ID-033,PK,5,A J WINTERS ELEMENTARY SCHOOL,BEAR LAKE COUNTY DISTRICT,Bear Lake County,535 CLAY STREET,MONTPELIER,ID,83254,1234,(208)847-0477,43,Rural: Remote,No,No,Yes,Yes,314,17.5,17.9,97,51
160186001119,ID-340-1425,1601860,ID-340,9,12,A Neil DeAtley Career Technical Education Center,LEWISTON INDEPENDENT DISTRICT,†,3317 12TH STREET,LEWISTON,ID,83501,,(208)748-3050,†,N,No,†,†,†,†,†,†,†,†
160108000196,ID-059-0390,1601080,ID-059,PK,4,A W JOHNSON ELEMENTARY SCHOOL,FIRTH DISTRICT,Bingham County,735 N 600 E,FIRTH,ID,83236,1128,(208)346-6848,42,Rural: Distant,No,No,Yes,Yes,333,15,22.2,88,32
160003000828,ID-058-0298,1600030,ID-058,PK,5,ABERDEEN ELEMENTARY SCHOOL,ABERDEEN DISTRICT,Bingham County,PO BOX 610,ABERDEEN,ID,83210,610,(208)397-4115,42,Rural: Distant,No,No,Yes,Yes,353,19.09,18.5,327,0
160003000002,ID-058-0036,1600030,ID-058,9,12,ABERDEEN HIGH SCHOOL,ABERDEEN DISTRICT,Bingham County,PO BOX 610,ABERDEEN,ID,83210,610,(208)397-4152,42,Rural: Distant,No,No,Yes,Yes,207,13.1,15.8,198,0
160003000829,ID-058-0299,1600030,ID-058,6,8,ABERDEEN MIDDLE SCHOOL,ABERDEEN DISTRICT,Bingham County,PO BOX 610,ABERDEEN,ID,83210,610,(208)397-3280,42,Rural: Distant,No,No,Yes,Yes,184,10.94,16.8,180,0
160219000380,ID-331-0786,1602190,ID-331,PK,5,ACEQUIA ELEMENTARY SCHOOL,MINIDOKA COUNTY JOINT DISTRICT,Minidoka County,360 N 350 E,RUPERT,ID,83350,9428,(208)436-6985,42,Rural: Distant,No,No,Yes,Yes,309,15,20.6,101,40
160036000708,ID-001-9002,1600360,ID-001,5,12,ADA COUNTY JUVENILE CENTER,BOISE INDEPENDENT DISTRICT,Ada County,6300 DENTON STREET,BOISE,ID,83704,9326,(208)854-4150,12,City: Midsize,No,No,–,–,62,2,31,5,1
160210000789,ID-002-0564,1602100,ID-002,10,12,ADA PROFESSIONAL-TECHNICAL CENTER,JOINT SCHOOL DISTRICT NO. 2,Ada County,1900 WEST PINE,MERIDIAN,ID,83642,6295,(208)855-4198,21,Suburb: Large,No,No,†,†,0,2.5,†,–,–
160192000333,ID-321-0777,1601920,ID-321,KG,4,ADAMS ELEMENTARY SCHOOL,MADISON DISTRICT,Madison County,110 NORTH 2ND EAST STREET,REXBURG,ID,83440,1620,(208)359-3335,32,Town: Distant,No,No,Yes,Yes,288,15,19.2,84,35
160036000042,ID-001-0315,1600360,ID-001,PK,6,ADAMS ELEMENTARY SCHOOL,BOISE INDEPENDENT DISTRICT,Ada County,1725 EAST WARM SPRINGS AVENUE,BOISE,ID,83712,8149,(208)854-4190,12,City: Midsize,No,No,–,–,338,15.6,21.7,31,8
160264001047,ID-025-0023,1602640,ID-025,6,8,ALAMEDA MIDDLE SCHOOL,POCATELLO DISTRICT,Bannock County,845 MCKINLEY AVENUE,POCATELLO,ID,83201,4952,(208)232-0378,13,City: Small,No,No,Yes,Yes,720,34.35,21,381,0
160066000122,ID-151-0475,1600660,ID-151,PK,5,ALBION ELEMENTARY SCHOOL,CASSIA COUNTY JOINT DISTRICT,Cassia County,PO BOX 38,ALBION,ID,83311,38,(208)673-6653,42,Rural: Distant,No,No,–,–,57,3,19,15,6
160066000123,ID-151-0468,1600660,ID-151,PK,6,ALMO ELEMENTARY SCHOOL,CASSIA COUNTY JOINT DISTRICT,Cassia County,PO BOX 168,ALMO,ID,83312,168,(208)824-5526,43,Rural: Remote,No,No,–,–,9,1,9,5,0
160030000908,ID-061-0636,1600300,ID-061,PK,5,ALTURAS ELEMENTARY SCHOOL,BLAINE COUNTY DISTRICT,Blaine County,1111 WOODSIDE ELEMENTARY LANE,HAILEY,ID,83333,8823,(208)578-5090,33,Town: Remote,No,Yes,Yes,Yes,411,28.2,14.6,120,68
160017501082,ID-495-1385,1600175,ID-495,KG,8,ALTURAS INTERNATIONAL ACADEMY,FORRESTER ACADEMY INC.,Bonneville County,151 NORTH RIDGE AVENUE,IDAHO FALLS,ID,83402,4014,(208)522-5145,13,City: Small,Yes,No,Yes,No,461,22,21,–,–
160006000768,ID-381-0261,1600060,ID-381,6,12,AMERICAN FALLS ACADEMY,AMERICAN FALLS JOINT DISTRICT,Power County,598 LINCOLN,AMERICAN FALLS,ID,83211,1762,(208)226-5008,32,Town: Distant,No,No,–,–,29,3.04,9.5,15,0
160006000003,ID-381-0168,1600060,ID-381,9,12,AMERICAN FALLS HIGH SCHOOL,AMERICAN FALLS JOINT DISTRICT,Power County,2966 SOUTH FRONTAGE ROAD,AMERICAN FALLS,ID,83211,5404,(208)226-2531,41,Rural: Fringe,No,No,Yes,Yes,401,23.97,16.7,200,35
160016201044,ID-482-1346,1600162,ID-482,KG,12,AMERICAN HERITAGE CHARTER SCHOOL,AMERICAN HERITAGE CHARTER SCHOOL INC.,Bonneville County,1736 SOUTH 35TH WEST,IDAHO FALLS,ID,83402,5691,(208)529-6570,41,Rural: Fringe,Yes,No,Yes,Yes,363,20.01,18.1,41,21
160036000592,ID-001-0300,1600360,ID-001,PK,6,AMITY ELEMENTARY SCHOOL,BOISE INDEPENDENT DISTRICT,Ada County,10000 WEST AMITY ROAD,BOISE,ID,83709,5321,(208)854-4220,21,Suburb: Large,No,No,–,–,529,25.44,20.8,104,40
160093000167,ID-093-0426,1600930,ID-093,PK,6,AMMON ELEMENTARY SCHOOL,BONNEVILLE JOINT DISTRICT,Bonneville County,2900 CENTRAL AVENUE,AMMON,ID,83406,7758,(208)525-4465,23,Suburb: Small,No,No,Yes,Yes,315,15.5,20.3,71,27
160015501008,ID-476-1247,1600155,ID-476,PK,12,ANOTHER CHOICE VIRTUAL CHARTER,ANOTHER CHOICE VIRTUAL CHARTER SCHOOL INC.,Canyon County,1014 WEST HEMINGWAY BOULEVARD,NAMPA,ID,83651,1733,(208)467-7524,22,Suburb: Midsize,Yes,No,Yes,Yes,541,27.31,19.8,5,6
160036000758,ID-001-0819,1600360,ID-001,PK,8,ANSER CHARTER SCHOOL,BOISE INDEPENDENT DISTRICT,Ada County,202 EAST 42ND STREET,GARDEN CITY,ID,83714,6315,(208)426-9840,21,Suburb: Large,Yes,No,–,–,360,22.07,16.3,43,20
160009000006,ID-383-0810,1600090,ID-383,KG,6,ARBON ELEMENTARY SCHOOL,ARBON ELEMENTARY DISTRICT,Power County,4405 ARBON VALLEY HIGHWAY,ARBON,ID,83212,5021,(208)335-2197,42,Rural: Distant,No,No,–,–,17,1.75,9.7,3,0
160049000007,ID-111-0439,1600490,ID-111,PK,6,ARCO ELEMENTARY SCHOOL,BUTTE COUNTY JOINT DISTRICT,Butte County,PO BOX 675,ARCO,ID,83213,675,(208)527-8503,43,Rural: Remote,No,No,Yes,Yes,194,11.5,16.9,73,18
160219001117,ID-331-1414,1602190,ID-331,9,12,ARTE I RPTCS (Regional Professional Technical Charter School,MINIDOKA COUNTY JOINT DISTRICT,†,COLLEGE OF SOUTHERN IDAHO EVERGREEN BLDG. ROOM 38,TWIN FALLS,ID,83301,,(208)308-6512,†,N,Yes,†,†,†,†,†,†,†,†
160219000883,ID-331-0639,1602190,ID-331,9,12,ARTEC CHARTER SCHOOL,MINIDOKA COUNTY JOINT DISTRICT,Minidoka County,315 FALLS AVENUE,TWIN FALLS,ID,83303,3389,(208)436-9928,41,Rural: Fringe,Yes,No,–,–,1,17.5,0.1,†,†
160111000200,ID-215-0701,1601110,ID-215,PK,5,ASHTON ELEMENTARY SCHOOL,FREMONT COUNTY JOINT DISTRICT,Fremont County,168 SOUTH 1ST STREET,ASHTON,ID,83420,5738,(208)652-7601,43,Rural: Remote,No,No,Yes,Yes,261,13,20.1,73,46
160180000309,ID-272-0747,1601800,ID-272,PK,6,ATHOL ELEMENTARY SCHOOL,LAKELAND DISTRICT,Kootenai County,6333 EAST MENSER AVENUE,ATHOL,ID,83801,9426,(208)683-2231,42,Rural: Distant,No,No,Yes,Yes,395,21.94,18,137,36
160078000152,ID-271-0740,1600780,ID-271,KG,5,ATLAS ELEMENTARY SCHOOL,COEUR D'ALENE DISTRICT,Kootenai County,3000 WEST HONEYSUCKLE,HAYDEN LAKE,ID,83835,9690,(208)762-0626,23,Suburb: Small,No,No,Yes,Yes,622,27.2,22.9,156,68
160210000639,ID-002-0339,1602100,ID-002,KG,5,BARBARA MORGAN STEM ACADEMY,JOINT SCHOOL DISTRICT NO. 2,Ada County,1825 CHATEAU DRIVE,MERIDIAN,ID,83646,1345,(208)855-4430,21,Suburb: Large,No,Yes,–,–,456,21,21.7,100,29
160203000356,ID-421-0837,1602030,ID-421,PK,5,BARBARA R MORGAN ELEMENTARY,MCCALL-DONNELLY JOINT SCHOOL DISTRICT,Valley County,125 NORTH SAMSON TRAIL,MCCALL,ID,83638,5187,(208)634-2219,43,Rural: Remote,No,No,–,–,422,21.25,19.9,83,34
160318000884,ID-401-0875,1603180,ID-401,6,12,BASIN ALTERNATIVE HIGH SCHOOL,TETON COUNTY DISTRICT,Teton County,510 NORTH 1ST EAST,DRIGGS,ID,83422,5079,(208)228-5928,43,Rural: Remote,No,No,Yes,Yes,21,2,10.5,–,–
160018000334,ID-072-0159,1600180,ID-072,PK,6,BASIN ELEMENTARY SCHOOL,BASIN SCHOOL DISTRICT,Boise County,PO BOX 227,IDAHO CITY,ID,83631,227,(208)392-6631,42,Rural: Distant,No,No,Yes,Yes,154,12.77,12.1,50,7
160024000018,ID-033-0027,1600240,ID-033,9,12,BEAR LAKE HIGH SCHOOL,BEAR LAKE COUNTY DISTRICT,Bear Lake County,330 BOISE STREET,MONTPELIER,ID,83254,1048,(208)847-0294,43,Rural: Remote,No,No,Yes,No,312,18.86,16.5,63,38
160024000017,ID-033-0026,1600240,ID-033,6,8,BEAR LAKE MIDDLE SCHOOL,BEAR LAKE COUNTY DISTRICT,Bear Lake County,633 WASHINGTON STREET,MONTPELIER,ID,83254,1453,(208)847-2255,43,Rural: Remote,No,No,Yes,Yes,278,14.57,19.1,90,30
160030000033,ID-061-0394,1600300,ID-061,PK,5,BELLEVUE ELEMENTARY SCHOOL,BLAINE COUNTY DISTRICT,Blaine County,305 NORTH 5TH STREET,BELLEVUE,ID,83313,390,(208)578-5080,33,Town: Remote,No,No,Yes,Yes,235,20.2,11.6,45,30
160225001041,ID-193-1317,1602250,ID-193,7,12,BENNETT MOUNTAIN HIGH SCHOOL,MOUNTAIN HOME DISTRICT,Elmore County,560 EAST JACKSON,MOUNTAIN HOME,ID,83647,2824,(208)587-3837,32,Town: Distant,No,No,Yes,Yes,105,7,15,44,2
160180000295,ID-272-0513,1601800,ID-272,PK,6,BETTY KIEFER ELEMENTARY SCHOOL,LAKELAND DISTRICT,Kootenai County,13898 NORTH SCHOONER STREET,RATHDRUM,ID,83858,130,(208)687-5206,31,Town: Fringe,No,No,Yes,Yes,467,25,18.7,125,37
160342000412,ID-202-0223,1603420,ID-202,6,8,BEUTLER MIDDLE SCHOOL,WEST SIDE JOINT DISTRICT,Franklin County,PO BOX 140,DAYTON,ID,83232,119,(208)747-3303,42,Rural: Distant,No,No,Yes,Yes,194,12.78,15.2,41,45
160324000548,ID-411-0828,1603240,ID-411,PK,5,BICKEL ELEMENTARY SCHOOL,TWIN FALLS DISTRICT,Twin Falls County,607 2ND AVENUE EAST,TWIN FALLS,ID,83301,7128,(208)733-4116,33,Town: Remote,No,No,Yes,Yes,255,15.7,16.2,162,30
160016901067,ID-485-1364,1600169,ID-485,9,12,BINGHAM ACADEMY,IDAHO STEM ACADEMY INC.,Bingham County,1350 PARKWAY DRIVE #18,BLACKFOOT,ID,83221,1657,(208)557-4003,32,Town: Distant,Yes,No,Yes,Yes,106,10.55,10,–,–
160060000778,ID-139-0519,1600600,ID-139,PK,5,BIRCH ELEMENTARY SCHOOL,VALLIVUE SCHOOL DISTRICT,Canyon County,6900 BIRCH LANE,NAMPA,ID,83687,8304,(208)461-5960,22,Suburb: Midsize,No,No,Yes,Yes,652,31,21,205,49
160102000095,ID-221-1265,1601020,ID-221,9,12,BLACK CANYON HIGH SCHOOL,EMMETT INDEPENDENT DISTRICT,Gem County,400 SOUTH PINE STREET SUITE #2,EMMETT,ID,83617,3030,(208)365-5552,32,Town: Distant,No,No,Yes,Yes,67,8.15,8.2,43,0
160015300796,ID-477-1294,1600153,ID-477,PK,8,BLACKFOOT CHARTER COMMUNITY,BLACKFOOT CHARTER COMMUNITY LEARNING CENTER INC.,Bingham County,2801 HUNTERS LOOP,BLACKFOOT,ID,83221,6206,(208)782-0744,32,Town: Distant,Yes,No,Yes,Yes,645,33.9,19,198,72
160027000030,ID-055-0381,1600270,ID-055,6,6,BLACKFOOT HERITAGE SIXTH GRADE,BLACKFOOT DISTRICT,Bingham County,50 SOUTH SHILLING AVENUE,BLACKFOOT,ID,83221,2951,(208)785-8838,32,Town: Distant,No,No,Yes,Yes,285,13.28,21.5,126,32
160027000022,ID-055-0034,1600270,ID-055,9,12,BLACKFOOT HIGH SCHOOL,BLACKFOOT DISTRICT,Bingham County,870 SOUTH FISHER AVENUE,BLACKFOOT,ID,83221,3305,(208)785-8810,32,Town: Distant,No,No,Yes,Yes,1147,60.26,19,340,118
160033000040,ID-234-0714,1600330,ID-234,PK,12,BLISS SCHOOL,BLISS JOINT DISTRICT,Gooding County,601 EAST HIGHWAY 30,BLISS,ID,83314,115,(208)352-4445,43,Rural: Remote,No,No,Yes,Yes,138,13.24,10.4,84,14
160036000044,ID-001-0007,1600360,ID-001,9,12,BOISE SENIOR HIGH SCHOOL,BOISE INDEPENDENT DISTRICT,Ada County,1010 WEST WASHINGTON STREET,BOISE,ID,83702,5446,(208)854-4270,12,City: Midsize,No,No,–,–,1496,83.22,18,207,20
160042000089,ID-101-0057,1600420,ID-101,9,12,BONNERS FERRY HIGH SCHOOL,BOUNDARY COUNTY DISTRICT,Boundary County,6485 TAMARACK LANE,BONNERS FERRY,ID,83805,8539,(208)267-3149,33,Town: Remote,No,No,Yes,Yes,446,25.5,17.5,141,51
160093000169,ID-093-0056,1600930,ID-093,9,12,BONNEVILLE HIGH SCHOOL,BONNEVILLE JOINT DISTRICT,Bonneville County,3165 EAST IONA ROAD,IDAHO FALLS,ID,83401,1350,(208)525-4406,23,Suburb: Small,No,No,Yes,No,982,49.81,19.7,224,71
160093000999,ID-093-1238,1600930,ID-093,PK,8,BONNEVILLE ONLINE ELEMENTARY,BONNEVILLE JOINT DISTRICT,Bonneville County,2017 E 49 N,IDAHO FALLS,ID,83401,1225,(208)525-4400,41,Rural: Fringe,No,No,–,–,108,2.9,37.2,1,2
160093001050,ID-093-1319,1600930,ID-093,6,12,BONNEVILLE ONLINE SCHOOL,BONNEVILLE JOINT DISTRICT,Bonneville County,3385 EAST IONA ROAD,IDAHO FALLS,ID,83401,,(208)227-9876,23,Suburb: Small,No,No,–,–,304,14.55,20.9,4,2
160078000146,ID-271-0735,1600780,ID-271,KG,5,BORAH ELEMENTARY SCHOOL,COEUR D'ALENE DISTRICT,Kootenai County,632 BORAH AVENUE,COEUR D'ALENE,ID,83814,3627,(208)664-5844,13,City: Small,No,No,Yes,Yes,384,21.16,18.1,189,48
160036000045,ID-001-0008,1600360,ID-001,9,12,BORAH SENIOR HIGH SCHOOL,BOISE INDEPENDENT DISTRICT,Ada County,6001 CASSIA STREET,BOISE,ID,83709,2106,(208)854-4370,12,City: Midsize,No,No,Yes,No,1474,85.66,17.2,406,88
160042000029,ID-101-0201,1600420,ID-101,6,8,BOUNDARY COUNTY MIDDLE SCHOOL,BOUNDARY COUNTY DISTRICT,Boundary County,6577 MAIN STREET #100,BONNERS FERRY,ID,83805,8521,(208)267-5852,33,Town: Remote,No,No,Yes,Yes,328,23.5,14,123,51
160001000578,ID-288-0771,1600010,ID-288,PK,3,BOVILL ELEMENTARY SCHOOL,WHITEPINE JOINT SCHOOL DISTRICT,Latah County,PO BOX 310,BOVILL,ID,83806,310,(208)826-3314,43,Rural: Remote,No,No,Yes,Yes,69,4.69,14.7,27,6
160324000755,ID-411-1147,1603240,ID-411,7,8,BRIDGE ACADEMY,TWIN FALLS DISTRICT,Twin Falls County,616 EASTLAND DRIVE,TWIN FALLS,ID,83301,5739,(208)733-8505,33,Town: Remote,No,No,Yes,Yes,63,4.36,14.4,41,7
160093000975,ID-093-2518,1600930,ID-093,PK,6,BRIDGEWATER ELEMENTARY SCHOOL,BONNEVILLE JOINT DISTRICT,Bonneville County,1499 INDIAN HOLLOW DRIVE,IDAHO FALLS,ID,83401,6288,(208)552-5577,23,Suburb: Small,No,No,Yes,Yes,458,20.5,22.3,159,53
160045000098,ID-365-0801,1600450,ID-365,PK,5,BRUNEAU ELEMENTARY SCHOOL,BRUNEAU-GRAND VIEW JOINT SCHOOL DISTRICT,Owyhee County,PO BOX 158,BRUNEAU,ID,83604,158,(208)845-2492,42,Rural: Distant,No,No,Yes,Yes,53,3.87,13.7,17,5
160078000147,ID-271-0741,1600780,ID-271,PK,5,BRYAN ELEMENTARY SCHOOL,COEUR D'ALENE DISTRICT,Kootenai County,802 HARRISON AVENUE,COEUR D'ALENE,ID,83814,4533,(208)664-3237,13,City: Small,No,No,Yes,Yes,417,19,21.9,176,58
160048000102,ID-412-0180,1600480,ID-412,9,12,BUHL HIGH SCHOOL,BUHL JOINT DISTRICT,Twin Falls County,1 INDIAN TERRITORY,BUHL,ID,83316,5708,(208)543-8262,41,Rural: Fringe,No,No,Yes,Yes,347,21.83,15.9,119,34
160048000103,ID-412-0179,1600480,ID-412,6,8,BUHL MIDDLE SCHOOL,BUHL JOINT DISTRICT,Twin Falls County,525 SAWTOOTH BOULEVARD,BUHL,ID,83316,1204,(208)543-8292,41,Rural: Fringe,No,No,Yes,Yes,332,18,18.4,211,25
160066000125,ID-151-0080,1600660,ID-151,7,8,BURLEY JUNIOR HIGH SCHOOL,CASSIA COUNTY JOINT DISTRICT,Cassia County,700 WEST 16TH STREET,BURLEY,ID,83318,1710,(208)878-6613,33,Town: Remote,No,No,Yes,Yes,601,31.81,18.9,252,70
160066000124,ID-151-0081,1600660,ID-151,9,12,BURLEY SENIOR HIGH SCHOOL,CASSIA COUNTY JOINT DISTRICT,Cassia County,2100 PARK AVENUE,BURLEY,ID,83318,2105,(208)878-6606,33,Town: Remote,No,No,Yes,Yes,968,51.27,18.9,301,81
160192000336,ID-321-0779,1601920,ID-321,PK,4,BURTON ELEMENTARY SCHOOL,MADISON DISTRICT,Madison County,2211 W 1000 S,REXBURG,ID,83440,4748,(208)359-3332,41,Rural: Fringe,No,No,Yes,Yes,492,23.3,21.1,108,46
160049000008,ID-111-0059,1600490,ID-111,7,12,BUTTE COUNTY MIDDLE/HIGH SCHOOL,BUTTE COUNTY JOINT DISTRICT,Butte County,PO BOX 655,ARCO,ID,83213,655,(208)527-8237,43,Rural: Remote,No,No,Yes,Yes,212,15.5,13.7,58,29
160015001010,ID-394-0820,1600150,ID-394,KG,8,CALDER SCHOOL,AVERY ELEMENTARY DISTRICT,Shoshone County,PO BOX 7,CALDER,ID,83808,,(208)245-2479,43,Rural: Remote,No,No,Yes,Yes,18,1.99,9,–,–
160051000104,ID-132-0065,1600510,ID-132,9,12,CALDWELL SENIOR HIGH SCHOOL,CALDWELL DISTRICT,Canyon County,3401 SOUTH INDIANA,CALDWELL,ID,83605,6464,(208)455-3304,22,Suburb: Midsize,No,No,Yes,Yes,1656,70.39,23.5,1103,160
160054000110,ID-121-0440,1600540,ID-121,PK,8,CAMAS COUNTY ELEM/JR HIGH SCHOOL,CAMAS COUNTY DISTRICT,Camas County,610 SOLDIER ROAD,FAIRFIELD,ID,83327,9702,(208)764-2472,43,Rural: Remote,No,No,Yes,Yes,126,10.71,11.8,30,6
160054000111,ID-121-0060,1600540,ID-121,9,12,CAMAS COUNTY HIGH SCHOOL,CAMAS COUNTY DISTRICT,Camas County,610 SOLDIER ROAD,FAIRFIELD,ID,83327,9702,(208)764-2472,43,Rural: Remote,No,No,Yes,Yes,45,5.11,8.8,12,4
160057000112,ID-432-0841,1600570,ID-432,PK,5,CAMBRIDGE ELEMENTARY SCHOOL,CAMBRIDGE JOINT DISTRICT,Washington County,PO BOX 39,CAMBRIDGE,ID,83610,39,(208)257-3321,43,Rural: Remote,No,No,Yes,Yes,71,8.31,8.5,–,–
160057000113,ID-432-0193,1600570,ID-432,6,12,CAMBRIDGE MIDDLE/HIGH SCHOOL,CAMBRIDGE JOINT DISTRICT,Washington County,PO BOX 39,CAMBRIDGE,ID,83610,39,(208)257-3311,43,Rural: Remote,No,No,Yes,Yes,60,10.3,5.8,–,–
160186000320,ID-340-0788,1601860,ID-340,KG,6,CAMELOT ELEMENTARY SCHOOL,LEWISTON INDEPENDENT DISTRICT,Nez Perce County,1903 GRELLE AVENUE,LEWISTON,ID,83501,6025,(208)748-3500,13,City: Small,No,No,–,–,441,23.92,18.4,65,20
160078000148,ID-271-0120,1600780,ID-271,6,8,CANFIELD MIDDLE SCHOOL,COEUR D'ALENE DISTRICT,Kootenai County,EAST 1800 DALTON AVENUE,COEUR D'ALENE,ID,83815,9611,(208)664-9188,13,City: Small,No,No,–,–,844,39.4,21.4,149,49
160165000290,ID-391-0812,1601650,ID-391,KG,5,CANYON ELEMENTARY SCHOOL,KELLOGG JOINT DISTRICT,Kootenai County,27491 EAST SCHOOLHOUSE LOOP,CATALDO,ID,83810,9543,(208)682-2749,42,Rural: Distant,No,No,–,–,66,3.5,18.9,9,6
160324000998,ID-411-1237,1603240,ID-411,9,12,CANYON RIDGE HIGH SCHOOL,TWIN FALLS DISTRICT,Twin Falls County,300 NORTH COLLEGE ROAD WEST,TWIN FALLS,ID,83301,3180,(208)732-7555,33,Town: Remote,No,No,Yes,Yes,1310,60.31,21.7,415,132
160051000041,ID-132-1090,1600510,ID-132,6,12,CANYON SPRINGS HIGH SCHOOL,CALDWELL DISTRICT,Canyon County,516 NORTH 11TH STREET,CALDWELL,ID,83605,3422,(208)455-3325,22,Suburb: Midsize,No,No,Yes,Yes,296,24.3,12.2,264,14
160036000047,ID-001-0009,1600360,ID-001,9,12,CAPITAL SENIOR HIGH SCHOOL,BOISE INDEPENDENT DISTRICT,Ada County,8055 GODDARD ROAD,BOISE,ID,83704,3127,(208)854-4490,12,City: Midsize,No,No,Yes,No,1318,77.94,16.9,340,64
160153000784,ID-091-0566,1601530,ID-091,10,12,CAREER & TECHNICAL EDUCATION CENTER,IDAHO FALLS DISTRICT,Bonneville County,955 GARFIELD STREET,IDAHO FALLS,ID,83401,2902,(208)525-7517,13,City: Small,No,No,†,†,0,4.57,†,–,–
160030000034,ID-061-0197,1600300,ID-061,PK,12,CAREY PUBLIC SCHOOL,BLAINE COUNTY DISTRICT,Blaine County,PO BOX 266,CAREY,ID,83320,266,(208)823-4391,43,Rural: Remote,No,No,Yes,Yes,245,21.09,11.6,54,32
160063000120,ID-422-0838,1600630,ID-422,PK,5,CASCADE ELEMENTARY SCHOOL,CASCADE DISTRICT,Valley County,PO BOX 291,CASCADE,ID,83611,291,(208)382-4227,43,Rural: Remote,No,No,Yes,Yes,114,7.9,14.4,36,7
160063000121,ID-422-0190,1600630,ID-422,6,12,CASCADE JR/SR HIGH SCHOOL,CASCADE DISTRICT,Valley County,PO BOX 291,CASCADE,ID,83611,291,(208)382-4227,43,Rural: Remote,No,No,Yes,Yes,110,8.7,12.6,25,12
160066000540,ID-151-0990,1600660,ID-151,7,12,CASSIA JR/SR HIGH SCHOOL,CASSIA COUNTY JOINT DISTRICT,Cassia County,1010 WEST 17TH STREET,BURLEY,ID,83318,1746,(208)878-6630,33,Town: Remote,No,No,Yes,Yes,127,10,12.7,127,0
160066000782,ID-151-0568,1600660,ID-151,9,12,CASSIA REGIONAL TECHNICAL CENTER,CASSIA COUNTY JOINT DISTRICT,Cassia County,1143 WEST 16TH STREET,BURLEY,ID,83318,2185,(208)878-6610,33,Town: Remote,No,No,†,†,0,1.23,†,–,–
160069000137,ID-417-0185,1600690,ID-417,PK,12,CASTLEFORD SCHOOL,CASTLEFORD DISTRICT,Twin Falls County,500 MAIN STREET,CASTLEFORD,ID,83321,9998,(208)537-6511,42,Rural: Distant,No,No,Yes,Yes,353,21,16.8,168,44
160252000436,ID-171-0481,1602520,ID-171,PK,6,CAVENDISH-TEAKEAN ELEMENTARY SCHOOL,OROFINO JOINT DISTRICT,Clearwater County,455 MIDDLE ROAD,LENORE,ID,83541,9526,(208)476-5393,42,Rural: Distant,No,No,Yes,No,21,1,21,3,0
160078000704,ID-271-1038,1600780,ID-271,4,12,CDA JUVENILE DETENTION CENTER,COEUR D'ALENE DISTRICT,Kootenai County,210 EAST DALTON AVENUE,DALTON GARDENS,ID,83815,,(208)664-3024,13,City: Small,No,No,–,–,79,2,39.5,11,2
160210000593,ID-002-0523,1602100,ID-002,PK,5,CECIL D ANDRUS ELEMENTARY,JOINT SCHOOL DISTRICT NO. 2,Ada County,6100 PARK MEADOW DRIVE,BOISE,ID,83713,1300,(208)939-3400,12,City: Midsize,No,No,–,–,551,28.65,19.2,95,14
160234000409,ID-131-0444,1602340,ID-131,PK,5,CENTENNIAL ELEMENTARY SCHOOL,NAMPA SCHOOL DISTRICT,Canyon County,522 MASON LANE,NAMPA,ID,83686,6623,(208)468-4627,22,Suburb: Midsize,No,No,Yes,Yes,513,24,21.4,285,58
160186000321,ID-340-0787,1601860,ID-340,KG,6,CENTENNIAL ELEMENTARY SCHOOL,LEWISTON INDEPENDENT DISTRICT,Nez Perce County,815 BURRELL AVENUE,LEWISTON,ID,83501,4931,(208)748-3550,13,City: Small,No,No,Yes,No,413,21.8,18.9,92,39
160210000674,ID-002-0015,1602100,ID-002,9,12,CENTENNIAL HIGH SCHOOL,JOINT SCHOOL DISTRICT NO. 2,Ada County,12400 WEST MCMILLAN ROAD,BOISE,ID,83713,529,(208)855-4250,12,City: Midsize,No,No,–,–,2088,94.23,22.2,417,110
160210000903,ID-002-0597,1602100,ID-002,9,12,CENTRAL ACADEMY HIGH SCHOOL,JOINT SCHOOL DISTRICT NO. 2,Ada County,6075 NORTH LOCUST GROVE ROAD,MERIDIAN,ID,83646,3037,(208)855-4325,21,Suburb: Large,No,No,Yes,Yes,156,5.18,30.1,48,5
160060000083,ID-139-0505,1600600,ID-139,PK,5,CENTRAL CANYON ELEMENTARY SCHOOL,VALLIVUE SCHOOL DISTRICT,Canyon County,16437 FLORIDA AVENUE,CALDWELL,ID,83607,8211,(208)459-3367,22,Suburb: Midsize,No,No,Yes,Yes,592,31,19.1,262,78
160234000410,ID-131-0447,1602340,ID-131,PK,5,CENTRAL ELEMENTARY,NAMPA SCHOOL DISTRICT,Canyon County,1415 5TH STREET SOUTH,NAMPA,ID,83651,4804,(208)468-4611,22,Suburb: Midsize,No,No,Yes,Yes,327,21.53,15.2,260,27
160309000537,ID-322-0781,1603090,ID-322,PK,3,CENTRAL ELEMENTARY SCHOOL,SUGAR-SALEM JOINT DISTRICT,Madison County,PO BOX 239,SUGAR CITY,ID,83448,239,(208)356-9351,32,Town: Distant,No,No,Yes,Yes,423,21.5,19.7,110,78
160192000296,ID-321-9015,1601920,ID-321,6,12,CENTRAL HIGH SCHOOL,MADISON DISTRICT,Madison County,379 SOUTH 2ND EAST,REXBURG,ID,83440,2526,(208)359-2337,32,Town: Distant,No,No,Yes,Yes,117,7,16.7,39,8
160264000646,ID-025-0956,1602640,ID-025,9,12,CENTURY HIGH SCHOOL,POCATELLO DISTRICT,Bannock County,7801 DIAMONDBACK DRIVE,POCATELLO,ID,83204,7347,(208)478-6863,41,Rural: Fringe,No,No,Yes,No,1234,55.33,22.3,490,0
160072000139,ID-181-0489,1600720,ID-181,PK,6,CHALLIS ELEMENTARY SCHOOL,CHALLIS JOINT DISTRICT,Custer County,PO BOX 304,CHALLIS,ID,83226,304,(208)879-2439,43,Rural: Remote,No,No,Yes,Yes,178,11.52,15.5,73,18
160072000140,ID-181-0089,1600720,ID-181,7,12,CHALLIS JR/SR HIGH SCHOOL,CHALLIS JOINT DISTRICT,Custer County,PO BOX 304,CHALLIS,ID,83226,304,(208)879-2255,43,Rural: Remote,No,No,Yes,No,170,14.7,11.6,43,19
160210000597,ID-002-0524,1602100,ID-002,PK,5,CHAPARRAL ELEMENTARY,JOINT SCHOOL DISTRICT NO. 2,Ada County,1155 NORTH DEER CREEK LANE,MERIDIAN,ID,83642,4242,(208)350-4180,21,Suburb: Large,No,No,–,–,513,26.29,19.5,94,26
160210000717,ID-002-0329,1602100,ID-002,PK,5,CHIEF JOSEPH SCHOOL OF THE ARTS,JOINT SCHOOL DISTRICT NO. 2,Ada County,1100 EAST CHATEAU,MERIDIAN,ID,83646,3403,(208)350-4200,21,Suburb: Large,No,Yes,Yes,Yes,522,28.88,18.1,168,49
160016301040,ID-483-1347,1600163,ID-483,KG,7,CHIEF TAHGEE ELEMENTARY ACADEMY,CHIEF TAHGEE ELEMENTARY ACADEMY INC.,Bannock County,PO BOX 217,FORT HALL,ID,83203,217,(208)237-1734,41,Rural: Fringe,Yes,No,Yes,Yes,86,8.05,10.7,63,4
160210000366,ID-002-0338,1602100,ID-002,PK,6,CHRISTINE DONNELL SCHOOL OF THE ARTS,JOINT SCHOOL DISTRICT NO. 2,Ada County,7075 SOUTH FIVE MILE ROAD,BOISE,ID,83709,7114,(208)855-4355,21,Suburb: Large,No,Yes,–,–,515,24.79,20.8,66,33
160264000464,ID-025-0356,1602640,ID-025,PK,5,CHUBBUCK ELEMENTARY SCHOOL,POCATELLO DISTRICT,Bannock County,600 WEST CHASTAIN DRIVE,CHUBBUCK,ID,83202,2559,(208)237-2271,23,Suburb: Small,No,No,Yes,Yes,533,23.93,22.3,203,0
160075000144,ID-161-0085,1600750,ID-161,6,12,CLARK COUNTY JR/SR HIGH SCHOOL,CLARK COUNTY DISTRICT,Clark County,PO BOX 237,DUBOIS,ID,83423,237,(208)374-5215,43,Rural: Remote,No,No,Yes,Yes,63,9.27,6.8,26,13
160000200082,ID-084-0049,1600002,ID-084,7,12,CLARK FORK JR/SR HIGH SCHOOL,LAKE PEND OREILLE SCHOOL DISTRICT,Bonner County,502 NORTH MAIN STREET,CLARK FORK,ID,83811,,(208)266-1131,43,Rural: Remote,No,No,Yes,Yes,131,8.68,15.1,–,–
160264000465,ID-025-0362,1602640,ID-025,PK,6,CLAUDE A WILCOX ELEMENTARY SCHOOL,POCATELLO DISTRICT,Bannock County,427 LARK LANE,POCATELLO,ID,83201,5504,(208)237-6050,13,City: Small,No,No,Yes,Yes,545,25.93,21,365,0
160013900961,ID-244-1285,1600139,ID-244,KG,5,CLEARWATER VALLEY ELEMENTARY,MOUNTAIN VIEW SCHOOL DISTRICT,Idaho County,PO BOX 100,KOOSKIA,ID,83539,100,(208)926-4311,43,Rural: Remote,No,No,Yes,Yes,193,10.54,18.3,99,19
160013900936,ID-244-1283,1600139,ID-244,6,12,CLEARWATER VALLEY JR/SR,MOUNTAIN VIEW SCHOOL DISTRICT,Idaho County,PO BOX 130,KOOSKIA,ID,83539,130,(208)926-4511,43,Rural: Remote,No,No,Yes,Yes,207,15.46,13.4,73,24
160024000827,ID-033-0404,1600240,ID-033,9,12,CLOVER CREEK HIGH SCHOOL,BEAR LAKE COUNTY DISTRICT,Bear Lake County,697 JACKSON,MONTPELIER,ID,83254,1453,(208)847-2516,43,Rural: Remote,No,No,–,–,14,0,†,6,0
160093000630,ID-093-0431,1600930,ID-093,PK,6,CLOVERDALE ELEMENTARY SCHOOL,BONNEVILLE JOINT DISTRICT,Bonneville County,3999 GREENWILLOW LANE,IDAHO FALLS,ID,83401,2438,(208)525-4450,23,Suburb: Small,No,No,Yes,Yes,545,23.5,23.2,196,76
160017300765,ID-491-1370,1600173,ID-491,6,12,COEUR D'ALENE CHARTER ACADEMY SCHOOL,COEUR D'ALENE CHARTER ACADEMY INC.,Kootenai County,4904 NORTH DUNCAN DRIVE,COEUR D'ALENE,ID,83815,9404,(208)676-1667,13,City: Small,Yes,No,–,–,708,34.01,20.8,2,1
160078001118,ID-271-1432,1600780,ID-271,PK,PK,COEUR D'ALENE EARLY CHILDHOOD LERNING CENTER,COEUR D'ALENE DISTRICT,†,1400 N NORTHWOOD CENTER COURT,COEUR D'ALENE,ID,83814,,(208)332-6800,†,N,No,†,†,†,†,†,†,†,†
160078000149,ID-271-0122,1600780,ID-271,9,12,COEUR D'ALENE HIGH SCHOOL,COEUR D'ALENE DISTRICT,Kootenai County,NORTH 5530 4TH STREET,COEUR D'ALENE,ID,83815,9266,(208)667-4507,13,City: Small,No,No,–,–,1408,64.47,21.8,163,62
160036000049,ID-001-0326,1600360,ID-001,PK,6,COLLISTER ELEMENTARY SCHOOL,BOISE INDEPENDENT DISTRICT,Ada County,4426 CATALPA DRIVE,BOISE,ID,83703,3913,(208)854-4650,12,City: Midsize,No,No,–,–,239,14.1,17,22,7
160234000870,ID-131-0638,1602340,ID-131,9,12,COLUMBIA HIGH SCHOOL,NAMPA SCHOOL DISTRICT,Canyon County,301 SOUTH HAPPY VALLEY ROAD,NAMPA,ID,83687,8828,(208)498-0571,22,Suburb: Midsize,No,No,Yes,Yes,1310,65.17,20.1,409,120
160153001043,ID-091-1350,1601530,ID-091,9,12,COMPASS ACADEMY,IDAHO FALLS DISTRICT,Bonneville County,955 GARFIELD STREET,IDAHO FALLS,ID,83401,2902,(208)525-7720,13,City: Small,No,Yes,–,–,468,26.76,17.5,93,28
160000700864,ID-455-0575,1600007,ID-455,KG,12,COMPASS PUBLIC CHARTER SCHOOL,COMPASS PUBLIC CHARTER SCHOOL INC.,Ada County,4667 WEST AVIATOR STREET,MERIDIAN,ID,83642,1135,(208)855-2802,21,Suburb: Large,Yes,No,Yes,Yes,1088,51.1,21.3,135,31
160001400891,ID-460-0641,1600014,ID-460,PK,8,CONNOR ACADEMY,THE ACADEMY INC.,Bannock County,1295 ALPINE AVENUE,CHUBBUCK,ID,83202,3100,(208)232-1447,41,Rural: Fringe,Yes,No,Yes,No,554,24.3,22.8,3,0
160015200304,ID-555-1291,1600152,ID-555,7,12,COSSA ACADEMY,CANYON-OWYHEE SCHOOL SERVICE AGENCY (COSSA),Canyon County,109 PENNY LANE,WILDER,ID,83676,5207,(208)482-7904,42,Rural: Distant,No,No,–,–,132,9.8,13.5,31,95
160157001128,ID-251-1437,1601570,ID-251,–,–,COTTONWOOD ELEMENTARY,JEFFERSON COUNTY JOINT DISTRICT,†,3955 EAST 200 NORTH,RIGBY,ID,83442,,(208)332-6800,†,N,No,†,†,†,†,†,†,†,†
160084000162,ID-013-0348,1600840,ID-013,PK,6,COUNCIL ELEMENTARY SCHOOL,COUNCIL DISTRICT,Adams County,PO BOX 68,COUNCIL,ID,83612,68,(208)253-4223,43,Rural: Remote,No,No,Yes,Yes,147,9.26,15.9,58,8
160084000163,ID-013-0017,1600840,ID-013,7,12,COUNCIL JR/SR HIGH SCHOOL,COUNCIL DISTRICT,Adams County,PO BOX 468,COUNCIL,ID,83612,468,(208)253-4217,43,Rural: Remote,No,No,Yes,Yes,130,9.62,13.5,59,8
160177000951,ID-003-0887,1601770,ID-003,PK,5,CRIMSON POINT ELEMENTARY SCHOOL,KUNA JOINT DISTRICT,Ada County,1941 NORTH SHAYLA AVENUE,KUNA,ID,83634,5186,(208)955-0230,31,Town: Fringe,No,No,Yes,Yes,436,20,21.8,112,46
160210000602,ID-002-1145,1602100,ID-002,6,8,CROSSROADS MIDDLE SCHOOL,JOINT SCHOOL DISTRICT NO. 2,Ada County,650 NORTH NOLA,MERIDIAN,ID,83642,4084,(208)855-4275,21,Suburb: Large,No,No,Yes,Yes,143,13.51,10.6,65,17
160087000164,ID-342-0795,1600870,ID-342,PK,12,CULDESAC SCHOOL,CULDESAC JOINT DISTRICT,Nez Perce County,600 CULDESAC AVENUE,CULDESAC,ID,83524,8700,(208)843-5413,42,Rural: Distant,No,No,Yes,Yes,94,12.49,7.5,31,20
160036000707,ID-001-0665,1600360,ID-001,PK,6,CYNTHIA MANN ELEMENTARY SCHOOL,BOISE INDEPENDENT DISTRICT,Ada County,5401 WEST CASTLE DRIVE,BOISE,ID,83703,3205,(208)854-4680,12,City: Midsize,No,No,Yes,Yes,375,21,17.9,136,25
160078000150,ID-271-0739,1600780,ID-271,PK,5,DALTON ELEMENTARY SCHOOL,COEUR D'ALENE DISTRICT,Kootenai County,6335 NORTH MOUNT CARROLL,DALTON GARDENS,ID,83815,9604,(208)772-5364,23,Suburb: Small,No,No,–,–,439,19.92,22,57,9
160001000579,ID-288-0794,1600010,ID-288,4,12,DEARY SCHOOL,WHITEPINE JOINT SCHOOL DISTRICT,Latah County,PO BOX 9,DEARY,ID,83823,9,(208)877-1151,43,Rural: Remote,No,No,Yes,Yes,178,12.82,13.9,75,11
160066000126,ID-151-0469,1600660,ID-151,PK,5,DECLO ELEMENTARY SCHOOL,CASSIA COUNTY JOINT DISTRICT,Cassia County,120 EAST MAIN STREET,DECLO,ID,83323,5085,(208)654-2391,42,Rural: Distant,No,No,Yes,Yes,455,18,25.3,125,54
160066000610,ID-151-0292,1600660,ID-151,6,8,DECLO JR HIGH SCHOOL,CASSIA COUNTY JOINT DISTRICT,Cassia County,205 EAST MAIN STREET,DECLO,ID,83323,5085,(208)654-9960,42,Rural: Distant,No,No,Yes,Yes,233,13.47,17.3,56,22
160066000127,ID-151-0084,1600660,ID-151,9,12,DECLO SENIOR HIGH SCHOOL,CASSIA COUNTY JOINT DISTRICT,Cassia County,505 EAST MAIN STREET,DECLO,ID,83323,5047,(208)654-2030,42,Rural: Distant,No,No,–,–,293,17.66,16.6,45,23
160036000817,ID-001-0563,1600360,ID-001,7,12,DEHRYL A DENNIS PROF-TECH CENTER,BOISE INDEPENDENT DISTRICT,Ada County,8201 WEST VICTORY ROAD,BOISE,ID,83709,4166,(208)854-5810,21,Suburb: Large,No,No,†,†,0,21.8,†,–,–
160210000901,ID-002-0592,1602100,ID-002,PK,5,DESERT SAGE ELEMENTARY SCHOOL,JOINT SCHOOL DISTRICT NO. 2,Ada County,9325 WEST MOSSYWOOD STREET,BOISE,ID,83709,6498,(208)350-4020,21,Suburb: Large,No,No,Yes,Yes,654,37.48,17.4,360,45
160060000935,ID-139-0892,1600600,ID-139,PK,5,DESERT SPRINGS ELEMENTARY SCHOOL,VALLIVUE SCHOOL DISTRICT,Canyon County,18178 SANTA ANA AVENUE,NAMPA,ID,83687,5131,(208)466-1555,41,Rural: Fringe,No,No,Yes,Yes,657,30.5,21.5,282,55
160090000165,ID-314-0143,1600900,ID-314,PK,12,DIETRICH SCHOOL,DIETRICH DISTRICT,Lincoln County,406 NORTH PARK STREET,DIETRICH,ID,83324,5069,(208)544-2158,43,Rural: Remote,No,No,Yes,Yes,230,15.8,14.6,98,23
160210000801,ID-002-0521,1602100,ID-002,PK,5,DISCOVERY ELEMENTARY SCHOOL,JOINT SCHOOL DISTRICT NO. 2,Ada County,2100 EAST LEIGH FIELD DRIVE,MERIDIAN,ID,83642,2590,(208)855-4090,21,Suburb: Large,No,No,–,–,542,27.36,19.8,74,13
160093000971,ID-093-2519,1600930,ID-093,PK,6,DISCOVERY ELEMENTARY SCHOOL,BONNEVILLE JOINT DISTRICT,Bonneville County,2935 NORTH GOLDEN ROD DRIVE,IDAHO FALLS,ID,83401,5329,(208)552-7711,23,Suburb: Small,No,No,Yes,Yes,621,30.5,20.4,180,85
160027000031,ID-055-0382,1600270,ID-055,PK,5,DONALD D STALKER ELEMENTARY,BLACKFOOT DISTRICT,Bingham County,991 WEST CENTER STREET,BLACKFOOT,ID,83221,2520,(208)785-8841,32,Town: Distant,No,No,Yes,Yes,272,14,19.4,192,21
160291000723,ID-060-0039,1602910,ID-060,7,8,DONALD J HOBBS MIDDLE SCHOOL,SHELLEY JOINT DISTRICT,Bingham County,350 EAST PINE STREET,SHELLEY,ID,83274,1356,(208)357-7667,31,Town: Fringe,No,No,Yes,Yes,365,19.6,18.6,92,44
160203000583,ID-421-0988,1602030,ID-421,KG,5,DONNELLY ELEMENTARY,MCCALL-DONNELLY JOINT SCHOOL DISTRICT,Valley County,PO BOX 369,DONNELLY,ID,83615,369,(208)325-4433,43,Rural: Remote,No,No,Yes,No,159,10.5,15.1,46,13
160153000256,ID-091-0422,1601530,ID-091,PK,6,DORA ERICKSON ELEMENTARY SCHOOL,IDAHO FALLS DISTRICT,Bonneville County,850 CLEVELAND STREET,IDAHO FALLS,ID,83401,2761,(208)525-7612,13,City: Small,No,No,Yes,Yes,428,24.21,17.7,276,46
160195000344,ID-021-0350,1601950,ID-021,PK,6,DOWNEY ELEMENTARY SCHOOL,MARSH VALLEY JOINT DISTRICT,Bannock County,88 SOUTH 4TH EAST,DOWNEY,ID,83234,1688,(208)897-5220,43,Rural: Remote,No,No,Yes,Yes,99,6.5,15.2,36,20
160318000754,ID-401-0249,1603180,ID-401,PK,3,DRIGGS ELEMENTARY SCHOOL,TETON COUNTY DISTRICT,Teton County,481 NORTH MAIN STREET,DRIGGS,ID,83422,5153,(208)354-2335,43,Rural: Remote,No,No,Yes,Yes,323,19,17,105,44
160066000128,ID-151-0474,1600660,ID-151,KG,6,DWORSHAK ELEMENTARY SCHOOL,CASSIA COUNTY JOINT DISTRICT,Cassia County,102 EAST 19TH STREET,BURLEY,ID,83318,2451,(208)878-6615,33,Town: Remote,No,No,Yes,Yes,429,21.54,19.9,195,57
160210000466,ID-002-0982,1602100,ID-002,9,12,EAGLE ACADEMY,JOINT SCHOOL DISTRICT NO. 2,Ada County,100 SOUTH ACADEMY AVENUE,EAGLE,ID,83616,6541,(208)939-5386,21,Suburb: Large,No,No,Yes,Yes,176,13.5,13,38,3
160210000362,ID-002-0332,1602100,ID-002,PK,5,EAGLE ELEMENTARY SCHOOL OF THE ARTS,JOINT SCHOOL DISTRICT NO. 2,Ada County,475 NORTH EAGLE ROAD,EAGLE,ID,83616,5003,(208)855-4365,21,Suburb: Large,No,Yes,–,–,408,20.25,20.1,56,13
160210000318,ID-002-0112,1602100,ID-002,9,12,EAGLE HIGH SCHOOL,JOINT SCHOOL DISTRICT NO. 2,Ada County,574 NORTH PARK LANE,EAGLE,ID,83616,4512,(208)939-2189,41,Rural: Fringe,No,No,–,–,2051,85.13,24.1,132,35
160210000624,ID-002-0340,1602100,ID-002,PK,5,EAGLE HILLS ELEMENTARY SCHOOL,JOINT SCHOOL DISTRICT NO. 2,Ada County,650 RANCH DRIVE,EAGLE,ID,83616,5114,(208)350-4085,21,Suburb: Large,No,No,–,–,582,26.9,21.6,71,8
160210000319,ID-002-0106,1602100,ID-002,6,8,EAGLE MIDDLE SCHOOL,JOINT SCHOOL DISTRICT NO. 2,Ada County,1000 WEST FLOATING FEATHER,EAGLE,ID,83616,3702,(208)939-2216,21,Suburb: Large,No,No,–,–,938,43,21.8,98,16
160153000257,ID-091-0050,1601530,ID-091,7,8,EAGLE ROCK MIDDLE SCHOOL,IDAHO FALLS DISTRICT,Bonneville County,2020 PANCHERI DRIVE,IDAHO FALLS,ID,83402,3134,(208)525-7700,13,City: Small,No,No,Yes,Yes,813,46,17.7,329,87
160060000115,ID-139-0460,1600600,ID-139,PK,5,EAST CANYON ELEMENTARY SCHOOL,VALLIVUE SCHOOL DISTRICT,Canyon County,18408 NORTHSIDE BOULEVARD,NAMPA,ID,83687,8036,(208)466-6929,41,Rural: Fringe,No,No,Yes,Yes,515,26,19.8,223,45
160225000396,ID-193-0494,1602250,ID-193,PK,4,EAST ELEMENTARY SCHOOL,MOUNTAIN HOME DISTRICT,Elmore County,775 NORTH 10TH EAST STREET,MOUNTAIN HOME,ID,83647,2831,(208)587-2575,32,Town: Distant,No,No,Yes,Yes,451,21.01,21.5,180,33
160036001002,ID-001-0677,1600360,ID-001,7,9,EAST JUNIOR HIGH SCHOOL,BOISE INDEPENDENT DISTRICT,Ada County,5600 EAST WARM SPRINGS AVENUE,BOISE,ID,83716,8700,(208)854-4730,41,Rural: Fringe,No,No,–,–,743,42.76,17.4,113,24
160219000381,ID-331-0148,1602190,ID-331,6,8,EAST MINICO MIDDLE SCHOOL,MINIDOKA COUNTY JOINT DISTRICT,Minidoka County,1805 H STREET,RUPERT,ID,83350,1055,(208)436-3178,33,Town: Remote,No,No,Yes,Yes,478,25.5,18.7,230,83
160234000811,ID-131-1109,1602340,ID-131,6,8,EAST VALLEY MIDDLE SCHOOL,NAMPA SCHOOL DISTRICT,Canyon County,4085 EAST GREENHURST ROAD,NAMPA,ID,83686,8657,(208)468-4760,22,Suburb: Midsize,No,No,Yes,Yes,952,50.01,19,390,121
160264000467,ID-025-0353,1602640,ID-025,KG,5,EDAHOW ELEMENTARY SCHOOL,POCATELLO DISTRICT,Bannock County,2020 POCATELLO CREEK ROAD,POCATELLO,ID,83201,2178,(208)233-1844,13,City: Small,No,No,–,–,301,12.88,23.4,75,0
160153000258,ID-091-0416,1601530,ID-091,PK,6,EDGEMONT GARDENS ELEMENTARY SCHOOL,IDAHO FALLS DISTRICT,Bonneville County,1240 AZALEA DRIVE,IDAHO FALLS,ID,83404,6145,(208)525-7618,13,City: Small,No,No,Yes,Yes,504,22.14,22.8,151,25
160018901113,ID-523-1420,1600189,ID-523,6,10,ELEVATE ACADEMY,ELEVATE ACADEMY INC.,Canyon County,1010 W. JEFFERSON STE 201,BOISE,ID,83702,,(208)332-6800,22,Suburb: Midsize,Yes,†,†,†,†,†,†,†,†
160210000595,ID-002-0525,1602100,ID-002,PK,5,ELIZA HART SPALDING STEM ACADEMY,JOINT SCHOOL DISTRICT NO. 2,Ada County,12311 WEST BRADDOCK DRIVE,BOISE,ID,83709,24,(208)321-2150,12,City: Midsize,No,Yes,–,–,749,34.67,21.6,87,34
160013900933,ID-244-1287,1600139,ID-244,PK,8,ELK CITY SCHOOL,MOUNTAIN VIEW SCHOOL DISTRICT,Idaho County,100 SCHOOL ROAD,ELK CITY,ID,83525,,(208)926-2270,43,Rural: Remote,No,No,Yes,Yes,4,1,4,†,†
160153000697,ID-091-1048,1601530,ID-091,9,12,EMERSON HIGH SCHOOL,IDAHO FALLS DISTRICT,Bonneville County,335 5TH STREET,IDAHO FALLS,ID,83401,4703,(208)524-7800,13,City: Small,No,No,Yes,Yes,185,10.25,18,57,11
160102000187,ID-221-0101,1601020,ID-221,9,12,EMMETT HIGH SCHOOL,EMMETT INDEPENDENT DISTRICT,Gem County,721 WEST 12TH STREET,EMMETT,ID,83617,3827,(208)365-6323,32,Town: Distant,No,No,Yes,No,694,27.85,24.9,255,0
160102000191,ID-221-0224,1601020,ID-221,5,8,EMMETT MIDDLE SCHOOL,EMMETT INDEPENDENT DISTRICT,Gem County,301 EAST 4TH STREET,EMMETT,ID,83617,3048,(208)365-2921,32,Town: Distant,No,No,Yes,Yes,721,37,19.5,347,0
160001101120,ID-457-1430,1600011,ID-457,6,12,EMPOWER CONNECTIONS ACADEMY,INSPIRE ACADEMICS INC.,†,600 NORTH STEELHEAD WAY SUITE 164,BOISE,ID,83702,9620,(208)332-6800,†,N,Yes,†,†,†,†,†,†,†,†
160234000947,ID-131-0890,1602340,ID-131,PK,5,ENDEAVOR ELEMENTARY SCHOOL,NAMPA SCHOOL DISTRICT,Canyon County,2824 EAST POWERLINE ROAD,NAMPA,ID,83687,5138,(208)468-4629,22,Suburb: Midsize,No,No,Yes,Yes,511,27,18.9,303,54
160030000035,ID-061-0395,1600300,ID-061,PK,8,ERNEST HEMINGWAY STEAM SCHOOL,BLAINE COUNTY DISTRICT,Blaine County,PO BOX 298,KETCHUM,ID,83340,298,(208)578-5050,33,Town: Remote,No,No,–,–,471,29.5,16,78,42
160153000260,ID-091-0420,1601530,ID-091,PK,6,ETHEL BOYES ELEMENTARY SCHOOL,IDAHO FALLS DISTRICT,Bonneville County,1875 BRENTWOOD DRIVE,IDAHO FALLS,ID,83402,3141,(208)525-7630,13,City: Small,No,No,Yes,Yes,527,23.91,22,245,70
160036000051,ID-001-0002,1600360,ID-001,7,9,FAIRMONT JUNIOR HIGH SCHOOL,BOISE INDEPENDENT DISTRICT,Ada County,2121 NORTH COLE ROAD,BOISE,ID,83704,7312,(208)854-4790,12,City: Midsize,No,No,Yes,Yes,799,47.35,16.9,446,71
160093000172,ID-093-0432,1600930,ID-093,PK,6,FAIRVIEW ELEMENTARY SCHOOL,BONNEVILLE JOINT DISTRICT,Bonneville County,979 EAST 97TH NORTH,IDAHO FALLS,ID,83401,5425,(208)525-4425,41,Rural: Fringe,No,No,Yes,Yes,322,16.5,19.5,92,27
160000800865,ID-456-0576,1600008,ID-456,PK,8,FALCON RIDGE PUBLIC CHARTER,FALCON RIDGE PUBLIC CHARTER SCHOOL INC.,Ada County,PO BOX 326,KUNA,ID,83634,1768,(208)922-9228,31,Town: Fringe,Yes,No,Yes,No,267,15.31,17.4,26,17
160159000097,ID-261-1272,1601590,ID-261,6,12,FALLS CITY ACADEMY,JEROME JOINT DISTRICT,Jerome County,125 4TH AVENUE WEST,JEROME,ID,83338,1818,(208)324-8137,33,Town: Remote,No,No,–,–,16,1,16,–,–
160093000173,ID-093-0425,1600930,ID-093,PK,6,FALLS VALLEY ELEMENTARY SCHOOL,BONNEVILLE JOINT DISTRICT,Bonneville County,2455 VIRLOW DRIVE,IDAHO FALLS,ID,83401,3320,(208)525-4455,13,City: Small,No,No,Yes,Yes,488,28.5,17.1,199,64
160000200615,ID-084-0403,1600002,ID-084,PK,6,FARMIN STIDWELL ELEMENTARY SCHOOL,LAKE PEND OREILLE SCHOOL DISTRICT,Bonner County,1626 SPRUCE STREET,SANDPOINT,ID,83864,2131,(208)265-2417,32,Town: Distant,No,No,Yes,Yes,568,28.73,19.8,225,61
160018601114,ID-531-1423,1600186,ID-531,4,8,FERN-WATERS PUBLIC CHARTER SCHOOL,FERN-WATERS PUBLIC CHARTER SCHOOL INC.,Lemhi County,103 VAN DREFF STREET,SALMON,ID,83647,,(208)332-6800,33,Town: Remote,Yes,†,†,†,†,†,†,†,†
160078000208,ID-271-0514,1600780,ID-271,KG,5,FERNAN STEM ACADEMY,COEUR D'ALENE DISTRICT,Kootenai County,520 NORTH 21ST,COEUR D'ALENE,ID,83814,5508,(208)664-2659,13,City: Small,No,Yes,Yes,Yes,469,22.2,21.1,174,39
160105000193,ID-413-0831,1601050,ID-413,PK,3,FILER ELEMENTARY SCHOOL,FILER DISTRICT,Twin Falls County,700 STEVENS AVENUE,FILER,ID,83328,5356,(208)326-4369,33,Town: Remote,No,No,Yes,Yes,441,22,20,129,35
160105000194,ID-413-0181,1601050,ID-413,9,12,FILER HIGH SCHOOL,FILER DISTRICT,Twin Falls County,3915 NORTH WILDCAT WAY 2300 EAST,FILER,ID,83328,5281,(208)326-5945,41,Rural: Fringe,No,No,–,–,506,29.5,17.2,109,32
160105001006,ID-413-1244,1601050,ID-413,4,6,FILER INTERMEDIATE SCHOOL,FILER DISTRICT,Twin Falls County,833 6TH STREET WEST,FILER,ID,83328,5304,(208)326-3069,33,Town: Remote,No,No,Yes,Yes,403,18.5,21.8,113,37
160105000631,ID-413-0196,1601050,ID-413,7,8,FILER MIDDLE SCHOOL,FILER DISTRICT,Twin Falls County,299 HIGHWAY 30,FILER,ID,83328,5382,(208)326-5906,33,Town: Remote,No,No,Yes,Yes,290,15.75,18.4,67,25
160108000198,ID-059-0038,1601080,ID-059,7,12,FIRTH HIGH SCHOOL,FIRTH DISTRICT,Bingham County,PO BOX 247,FIRTH,ID,83236,247,(208)346-6812,42,Rural: Distant,No,No,Yes,No,387,21.01,18.4,81,52
160108000326,ID-059-0155,1601080,ID-059,5,8,FIRTH MIDDLE SCHOOL,FIRTH DISTRICT,Bingham County,410 ROOSEVELT,FIRTH,ID,83236,1141,(208)346-6240,42,Rural: Distant,No,No,Yes,Yes,130,6,21.7,35,20
160111000912,ID-215-1271,1601110,ID-215,5,12,FIVE-COUNTY DETENTION CENTER,FREMONT COUNTY JOINT DISTRICT,Fremont County,PO BOX 55,ST ANTHONY,ID,83445,5617,(208)624-1500,32,Town: Distant,No,No,–,–,28,1,28,8,0
160019001109,ID-528-1422,1600190,ID-528,KG,5,FORGE INTERNATIONAL SCHOOL,FORGE INTERNATIONAL LLC,Canyon County,1513 TYRELL LANE #110,Boise,ID,83706,,(208)332-6800,22,Suburb: Midsize,Yes,†,†,†,†,†,†,†,†
160016500772,ID-487-1365,1600165,ID-487,6,12,FORREST M BIRD CHARTER SCHOOL,SANDPOINT CHARTER SCHOOL INC.,Bonner County,614 SOUTH MADISON AVENUE,SANDPOINT,ID,83864,8724,(208)255-7771,32,Town: Distant,Yes,No,Yes,Yes,322,21.99,14.6,–,–
160027000026,ID-055-0387,1600270,ID-055,PK,5,FORT HALL ELEMENTARY SCHOOL,BLACKFOOT DISTRICT,Bingham County,ROUTE 6 BOX 430,POCATELLO,ID,83202,9609,(208)237-2207,41,Rural: Fringe,No,No,Yes,Yes,149,9,16.6,137,9
160153000726,ID-091-0667,1601530,ID-091,PK,6,FOX HOLLOW ELEMENTARY SCHOOL,IDAHO FALLS DISTRICT,Bonneville County,2365 GENEVIEVE,IDAHO FALLS,ID,83402,5561,(208)524-7890,13,City: Small,No,No,Yes,Yes,462,21.5,21.5,234,42
160036000984,ID-001-0675,1600360,ID-001,6,12,FRANK CHURCH HIGH SCHOOL,BOISE INDEPENDENT DISTRICT,Ada County,8051 WEST SALT CREEK COURT,BOISE,ID,83709,5006,(208)854-5650,21,Suburb: Large,No,No,Yes,Yes,535,54.26,9.9,301,58
160096000764,ID-201-8844,1600960,ID-201,9,12,FRANKLIN COUNTY HIGH SCHOOL,PRESTON JOINT DISTRICT,Franklin County,11 S 100 W,PRESTON,ID,83263,1204,(208)852-2272,32,Town: Distant,No,No,Yes,Yes,53,4,13.3,13,4
160264000469,ID-025-0020,1602640,ID-025,6,8,FRANKLIN MIDDLE SCHOOL,POCATELLO DISTRICT,Bannock County,2271 EAST TERRY STREET,POCATELLO,ID,83201,2704,(208)233-5590,13,City: Small,No,No,–,–,782,36.9,21.2,278,0
160267000448,ID-273-0750,1602670,ID-273,PK,2,FREDERICK POST KINDER CENTER,POST FALLS DISTRICT,Kootenai County,PO BOX 40,POST FALLS,ID,83877,40,(208)777-0479,23,Suburb: Small,No,No,Yes,Yes,428,11,38.9,136,32
160177000805,ID-003-0850,1601770,ID-003,6,8,FREMONT H TEED MIDDLE SCHOOL,KUNA JOINT DISTRICT,Ada County,441 EAST PORTER ROAD,KUNA,ID,83634,1349,(208)922-1005,31,Town: Fringe,No,No,Yes,No,384,20.43,18.8,91,38
160210000637,ID-002-0328,1602100,ID-002,PK,5,FRONTIER ELEMENTARY SCHOOL,JOINT SCHOOL DISTRICT NO. 2,Ada County,11851 MUSKET DRIVE,BOISE,ID,83713,3691,(208)350-4190,12,City: Midsize,No,No,Yes,Yes,347,24.09,14.4,189,20
160114000211,ID-373-0807,1601140,ID-373,PK,4,FRUITLAND ELEMENTARY SCHOOL,FRUITLAND DISTRICT,Payette County,PO BOX A,FRUITLAND,ID,83619,9000,(208)452-3999,32,Town: Distant,No,No,Yes,Yes,681,36.08,18.9,235,53
160114000212,ID-373-0166,1601140,ID-373,9,12,FRUITLAND HIGH SCHOOL,FRUITLAND DISTRICT,Payette County,PO BOX A,FRUITLAND,ID,83619,9000,(208)452-4411,32,Town: Distant,No,No,Yes,No,521,27.4,19,147,29
160114000213,ID-373-0165,1601140,ID-373,5,8,FRUITLAND MIDDLE SCHOOL,FRUITLAND DISTRICT,Payette County,PO BOX A,FRUITLAND,ID,83619,9000,(208)452-3350,32,Town: Distant,No,No,Yes,Yes,559,27.12,20.6,148,51
160114000988,ID-373-1332,1601140,ID-373,6,12,FRUITLAND PREPARATORY ACADEMY,FRUITLAND DISTRICT,Payette County,PO BOX A,FRUITLAND,ID,83619,9000,(208)452-3360,32,Town: Distant,No,No,Yes,Yes,30,0.4,75,–,–
160018101100,ID-499-1410,1600181,ID-499,KG,4,FUTURE PUBLIC SCHOOL,FUTURE PUBLIC SCHOOL INC.,Ada County,110 WEST JEFFERSON STREET SUITE 201,BOISE,ID,83702,,(208)854-3923,21,Suburb: Large,Yes,No,Yes,No,240,10,24,17,0
160210000945,ID-002-2511,1602100,ID-002,PK,8,GALILEO MAGNET SCHOOL,JOINT SCHOOL DISTRICT NO. 2,Ada County,4735 WEST SAGUARO DRIVE,EAGLE,ID,83616,5699,(208)350-4105,21,Suburb: Large,No,Yes,–,–,785,35.48,22.1,40,9
160117000830,ID-071-0274,1601170,ID-071,PK,12,GARDEN VALLEY SCHOOL,GARDEN VALLEY DISTRICT,Boise County,PO BOX 710,GARDEN VALLEY,ID,83622,710,(208)462-3756,43,Rural: Remote,No,No,Yes,Yes,261,18.2,14.3,70,31
160036000053,ID-001-0303,1600360,ID-001,PK,6,GARFIELD ELEMENTARY SCHOOL,BOISE INDEPENDENT DISTRICT,Ada County,1914 BROADWAY AVENUE,BOISE,ID,83706,4202,(208)854-4950,12,City: Midsize,No,No,Yes,Yes,348,20.7,16.8,251,19
160180000734,ID-272-0761,1601800,ID-272,PK,6,GARWOOD ELEMENTARY SCHOOL,LAKELAND DISTRICT,Kootenai County,PO BOX 990,RATHDRUM,ID,83858,990,(208)687-1265,41,Rural: Fringe,No,No,Yes,Yes,360,21.93,16.4,65,42
160264000642,ID-025-0357,1602640,ID-025,KG,5,GATE CITY ELEMENTARY SCHOOL,POCATELLO DISTRICT,Bannock County,2288 HISKEY STREET,POCATELLO,ID,83201,1815,(208)237-2503,13,City: Small,No,No,–,–,467,19.23,24.3,120,0
160017901107,ID-498-1409,1600179,ID-498,KG,8,GEM PREP: MERIDIAN,GEM PREP: MERIDIAN LLC,Ada County,PO BOX 338,DEARY,ID,83823,338,(208)917-9150,21,Suburb: Large,Yes,No,Yes,No,263,11.4,23.1,104,8
160234001080,ID-131-1386,1602340,ID-131,KG,8,GEM PREP: NAMPA,NAMPA SCHOOL DISTRICT,Canyon County,PO BOX 338,DEARY,ID,83823,338,(208)468-2848,41,Rural: Fringe,Yes,No,Yes,Yes,365,14.2,25.7,169,47
160017200846,ID-534-1426,1600172,ID-534,PK,12,GEM PREP: ONLINE SCHOOL,GEM PREP: ONLINE LLC,Latah County,PO BOX 338,DEARY,ID,83823,338,(208)877-1513,43,Rural: Remote,Yes,No,Yes,Yes,472,10.8,43.7,6,2
160017701073,ID-496-1376,1600177,ID-496,KG,8,GEM PREP: POCATELLO SCHOOL,GEM PREP: POCATELLO LLC,Bannock County,PO BOX 338,DEARY,ID,83823,338,(208)238-1388,13,City: Small,Yes,No,Yes,Yes,185,7.6,24.3,3,0
160120000845,ID-282-0269,1601200,ID-282,PK,12,GENESEE SCHOOL,GENESEE JOINT DISTRICT,Latah County,PO BOX 98,GENESEE,ID,83832,98,(208)285-1162,42,Rural: Distant,No,No,Yes,No,302,23.2,13,43,12
160024000021,ID-033-0371,1600240,ID-033,PK,5,GEORGETOWN ELEMENTARY SCHOOL,BEAR LAKE COUNTY DISTRICT,Bear Lake County,PO BOX 100,GEORGETOWN,ID,83239,100,(208)847-0583,43,Rural: Remote,No,No,Yes,Yes,117,6.1,19.2,15,16
160123000219,ID-192-0492,1601230,ID-192,PK,5,GLENNS FERRY ELEMENTARY SCHOOL,GLENNS FERRY JOINT DISTRICT,Elmore County,639 NORTH BANNOCK STREET,GLENNS FERRY,ID,83623,2885,(208)366-7435,43,Rural: Remote,No,No,Yes,Yes,215,11.95,18,87,34
160123000220,ID-192-0092,1601230,ID-192,9,12,GLENNS FERRY HIGH SCHOOL,GLENNS FERRY JOINT DISTRICT,Elmore County,639 NORTH BANNOCK STREET,GLENNS FERRY,ID,83623,2885,(208)366-7434,43,Rural: Remote,No,No,Yes,Yes,127,10.68,11.9,48,16
160123000744,ID-192-0241,1601230,ID-192,6,8,GLENNS FERRY MIDDLE SCHOOL,GLENNS FERRY JOINT DISTRICT,Elmore County,639 NORTH BANNOCK STREET,GLENNS FERRY,ID,83623,2885,(208)366-7438,43,Rural: Remote,No,No,Yes,Yes,102,8.84,11.5,43,12
160126000223,ID-231-0711,1601260,ID-231,PK,5,GOODING ELEMENTARY SCHOOL,GOODING JOINT DISTRICT,Gooding County,1045 7TH AVENUE WEST,GOODING,ID,83330,1280,(208)934-4898,41,Rural: Fringe,No,No,Yes,Yes,640,29.56,21.7,356,58
160126000224,ID-231-0103,1601260,ID-231,9,12,GOODING HIGH SCHOOL,GOODING JOINT DISTRICT,Gooding County,1050 7TH AVENUE WEST,GOODING,ID,83330,1276,(208)934-4831,41,Rural: Fringe,No,No,Yes,Yes,418,25.59,16.3,140,34
160126000222,ID-231-0102,1601260,ID-231,6,8,GOODING MIDDLE SCHOOL,GOODING JOINT DISTRICT,Gooding County,1047 7TH AVENUE WEST,GOODING,ID,83330,1280,(208)934-8443,41,Rural: Fringe,No,No,Yes,Yes,335,18.32,18.3,130,33
160129000225,ID-148-0463,1601290,ID-148,PK,6,GRACE ELEMENTARY SCHOOL,GRACE JOINT DISTRICT,Caribou County,PO BOX 328,GRACE,ID,83241,328,(208)425-9161,42,Rural: Distant,No,No,Yes,Yes,210,9.5,22.1,52,37
160036000982,ID-001-0674,1600360,ID-001,PK,6,GRACE JORDAN ELEMENTARY,BOISE INDEPENDENT DISTRICT,Ada County,6411 WEST FAIRFIELD,BOISE,ID,83709,2129,(208)854-5580,12,City: Midsize,No,No,Yes,Yes,493,25.3,19.5,283,45
160129000742,ID-148-0245,1601290,ID-148,7,12,GRACE JR/SR HIGH SCHOOL,GRACE JOINT DISTRICT,Caribou County,PO BOX 348,GRACE,ID,83241,348,(208)425-3731,42,Rural: Distant,No,No,Yes,Yes,236,17.06,13.8,58,40
160045000099,ID-365-0802,1600450,ID-365,PK,5,GRAND VIEW ELEMENTARY SCHOOL,BRUNEAU-GRAND VIEW JOINT SCHOOL DISTRICT,Owyhee County,PO BOX 39,GRAND VIEW,ID,83624,39,(208)834-2775,43,Rural: Remote,No,No,Yes,Yes,77,5.95,12.9,47,6
160013900946,ID-244-1286,1600139,ID-244,PK,8,GRANGEVILLE ELEM/MIDDLE SCHOOL,MOUNTAIN VIEW SCHOOL DISTRICT,Idaho County,400 IDAHO STREET,GRANGEVILLE,ID,83530,1420,(208)983-0400,33,Town: Remote,No,No,Yes,Yes,573,31.93,17.9,167,38
160013900937,ID-244-1284,1600139,ID-244,9,12,GRANGEVILLE HIGH SCHOOL,MOUNTAIN VIEW SCHOOL DISTRICT,Idaho County,910 SOUTH D STREET,GRANGEVILLE,ID,83530,1582,(208)983-0580,33,Town: Remote,No,No,–,–,254,16.11,15.8,63,15
160264000470,ID-025-0354,1602640,ID-025,KG,5,GREENACRES ELEMENTARY SCHOOL,POCATELLO DISTRICT,Bannock County,1250 EAST OAK STREET,POCATELLO,ID,83201,3940,(208)233-2575,13,City: Small,No,No,Yes,Yes,288,15.88,18.1,183,0
160234000677,ID-131-0450,1602340,ID-131,PK,5,GREENHURST ELEMENTARY SCHOOL,NAMPA SCHOOL DISTRICT,Canyon County,1701 DISCOVERY PLACE,NAMPA,ID,83686,7179,(208)468-4612,22,Suburb: Midsize,No,No,Yes,Yes,295,17.5,16.9,125,36
160267001085,ID-273-1388,1602670,ID-273,1,5,GREENSFERRY ELEMENTARY SCHOOL,POST FALLS DISTRICT,Kootenai County,PO BOX 40,POST FALLS,ID,83877,40,(208)777-0999,41,Rural: Fringe,No,No,Yes,Yes,384,20.5,18.7,109,27
160027000027,ID-055-0386,1600270,ID-055,PK,5,GROVELAND ELEMENTARY SCHOOL,BLACKFOOT DISTRICT,Bingham County,375 W 170 N,BLACKFOOT,ID,83221,5651,(208)785-8829,32,Town: Distant,No,No,Yes,Yes,204,13.5,15.1,72,24
160225000745,ID-193-0556,1602250,ID-193,5,6,HACKER MIDDLE SCHOOL,MOUNTAIN HOME DISTRICT,Elmore County,550 EAST JACKSON STREET,MOUNTAIN HOME,ID,83647,2824,(208)587-2500,32,Town: Distant,No,No,Yes,Yes,631,26.05,24.2,259,56
160138000840,ID-233-0280,1601380,ID-233,PK,12,HAGERMAN SCHOOL,HAGERMAN JOINT DISTRICT,Gooding County,150 LAKE STREET WEST,HAGERMAN,ID,83332,5040,(208)837-4572,42,Rural: Distant,No,No,Yes,Yes,316,23.74,13.3,133,41
160030000036,ID-061-0396,1600300,ID-061,PK,5,HAILEY ELEMENTARY SCHOOL,BLAINE COUNTY DISTRICT,Blaine County,520 SOUTH 1ST AVENUE,HAILEY,ID,83333,8432,(208)788-3091,33,Town: Remote,No,No,Yes,Yes,403,29,13.9,119,34
160340000273,ID-253-0729,1603400,ID-253,KG,4,HAMER ELEMENTARY SCHOOL,WEST JEFFERSON DISTRICT,Jefferson County,2450 E 2100 N,HAMER,ID,83425,5010,(208)662-5238,43,Rural: Remote,No,No,Yes,Yes,22,2,11,7,8
160141000241,ID-415-0834,1601410,ID-415,PK,6,HANSEN ELEMENTARY SCHOOL,HANSEN DISTRICT,Twin Falls County,550 SOUTH MAIN STREET,HANSEN,ID,83334,4903,(208)423-5475,42,Rural: Distant,No,No,Yes,Yes,191,11.34,16.8,106,24
160141000757,ID-415-0620,1601410,ID-415,7,12,HANSEN JR/SR HIGH SCHOOL,HANSEN DISTRICT,Twin Falls County,550 SOUTH MAIN STREET,HANSEN,ID,83334,4903,(208)423-5593,42,Rural: Distant,No,No,Yes,Yes,138,9.34,14.8,54,19
160342000563,ID-202-0987,1603420,ID-202,PK,5,HAROLD B LEE ELEMENTARY SCHOOL,WEST SIDE JOINT DISTRICT,Franklin County,PO BOX 140,DAYTON,ID,83232,119,(208)747-3303,42,Rural: Distant,No,No,Yes,Yes,379,17.58,21.6,101,76
160324000549,ID-411-0827,1603240,ID-411,PK,5,HARRISON ELEMENTARY SCHOOL,TWIN FALLS DISTRICT,Twin Falls County,600 HARRISON STREET,TWIN FALLS,ID,83301,3904,(208)733-4229,33,Town: Remote,No,No,Yes,Yes,455,23.5,19.4,254,44
160174000302,ID-274-0751,1601740,ID-274,KG,5,HARRISON ELEMENTARY SCHOOL,KOOTENAI DISTRICT,Kootenai County,13030 EAST O'GARA ROAD,HARRISON,ID,83833,7641,(208)689-3511,42,Rural: Distant,No,No,Yes,Yes,62,5.78,10.7,26,6
160157000634,ID-251-0723,1601570,ID-251,PK,5,HARWOOD ELEMENTARY SCHOOL,JEFFERSON COUNTY JOINT DISTRICT,Jefferson County,200 WEST 3RD NORTH,RIGBY,ID,83442,1107,(208)745-7613,31,Town: Fringe,No,No,Yes,Yes,346,15.33,22.6,115,57
160153000261,ID-091-0413,1601530,ID-091,PK,6,HAWTHORNE ELEMENTARY SCHOOL,IDAHO FALLS DISTRICT,Bonneville County,1520 SOUTH BOULEVARD,IDAHO FALLS,ID,83402,4251,(208)525-7636,13,City: Small,No,No,Yes,Yes,406,19.41,20.9,220,32
160036000054,ID-001-0308,1600360,ID-001,PK,6,HAWTHORNE ELEMENTARY SCHOOL,BOISE INDEPENDENT DISTRICT,Ada County,2401 TARGEE STREET,BOISE,ID,83705,4299,(208)854-5000,12,City: Midsize,No,No,Yes,Yes,334,18.21,18.3,191,22
160264000471,ID-025-0021,1602640,ID-025,6,8,HAWTHORNE MIDDLE SCHOOL,POCATELLO DISTRICT,Bannock County,1025 WEST ELDREDGE STREET,POCATELLO,ID,83201,5527,(208)237-1680,13,City: Small,No,No,Yes,Yes,786,36.16,21.7,433,0
160018401096,ID-508-1411,1600184,ID-508,–,–,HAYDEN CANYON CHARTER SCHOOL,HAYDEN CANYON CHARTER SCHOOL INC.,Kootenai County,12022 FOREST ROAD,HAYDEN LAKE,ID,83835,9480,(208)332-6800,41,Rural: Fringe,Yes,†,†,†,†,†,†,†,†
160078000114,ID-271-0506,1600780,ID-271,PK,5,HAYDEN MEADOWS ELEMENTARY SCHOOL,COEUR D'ALENE DISTRICT,Kootenai County,900 EAST HAYDEN AVENUE,HAYDEN LAKE,ID,83835,9519,(208)772-5006,23,Suburb: Small,No,No,–,–,523,22.62,23.1,111,37
160291000511,ID-060-0392,1602910,ID-060,5,6,HAZEL STUART ELEMENTARY SCHOOL,SHELLEY JOINT DISTRICT,Bingham County,475 WEST CENTER STREET,SHELLEY,ID,83274,1222,(208)357-5580,31,Town: Fringe,No,No,Yes,Yes,378,17.5,21.6,115,56
160203000740,ID-421-1264,1602030,ID-421,9,12,HEARTLAND HIGH SCHOOL,MCCALL-DONNELLY JOINT SCHOOL DISTRICT,Valley County,PO BOX 1226,MCCALL,ID,83638,3826,(208)634-3686,43,Rural: Remote,No,No,–,–,33,2,16.5,3,0
160111000622,ID-215-0290,1601110,ID-215,PK,5,HENRYS FORK ELEMENTARY,FREMONT COUNTY JOINT DISTRICT,Fremont County,425 NORTH 3RD WEST STREET,ST ANTHONY,ID,83445,1154,(208)624-7422,41,Rural: Fringe,No,No,Yes,Yes,561,30,18.7,248,96
160015901017,ID-479-1341,1600159,ID-479,PK,8,HERITAGE ACADEMY,HERITAGE ACADEMY INC.,Jerome County,500 SOUTH LINCOLN AVENUE,JEROME,ID,83338,3027,(208)595-1617,33,Town: Remote,Yes,No,Yes,Yes,172,12.5,13.8,96,16
160016101021,ID-481-1343,1600161,ID-481,KG,8,HERITAGE COMMUNITY CHARTER,HERITAGE COMMUNITY CHARTER SCHOOL INC.,Canyon County,1803 EAST USTICK ROAD,CALDWELL,ID,83605,6607,(208)453-8070,22,Suburb: Midsize,Yes,No,Yes,Yes,485,22.75,21.3,225,77
160210000958,ID-002-2513,1602100,ID-002,6,8,HERITAGE MIDDLE SCHOOL,JOINT SCHOOL DISTRICT NO. 2,Ada County,4990 NORTH MERIDIAN ROAD,MERIDIAN,ID,83646,5064,(208)350-4130,21,Suburb: Large,No,Yes,–,–,1258,56.26,22.4,107,41
160219000382,ID-331-0785,1602190,ID-331,PK,5,HEYBURN ELEMENTARY SCHOOL,MINIDOKA COUNTY JOINT DISTRICT,Minidoka County,1151 7TH STREET,HEYBURN,ID,83336,8802,(208)679-2400,33,Town: Remote,No,No,Yes,Yes,578,23.93,24.2,311,88
160306000485,ID-041-0254,1603060,ID-041,PK,5,HEYBURN ELEMENTARY SCHOOL,ST MARIES JOINT DISTRICT,Benewah County,1405 MAIN AVENUE,ST MARIES,ID,83861,1436,(208)245-2025,32,Town: Distant,No,No,Yes,Yes,419,21,20,185,26
160192000337,ID-321-0780,1601920,ID-321,KG,4,HIBBARD ELEMENTARY SCHOOL,MADISON DISTRICT,Madison County,2413 N 3000 W,REXBURG,ID,83440,3127,(208)359-3333,41,Rural: Fringe,No,No,Yes,Yes,217,11,19.7,59,21
160036001004,ID-001-0679,1600360,ID-001,PK,6,HIDDEN SPRINGS ELEMENTARY SCHOOL,BOISE INDEPENDENT DISTRICT,Ada County,5480 WEST HIDDEN SPRINGS,HIDDEN SPRINGS,ID,83714,9402,(208)854-4920,21,Suburb: Large,No,No,–,–,334,17.6,19,10,2
160294001026,ID-312-0846,1602940,ID-312,9,12,HIGH DESERT,SHOSHONE JOINT DISTRICT,Lincoln County,61 EAST US HIGHWAY 24,SHOSHONE,ID,83352,5338,(208)886-2381,43,Rural: Remote,No,No,Yes,Yes,20,1.13,17.7,14,3
160264000472,ID-025-0025,1602640,ID-025,9,12,HIGHLAND HIGH SCHOOL,POCATELLO DISTRICT,Bannock County,1800 BENCH ROAD,POCATELLO,ID,83201,2019,(208)237-1300,13,City: Small,No,No,–,–,1574,69.96,22.5,501,0
160144000849,ID-305-0285,1601440,ID-305,PK,12,HIGHLAND SCHOOL,HIGHLAND JOINT DISTRICT,Lewis County,PO BOX 130,CRAIGMONT,ID,83523,130,(208)924-5211,42,Rural: Distant,No,No,Yes,Yes,178,15.5,11.5,64,22
160036000055,ID-001-0302,1600360,ID-001,PK,6,HIGHLANDS ELEMENTARY SCHOOL,BOISE INDEPENDENT DISTRICT,Ada County,3434 BOGUS BASIN ROAD,BOISE,ID,83702,1507,(208)854-5050,12,City: Midsize,No,No,–,–,297,16.4,18.1,3,0
160036000056,ID-001-0307,1600360,ID-001,PK,6,HILLCREST ELEMENTARY SCHOOL,BOISE INDEPENDENT DISTRICT,Ada County,2045 SOUTH POND STREET,BOISE,ID,83705,3679,(208)854-5080,12,City: Midsize,No,No,Yes,Yes,358,19.15,18.7,242,11
160006000005,ID-381-0808,1600060,ID-381,PK,2,HILLCREST ELEMENTARY SCHOOL,AMERICAN FALLS JOINT DISTRICT,Power County,1045 BENNETT STREET,AMERICAN FALLS,ID,83211,1765,(208)226-2391,32,Town: Distant,No,No,Yes,Yes,450,24,18.8,253,37
160093000024,ID-093-0200,1600930,ID-093,9,12,HILLCREST HIGH SCHOOL,BONNEVILLE JOINT DISTRICT,Bonneville County,2800 OWEN STREET,AMMON,ID,83406,7644,(208)525-4429,23,Suburb: Small,No,No,–,–,1146,55.63,20.6,199,73
160210001081,ID-002-1383,1602100,ID-002,PK,5,HILLSDALE ELEMENTARY,JOINT SCHOOL DISTRICT NO. 2,Ada County,5225 SOUTH HOWRY LANE,MERIDIAN,ID,83642,,(208)350-4432,21,Suburb: Large,No,No,–,–,773,32.38,23.9,68,26
160036000057,ID-001-0003,1600360,ID-001,7,9,HILLSIDE JUNIOR HIGH SCHOOL,BOISE INDEPENDENT DISTRICT,Ada County,3536 HILL ROAD,BOISE,ID,83703,4717,(208)854-5120,12,City: Midsize,No,No,Yes,No,653,37.51,17.4,177,21
160093000175,ID-093-0428,1600930,ID-093,PK,6,HILLVIEW ELEMENTARY SCHOOL,BONNEVILLE JOINT DISTRICT,Bonneville County,3075 TETON STREET,AMMON,ID,83406,6600,(208)525-4460,23,Suburb: Small,No,No,Yes,Yes,536,23.46,22.8,194,82
160105000195,ID-413-0832,1601050,ID-413,PK,5,HOLLISTER ELEMENTARY SCHOOL,FILER DISTRICT,Twin Falls County,2463 CONTACT AVENUE,TWIN FALLS,ID,83301,615,(208)655-4215,43,Rural: Remote,No,No,Yes,Yes,53,4.75,11.2,21,4
160147000250,ID-370-0803,1601470,ID-370,PK,4,HOMEDALE ELEMENTARY SCHOOL,HOMEDALE JOINT DISTRICT,Owyhee County,420 WEST WASHINGTON AVENUE,HOMEDALE,ID,83628,3114,(208)337-4033,32,Town: Distant,No,No,Yes,Yes,453,23.47,19.3,234,52
160147000248,ID-370-0160,1601470,ID-370,9,12,HOMEDALE HIGH SCHOOL,HOMEDALE JOINT DISTRICT,Owyhee County,203 EAST IDAHO AVENUE,HOMEDALE,ID,83628,3216,(208)337-4613,32,Town: Distant,No,No,Yes,Yes,371,21.29,17.4,156,37
160147000767,ID-370-0260,1601470,ID-370,5,8,HOMEDALE MIDDLE SCHOOL,HOMEDALE JOINT DISTRICT,Owyhee County,3437 JOHNSTONE ROAD,HOMEDALE,ID,83628,3398,(208)337-5780,41,Rural: Fringe,No,No,Yes,Yes,393,21.99,17.9,202,41
160000200614,ID-084-0401,1600002,ID-084,PK,6,HOPE ELEMENTARY SCHOOL,LAKE PEND OREILLE SCHOOL DISTRICT,Bonner County,255 HOPE SCHOOL ROAD,HOPE,ID,83836,9829,(208)264-5680,43,Rural: Remote,No,No,Yes,Yes,115,6.28,18.3,43,9
160036000009,ID-001-0510,1600360,ID-001,PK,6,HORIZON ELEMENTARY SCHOOL,BOISE INDEPENDENT DISTRICT,Ada County,730 NORTH MITCHELL,BOISE,ID,83704,9783,(208)854-5170,12,City: Midsize,No,No,Yes,Yes,601,29.25,20.5,365,36
160159000272,ID-261-0516,1601590,ID-261,PK,3,HORIZON ELEMENTARY SCHOOL,JEROME JOINT DISTRICT,Jerome County,934 10TH AVENUE EAST,JEROME,ID,83338,2148,(208)324-2015,33,Town: Remote,No,No,Yes,Yes,659,32,20.6,326,55
160150000506,ID-073-0256,1601500,ID-073,PK,5,HORSESHOE BEND ELEMENTARY,HORSESHOE BEND SCHOOL DISTRICT,Boise County,398 SCHOOL DRIVE,HORSESHOE BEND,ID,83629,8099,(208)793-2225,42,Rural: Distant,No,No,Yes,Yes,113,6.43,17.6,42,9
160150000831,ID-073-0278,1601500,ID-073,6,12,HORSESHOE BEND MIDDLE/SR HIGH,HORSESHOE BEND SCHOOL DISTRICT,Boise County,398 SCHOOL DRIVE,HORSESHOE BEND,ID,83629,8099,(208)793-2225,42,Rural: Distant,No,No,Yes,Yes,130,11.07,11.7,28,11
160300000525,ID-150-0466,1603000,ID-150,PK,4,HOWARD E THIRKILL PRIMARY SCHOOL,SODA SPRINGS JOINT DISTRICT,Caribou County,60 EAST 4TH STREET,SODA SPRINGS,ID,83276,1654,(208)547-4426,33,Town: Remote,No,No,Yes,Yes,375,15,25,96,32
160049000011,ID-111-0438,1600490,ID-111,KG,3,HOWE ELEMENTARY SCHOOL,BUTTE COUNTY JOINT DISTRICT,Butte County,PO BOX 60,HOWE,ID,83244,60,(208)767-3422,43,Rural: Remote,No,No,Yes,Yes,23,2,11.5,5,6
160177000596,ID-003-0345,1601770,ID-003,PK,5,HUBBARD ELEMENTARY SCHOOL,KUNA JOINT DISTRICT,Ada County,311 EAST PORTER ROAD,KUNA,ID,83634,1348,(208)922-1007,31,Town: Fringe,No,No,Yes,Yes,308,17.05,18.1,92,30
160210000824,ID-002-0296,1602100,ID-002,PK,5,HUNTER ELEMENTARY SCHOOL,JOINT SCHOOL DISTRICT NO. 2,Ada County,2051 WEST MCMILLAN ROAD,MERIDIAN,ID,83642,5149,(208)855-4285,21,Suburb: Large,No,No,–,–,797,32.8,24.3,89,16
160324000660,ID-411-0824,1603240,ID-411,PK,5,I B PERRINE ELEMENTARY SCHOOL,TWIN FALLS DISTRICT,Twin Falls County,452 CASWELL AVENUE WEST,TWIN FALLS,ID,83301,3700,(208)733-4288,33,Town: Remote,No,No,Yes,Yes,582,25.45,22.9,232,68
160027000028,ID-055-0388,1600270,ID-055,PK,5,I T STODDARD ELEMENTARY SCHOOL,BLACKFOOT DISTRICT,Bingham County,460 YORK DRIVE,BLACKFOOT,ID,83221,3465,(208)785-8832,32,Town: Distant,No,No,Yes,Yes,411,20,20.6,230,36
160234000834,ID-131-0577,1602340,ID-131,PK,12,IDAHO ARTS CHARTER SCHOOL,NAMPA SCHOOL DISTRICT,Canyon County,1220 5TH STREET NORTH,NAMPA,ID,83687,3416,(208)463-4324,22,Suburb: Midsize,Yes,No,Yes,Yes,1165,56.4,20.7,335,121
160018000350,ID-072-0183,1600180,ID-072,7,12,IDAHO CITY HIGH SCHOOL,BASIN SCHOOL DISTRICT,Boise County,PO BOX 227,IDAHO CITY,ID,83631,227,(208)392-4183,42,Rural: Distant,No,No,Yes,No,184,12.84,14.3,55,5
160014801023,ID-469-1303,1600148,ID-469,6,12,IDAHO CONNECTS ONLINE ALTERNATIVE SCHOOL,IDAHO VIRTUAL EDUCATION PARTNERS INC.,Ada County,12639 EXPLORER DRIVE SUITE 185,BOISE,ID,83713,1615,(208)287-3668,12,City: Midsize,Yes,No,–,–,114,7.16,15.9,3,0
160014800993,ID-469-1221,1600148,ID-469,6,12,IDAHO CONNECTS ONLINE SCHOOL,IDAHO VIRTUAL EDUCATION PARTNERS INC.,Canyon County,1ST 6TH STREET NORTH,NAMPA,ID,83687,3485,(208)287-3668,22,Suburb: Midsize,Yes,No,–,–,66,7.35,9,–,–
160153000262,ID-091-0054,1601530,ID-091,9,12,IDAHO FALLS SENIOR HIGH SCHOOL,IDAHO FALLS DISTRICT,Bonneville County,601 SOUTH HOLMES AVENUE,IDAHO FALLS,ID,83401,4726,(208)525-7740,13,City: Small,No,No,–,–,1293,61.46,21,258,58
160210001071,ID-002-1375,1602100,ID-002,6,12,IDAHO FINE ARTS ACADEMY,JOINT SCHOOL DISTRICT NO. 2,Ada County,3467 WEST FLINT DRIVE,EAGLE,ID,83616,4531,(208)938-5410,41,Rural: Fringe,No,Yes,–,–,195,12.28,15.9,16,4
160000100613,ID-083-0411,1600001,ID-083,PK,6,IDAHO HILL ELEMENTARY SCHOOL,WEST BONNER COUNTY DISTRICT,Bonner County,402 EAST 3RD STREET SOUTH,OLDTOWN,ID,83822,8597,(208)437-4227,41,Rural: Fringe,No,No,Yes,Yes,117,7.85,14.9,52,10
160249001094,ID-351-1390,1602490,ID-351,KG,8,IDAHO HOME LEARNING ACADEMY,ONEIDA COUNTY DISTRICT,Oneida County,25 E 50 S SUITE A,MALAD CITY,ID,83252,1305,(208)534-6080,43,Rural: Remote,No,No,–,–,1549,61.01,25.4,9,0
160351100685,ID-596-0948,1603511,ID-596,PK,12,IDAHO SCHOOL FOR THE DEAF AND THE BLIND,IDAHO BUREAU OF EDUCATIONAL SERVICES FOR THE DEAF AND THE BL,Gooding County,1450 MAIN STREET,GOODING,ID,83330,1839,(208)934-4457,33,Town: Remote,No,No,–,–,77,22.01,3.5,41,9
160014500996,ID-468-1217,1600145,ID-468,KG,9,IDAHO SCIENCE AND TECHNOLOGY CHARTER SCHOOL,IDAHO SCIENCE AND TECHNOLOGY CHARTER SCHOOL INC.,Bingham County,21 N 550 W,BLACKFOOT,ID,83221,5562,(208)785-7827,32,Town: Distant,Yes,No,Yes,Yes,273,22.55,12.1,–,–
160017101069,ID-489-1368,1600171,ID-489,9,12,IDAHO TECHNICAL CAREER ACADEMY,IDAHO COLLEGE AND CAREER READINESS ACADEMY INC.,Ada County,1965 SOUTH EAGLE ROAD SUITE 150,MERIDIAN,ID,83642,9287,(208)917-2420,21,Suburb: Large,Yes,No,–,–,124,7.48,16.6,–,–
160000400859,ID-452-0869,1600004,ID-452,KG,12,IDAHO VIRTUAL ACADEMY,IDAHO VIRTUAL ACADEMY INC.,Ada County,1965 SOUTH EAGLE ROAD SUITE 190,MERIDIAN,ID,83642,9246,(208)322-3559,21,Suburb: Large,Yes,No,Yes,Yes,1692,50.34,33.6,23,8
160252001057,ID-171-1362,1602520,ID-171,9,12,IDAHO YOUTH CHALLENGE ACADEMY FALL,OROFINO JOINT DISTRICT,Clearwater County,PO BOX 2259,OROFINO,ID,83544,2259,(208)476-7293,43,Rural: Remote,No,No,†,†,0,5.41,†,0,0
160252001059,ID-171-1361,1602520,ID-171,9,12,IDAHO YOUTH CHALLENGE ACADEMY SPRING,OROFINO JOINT DISTRICT,Clearwater County,PO BOX 2259,OROFINO,ID,83544,2259,(208)476-7293,43,Rural: Remote,No,No,†,†,0,0.5,†,–,–
160027000689,ID-055-9006,1600270,ID-055,7,12,INDEPENDENCE ALTERNATIVE HIGH SCHOOL,BLACKFOOT DISTRICT,Bingham County,155 EAST FRANCIS STREET,BLACKFOOT,ID,83221,2317,(208)785-8825,32,Town: Distant,No,No,Yes,Yes,133,10,13.3,73,5
160177000913,ID-003-0596,1601770,ID-003,PK,5,INDIAN CREEK ELEMENTARY,KUNA JOINT DISTRICT,Ada County,911 WEST 4TH STREET,KUNA,ID,83634,1846,(208)922-1009,31,Town: Fringe,No,No,Yes,Yes,305,13.14,23.2,83,17
160264000473,ID-025-0355,1602640,ID-025,KG,5,INDIAN HILLS ELEMENTARY SCHOOL,POCATELLO DISTRICT,Bannock County,666 CHEYENNE AVENUE,POCATELLO,ID,83204,3756,(208)232-4086,13,City: Small,No,No,Yes,Yes,568,26.93,21.1,291,0
160333001049,ID-431-1067,1603330,ID-431,9,12,INDIANHEAD ACADEMY HIGH SCHOOL,WEISER DISTRICT,Washington County,925 PIONEER ROAD,WEISER,ID,83672,1146,(208)414-0616,33,Town: Remote,No,No,–,–,20,1.35,14.8,3,0
160177000962,ID-003-1115,1601770,ID-003,9,12,INITIAL POINT HIGH SCHOOL,KUNA JOINT DISTRICT,Ada County,1080 NORTH TEN MILE ROAD,KUNA,ID,83634,2000,(208)955-0200,31,Town: Fringe,No,No,Yes,Yes,104,5.06,20.6,18,11
160195000345,ID-021-0351,1601950,ID-021,PK,6,INKOM ELEMENTARY SCHOOL,MARSH VALLEY JOINT DISTRICT,Bannock County,PO BOX 430,INKOM,ID,83245,430,(208)775-3361,42,Rural: Distant,No,No,Yes,No,223,11.98,18.6,40,33
160000401035,ID-452-1302,1600004,ID-452,6,12,INSIGHT SCHOOL OF IDAHO,IDAHO VIRTUAL ACADEMY INC.,Ada County,1965 SOUTH EAGLE ROAD SUITE 190,MERIDIAN,ID,83642,9246,(208)322-3559,21,Suburb: Large,Yes,No,Yes,Yes,148,8.39,17.6,–,–
160001100866,ID-457-0578,1600011,ID-457,PK,12,INSPIRE VIRTUAL CHARTER SCHOOL,INSPIRE ACADEMICS INC.,Ada County,600 NORTH STEELHEAD WAY BUILDING 3,BOISE,ID,83702,9620,(208)322-4002,12,City: Midsize,Yes,No,Yes,Yes,1007,31.6,31.9,†,†
160093000176,ID-093-0427,1600930,ID-093,PK,6,IONA ELEMENTARY SCHOOL,BONNEVILLE JOINT DISTRICT,Bonneville County,5338 OWENS AVANUE,IONA,ID,83427,310,(208)525-4440,23,Suburb: Small,No,No,–,–,552,22,25.1,93,75
160234000375,ID-131-0213,1602340,ID-131,PK,5,IOWA ELEMENTARY,NAMPA SCHOOL DISTRICT,Canyon County,626 IOWA,NAMPA,ID,83686,2849,(208)468-4621,22,Suburb: Midsize,No,No,Yes,Yes,509,28,18.2,269,44
160264000474,ID-025-0022,1602640,ID-025,6,8,IRVING MIDDLE SCHOOL,POCATELLO DISTRICT,Bannock County,911 NORTH GRANT AVENUE,POCATELLO,ID,83204,2847,(208)232-3039,13,City: Small,No,No,Yes,Yes,643,32.52,19.8,371,0
160019201125,ID-540-1435,1600192,ID-540,–,–,ISLAND PARK CHARTER SCHOOL,ISLAND PARK CHATER SCHOOL INC,†,PO BOX 626,ISLAND PARK,ID,83429,,(208)332-6800,†,N,Yes,†,†,†,†,†,†,†,†
160014401111,ID-466-1417,1600144,ID-466,9,12,iSucceed Academy,ISUCCEED VIRTUAL HIGH SCHOOL INC.,Ada County,6148 NORTH DISCOVERY WAY SUITE 120,BOISE,ID,83713,202,(208)375-3116,12,City: Midsize,Yes,No,Yes,No,88,–,†,3,0
160014400967,ID-466-0654,1600144,ID-466,9,12,iSUCCEED VIRTUAL HIGH SCHOOL,ISUCCEED VIRTUAL HIGH SCHOOL INC.,Ada County,6148 NORTH DISCOVERY WAY SUITE 120,BOISE,ID,83713,202,(208)375-3116,12,City: Midsize,Yes,No,Yes,Yes,530,16.54,32,13,1
160222000391,ID-281-0753,1602220,ID-281,3,5,J RUSSELL ELEMENTARY SCHOOL,MOSCOW DISTRICT,Latah County,119 NORTH ADAMS STREET,MOSCOW,ID,83843,2830,(208)882-2715,32,Town: Distant,No,No,Yes,Yes,187,11.42,16.4,56,15
160006000816,ID-381-0849,1600060,ID-381,3,5,J.R. SIMPLOT ELEMENTARY SCHOOL,AMERICAN FALLS JOINT DISTRICT,Power County,820 TYHEE,AMERICAN FALLS,ID,83211,1457,(208)226-5733,32,Town: Distant,No,No,Yes,Yes,234,11.5,20.3,144,17
160001600990,ID-709-1074,1600016,ID-709,6,12,JCC - LEWISTON,IDAHO DEPARTMENT OF JUVENILE CORRECTIONS,Nez Perce County,140 SOUTHPORT AVENUE,LEWISTON,ID,83501,4526,(208)799-3332,41,Rural: Fringe,No,No,†,†,0,–,†,–,–
160001600926,ID-709-1169,1600016,ID-709,6,12,JCC - NAMPA,IDAHO DEPARTMENT OF JUVENILE CORRECTIONS,Canyon County,1650 11TH AVENUE NORTH,NAMPA,ID,83687,5000,(208)465-8443,22,Suburb: Midsize,No,No,†,†,0,–,†,–,–
160001600920,ID-709-1030,1600016,ID-709,6,12,JCC - ST ANTHONY,IDAHO DEPARTMENT OF JUVENILE CORRECTIONS,Fremont County,2220 EAST 600 NORTH,ST ANTHONY,ID,83445,40,(208)624-3462,41,Rural: Fringe,No,No,†,†,0,–,†,–,–
160036000059,ID-001-0317,1600360,ID-001,PK,6,JEFFERSON ELEMENTARY SCHOOL,BOISE INDEPENDENT DISTRICT,Ada County,200 SOUTH LATAH STREET,BOISE,ID,83705,1537,(208)854-5260,12,City: Midsize,No,No,Yes,Yes,272,16.34,16.6,11,258
160159000283,ID-261-0731,1601590,ID-261,KG,3,JEFFERSON ELEMENTARY SCHOOL,JEROME JOINT DISTRICT,Jerome County,600 NORTH FILLMORE STREET,JEROME,ID,83338,2045,(208)324-8896,33,Town: Remote,No,No,Yes,Yes,604,26.82,22.5,328,60
160157000276,ID-251-0725,1601570,ID-251,PK,2,JEFFERSON ELEMENTARY SCHOOL,JEFFERSON COUNTY JOINT DISTRICT,Jefferson County,305 N 3700 E,RIGBY,ID,83442,5454,(208)745-0758,41,Rural: Fringe,No,No,Yes,No,667,24.5,27.2,127,72
160264000475,ID-025-0365,1602640,ID-025,PK,5,JEFFERSON ELEMENTARY SCHOOL,POCATELLO DISTRICT,Bannock County,1455 GWEN DRIVE,POCATELLO,ID,83204,4860,(208)232-2914,13,City: Small,No,No,Yes,Yes,411,21.83,18.8,304,0
160157000626,ID-251-1143,1601570,ID-251,7,12,JEFFERSON HIGH SCHOOL,JEFFERSON COUNTY JOINT DISTRICT,Jefferson County,529 N 3470 E,MENAN,ID,83434,5027,(208)745-4581,42,Rural: Distant,No,No,Yes,Yes,59,2.67,22.1,30,0
160051000105,ID-132-0064,1600510,ID-132,6,8,JEFFERSON MIDDLE SCHOOL,CALDWELL DISTRICT,Canyon County,3311 SOUTH 10TH AVENUE,CALDWELL,ID,83605,6201,(208)455-3309,22,Suburb: Midsize,No,No,Yes,Yes,718,38.86,18.5,541,74
160157001116,ID-251-1416,1601570,ID-251,PK,PK,JEFFERSON SCHOOL DISTRICT 251 EARLY CHILDHOOD CENTER,JEFFERSON COUNTY JOINT DISTRICT,Jefferson County,3850 E 300 N,RIGBY,ID,83442,5422,(208)745-6693,31,Town: Fringe,No,†,†,†,†,†,†,†,†
160186000322,ID-340-0152,1601860,ID-340,7,9,JENIFER JUNIOR HIGH SCHOOL,LEWISTON INDEPENDENT DISTRICT,Nez Perce County,1213 16TH STREET,LEWISTON,ID,83501,3057,(208)748-3300,13,City: Small,No,No,Yes,No,580,33.6,17.3,140,62
160159000289,ID-261-0297,1601590,ID-261,KG,12,JEROME ACADEMY,JEROME JOINT DISTRICT,Jerome County,125 4TH AVENUE WEST,JEROME,ID,83338,1818,(208)324-2392,33,Town: Remote,No,No,†,†,0,1,†,0,0
160159000284,ID-261-0118,1601590,ID-261,9,12,JEROME HIGH SCHOOL,JEROME JOINT DISTRICT,Jerome County,104 NORTH TIGER DRIVE,JEROME,ID,83338,5457,(208)324-8137,41,Rural: Fringe,No,No,Yes,Yes,1167,56.01,20.8,413,81
160159000285,ID-261-0117,1601590,ID-261,6,8,JEROME MIDDLE SCHOOL,JEROME JOINT DISTRICT,Jerome County,520 10TH AVENUE WEST,JEROME,ID,83338,7049,(208)324-8134,33,Town: Remote,No,No,Yes,Yes,1019,47.9,21.3,550,105
160180000310,ID-272-0746,1601800,ID-272,PK,6,JOHN BROWN ELEMENTARY SCHOOL,LAKELAND DISTRICT,Kootenai County,PO BOX 10,RATHDRUM,ID,83858,10,(208)687-0551,31,Town: Fringe,No,No,Yes,Yes,354,22.91,15.5,147,38
160066001088,ID-151-1395,1600660,ID-151,KG,6,JOHN V EVANS ELEMENTARY,CASSIA COUNTY JOINT DISTRICT,Cassia County,3650 OVERLAND AVENUE,BURLEY,ID,83318,3242,(208)878-6600,41,Rural: Fringe,No,No,Yes,Yes,539,23.04,23.4,229,55
160210000598,ID-002-0343,1602100,ID-002,PK,5,JOPLIN ELEMENTARY SCHOOL,JOINT SCHOOL DISTRICT NO. 2,Ada County,12081 WEST DEMEYER STREET,BOISE,ID,83713,1766,(208)855-4345,12,City: Midsize,No,No,–,–,340,17.6,19.3,72,14
160168000298,ID-283-0758,1601680,ID-283,PK,6,JULIAETTA ELEMENTARY SCHOOL,KENDRICK JOINT DISTRICT,Latah County,305 4TH STREET,JULIAETTA,ID,83535,9731,(208)276-3422,42,Rural: Distant,No,No,Yes,Yes,141,8.41,16.8,32,17
160162001126,ID-304-1440,1601620,ID-304,–,–,KAMIAH EARLY CHILDHOOD CENTER,KAMIAH JOINT DISTRICT,†,1102 HILL STREET,KAMIAH,ID,83536,,(208)332-6800,†,N,No,†,†,†,†,†,†,†,†
160162000286,ID-304-0768,1601620,ID-304,PK,6,KAMIAH ELEMENTARY SCHOOL,KAMIAH JOINT DISTRICT,Lewis County,1102 HILL STREET,KAMIAH,ID,83536,5272,(208)935-4012,43,Rural: Remote,No,No,Yes,Yes,113,9.17,12.3,70,9
160162000457,ID-304-0231,1601620,ID-304,7,12,KAMIAH HIGH SCHOOL,KAMIAH JOINT DISTRICT,Lewis County,1102 HILL STREET,KAMIAH,ID,83536,9209,(208)935-4067,43,Rural: Remote,No,No,Yes,Yes,152,9.91,15.3,64,19
160165000293,ID-391-0171,1601650,ID-391,9,12,KELLOGG HIGH SCHOOL,KELLOGG JOINT DISTRICT,Shoshone County,2 JACOBS GULCH ROAD,KELLOGG,ID,83837,2023,(208)784-1371,41,Rural: Fringe,No,No,Yes,Yes,308,21.04,14.6,76,18
160165000292,ID-391-0170,1601650,ID-391,6,8,KELLOGG MIDDLE SCHOOL,KELLOGG JOINT DISTRICT,Shoshone County,790 BUNKER AVANUE,KELLOGG,ID,83837,2252,(208)784-1311,32,Town: Distant,No,No,Yes,Yes,267,14.65,18.2,105,21
160168000299,ID-283-0132,1601680,ID-283,7,12,KENDRICK JR/SR HIGH SCHOOL,KENDRICK JOINT DISTRICT,Latah County,2001 HIGHWAY 3,KENDRICK,ID,83537,9739,(208)289-4202,42,Rural: Distant,No,No,Yes,Yes,98,9.09,10.8,23,11
160192000338,ID-321-0773,1601920,ID-321,KG,4,KENNEDY ELEMENTARY SCHOOL,MADISON DISTRICT,Madison County,60 SOUTH 5TH WEST STREET,REXBURG,ID,83440,1802,(208)359-3325,32,Town: Distant,No,No,Yes,Yes,376,19,19.8,120,58
160102000797,ID-221-0230,1601020,ID-221,PK,4,KENNETH J CARBERRY ELEMENTARY,EMMETT INDEPENDENT DISTRICT,Gem County,1950 EAST 12TH STREET,EMMETT,ID,83617,3727,(208)365-0839,32,Town: Distant,No,No,Yes,Yes,555,29.9,18.6,291,1
160309000645,ID-322-0225,1603090,ID-322,4,6,KERSHAW INTERMEDIATE SCHOOL,SUGAR-SALEM JOINT DISTRICT,Madison County,610 EAST 3RD NORTH STREET,SUGAR CITY,ID,83448,1309,(208)356-0241,32,Town: Distant,No,No,Yes,Yes,405,19,21.3,94,75
160171000300,ID-414-0833,1601710,ID-414,PK,5,KIMBERLY ELEMENTARY SCHOOL,KIMBERLY DISTRICT,Twin Falls County,141 CENTER STREET WEST,KIMBERLY,ID,83341,1753,(208)423-4170,33,Town: Remote,No,No,Yes,No,402,20.73,19.4,108,29
160171000635,ID-414-0182,1601710,ID-414,9,12,KIMBERLY HIGH SCHOOL,KIMBERLY DISTRICT,Twin Falls County,141 CENTER STREET WEST,KIMBERLY,ID,83341,1753,(208)423-4170,33,Town: Remote,No,No,–,–,559,29.9,18.7,85,43
160171000179,ID-414-0512,1601710,ID-414,6,8,KIMBERLY MIDDLE SCHOOL,KIMBERLY DISTRICT,Twin Falls County,141 CENTER STREET WEST,KIMBERLY,ID,83341,1753,(208)423-4170,33,Town: Remote,No,No,Yes,No,467,21.5,21.7,110,50
160264000686,ID-025-1002,1602640,ID-025,6,8,KINPORT MIDDLE SCHOOL,POCATELLO DISTRICT,Bannock County,655 WEST ALAMEDA,POCATELLO,ID,83201,3622,(208)237-2233,13,City: Small,No,No,Yes,Yes,11,5.67,1.9,–,–
160036000060,ID-001-0325,1600360,ID-001,PK,6,KOELSCH ELEMENTARY SCHOOL,BOISE INDEPENDENT DISTRICT,Ada County,2015 NORTH CURTIS ROAD,BOISE,ID,83706,1096,(208)854-5300,12,City: Midsize,No,No,Yes,Yes,370,19.75,18.7,14,352
160014900992,ID-470-1232,1600149,ID-470,9,12,KOOTENAI BRIDGE ACADEMY,THE KOOTENAI BRIDGE ACADEMY INC.,Kootenai County,637 NORTH PARK DRIVE,COEUR D'ALENE,ID,83814,2133,(208)930-4515,13,City: Small,Yes,No,Yes,No,321,6,53.5,0,3
160000200603,ID-084-0293,1600002,ID-084,KG,6,KOOTENAI ELEMENTARY SCHOOL,LAKE PEND OREILLE SCHOOL DISTRICT,Bonner County,GENERAL DELIVERY,KOOTENAI,ID,83840,135,(208)255-4076,32,Town: Distant,No,No,Yes,Yes,426,20.73,20.5,168,35
160174000303,ID-274-0127,1601740,ID-274,6,12,KOOTENAI JR/SR HIGH SCHOOL,KOOTENAI DISTRICT,Kootenai County,13030 EAST O'GARA ROAD,HARRISON,ID,83833,7641,(208)689-3311,42,Rural: Distant,No,No,Yes,Yes,79,9.06,8.7,28,4
160016701068,ID-641-1351,1600167,ID-641,9,12,KTEC School,KTEC - Kootenai Tech Ed Campus,Kootenai County,6838 WEST LANCASTER ROAD,RATHDRUM,ID,83858,7224,(208)712-4733,41,Rural: Fringe,No,No,–,–,75,10.5,7.1,12,2
160177000307,ID-003-0014,1601770,ID-003,9,12,KUNA HIGH SCHOOL,KUNA JOINT DISTRICT,Ada County,637 EAST DEER FLAT,KUNA,ID,83634,3444,(208)955-0200,31,Town: Fringe,No,No,–,–,1624,80.21,20.2,275,108
160177000306,ID-003-0013,1601770,ID-003,6,8,KUNA MIDDLE SCHOOL,KUNA JOINT DISTRICT,Ada County,1360 WEST BOISE STREET,KUNA,ID,83634,1834,(208)922-1002,31,Town: Fringe,No,No,Yes,No,923,45.97,20.1,220,65
160078000291,ID-271-0220,1600780,ID-271,9,12,LAKE CITY HIGH SCHOOL,COEUR D'ALENE DISTRICT,Kootenai County,6101 RAMSEY ROAD,COEUR D'ALENE,ID,83815,8407,(208)769-0769,13,City: Small,No,No,–,–,1684,75.64,22.3,330,118
160210000365,ID-002-0331,1602100,ID-002,PK,5,LAKE HAZEL ELEMENTARY SCHOOL,JOINT SCHOOL DISTRICT NO. 2,Ada County,11711 LAKE HAZEL ROAD,BOISE,ID,83709,6224,(208)350-4075,21,Suburb: Large,No,No,–,–,473,23.03,20.5,98,29
160210000638,ID-002-0207,1602100,ID-002,6,8,LAKE HAZEL MIDDLE SCHOOL,JOINT SCHOOL DISTRICT NO. 2,Ada County,11625 LA GRANGE STREET,BOISE,ID,83709,5199,(208)855-4375,21,Suburb: Large,No,No,–,–,999,50.01,20,230,72
160000200691,ID-084-1045,1600002,ID-084,9,12,LAKE PEND OREILLE HIGH SCHOOL,LAKE PEND OREILLE SCHOOL DISTRICT,Bonner County,1005 NORTH BOYER AVENUE,SANDPOINT,ID,83864,2406,(208)263-6121,32,Town: Distant,No,No,Yes,Yes,107,8.31,12.9,38,8
160234000986,ID-131-0647,1602340,ID-131,PK,5,LAKE RIDGE ELEMENTARY,NAMPA SCHOOL DISTRICT,Canyon County,615 BURKE LANE,NAMPA,ID,83686,5676,(208)468-4626,41,Rural: Fringe,No,No,Yes,Yes,593,29,20.4,174,39
160180000312,ID-272-0123,1601800,ID-272,7,8,LAKELAND JUNIOR HIGH SCHOOL,LAKELAND DISTRICT,Kootenai County,PO BOX 69,RATHDRUM,ID,83858,98,(208)687-0661,31,Town: Fringe,No,No,Yes,No,397,23.5,16.9,102,34
160180000311,ID-272-0124,1601800,ID-272,9,12,LAKELAND SENIOR HIGH SCHOOL,LAKELAND DISTRICT,Kootenai County,PO BOX 69,RATHDRUM,ID,83858,69,(208)687-0181,31,Town: Fringe,No,No,–,–,822,43.5,18.9,124,57
160078000153,ID-271-0121,1600780,ID-271,6,8,LAKES MAGNET SCHOOL,COEUR D'ALENE DISTRICT,Kootenai County,930 NORTH 15TH STREET,COEUR D'ALENE,ID,83814,5640,(208)667-4544,13,City: Small,No,Yes,Yes,Yes,693,35.51,19.5,269,74
160081500719,ID-044-0752,1600815,ID-044,PK,6,LAKESIDE ELEMENTARY SCHOOL,PLUMMER-WORLEY JOINT DISTRICT,Benewah County,PO BOX 130,PLUMMER,ID,83851,130,(208)686-1651,42,Rural: Distant,No,No,Yes,Yes,199,17.65,11.3,134,28
160081500720,ID-044-0030,1600815,ID-044,9,12,LAKESIDE HIGH SCHOOL,PLUMMER-WORLEY JOINT DISTRICT,Benewah County,PO BOX 130,PLUMMER,ID,83851,130,(208)686-1937,42,Rural: Distant,No,No,Yes,Yes,129,10.73,12,66,17
160081500647,ID-044-0128,1600815,ID-044,7,8,LAKESIDE JR HIGH SCHOOL,PLUMMER-WORLEY JOINT DISTRICT,Benewah County,PO BOX 130,PLUMMER,ID,83851,130,(208)686-1937,42,Rural: Distant,No,No,Yes,Yes,46,4.66,9.9,44,0
160060000976,ID-139-0646,1600600,ID-139,PK,5,LAKEVUE ELEMENTARY SCHOOL,VALLIVUE SCHOOL DISTRICT,Canyon County,12843 CIRRUS DRIVE,NAMPA,ID,83651,4902,(208)467-1478,22,Suburb: Midsize,No,No,Yes,Yes,643,30,21.4,244,78
160183000317,ID-341-0844,1601830,ID-341,PK,5,LAPWAI ELEMENTARY SCHOOL,LAPWAI DISTRICT,Nez Perce County,PO BOX 247,LAPWAI,ID,83540,247,(208)843-2952,42,Rural: Distant,No,No,Yes,Yes,254,18.87,13.5,–,–
160183000854,ID-341-0583,1601830,ID-341,6,12,LAPWAI MIDDLE/HIGH SCHOOL,LAPWAI DISTRICT,Nez Perce County,PO BOX 247,LAPWAI,ID,83540,247,(208)843-2241,42,Rural: Distant,No,No,Yes,Yes,264,16.15,16.3,–,–
160195000346,ID-021-0349,1601950,ID-021,PK,6,LAVA ELEMENTARY SCHOOL,MARSH VALLEY JOINT DISTRICT,Bannock County,PO BOX 660,LAVA HOT SPRINGS,ID,83246,660,(208)776-5281,42,Rural: Distant,No,No,Yes,Yes,82,6,13.7,30,8
160303000528,ID-292-0137,1603030,ID-292,PK,12,LEADORE SCHOOL,SOUTH LEMHI DISTRICT,Lemhi County,PO BOX 119,LEADORE,ID,83464,119,(208)768-2441,43,Rural: Remote,No,No,Yes,Yes,81,11.06,7.3,36,14
160015801019,ID-478-1340,1600158,ID-478,KG,8,LEGACY CHARTER SCHOOL,LEGACY PUBLIC CHARTER SCHOOL INC.,Canyon County,1123 12TH AVENUE ROAD #225,NAMPA,ID,83686,5801,(208)467-0947,22,Suburb: Midsize,Yes,No,Yes,No,295,10.2,28.9,63,36
160222000392,ID-281-0754,1602220,ID-281,KG,5,LENA WHITMORE ELEMENTARY SCHOOL,MOSCOW DISTRICT,Latah County,110 SOUTH BLAINE STREET,MOSCOW,ID,83843,3459,(208)882-2621,32,Town: Distant,No,No,Yes,No,252,16.17,15.6,63,21
160036000183,ID-001-0206,1600360,ID-001,6,9,LES BOIS JUNIOR HIGH SCHOOL,BOISE INDEPENDENT DISTRICT,Ada County,4150 EAST GRAND FOREST DRIVE,BOISE,ID,83716,7198,(208)854-5340,12,City: Midsize,No,No,–,–,774,39.93,19.4,134,39
160264000476,ID-025-0368,1602640,ID-025,KG,5,LEWIS & CLARK ELEMENTARY SCHOOL,POCATELLO DISTRICT,Bannock County,800 GRACE DRIVE,POCATELLO,ID,83201,4918,(208)233-2552,13,City: Small,No,No,Yes,Yes,518,25.36,20.4,378,0
160210000795,ID-002-0235,1602100,ID-002,6,8,LEWIS & CLARK MIDDLE SCHOOL,JOINT SCHOOL DISTRICT NO. 2,Ada County,4141 EAST PINE STREET,MERIDIAN,ID,83642,6030,(208)350-4270,21,Suburb: Large,No,Yes,–,–,1095,54.83,20,277,70
160051000835,ID-132-0076,1600510,ID-132,PK,5,LEWIS AND CLARK ELEMENTARY,CALDWELL DISTRICT,Canyon County,1102 LASTER STREET,CALDWELL,ID,83605,8594,(208)455-3345,22,Suburb: Midsize,No,No,Yes,Yes,482,28,17.2,369,37
160186000323,ID-340-0153,1601860,ID-340,9,12,LEWISTON HIGH SCHOOL,LEWISTON INDEPENDENT DISTRICT,Nez Perce County,1114 9TH AVENUE,LEWISTON,ID,83501,2659,(208)748-3100,13,City: Small,No,No,–,–,975,58.15,16.8,134,71
160001200867,ID-458-0587,1600012,ID-458,PK,12,LIBERTY CHARTER SCHOOL,LIBERTY CHARTER SCHOOL INC.,Canyon County,1063 EAST LEWIS LANE,NAMPA,ID,83686,8843,(208)466-7952,41,Rural: Fringe,Yes,No,Yes,No,408,15.26,26.7,67,37
160036000650,ID-001-0316,1600360,ID-001,PK,6,LIBERTY ELEMENTARY SCHOOL,BOISE INDEPENDENT DISTRICT,Ada County,1740 EAST BERGESON STREET,BOISE,ID,83706,5904,(208)854-5410,12,City: Midsize,No,No,–,–,521,26.5,19.7,67,22
160051000106,ID-132-0449,1600510,ID-132,PK,5,LINCOLN ELEMENTARY SCHOOL,CALDWELL DISTRICT,Canyon County,1200 GRANT STREET,CALDWELL,ID,83605,4260,(208)455-3321,22,Suburb: Midsize,No,No,Yes,Yes,427,22,19.4,358,21
160192000339,ID-321-0775,1601920,ID-321,KG,4,LINCOLN ELEMENTARY SCHOOL,MADISON DISTRICT,Madison County,358 EAST 2ND SOUTH STREET,REXBURG,ID,83440,2212,(208)359-3330,32,Town: Distant,No,No,Yes,Yes,346,18,19.2,85,30
160324000550,ID-411-0829,1603240,ID-411,PK,5,LINCOLN ELEMENTARY SCHOOL,TWIN FALLS DISTRICT,Twin Falls County,238 BUHL STREET NORTH,TWIN FALLS,ID,83301,5734,(208)733-1321,33,Town: Remote,No,No,Yes,Yes,492,26,18.9,325,47
160093000361,ID-093-1053,1600930,ID-093,7,12,LINCOLN HIGH SCHOOL,BONNEVILLE JOINT DISTRICT,Bonneville County,3175 EAST LINCOLN ROAD,IDAHO FALLS,ID,83401,1807,(208)525-4447,23,Suburb: Small,No,No,Yes,Yes,137,11.02,12.4,22,1
160264000479,ID-025-9033,1602640,ID-025,PK,6,LINCOLN PRESCHOOL CENTER,POCATELLO DISTRICT,Bannock County,330 OAKWOOD DRIVE,POCATELLO,ID,83204,3911,(208)233-6606,13,City: Small,No,No,–,–,133,6,22.2,–,–
160153000263,ID-091-0423,1601530,ID-091,PK,6,LINDEN PARK ELEMENTARY SCHOOL,IDAHO FALLS DISTRICT,Bonneville County,1305 9TH STREET,IDAHO FALLS,ID,83404,5102,(208)525-7642,13,City: Small,No,No,Yes,Yes,417,20.9,20,226,54
160075000145,ID-161-0478,1600750,ID-161,PK,8,LINDY ROSS ELEMENTARY SCHOOL,CLARK COUNTY DISTRICT,Clark County,PO BOX 237,DUBOIS,ID,83423,237,(208)374-5206,43,Rural: Remote,No,No,Yes,Yes,52,6.23,8.3,24,16
160234000969,ID-131-0648,1602340,ID-131,6,8,LONE STAR MIDDLE SCHOOL,NAMPA SCHOOL DISTRICT,Canyon County,11055 LONE STAR ROAD,NAMPA,ID,83651,5203,(208)468-4745,41,Rural: Fringe,No,No,Yes,Yes,881,43.03,20.5,308,111
160036000062,ID-001-0323,1600360,ID-001,PK,6,LONGFELLOW ELEMENTARY SCHOOL,BOISE INDEPENDENT DISTRICT,Ada County,1511 NORTH 9TH STREET,BOISE,ID,83702,3614,(208)854-5450,12,City: Midsize,No,No,–,–,343,18.1,19,42,3
160153000264,ID-091-0412,1601530,ID-091,PK,6,LONGFELLOW ELEMENTARY SCHOOL,IDAHO FALLS DISTRICT,Bonneville County,2500 SOUTH HIGBEE AVENUE,IDAHO FALLS,ID,83404,7103,(208)525-7648,13,City: Small,No,No,Yes,No,549,22.13,24.8,136,31
160036000063,ID-001-0319,1600360,ID-001,PK,6,LOWELL ELEMENTARY SCHOOL,BOISE INDEPENDENT DISTRICT,Ada County,1507 NORTH 28TH STREET,BOISE,ID,83703,5952,(208)854-5480,12,City: Midsize,No,No,Yes,Yes,324,19.45,16.7,318,0
160210000367,ID-002-0010,1602100,ID-002,6,8,LOWELL SCOTT MIDDLE SCHOOL,JOINT SCHOOL DISTRICT NO. 2,Ada County,13600 WEST MCMILLAN ROAD,BOISE,ID,83713,531,(208)350-4060,12,City: Midsize,No,No,–,–,1045,54.33,19.2,265,50
160117000216,ID-071-0398,1601170,ID-071,PK,6,LOWMAN ELEMENTARY SCHOOL,GARDEN VALLEY DISTRICT,Boise County,PO BOX 710,GARDEN VALLEY,ID,83622,710,(208)259-3333,43,Rural: Remote,No,No,Yes,Yes,7,1,7,†,†
160000201086,ID-084-1391,1600002,ID-084,KG,8,LPOSD HOME SCHOOL ACADEMY,LAKE PEND OREILLE SCHOOL DISTRICT,Bonner County,430 SOUTH DIVISION AVENUE,SANDPOINT,ID,83864,1734,(208)263-2184,32,Town: Distant,No,No,†,†,0,0.99,†,–,–
160190000331,ID-182-0490,1601900,ID-182,PK,6,MACKAY ELEMENTARY SCHOOL,MACKAY JOINT DISTRICT,Custer County,PO BOX 390,MACKAY,ID,83251,390,(208)588-2834,43,Rural: Remote,No,No,Yes,No,132,8,16.5,40,4
160190000332,ID-182-0090,1601900,ID-182,7,12,MACKAY JR/SR HIGH SCHOOL,MACKAY JOINT DISTRICT,Custer County,PO BOX 390,MACKAY,ID,83251,390,(208)588-2262,43,Rural: Remote,No,No,Yes,Yes,94,9.12,10.3,21,5
160036000064,ID-001-0312,1600360,ID-001,PK,PK,MADISON EARLY CHILDHOOD SCHOOL,BOISE INDEPENDENT DISTRICT,Ada County,2215 WEST MADISON AVENUE,BOISE,ID,83702,4920,(208)854-5520,12,City: Midsize,No,No,–,–,63,6,10.5,3,0
160192000340,ID-321-0145,1601920,ID-321,7,9,MADISON JUNIOR HIGH SCHOOL,MADISON DISTRICT,Madison County,134 MADISON AVENUE,REXBURG,ID,83440,1612,(208)359-3310,32,Town: Distant,No,No,–,–,1204,53.46,22.5,230,144
160192000210,ID-321-0250,1601920,ID-321,4,6,MADISON MIDDLE SCHOOL,MADISON DISTRICT,Madison County,575 WEST 7TH SOUTH,REXBURG,ID,83440,9681,(208)359-3320,41,Rural: Fringe,No,No,Yes,Yes,817,38.93,21,169,117
160192000341,ID-321-0146,1601920,ID-321,10,12,MADISON SENIOR HIGH SCHOOL,MADISON DISTRICT,Madison County,134 MADISON AVENUE,REXBURG,ID,83440,1612,(208)359-3305,41,Rural: Fringe,No,No,–,–,1161,58.18,20,175,88
160324000703,ID-411-1066,1603240,ID-411,9,12,MAGIC VALLEY HIGH SCHOOL,TWIN FALLS DISTRICT,Twin Falls County,512 MAIN AVENUE NORTH,TWIN FALLS,ID,83301,5739,(208)733-8823,33,Town: Remote,No,No,Yes,Yes,193,13.96,13.8,96,17
160249000432,ID-351-0798,1602490,ID-351,PK,5,MALAD ELEMENTARY SCHOOL,ONEIDA COUNTY DISTRICT,Oneida County,250 W 400 N,MALAD CITY,ID,83252,1115,(208)766-2255,43,Rural: Remote,No,No,Yes,Yes,397,21,18.9,113,59
160249000629,ID-351-0618,1602490,ID-351,6,8,MALAD MIDDLE SCHOOL,ONEIDA COUNTY DISTRICT,Oneida County,175 JENKINS AVENUE,MALAD CITY,ID,83252,1374,(208)766-9235,43,Rural: Remote,No,No,Yes,Yes,216,12.03,18,49,29
160249000433,ID-351-0156,1602490,ID-351,9,12,MALAD SENIOR HIGH SCHOOL,ONEIDA COUNTY DISTRICT,Oneida County,181 JENKINS AVENUE,MALAD CITY,ID,83252,1374,(208)766-4728,43,Rural: Remote,No,No,–,–,275,12.97,21.2,57,21
160036000065,ID-001-0301,1600360,ID-001,PK,6,MAPLE GROVE ELEMENTARY SCHOOL,BOISE INDEPENDENT DISTRICT,Ada County,2800 SOUTH MAPLE GROVE ROAD,BOISE,ID,83709,3609,(208)854-5540,12,City: Midsize,No,No,–,–,483,24.3,19.9,116,38
160195000347,ID-021-0019,1601950,ID-021,7,12,MARSH VALLEY HIGH SCHOOL,MARSH VALLEY JOINT DISTRICT,Bannock County,12655 SOUTH OLD HIGHWAY 91,ARIMO,ID,83214,1613,(208)254-3711,42,Rural: Distant,No,No,–,–,400,22.77,17.6,75,46
160195000348,ID-021-0018,1601950,ID-021,7,8,MARSH VALLEY MIDDLE SCHOOL,MARSH VALLEY JOINT DISTRICT,Bannock County,12805 SOUTH OLD HIGHWAY 91,ARIMO,ID,83214,1613,(208)254-3260,42,Rural: Distant,No,No,Yes,No,230,11.69,19.7,55,25
160198000351,ID-363-0799,1601980,ID-363,PK,5,MARSING ELEMENTARY SCHOOL,MARSING JOINT DISTRICT,Owyhee County,PO BOX 340,MARSING,ID,83639,340,(208)896-4111,42,Rural: Distant,No,No,Yes,Yes,390,18.58,21,198,43
160198000352,ID-363-0157,1601980,ID-363,9,12,MARSING HIGH SCHOOL,MARSING JOINT DISTRICT,Owyhee County,PO BOX 340,MARSING,ID,83639,340,(208)896-4111,42,Rural: Distant,No,No,Yes,Yes,262,16.44,15.9,109,23
160198000636,ID-363-0530,1601980,ID-363,6,8,MARSING MIDDLE SCHOOL,MARSING JOINT DISTRICT,Owyhee County,PO BOX 340,MARSING,ID,83639,340,(208)896-4111,42,Rural: Distant,No,No,Yes,Yes,213,13.86,15.4,104,18
160210000368,ID-002-0341,1602100,ID-002,PK,5,MARY MCPHERSON ELEMENTARY,JOINT SCHOOL DISTRICT NO. 2,Ada County,1050 EAST AMITY ROAD,MERIDIAN,ID,83642,6958,(208)855-4300,41,Rural: Fringe,No,No,–,–,530,24.54,21.6,57,15
160255000449,ID-137-0456,1602550,ID-137,PK,4,MAXINE JOHNSON ELEMENTARY,PARMA DISTRICT,Canyon County,607 EAST MCCONNELL STREET,PARMA,ID,83660,5607,(208)722-5115,42,Rural: Distant,No,No,Yes,Yes,391,19,20.6,193,42
160258000455,ID-371-0161,1602580,ID-371,6,8,MCCAIN MIDDLE SCHOOL,PAYETTE JOINT DISTRICT,Payette County,400 NORTH IOWA AVENUE,PAYETTE,ID,83661,2606,(208)642-4122,41,Rural: Fringe,No,No,Yes,Yes,377,19.69,19.1,235,22
160019301121,ID-536-1434,1600193,ID-536,–,–,MCCALL COMMUNITY SCHOOL,MCCALL COMMUNITY SCHOOL INC,†,PO BOX 2811,MCCALL,ID,83638,,(208)697-3345,†,N,Yes,†,†,†,†,†,†,†,†
160203000354,ID-421-0189,1602030,ID-421,9,12,MCCALL-DONNELLY HIGH SCHOOL,MCCALL-DONNELLY JOINT SCHOOL DISTRICT,Valley County,401 NORTH MISSION STREET,MCCALL,ID,83638,3829,(208)634-2218,43,Rural: Remote,No,No,–,–,348,24.45,14.2,56,23
160186000324,ID-340-0789,1601860,ID-340,KG,6,MCGHEE ELEMENTARY SCHOOL,LEWISTON INDEPENDENT DISTRICT,Nez Perce County,636 WARNER AVENUE,LEWISTON,ID,83501,5127,(208)748-3600,13,City: Small,No,No,Yes,Yes,320,17.44,18.3,122,47
160210000363,ID-002-0337,1602100,ID-002,PK,5,McMillan Elementary,JOINT SCHOOL DISTRICT NO. 2,Ada County,10901 MCMILLAN,BOISE,ID,83713,2634,(208)855-4475,12,City: Midsize,No,No,Yes,Yes,264,16.63,15.9,117,21
160186000325,ID-340-0791,1601860,ID-340,KG,6,MCSORLEY ELEMENTARY SCHOOL,LEWISTON INDEPENDENT DISTRICT,Nez Perce County,2020 15TH STREET,LEWISTON,ID,83501,3977,(208)748-3650,13,City: Small,No,No,–,–,332,18.53,17.9,64,32
160206000826,ID-011-0342,1602060,ID-011,PK,12,MEADOWS VALLEY SCHOOL,MEADOWS VALLEY DISTRICT,Adams County,PO BOX DRAWER F,NEW MEADOWS,ID,83654,905,(208)347-2118,43,Rural: Remote,No,No,Yes,Yes,161,16.32,9.9,54,8
160207000359,ID-136-0455,1602070,ID-136,PK,6,MELBA ELEMENTARY SCHOOL,MELBA JOINT DISTRICT,Canyon County,PO BOX 185,MELBA,ID,83641,185,(208)495-2508,42,Rural: Distant,No,No,Yes,Yes,442,21,21,133,42
160207000836,ID-136-0070,1602070,ID-136,7,12,MELBA HIGH SCHOOL,MELBA JOINT DISTRICT,Canyon County,PO BOX 185,MELBA,ID,83641,185,(208)495-2221,42,Rural: Distant,No,No,Yes,Yes,429,24.5,17.5,131,30
160210000714,ID-002-1228,1602100,ID-002,9,12,MERIDIAN ACADEMY,JOINT SCHOOL DISTRICT NO. 2,Ada County,2311 EAST LANARK STREET,MERIDIAN,ID,83642,3037,(208)855-4315,21,Suburb: Large,No,No,Yes,Yes,176,13.16,13.4,53,18
160210000371,ID-002-0336,1602100,ID-002,PK,5,MERIDIAN ELEMENTARY SCHOOL,JOINT SCHOOL DISTRICT NO. 2,Ada County,1035 NORTHWEST 1ST STREET,MERIDIAN,ID,83642,2281,(208)855-4335,21,Suburb: Large,No,No,Yes,Yes,506,26.48,19.1,287,50
160210000372,ID-002-0012,1602100,ID-002,9,12,MERIDIAN HIGH SCHOOL,JOINT SCHOOL DISTRICT NO. 2,Ada County,1900 WEST PINE STREET,MERIDIAN,ID,83642,1999,(208)350-4160,21,Suburb: Large,No,No,–,–,1860,94.9,19.6,362,115
160210000804,ID-002-0547,1602100,ID-002,9,12,MERIDIAN MEDICAL ARTS CHARTER,JOINT SCHOOL DISTRICT NO. 2,Ada County,1789 EAST HERITAGE PARK LANE,MERIDIAN,ID,83646,2692,(208)855-4075,21,Suburb: Large,Yes,No,–,–,198,14,14.1,–,–
160210000370,ID-002-0011,1602100,ID-002,6,8,MERIDIAN MIDDLE SCHOOL,JOINT SCHOOL DISTRICT NO. 2,Ada County,1507 WEST 8TH STREET,MERIDIAN,ID,83642,2013,(208)855-4225,21,Suburb: Large,No,No,Yes,Yes,1170,58.97,19.8,377,94
160210000759,ID-002-0257,1602100,ID-002,9,12,MERIDIAN TECHNICAL CHARTER HIGH SCHOOL,JOINT SCHOOL DISTRICT NO. 2,Ada County,3800 NORTH LOCUST GROVE ROAD,MERIDIAN,ID,83646,5510,(208)288-2928,21,Suburb: Large,Yes,No,–,–,201,14,14.4,3,0
160213000777,ID-134-1168,1602130,ID-134,7,12,MIDDLETON ACADEMY,MIDDLETON DISTRICT,Canyon County,5 SOUTH VIKING AVENUE,MIDDLETON,ID,83644,5563,(208)585-6657,22,Suburb: Midsize,No,No,Yes,Yes,72,6,12,–,–
160213000675,ID-134-0500,1602130,ID-134,PK,5,MIDDLETON HEIGHTS ELEMENTARY,MIDDLETON DISTRICT,Canyon County,611 CEMETERY ROAD,MIDDLETON,ID,83644,5553,(208)585-3021,41,Rural: Fringe,No,No,Yes,Yes,603,27.5,21.9,192,56
160213000377,ID-134-0068,1602130,ID-134,9,12,MIDDLETON HIGH SCHOOL,MIDDLETON DISTRICT,Canyon County,1538 EMMETT ROAD,MIDDLETON,ID,83644,4712,(208)585-6657,41,Rural: Fringe,No,No,Yes,No,1245,55.59,22.4,213,90
160213000378,ID-134-0067,1602130,ID-134,6,8,MIDDLETON MIDDLE SCHOOL,MIDDLETON DISTRICT,Canyon County,511 WEST MAIN STREET,MIDDLETON,ID,83644,5545,(208)585-3251,22,Suburb: Midsize,No,No,Yes,Yes,998,45.39,22,244,87
160213000376,ID-134-0453,1602130,ID-134,PK,5,MIDDLETON MILL CREEK ELEMENTARY,MIDDLETON DISTRICT,Canyon County,500 NORTH MIDDLETON ROAD,MIDDLETON,ID,83644,5499,(208)585-3065,22,Suburb: Midsize,No,No,Yes,Yes,696,31,22.5,141,48
160216000939,ID-433-1113,1602160,ID-433,7,12,MIDVALE ALTERNATIVE SCHOOL,MIDVALE DISTRICT,Washington County,PO BOX 130,MIDVALE,ID,83645,130,(208)355-2234,43,Rural: Remote,No,No,–,–,11,3.67,3,8,1
160216000857,ID-433-0286,1602160,ID-433,PK,12,MIDVALE SCHOOL,MIDVALE DISTRICT,Washington County,PO BOX 130,MIDVALE,ID,83645,130,(208)355-2234,43,Rural: Remote,No,No,Yes,Yes,112,11.39,9.8,51,10
160157000274,ID-251-0724,1601570,ID-251,PK,5,MIDWAY ELEMENTARY SCHOOL,JEFFERSON COUNTY JOINT DISTRICT,Jefferson County,623 N 3500 E,MENAN,ID,83434,5036,(208)754-8604,42,Rural: Distant,No,No,Yes,Yes,351,15.75,22.3,115,37
160219000166,ID-331-1100,1602190,ID-331,3,12,MINI-CASSIA JUVENILE DETENTION CENTER,MINIDOKA COUNTY JOINT DISTRICT,Minidoka County,633 FREMONT,RUPERT,ID,83350,368,(208)436-9928,33,Town: Remote,No,No,–,–,17,0,†,3,0
160219000385,ID-331-0150,1602190,ID-331,9,12,MINICO SENIOR HIGH SCHOOL,MINIDOKA COUNTY JOINT DISTRICT,Minidoka County,292 W 100 S,RUPERT,ID,83350,9684,(208)436-4721,41,Rural: Fringe,No,No,Yes,Yes,1034,53.58,19.3,375,119
160036000067,ID-001-0324,1600360,ID-001,PK,6,MONROE ELEMENTARY SCHOOL,BOISE INDEPENDENT DISTRICT,Ada County,3615 CASSIA STREET,BOISE,ID,83705,2223,(208)854-5620,12,City: Midsize,No,No,Yes,Yes,317,17,18.6,122,16
160015401014,ID-474-1246,1600154,ID-474,PK,8,MONTICELLO MONTESSORI CHARTER SCHOOL,MONTICELLO MONTESSORI CHARTER SCHOOL INC.,Bonneville County,4707 SOUTH SWEETWATER WAY,AMMON,ID,83406,7546,(208)419-0742,23,Suburb: Small,Yes,No,Yes,Yes,232,10.01,23.2,2,1
160297000516,ID-052-0377,1602970,ID-052,PK,1,MORELAND ELEMENTARY SCHOOL,SNAKE RIVER DISTRICT,Bingham County,PO BOX B,MORELAND,ID,83256,5773,(208)684-5115,32,Town: Distant,No,No,Yes,Yes,260,12,21.7,86,26
160036000980,ID-001-0673,1600360,ID-001,PK,6,MORLEY NELSON ELEMENTARY,BOISE INDEPENDENT DISTRICT,Ada County,7701 WEST NORTHVIEW STREET,BOISE,ID,83704,5063,(208)854-4610,12,City: Midsize,No,No,Yes,Yes,571,25.82,22.1,22,544
160324000551,ID-411-0825,1603240,ID-411,PK,5,MORNINGSIDE ELEMENTARY SCHOOL,TWIN FALLS DISTRICT,Twin Falls County,701 MORNINGSIDE DRIVE,TWIN FALLS,ID,83301,7069,(208)733-6507,33,Town: Remote,No,No,Yes,Yes,448,22,20.4,212,47
160019101124,ID-544-1436,1600191,ID-544,–,–,MOSAICS PUBLIC SCHOOL,MOSAICS PUBLIC SCHOOL INC.,†,1010 JEFFERSON STREET SUITE 201,BOISE,ID,83702,,(208)332-6800,†,N,Yes,†,†,†,†,†,†,†,†
160222000749,ID-281-0813,1602220,ID-281,KG,8,MOSCOW CHARTER SCHOOL,MOSCOW DISTRICT,Latah County,1723 EAST F STREET,MOSCOW,ID,83843,9336,(208)883-3195,32,Town: Distant,Yes,No,–,–,174,10.98,15.8,30,10
160222000394,ID-281-0130,1602220,ID-281,9,12,MOSCOW HIGH SCHOOL,MOSCOW DISTRICT,Latah County,402 EAST 5TH STREET,MOSCOW,ID,83843,2966,(208)882-2591,32,Town: Distant,No,No,–,–,778,45.28,17.2,110,30
160222000393,ID-281-0129,1602220,ID-281,6,8,MOSCOW MIDDLE SCHOOL,MOSCOW DISTRICT,Latah County,1410 EAST D STREET,MOSCOW,ID,83843,3642,(208)882-3577,32,Town: Distant,No,No,–,–,546,34.34,15.9,127,33
160042000091,ID-101-0434,1600420,ID-101,KG,5,MOUNT HALL ELEMENTARY SCHOOL,BOUNDARY COUNTY DISTRICT,Boundary County,1275 HIGHWAY 1,BONNERS FERRY,ID,83805,9545,(208)267-5276,43,Rural: Remote,No,No,Yes,Yes,142,6.5,21.8,42,26
160225000401,ID-193-0093,1602250,ID-193,7,8,MOUNTAIN HOME JUNIOR HIGH SCHOOL,MOUNTAIN HOME DISTRICT,Elmore County,1600 EAST 6TH SOUTH STREET,MOUNTAIN HOME,ID,83647,3267,(208)587-2590,41,Rural: Fringe,No,No,Yes,Yes,608,29.8,20.4,222,45
160225000397,ID-193-0095,1602250,ID-193,9,12,MOUNTAIN HOME SR HIGH SCHOOL,MOUNTAIN HOME DISTRICT,Elmore County,300 SOUTH 11TH EAST STREET,MOUNTAIN HOME,ID,83647,3235,(208)587-2570,32,Town: Distant,No,No,Yes,No,1019,51.56,19.8,250,66
160093001015,ID-093-1250,1600930,ID-093,PK,6,MOUNTAIN VALLEY ELEMENTARY SCHOOL,BONNEVILLE JOINT DISTRICT,Bonneville County,2601 PRINCESS DRIVE,AMMON,ID,83406,4758,(208)552-0866,23,Suburb: Small,No,Yes,Yes,Yes,552,27,20.4,155,56
160066000130,ID-151-0470,1600660,ID-151,KG,6,MOUNTAIN VIEW ELEMENTARY,CASSIA COUNTY JOINT DISTRICT,Cassia County,333 WEST 27TH STREET,BURLEY,ID,83318,3103,(208)878-6608,33,Town: Remote,No,No,Yes,Yes,438,22.04,19.9,187,63
160036000068,ID-001-0322,1600360,ID-001,PK,6,MOUNTAIN VIEW ELEMENTARY SCHOOL,BOISE INDEPENDENT DISTRICT,Ada County,3500 CABARTON LANE,BOISE,ID,83704,4569,(208)854-5700,12,City: Midsize,No,No,Yes,Yes,335,18.26,18.3,178,31
160195000349,ID-021-0352,1601950,ID-021,PK,6,MOUNTAIN VIEW ELEMENTARY SCHOOL,MARSH VALLEY JOINT DISTRICT,Bannock County,PO BOX 69,MCCAMMON,ID,83250,68,(208)254-3223,42,Rural: Distant,No,No,Yes,Yes,267,14,19.1,79,33
160210000802,ID-002-0545,1602100,ID-002,9,12,MOUNTAIN VIEW HIGH SCHOOL,JOINT SCHOOL DISTRICT NO. 2,Ada County,2000 SOUTH MILLENNIUM WAY,MERIDIAN,ID,83642,1551,(208)855-4050,21,Suburb: Large,No,No,–,–,2251,103.38,21.8,266,94
160027000023,ID-055-0033,1600270,ID-055,6,8,MOUNTAIN VIEW MIDDLE SCHOOL,BLACKFOOT DISTRICT,Bingham County,645 MITCHELL ROAD,BLACKFOOT,ID,83221,2985,(208)785-8820,32,Town: Distant,No,No,Yes,Yes,614,34.16,18,240,79
160180000437,ID-272-1104,1601800,ID-272,7,12,MOUNTAINVIEW ALTERNATIVE HIGH SCHOOL,LAKELAND DISTRICT,Kootenai County,7802 WEST MAIN STREET,RATHDRUM,ID,83858,39,(208)687-0025,31,Town: Fringe,No,No,Yes,Yes,87,6,14.5,37,2
160219000158,ID-331-1046,1602190,ID-331,6,12,MT HARRISON JR/SR HIGH,MINIDOKA COUNTY JOINT DISTRICT,Minidoka County,1431 17TH STREET,HEYBURN,ID,83336,8802,(208)436-6252,33,Town: Remote,No,No,Yes,Yes,213,16,13.3,86,20
160228000405,ID-392-0172,1602280,ID-392,KG,12,MULLAN SCHOOLS,MULLAN DISTRICT,Shoshone County,345 PARK STREET,MULLAN,ID,83846,71,(208)744-1126,42,Rural: Distant,No,No,Yes,Yes,98,13.2,7.4,34,0
160267000800,ID-273-0253,1602670,ID-273,PK,5,MULLAN TRAIL ELEMENTARY SCHOOL,POST FALLS DISTRICT,Kootenai County,PO BOX 40,POST FALLS,ID,83877,40,(208)457-0772,23,Suburb: Small,No,No,Yes,Yes,419,20.5,20.4,129,51
160231001034,ID-418-1344,1602310,ID-418,PK,12,MURTAUGH SCHOOLS,MURTAUGH JOINT DISTRICT,Twin Falls County,PO BOX 117,MURTAUGH,ID,83344,117,(208)432-5451,42,Rural: Distant,No,No,Yes,Yes,374,23.61,15.8,151,86
160234000416,ID-131-0600,1602340,ID-131,PK,PK,NAMPA EARLY CHILDHOOD CENTER,NAMPA SCHOOL DISTRICT,Canyon County,1701 DISCOVERY PLACE,NAMPA,ID,83686,7179,(208)498-0560,22,Suburb: Midsize,No,No,–,–,155,6,25.8,–,–
160234000514,ID-131-0998,1602340,ID-131,9,12,NAMPA SENIOR HIGH SCHOOL,NAMPA SCHOOL DISTRICT,Canyon County,203 LAKE LOWELL AVENUE,NAMPA,ID,83686,6654,(208)498-0551,22,Suburb: Midsize,No,No,Yes,Yes,1494,73.03,20.5,480,135
160042000092,ID-101-0433,1600420,ID-101,KG,5,NAPLES ELEMENTARY SCHOOL,BOUNDARY COUNTY DISTRICT,Boundary County,145 SCHOOLHOUSE ROAD,NAPLES,ID,83847,134,(208)267-2956,42,Rural: Distant,No,No,Yes,Yes,124,7,17.7,79,12
160264000468,ID-025-1141,1602640,ID-025,9,12,NEW HORIZON HIGH SCHOOL,POCATELLO DISTRICT,Bannock County,955 WEST ALAMEDA,POCATELLO,ID,83201,6145,(208)237-2233,13,City: Small,No,No,Yes,Yes,162,13.41,12.1,77,0
160234000941,ID-131-2889,1602340,ID-131,PK,6,NEW HORIZON MAGNET SCHOOL,NAMPA SCHOOL DISTRICT,Canyon County,5226 SOUTHSIDE BOULEVARD,NAMPA,ID,83686,4903,(208)468-4619,41,Rural: Fringe,No,Yes,Yes,Yes,453,24.17,18.7,183,77
160237000423,ID-372-0806,1602370,ID-372,PK,5,NEW PLYMOUTH ELEMENTARY,NEW PLYMOUTH DISTRICT,Payette County,704 SOUTH PLYMOUTH AVENUE,NEW PLYMOUTH,ID,83655,3062,(208)278-5333,42,Rural: Distant,No,No,Yes,Yes,452,20,22.6,173,58
160237000736,ID-372-0164,1602370,ID-372,9,12,NEW PLYMOUTH HIGH SCHOOL,NEW PLYMOUTH DISTRICT,Payette County,207 PLYMOUTH AVENUE,NEW PLYMOUTH,ID,83655,5564,(208)278-5311,42,Rural: Distant,No,No,Yes,Yes,308,17.07,18,77,22
160237000580,ID-372-0986,1602370,ID-372,6,8,NEW PLYMOUTH MIDDLE SCHOOL,NEW PLYMOUTH DISTRICT,Payette County,4400 SOUTHWEST 2ND AVENUE,NEW PLYMOUTH,ID,83655,5599,(208)278-5788,42,Rural: Distant,No,No,Yes,Yes,240,12.56,19.1,82,32
160267000705,ID-273-1084,1602670,ID-273,9,12,NEW VISION HIGH SCHOOL,POST FALLS DISTRICT,Kootenai County,PO BOX 40,POST FALLS,ID,83877,40,(208)773-3541,23,Suburb: Small,No,No,Yes,Yes,141,6.4,22,54,10
160240000848,ID-302-0272,1602400,ID-302,PK,12,NEZPERCE SCHOOL,NEZPERCE JOINT DISTRICT,Lewis County,PO BOX 279,NEZPERCE,ID,83543,279,(208)937-2551,43,Rural: Remote,No,No,Yes,Yes,144,16.08,9,43,16
160225000402,ID-193-0495,1602250,ID-193,PK,4,NORTH ELEMENTARY SCHOOL,MOUNTAIN HOME DISTRICT,Elmore County,290 EAST 12TH NORTH STREET,MOUNTAIN HOME,ID,83647,1623,(208)587-2585,32,Town: Distant,No,No,Yes,Yes,363,18.99,19.1,135,29
160111000203,ID-215-0100,1601110,ID-215,6,12,NORTH FREMONT JR/SR HIGH SCHOOL,FREMONT COUNTY JOINT DISTRICT,Fremont County,3581 EAST 1300 NORTH,ASHTON,ID,83420,5024,(208)652-7468,43,Rural: Remote,No,No,–,–,343,19.08,18,78,40
160243000427,ID-149-0464,1602430,ID-149,PK,6,NORTH GEM ELEMENTARY,NORTH GEM DISTRICT,Caribou County,PO BOX 70,BANCROFT,ID,83217,70,(208)648-7848,43,Rural: Remote,No,No,Yes,Yes,81,6.35,12.8,23,11
160243000428,ID-149-0077,1602430,ID-149,7,12,NORTH GEM HIGH SCHOOL,NORTH GEM DISTRICT,Caribou County,PO BOX 70,BANCROFT,ID,83217,70,(208)648-7848,43,Rural: Remote,No,No,–,–,52,6.9,7.5,11,8
160243001099,ID-149-1401,1602430,ID-149,6,8,NORTH GEM MIDDLE SCHOOL,NORTH GEM DISTRICT,Caribou County,PO BOX 70,BANCROFT,ID,83217,70,(208)648-7848,43,Rural: Remote,No,No,Yes,Yes,38,2.95,12.9,11,6
160016001020,ID-480-1342,1600160,ID-480,KG,12,NORTH IDAHO STEM CHARTER ACADEMY,NORTH IDAHO STEM CHARTER ACADEMY INC.,Kootenai County,PO BOX 434,RATHDRUM,ID,83858,5129,(208)687-8002,41,Rural: Fringe,Yes,No,Yes,No,533,23.43,22.7,3,0
160036000069,ID-001-0004,1600360,ID-001,7,9,NORTH JUNIOR HIGH SCHOOL,BOISE INDEPENDENT DISTRICT,Ada County,1105 NORTH 13TH STREET,BOISE,ID,83702,4199,(208)854-5740,12,City: Midsize,No,No,–,–,979,51.74,18.9,145,28
160017400803,ID-493-1371,1600174,ID-493,KG,12,NORTH STAR CHARTER SCHOOL,NORTH STAR CHARTER SCHOOL INC.,Ada County,839 NORTH LINDER ROAD,EAGLE,ID,83616,4427,(208)939-9600,41,Rural: Fringe,Yes,No,–,–,987,45,21.9,3,0
160014300968,ID-465-0653,1600143,ID-465,KG,12,NORTH VALLEY ACADEMY,NORTH VALLEY ACADEMY INC.,Gooding County,906 MAIN STREET,GOODING,ID,83330,1625,(208)934-4522,33,Town: Remote,Yes,No,Yes,Yes,221,15.8,14,87,29
160000200621,ID-084-0410,1600002,ID-084,PK,6,NORTHSIDE ELEMENTARY SCHOOL,LAKE PEND OREILLE SCHOOL DISTRICT,Bonner County,7881 COLBURN-CULVER ROAD,SANDPOINT,ID,83864,4714,(208)263-2734,42,Rural: Distant,No,No,Yes,Yes,180,8.82,20.4,48,15
160078001089,ID-271-1396,1600780,ID-271,PK,5,NORTHWEST EXPEDITION ACADEMY,COEUR D'ALENE DISTRICT,Kootenai County,9650 NORTH GOVERNMENT WAY,HAYDEN,ID,83835,9690,(208)763-0800,23,Suburb: Small,No,No,Yes,Yes,318,14.2,22.4,122,34
160246000430,ID-135-0520,1602460,ID-135,PK,6,NOTUS ELEMENTARY SCHOOL,NOTUS DISTRICT,Canyon County,25257 NOTUS ROAD,CALDWELL,ID,83607,8736,(208)459-7442,41,Rural: Fringe,No,No,Yes,Yes,206,12,17.2,100,38
160246000431,ID-135-0234,1602460,ID-135,7,12,NOTUS JR/SR HIGH SCHOOL,NOTUS DISTRICT,Canyon County,25257 NOTUS ROAD,CALDWELL,ID,83607,8736,(208)459-4633,41,Rural: Fringe,No,No,Yes,Yes,219,17.28,12.7,91,24
160066000131,ID-151-0473,1600660,ID-151,PK,6,OAKLEY ELEMENTARY SCHOOL,CASSIA COUNTY JOINT DISTRICT,Cassia County,PO BOX 72,OAKLEY,ID,83346,72,(208)862-3203,43,Rural: Remote,No,No,Yes,Yes,198,10.52,18.8,83,18
160066000132,ID-151-0082,1600660,ID-151,7,12,OAKLEY JR/SR HIGH SCHOOL,CASSIA COUNTY JOINT DISTRICT,Cassia County,PO BOX 135,OAKLEY,ID,83346,135,(208)862-3328,43,Rural: Remote,No,No,Yes,Yes,223,16.25,13.7,57,19
160096000181,ID-201-0497,1600960,ID-201,3,5,OAKWOOD ELEMENTARY SCHOOL,PRESTON JOINT DISTRICT,Franklin County,525 SOUTH 4TH EAST,PRESTON,ID,83263,1603,(208)852-2233,32,Town: Distant,No,No,Yes,Yes,534,26,20.5,183,76
160102000190,ID-221-0710,1601020,ID-221,KG,6,OLA ELEMENTARY SCHOOL,EMMETT INDEPENDENT DISTRICT,Gem County,PO BOX 29,OLA,ID,83657,29,(208)584-3589,43,Rural: Remote,No,No,Yes,Yes,17,2,8.5,14,0
160249000856,ID-351-0580,1602490,ID-351,9,12,ONEIDA HIGH SCHOOL,ONEIDA COUNTY DISTRICT,Oneida County,300 W 450 N,MALAD CITY,ID,83252,1374,(208)766-2255,43,Rural: Remote,No,No,Yes,Yes,12,1.16,10.3,–,–
160186000327,ID-340-0790,1601860,ID-340,KG,6,ORCHARDS ELEMENTARY SCHOOL,LEWISTON INDEPENDENT DISTRICT,Nez Perce County,3429 12TH STREET,LEWISTON,ID,83501,5355,(208)748-3700,13,City: Small,No,No,Yes,Yes,316,18.51,17.1,117,34
160324000316,ID-411-0515,1603240,ID-411,PK,5,OREGON TRAIL ELEMENTARY SCHOOL,TWIN FALLS DISTRICT,Twin Falls County,660 PARK AVENUE,TWIN FALLS,ID,83301,7736,(208)733-8480,33,Town: Remote,No,No,Yes,Yes,620,31,20,371,72
160252000439,ID-171-0479,1602520,ID-171,PK,6,OROFINO ELEMENTARY SCHOOL,OROFINO JOINT DISTRICT,Clearwater County,PO BOX 2507,OROFINO,ID,83544,2507,(208)476-4212,32,Town: Distant,No,No,Yes,Yes,405,22.76,17.8,164,37
160252000440,ID-171-0088,1602520,ID-171,7,12,OROFINO HIGH SCHOOL,OROFINO JOINT DISTRICT,Clearwater County,300 DUNLAP ROAD,OROFINO,ID,83544,9024,(208)476-5557,32,Town: Distant,No,No,Yes,Yes,364,24.1,15.1,135,31
160234000774,ID-131-0527,1602340,ID-131,PK,5,OWYHEE ELEMENTARY SCHOOL,NAMPA SCHOOL DISTRICT,Canyon County,2300 WEST IOWA,NAMPA,ID,83686,8741,(208)468-4616,22,Suburb: Midsize,No,No,Yes,Yes,418,22.75,18.4,119,41
160036000070,ID-001-0313,1600360,ID-001,PK,6,OWYHEE ELEMENTARY SCHOOL,BOISE INDEPENDENT DISTRICT,Ada County,3434 PASADENA DRIVE,BOISE,ID,83705,4601,(208)854-5850,12,City: Midsize,No,No,Yes,Yes,220,14.56,15.1,119,10
160015100994,ID-472-1234,1600151,ID-472,KG,8,PALOUSE PRAIRIE CHARTER SCHOOL,PALOUSE PRAIRIE EDUCATIONAL ORGANIZATION INC.,Latah County,PO BOX 9511,MOSCOW,ID,83843,120,(208)669-0423,32,Town: Distant,Yes,No,Yes,No,182,12.21,14.9,34,7
160222000154,ID-281-0612,1602220,ID-281,8,12,PARADISE CREEK REGIONAL HIGH SCHOOL,MOSCOW DISTRICT,Latah County,1314 SOUTH MAIN,MOSCOW,ID,83843,4227,(208)882-3687,32,Town: Distant,No,No,Yes,Yes,12,2.76,4.3,7,0
160210000955,ID-002-1290,1602100,ID-002,PK,5,PARAMOUNT ELEMENTARY SCHOOL,JOINT SCHOOL DISTRICT NO. 2,Ada County,550 WEST PRODUCER DRIVER,MERIDIAN,ID,83646,5919,(208)350-4120,21,Suburb: Large,No,No,–,–,590,26.4,22.3,27,7
160024000019,ID-033-0372,1600240,ID-033,PK,5,PARIS ELEMENTARY SCHOOL,BEAR LAKE COUNTY DISTRICT,Bear Lake County,PO BOX 400,PARIS,ID,83261,400,(208)945-2113,43,Rural: Remote,No,No,Yes,Yes,176,7.8,22.6,56,21
160333000566,ID-431-0840,1603330,ID-431,4,5,PARK INTERMEDIATE SCHOOL,WEISER DISTRICT,Washington County,758 EAST PARK STREET,WEISER,ID,83672,2342,(208)414-2861,33,Town: Remote,No,No,Yes,Yes,213,12,17.8,91,22
160234000383,ID-131-0215,1602340,ID-131,PK,5,PARK RIDGE ELEMENTARY,NAMPA SCHOOL DISTRICT,Canyon County,3313 PARKRIDGE DRIVE,NAMPA,ID,83687,8881,(208)468-6622,22,Suburb: Midsize,No,No,Yes,Yes,294,16.47,17.9,115,39
160111000204,ID-215-0700,1601110,ID-215,PK,5,PARKER-EGIN ELEMENTARY SCHOOL,FREMONT COUNTY JOINT DISTRICT,Fremont County,221 NORTH CENTER PARKER,ST ANTHONY,ID,83445,5343,(208)624-7472,42,Rural: Distant,No,No,Yes,Yes,101,6.39,15.8,29,11
160255000451,ID-137-0072,1602550,ID-137,9,12,PARMA HIGH SCHOOL,PARMA DISTRICT,Canyon County,137 PANTHER WAY,PARMA,ID,83660,5652,(208)722-5115,42,Rural: Distant,No,No,Yes,Yes,333,20.33,16.4,103,34
160255000080,ID-137-0282,1602550,ID-137,5,8,PARMA MIDDLE SCHOOL,PARMA DISTRICT,Canyon County,905 EAST MCCONNELL STREET,PARMA,ID,83660,5613,(208)722-5115,42,Rural: Distant,No,No,Yes,Yes,354,18.16,19.5,136,43
160018301098,ID-497-1398,1600183,ID-497,9,12,PATHWAYS IN EDUCATION: NAMPA,PATHWAYS IN EDUCATION - NAMPA INC.,Canyon County,124 HOLLY STREET,NAMPA,ID,83686,5102,(208)505-4800,22,Suburb: Midsize,Yes,No,–,–,302,10,30.2,–,–
160210000931,ID-002-0594,1602100,ID-002,6,8,PATHWAYS MIDDLE SCHOOL,JOINT SCHOOL DISTRICT NO. 2,Ada County,1870 EAST HERITAGE PARK LANE,MERIDIAN,ID,83646,5064,(208)350-4040,21,Suburb: Large,No,No,Yes,Yes,157,13.5,11.6,45,5
160219000641,ID-331-0783,1602190,ID-331,PK,5,PAUL ELEMENTARY SCHOOL,MINIDOKA COUNTY JOINT DISTRICT,Minidoka County,PO BOX 780,PAUL,ID,83347,780,(208)438-2211,33,Town: Remote,No,No,Yes,Yes,518,22.5,23,252,99
160258000454,ID-371-0162,1602580,ID-371,9,12,PAYETTE HIGH SCHOOL,PAYETTE JOINT DISTRICT,Payette County,1500 6TH AVENUE SOUTH,PAYETTE,ID,83661,3300,(208)642-3327,32,Town: Distant,No,No,Yes,Yes,455,26.68,17.1,255,29
160203000584,ID-421-0236,1602030,ID-421,6,8,PAYETTE LAKES MIDDLE SCHOOL,MCCALL-DONNELLY JOINT SCHOOL DISTRICT,Valley County,111 SAMSON TRAIL,MCCALL,ID,83638,5187,(208)634-5994,43,Rural: Remote,No,No,Yes,No,323,18.5,17.5,71,31
160258000171,ID-371-0508,1602580,ID-371,PK,3,PAYETTE PRIMARY SCHOOL,PAYETTE JOINT DISTRICT,Payette County,1320 3RD AVENUE NORTH,PAYETTE,ID,83661,2466,(208)642-3379,32,Town: Distant,No,No,Yes,Yes,530,24.49,21.6,388,24
160102001009,ID-221-1249,1601020,ID-221,9,12,PAYETTE RIVER TECHNICAL ACADEMY,EMMETT INDEPENDENT DISTRICT,Gem County,721 WEST 12TH STREET,EMMETT,ID,83617,3827,(208)365-6321,32,Town: Distant,Yes,No,–,–,12,9.8,1.2,9,0
160017801101,ID-511-1412,1600178,ID-511,KG,8,PEACE VALLEY CHARTER SCHOOL,PEACE VALLEY CHARTER SCHOOL INC.,Ada County,1845 SOUTH FEDERAL WAY,BOISE,ID,83705,4261,(208)205-8818,12,City: Midsize,Yes,No,–,–,282,13.57,20.8,5,1
160252000442,ID-171-0482,1602520,ID-171,PK,6,PECK ELEMENTARY SCHOOL,OROFINO JOINT DISTRICT,Nez Perce County,PO BOX 48,PECK,ID,83545,48,(208)486-7331,42,Rural: Distant,No,No,Yes,Yes,21,1,21,13,3
160210000818,ID-002-0283,1602100,ID-002,PK,5,PEPPER RIDGE ELEMENTARY,JOINT SCHOOL DISTRICT NO. 2,Ada County,2252 SOUTH SUMPTER WAY,BOISE,ID,83709,8134,(208)855-4130,12,City: Midsize,No,No,–,–,597,26.5,22.5,87,30
160210000794,ID-002-0239,1602100,ID-002,PK,5,PEREGRINE ELEMENTARY SCHOOL,JOINT SCHOOL DISTRICT NO. 2,Ada County,1860 WALTMAN STREET,MERIDIAN,ID,83642,6133,(208)888-1384,21,Suburb: Large,No,No,Yes,Yes,548,30.9,17.7,204,54
160157001064,ID-251-1359,1601570,ID-251,3,5,PHILO T FARNSWORTH ELEMENTARY SCHOOL,JEFFERSON COUNTY JOINT DISTRICT,Jefferson County,305 N 3700 E,RIGBY,ID,83442,5455,(208)745-8347,41,Rural: Fringe,No,No,Yes,No,747,31.83,23.5,158,79
160036000071,ID-001-0310,1600360,ID-001,PK,6,PIERCE PARK ELEMENTARY SCHOOL,BOISE INDEPENDENT DISTRICT,Ada County,5015 NORTH PIERCE PARK LANE,BOISE,ID,83714,7736,(208)854-5880,12,City: Midsize,No,No,Yes,Yes,320,17.35,18.4,121,16
160324001075,ID-411-1381,1603240,ID-411,PK,5,PILLAR FALLS ELEMENTARY,TWIN FALLS DISTRICT,Twin Falls County,1550 HARRISON STREET SOUTH,TWIN FALLS,ID,83301,8727,(208)732-7570,41,Rural: Fringe,No,No,–,–,654,28.5,22.9,144,43
160225000266,ID-193-0517,1602250,ID-193,PK,8,PINE ELEM/JR HIGH SCHOOL,MOUNTAIN HOME DISTRICT,Elmore County,HC 87 BOX 190,PINE,ID,83647,9506,(208)653-2311,43,Rural: Remote,No,No,–,–,4,1,4,†,†
160165000294,ID-391-0811,1601650,ID-391,PK,5,PINEHURST ELEMENTARY SCHOOL,KELLOGG JOINT DISTRICT,Shoshone County,201 SOUTH 3 STREET,PINEHURST,ID,83850,99,(208)682-2193,41,Rural: Fringe,No,No,Yes,Yes,469,23,20.4,229,44
160096000709,ID-201-0499,1600960,ID-201,PK,2,PIONEER ELEMENTARY SCHOOL,PRESTON JOINT DISTRICT,Franklin County,515 SOUTH 4TH EAST,PRESTON,ID,83263,1603,(208)852-2050,32,Town: Distant,No,No,Yes,Yes,492,22,22.4,153,59
160333000567,ID-431-0839,1603330,ID-431,PK,3,PIONEER PRIMARY SCHOOL,WEISER DISTRICT,Washington County,624 PIONEER ROAD,WEISER,ID,83672,1556,(208)414-3131,33,Town: Remote,No,No,Yes,Yes,455,22,20.7,176,52
160210000010,ID-002-0507,1602100,ID-002,PK,5,PIONEER SCHOOL OF THE ARTS,JOINT SCHOOL DISTRICT NO. 2,Ada County,13255 WEST MCMILLIAN ROAD,BOISE,ID,83713,530,(208)855-4100,12,City: Midsize,No,Yes,–,–,709,31.31,22.6,86,27
160261000459,ID-364-0800,1602610,ID-364,PK,8,PLEASANT VALLEY ELEM/JR HIGH,PLEASANT VALLEY ELEMENTARY DISTRICT,Owyhee County,PO BOX 119,JORDAN VALLEY,OR,97910,119,(208)583-2420,43,Rural: Remote,No,No,–,–,6,2,3,†,†
160210001123,ID-002-1438,1602100,ID-002,–,–,PLEASANT VIEW ELEMENTARY,JOINT SCHOOL DISTRICT NO. 2,†,1303 EAST CENTRAL DRIVE,MERIDIAN,ID,83642,,(208)332-6800,†,N,No,†,†,†,†,†,†,†,†
160017600760,ID-494-0623,1600176,ID-494,PK,8,POCATELLO COMMUNITY CHARTER,THE POCATELLO COMMUNITY CHARTER SCHOOL INC.,Bannock County,995 SOUTH ARTHUR STREET,POCATELLO,ID,83204,3400,(208)478-2522,13,City: Small,Yes,No,Yes,Yes,345,15,23,–,–
160264000478,ID-025-0024,1602640,ID-025,9,12,POCATELLO HIGH SCHOOL,POCATELLO DISTRICT,Bannock County,325 NORTH ARTHUR AVENUE,POCATELLO,ID,83204,3101,(208)233-2056,13,City: Small,No,No,Yes,Yes,1019,53.82,18.9,477,0
160264000186,ID-025-9034,1602640,ID-025,1,12,POCATELLO JUVENILE DETENTION,POCATELLO DISTRICT,Bannock County,PO BOX 4926,POCATELLO,ID,83205,4926,(208)234-1080,13,City: Small,No,No,–,–,21,1,21,6,2
160267000487,ID-273-0748,1602670,ID-273,PK,5,PONDEROSA ELEMENTARY SCHOOL,POST FALLS DISTRICT,Kootenai County,PO BOX 40,POST FALLS,ID,83877,40,(208)773-1508,23,Suburb: Small,No,No,Yes,Yes,452,19.5,23.2,176,41
160210000770,ID-002-0504,1602100,ID-002,PK,5,PONDEROSA ELEMENTARY SCHOOL,JOINT SCHOOL DISTRICT NO. 2,Ada County,2950 NORTH NAOMI,MERIDIAN,ID,83642,3936,(208)855-4040,21,Suburb: Large,No,No,–,–,662,27.09,24.4,120,54
160048000101,ID-412-0830,1600480,ID-412,PK,5,POPPLEWELL ELEMENTARY SCHOOL,BUHL JOINT DISTRICT,Twin Falls County,200 NORTH 6TH AVENUE,BUHL,ID,83316,1248,(208)543-8225,41,Rural: Fringe,No,No,Yes,Yes,612,29,21.1,403,75
160267000488,ID-273-0126,1602670,ID-273,9,12,POST FALLS HIGH SCHOOL,POST FALLS DISTRICT,Kootenai County,PO BOX 40,POST FALLS,ID,83877,40,(208)773-0581,23,Suburb: Small,No,No,–,–,1600,68,23.5,349,122
160267000489,ID-273-0125,1602670,ID-273,6,8,POST FALLS MIDDLE SCHOOL,POST FALLS DISTRICT,Kootenai County,PO BOX 40,POST FALLS,ID,83877,40,(208)773-7554,23,Suburb: Small,No,No,Yes,Yes,787,42.66,18.4,235,60
160270000494,ID-285-0762,1602700,ID-285,PK,6,POTLATCH ELEMENTARY SCHOOL,POTLATCH DISTRICT,Latah County,130 6TH STREET,POTLATCH,ID,83855,8757,(208)875-1331,43,Rural: Remote,No,No,Yes,Yes,253,16.82,15,65,28
160270000495,ID-285-0135,1602700,ID-285,7,12,POTLATCH JR/SR HIGH SCHOOL,POTLATCH DISTRICT,Latah County,130 6TH STREET,POTLATCH,ID,83855,8757,(208)875-1231,43,Rural: Remote,No,No,Yes,No,212,14.18,15,56,18
160273000496,ID-191-0491,1602730,ID-191,KG,8,PRAIRIE ELEM/JR HIGH SCHOOL,PRAIRIE ELEMENTARY DISTRICT,Elmore County,73 SMITH CREEK ROAD,PRAIRIE,ID,83647,8441,(208)868-3229,43,Rural: Remote,No,No,–,–,1,0.96,1,†,†
160081000160,ID-242-0722,1600810,ID-242,PK,6,PRAIRIE ELEMENTARY SCHOOL,COTTONWOOD JOINT DISTRICT,Idaho County,PO BOX 570,COTTONWOOD,ID,83522,570,(208)962-3122,43,Rural: Remote,No,No,Yes,Yes,204,14.86,13.7,45,25
160081000161,ID-242-0111,1600810,ID-242,7,12,PRAIRIE JR/SR HIGH SCHOOL,COTTONWOOD JOINT DISTRICT,Idaho County,PO BOX 540,COTTONWOOD,ID,83522,540,(208)962-3901,43,Rural: Remote,No,No,Yes,No,175,14.14,12.4,39,22
160267000209,ID-273-0736,1602670,ID-273,1,5,PRAIRIE VIEW ELEMENTARY,POST FALLS DISTRICT,Kootenai County,PO BOX 40,POST FALLS,ID,83877,40,(208)773-8327,23,Suburb: Small,No,No,Yes,Yes,453,23,19.7,145,70
160219001033,ID-331-1262,1602190,ID-331,PK,PK,PRESCHOOL CENTER,MINIDOKA COUNTY JOINT DISTRICT,Minidoka County,310 10TH STREET,RUPERT,ID,83350,,(208)332-6800,33,Town: Remote,No,No,–,–,73,3,24.3,–,–
160096000182,ID-201-0096,1600960,ID-201,9,12,PRESTON HIGH SCHOOL,PRESTON JOINT DISTRICT,Franklin County,151 EAST 2ND SOUTH,PRESTON,ID,83263,1526,(208)852-0280,32,Town: Distant,No,No,–,–,780,32.4,24.1,161,60
160096000612,ID-201-0291,1600960,ID-201,6,8,PRESTON JR HIGH SCHOOL,PRESTON JOINT DISTRICT,Franklin County,450 EAST VALLEY VIEW DRIVE,PRESTON,ID,83263,1556,(208)852-0751,32,Town: Distant,No,No,Yes,Yes,580,29.27,19.8,167,69
160000100620,ID-083-0406,1600001,ID-083,PK,6,PRIEST LAKE ELEMENTARY SCHOOL,WEST BONNER COUNTY DISTRICT,Bonner County,27732 HIGHWAY 57,PRIEST LAKE,ID,83856,9494,(208)443-2555,43,Rural: Remote,No,No,Yes,Yes,46,3.85,11.9,12,6
160000100619,ID-083-0407,1600001,ID-083,PK,6,PRIEST RIVER ELEMENTARY SCHOOL,WEST BONNER COUNTY DISTRICT,Bonner County,231 HARRIET STREET,PRIEST RIVER,ID,83856,6568,(208)448-1181,42,Rural: Distant,No,No,Yes,Yes,382,21.79,17.5,164,60
160000100085,ID-083-0044,1600001,ID-083,7,8,PRIEST RIVER JR HIGH SCHOOL,WEST BONNER COUNTY DISTRICT,Bonner County,5709 HIGHWAY 2,PRIEST RIVER,ID,83856,6076,(208)448-1118,42,Rural: Distant,No,No,Yes,Yes,147,10.3,14.3,58,17
160000100084,ID-083-0048,1600001,ID-083,9,12,PRIEST RIVER LAMANNA HIGH,WEST BONNER COUNTY DISTRICT,Bonner County,596 HIGHWAY 57,PRIEST RIVER,ID,83856,6529,(208)448-1211,42,Rural: Distant,No,No,Yes,Yes,292,22.62,12.9,79,29
160018201102,ID-513-1413,1600182,ID-513,KG,10,PROJECT IMPACT STEM ACADEMY,PROJECT IMPACT STEM ACADEMY INC.,Ada County,1577 NORTH LINDER ROAD MB162,KUNA,ID,83634,1217,(208)576-4811,31,Town: Fringe,Yes,No,Yes,Yes,234,11.5,20.3,3,0
160210000902,ID-002-0593,1602100,ID-002,PK,5,PROSPECT ELEMENTARY SCHOOL,JOINT SCHOOL DISTRICT NO. 2,Ada County,4300 NORTH RED HORSE WAY,MERIDIAN,ID,83646,6300,(208)350-4000,21,Suburb: Large,No,No,–,–,737,35,21.1,118,32
160213000812,ID-134-0546,1602130,ID-134,PK,5,PURPLE SAGE ELEMENTARY,MIDDLETON DISTRICT,Canyon County,25709 EL PASO ROAD,CALDWELL,ID,83607,7651,(208)455-1148,41,Rural: Fringe,No,No,Yes,Yes,507,24,21.1,138,24
160066000129,ID-151-0471,1600660,ID-151,PK,6,RAFT RIVER ELEMENTARY SCHOOL,CASSIA COUNTY JOINT DISTRICT,Cassia County,PO BOX 615,MALTA,ID,83342,615,(208)645-2561,43,Rural: Remote,No,No,Yes,Yes,203,10.65,19.1,72,25
160066000134,ID-151-0083,1600660,ID-151,7,12,RAFT RIVER JR/SR HIGH SCHOOL,CASSIA COUNTY JOINT DISTRICT,Cassia County,PO BOX 68,MALTA,ID,83342,68,(208)645-2220,43,Rural: Remote,No,No,Yes,Yes,167,15.1,11.1,42,15
160078000155,ID-271-0738,1600780,ID-271,PK,5,RAMSEY MAGNET SCHOOL OF SCIENCE,COEUR D'ALENE DISTRICT,Kootenai County,WEST 1351 KATHLEEN AVENUE,COEUR D'ALENE,ID,83815,8339,(208)765-2010,13,City: Small,No,Yes,Yes,Yes,722,32,22.6,182,79
160234000775,ID-131-0528,1602340,ID-131,PK,5,REAGAN ELEMENTARY SCHOOL,NAMPA SCHOOL DISTRICT,Canyon County,3400 SOUTHSIDE BOULEVARD,NAMPA,ID,83686,1310,(208)468-4619,22,Suburb: Midsize,No,No,Yes,Yes,479,25.25,19,149,56
160210001025,ID-002-1297,1602100,ID-002,6,12,REBOUND SCHOOL OF OPPORTUNITY,JOINT SCHOOL DISTRICT NO. 2,Ada County,1450 EAST WATERTOWER STREET S110,MERIDIAN,ID,83642,4683,(208)350-5233,21,Suburb: Large,No,No,Yes,Yes,143,1.5,95.3,0,3
160177000904,ID-003-0595,1601770,ID-003,PK,5,REED ELEMENTARY SCHOOL,KUNA JOINT DISTRICT,Ada County,1670 NORTH LINDER ROAD,KUNA,ID,83634,3032,(208)955-0275,31,Town: Fringe,No,No,Yes,Yes,587,27.21,21.6,212,60
160186000170,ID-340-1266,1601860,ID-340,3,12,REGION 2 JUVENILE DETENTION CENTER,LEWISTON INDEPENDENT DISTRICT,Nez Perce County,3317 12TH STREET,LEWISTON,ID,83501,5308,(208)748-3000,13,City: Small,No,No,–,–,15,1,15,–,–
160210001000,ID-002-1235,1602100,ID-002,9,12,RENAISSANCE HIGH SCHOOL,JOINT SCHOOL DISTRICT NO. 2,Ada County,1307 EAST CENTRAL DRIVE,MERIDIAN,ID,83642,7991,(208)350-4380,21,Suburb: Large,No,Yes,–,–,742,44.43,16.7,81,18
160318001022,ID-401-1236,1603180,ID-401,4,5,RENDEZVOUS UPPER ELEMENTARY SCHOOL,TETON COUNTY DISTRICT,Teton County,211 HOWARD AVENUE,DRIGGS,ID,83422,5153,(208)354-8280,43,Rural: Remote,No,No,Yes,Yes,293,13.75,21.3,67,38
160000501087,ID-453-1387,1600005,ID-453,KG,7,RICHARD MCKENNA CHARTER SCHOOL - MONTESSORI,IDAHO VIRTUAL HIGH SCHOOL INC.,Elmore County,1305 EAST 8TH NORTH,MOUNTAIN HOME,ID,83647,2337,(208)250-2347,32,Town: Distant,Yes,No,Yes,No,98,4.5,21.8,3,0
160000500862,ID-453-0870,1600005,ID-453,9,12,RICHARD MCKENNA CHARTER SCHOOL - ONLINE,IDAHO VIRTUAL HIGH SCHOOL INC.,Elmore County,675 SOUTH HASKETT STREET,MOUNTAIN HOME,ID,83647,3375,(208)580-2449,32,Town: Distant,Yes,No,Yes,No,133,5.47,24.3,4,1
160000501056,ID-453-0871,1600005,ID-453,9,12,RICHARD MCKENNA CHARTER SCHOOL - ONLINE ALTERNATIVE,IDAHO VIRTUAL HIGH SCHOOL INC.,Elmore County,675 SOUTH HASKETT STREET,MOUNTAIN HOME,ID,83647,3375,(208)580-2449,32,Town: Distant,Yes,No,Yes,No,208,5.45,38.2,3,0
160000501108,ID-453-1399,1600005,ID-453,9,12,RICHARD MCKENNA CHARTER SCHOOL - ONSITE,IDAHO VIRTUAL HIGH SCHOOL INC.,Elmore County,675 SOUTH HASKETT STREET,MOUNTAIN HOME,ID,83647,3375,(208)580-2449,32,Town: Distant,Yes,No,Yes,No,34,4.25,8,–,–
160276000497,ID-316-0144,1602760,ID-316,PK,12,RICHFIELD SCHOOL,RICHFIELD DISTRICT,Lincoln County,555 NORTH TIGER DRIVE,RICHFIELD,ID,83349,5517,(208)487-2790,43,Rural: Remote,No,No,Yes,Yes,191,17,11.2,92,19
160027000025,ID-055-0384,1600270,ID-055,PK,5,RIDGE CREST ELEMENTARY SCHOOL,BLACKFOOT DISTRICT,Bingham County,800 AIRPORT ROAD,BLACKFOOT,ID,83221,1544,(208)785-8894,32,Town: Distant,No,No,Yes,Yes,379,18,21.1,147,56
160060001078,ID-139-1380,1600600,ID-139,9,12,RIDGEVUE HIGH SCHOOL,VALLIVUE SCHOOL DISTRICT,Canyon County,18800 MADISON ROAD,NAMPA,ID,83687,8040,(208)453-4480,41,Rural: Fringe,No,No,Yes,Yes,1286,63.5,20.3,408,123
160157000277,ID-251-0114,1601570,ID-251,9,12,RIGBY HIGH SCHOOL,JEFFERSON COUNTY JOINT DISTRICT,Jefferson County,3833 EAST RIGBY HIGH LANE,RIGBY,ID,83442,4716,(208)745-3500,41,Rural: Fringe,No,No,–,–,1600,81.75,19.6,266,152
160157001061,ID-251-1358,1601570,ID-251,6,8,RIGBY MIDDLE SCHOOL,JEFFERSON COUNTY JOINT DISTRICT,Jefferson County,305 N 3700 E,RIGBY,ID,83442,5457,(208)745-7704,41,Rural: Fringe,No,No,Yes,Yes,1470,74.27,19.8,369,168
160013800959,ID-243-1280,1600138,ID-243,PK,5,RIGGINS ELEMENTARY SCHOOL,SALMON RIVER JOINT SCHOOL DISTRICT,Idaho County,PO BOX 872,RIGGINS,ID,83549,290,(208)630-6026,43,Rural: Remote,No,No,Yes,Yes,62,6,10.3,25,5
160093000909,ID-093-1255,1600930,ID-093,PK,6,RIMROCK ELEMENTARY,BONNEVILLE JOINT DISTRICT,Bonneville County,4855 BRENNAN BEND,AMMON,ID,83406,6061,(208)525-4400,41,Rural: Fringe,No,No,–,–,471,19.5,24.2,33,20
160045000100,ID-365-0158,1600450,ID-365,6,12,RIMROCK JR/SR HIGH SCHOOL,BRUNEAU-GRAND VIEW JOINT SCHOOL DISTRICT,Owyhee County,39678 STATE HIGHWAY 78,BRUNEAU,ID,83604,5131,(208)834-2260,42,Rural: Distant,No,No,Yes,Yes,170,13.18,12.9,74,17
160279000435,ID-252-0229,1602790,ID-252,PK,6,RIRIE ELEMENTARY SCHOOL,RIRIE JOINT DISTRICT,Jefferson County,PO BOX 528,RIRIE,ID,83443,528,(208)538-5175,42,Rural: Distant,No,No,Yes,Yes,366,17.87,20.5,155,0
160279000429,ID-252-0228,1602790,ID-252,7,12,RIRIE JR/SR HIGH SCHOOL,RIRIE JOINT DISTRICT,Jefferson County,PO BOX 568,RIRIE,ID,83443,568,(208)538-5175,42,Rural: Distant,No,No,Yes,Yes,335,22.93,14.6,129,0
160267000844,ID-273-0268,1602670,ID-273,6,8,RIVER CITY MIDDLE SCHOOL,POST FALLS DISTRICT,Kootenai County,PO BOX 40,POST FALLS,ID,83877,40,(208)457-0933,23,Suburb: Small,No,No,Yes,Yes,655,32.49,20.2,178,72
160210000793,ID-002-0240,1602100,ID-002,PK,5,RIVER VALLEY ELEMENTARY SCHOOL,JOINT SCHOOL DISTRICT NO. 2,Ada County,2900 EAST RIVER VALLEY STREET,MERIDIAN,ID,83646,2393,(208)884-1741,21,Suburb: Large,No,No,–,–,497,25.5,19.5,112,24
160036000632,ID-001-0242,1600360,ID-001,7,9,RIVERGLEN JR HIGH SCHOOL,BOISE INDEPENDENT DISTRICT,Ada County,6801 NORTH GARY LANE,BOISE,ID,83714,2444,(208)854-5910,12,City: Midsize,No,No,Yes,No,572,36.66,15.6,137,43
160036000004,ID-001-0509,1600360,ID-001,PK,6,RIVERSIDE ELEMENTARY SCHOOL,BOISE INDEPENDENT DISTRICT,Ada County,2100 EAST VICTORY,BOISE,ID,83706,5024,(208)854-5980,12,City: Midsize,No,No,–,–,721,32.9,21.9,50,12
160297000518,ID-052-0376,1602970,ID-052,2,3,RIVERSIDE ELEMENTARY SCHOOL,SNAKE RIVER DISTRICT,Bingham County,16 S 700 W,BLACKFOOT,ID,83221,6127,(208)684-5102,32,Town: Distant,No,No,Yes,Yes,270,13,20.8,80,34
160291001012,ID-060-1251,1602910,ID-060,3,4,RIVERVIEW ELEMENTARY SCHOOL,SHELLEY JOINT DISTRICT,Bingham County,1463 N 800 E,SHELLEY,ID,83274,5014,(208)357-5625,41,Rural: Fringe,No,No,Yes,Yes,406,18,22.6,142,65
160060001016,ID-139-1295,1600600,ID-139,6,8,RIVERVUE MIDDLE SCHOOL,VALLIVUE SCHOOL DISTRICT,Canyon County,21985 DIXIE RIVER ROAD,CALDWELL,ID,83607,9027,(208)454-8899,41,Rural: Fringe,No,No,Yes,Yes,61,6,10.2,45,3
160001700921,ID-671-0534,1600017,ID-671,9,12,Robert Janss School,IDAHO DEPARTMENT OF CORRECTIONS,Ada County,1299 NORTH ORCHARD STREET,BOISE,ID,83706,2266,(208)658-2000,12,City: Midsize,No,No,†,†,0,–,†,–,–
160324000553,ID-411-0176,1603240,ID-411,6,8,ROBERT STUART MIDDLE SCHOOL,TWIN FALLS DISTRICT,Twin Falls County,644 CASWELL AVENUE WEST,TWIN FALLS,ID,83301,3707,(208)733-4875,33,Town: Remote,No,No,Yes,Yes,719,36.65,19.6,262,78
160157000278,ID-251-0726,1601570,ID-251,PK,5,ROBERTS ELEMENTARY SCHOOL,JEFFERSON COUNTY JOINT DISTRICT,Jefferson County,682 N 2858 E,ROBERTS,ID,83444,5077,(208)228-3111,42,Rural: Distant,No,No,Yes,Yes,154,8.25,18.7,80,18
160324001076,ID-411-1382,1603240,ID-411,KG,5,ROCK CREEK ELEMENTARY,TWIN FALLS DISTRICT,Twin Falls County,850 FEDERATION ROAD,TWIN FALLS,ID,83301,4339,(208)732-7565,41,Rural: Fringe,No,No,–,–,664,28,23.7,150,49
160297000519,ID-052-0378,1602970,ID-052,4,4,ROCKFORD ELEMENTARY SCHOOL,SNAKE RIVER DISTRICT,Bingham County,1152 WEST HIGHWAY 39,BLACKFOOT,ID,83221,5101,(208)684-4451,42,Rural: Distant,No,No,Yes,Yes,135,8,16.9,30,14
160282000501,ID-382-0169,1602820,ID-382,PK,12,ROCKLAND PUBLIC SCHOOL,ROCKLAND DISTRICT,Power County,PO BOX 119,ROCKLAND,ID,83271,119,(208)548-2221,43,Rural: Remote,No,No,Yes,Yes,178,16.99,10.5,48,24
160210000985,ID-002-0898,1602100,ID-002,9,12,ROCKY MOUNTAIN HIGH SCHOOL,JOINT SCHOOL DISTRICT NO. 2,Ada County,5450 NORTH LINDER ROAD,MERIDIAN,ID,83642,6106,(208)350-4340,21,Suburb: Large,No,No,–,–,2417,100.94,23.9,178,66
160093000168,ID-093-0219,1600930,ID-093,7,8,ROCKY MOUNTAIN MIDDLE SCHOOL,BONNEVILLE JOINT DISTRICT,Bonneville County,3443 NORTH AMMON ROAD,IDAHO FALLS,ID,83401,1301,(208)525-4403,23,Suburb: Small,No,No,Yes,Yes,1048,51.57,20.3,309,123
160000600863,ID-454-0574,1600006,ID-454,KG,8,ROLLING HILLS PUBLIC CHARTER,ROLLING HILLS PUBLIC CHARTER SCHOOL INC.,Ada County,8900 HORSESHOE BEND ROAD,BOISE,ID,83714,3859,(208)939-5400,12,City: Midsize,Yes,No,Yes,Yes,251,15.26,16.4,50,12
160036000072,ID-001-0309,1600360,ID-001,PK,6,ROOSEVELT ELEMENTARY SCHOOL,BOISE INDEPENDENT DISTRICT,Ada County,908 EAST JEFFERSON STREET,BOISE,ID,83712,7903,(208)854-6030,12,City: Midsize,No,No,–,–,323,16.2,19.9,41,8
160234000773,ID-131-0529,1602340,ID-131,PK,5,ROOSEVELT ELEMENTARY SCHOOL,NAMPA SCHOOL DISTRICT,Canyon County,1901 WEST ROOSEVELT,NAMPA,ID,83686,8109,(208)468-4620,22,Suburb: Midsize,No,No,Yes,Yes,474,22,21.5,179,50
160177000915,ID-003-0635,1601770,ID-003,4,5,ROSS ELEMENTARY SCHOOL,KUNA JOINT DISTRICT,Ada County,610 NORTH SCHOOL AVENUE,KUNA,ID,83634,1807,(208)922-1011,31,Town: Fringe,No,No,Yes,No,292,10.62,27.5,99,23
160264000659,ID-025-0358,1602640,ID-025,PK,5,RULON M ELLIS ELEMENTARY SCHOOL,POCATELLO DISTRICT,Bannock County,11888 NORTH WHITAKER ROAD,CHUBBUCK,ID,83202,5126,(208)237-4742,23,Suburb: Small,No,No,Yes,Yes,411,20.38,20.2,230,0
160219000666,ID-331-0845,1602190,ID-331,PK,5,RUPERT ELEMENTARY SCHOOL,MINIDOKA COUNTY JOINT DISTRICT,Minidoka County,202 18TH STREET,RUPERT,ID,83350,1178,(208)436-9707,33,Town: Remote,No,No,Yes,Yes,668,31.44,21.2,385,74
160051000731,ID-132-0457,1600510,ID-132,PK,5,SACAJAWEA ELEMENTARY SCHOOL,CALDWELL DISTRICT,Canyon County,1710 NORTH ILLINOIS,CALDWELL,ID,83605,2110,(208)455-3333,22,Suburb: Midsize,No,No,Yes,Yes,488,25,19.5,413,33
160186000328,ID-340-0151,1601860,ID-340,7,9,SACAJAWEA JUNIOR HIGH SCHOOL,LEWISTON INDEPENDENT DISTRICT,Nez Perce County,3610 12TH STREET,LEWISTON,ID,83501,5513,(208)748-3400,13,City: Small,No,No,–,–,566,33.49,16.9,113,37
160015601007,ID-475-1248,1600156,ID-475,KG,12,SAGE INTERNATIONAL SCHOOL OF BOISE,THE SAGE INTERNATIONAL SCHOOL OF BOISE A PUBLIC CHARTER SCH,Ada County,1513 TYRELL LANE SUITE #110,BOISE,ID,83706,4255,(208)343-7243,12,City: Midsize,Yes,No,Yes,No,997,60.57,16.5,–,–
160060000838,ID-139-0582,1600600,ID-139,6,8,SAGE VALLEY MIDDLE SCHOOL,VALLIVUE SCHOOL DISTRICT,Canyon County,18070 SANTA ANA AVENUE,CALDWELL,ID,83687,9998,(208)468-4919,41,Rural: Fringe,No,No,Yes,Yes,1226,54.5,22.5,473,119
160000200618,ID-084-0402,1600002,ID-084,PK,6,SAGLE ELEMENTARY SCHOOL,LAKE PEND OREILLE SCHOOL DISTRICT,Bonner County,550 SAGLE ROAD,SAGLE,ID,83860,9625,(208)263-2757,41,Rural: Fringe,No,No,Yes,Yes,278,13.95,19.9,94,16
160285000700,ID-291-9014,1602850,ID-291,9,12,SALMON ALTERNATIVE HIGH SCHOOL,SALMON DISTRICT,Lemhi County,124 BEAN LANE,SALMON,ID,83467,5046,(208)756-6277,41,Rural: Fringe,No,No,–,–,7,0.72,9.7,†,†
160285000504,ID-291-0136,1602850,ID-291,6,12,SALMON JR/SR HIGH SCHOOL,SALMON DISTRICT,Lemhi County,401 SOUTH WARPATH DRIVE,SALMON,ID,83467,790,(208)756-2415,33,Town: Remote,No,No,Yes,Yes,470,24.31,19.3,150,25
160285000750,ID-291-1153,1602850,ID-291,1,12,SALMON JUVENILE DETENTION CENTER,SALMON DISTRICT,Lemhi County,206 COURTHOUSE DRIVE,SALMON,ID,83467,3900,(208)756-4201,33,Town: Remote,No,No,†,†,0,0,†,–,–
160285000503,ID-291-0764,1602850,ID-291,PK,5,SALMON PIONEER PRIMARY SCHOOL,SALMON DISTRICT,Lemhi County,PO BOX 790,SALMON,ID,83467,790,(208)756-3663,33,Town: Remote,No,No,Yes,Yes,343,19.22,17.8,151,25
160013800944,ID-243-1281,1600138,ID-243,6,12,SALMON RIVER JR/SR HIGH SCHOOL,SALMON RIVER JOINT SCHOOL DISTRICT,Idaho County,PO BOX 872,RIGGINS,ID,83549,872,(208)628-3431,43,Rural: Remote,No,No,Yes,Yes,65,7.78,8.4,17,8
160093000651,ID-093-0055,1600930,ID-093,7,8,SANDCREEK MIDDLE SCHOOL,BONNEVILLE JOINT DISTRICT,Bonneville County,2955 OWEN STREET,IDAHO FALLS,ID,83406,7614,(208)525-4416,23,Suburb: Small,No,No,–,–,903,45,20.1,187,66
160000200087,ID-084-0202,1600002,ID-084,7,12,SANDPOINT HIGH SCHOOL,LAKE PEND OREILLE SCHOOL DISTRICT,Bonner County,410 SOUTH DIVISION STREET,SANDPOINT,ID,83864,1777,(208)263-3034,32,Town: Distant,No,No,–,–,999,57.33,17.4,163,32
160000200604,ID-084-0997,1600002,ID-084,5,12,SANDPOINT JUVENILE DETENTION,LAKE PEND OREILLE SCHOOL DISTRICT,Bonner County,4105 NORTH BOYER AVENUE,SANDPOINT,ID,83864,7450,(208)263-4213,32,Town: Distant,No,No,–,–,17,0.86,19.8,3,0
160000200724,ID-084-0047,1600002,ID-084,7,8,SANDPOINT MIDDLE SCHOOL,LAKE PEND OREILLE SCHOOL DISTRICT,Bonner County,310 SOUTH DIVISION STREET,SANDPOINT,ID,83864,1768,(208)265-4169,32,Town: Distant,No,No,Yes,No,513,25.62,20,129,34
160324000554,ID-411-0826,1603240,ID-411,PK,5,SAWTOOTH ELEMENTARY SCHOOL,TWIN FALLS DISTRICT,Twin Falls County,1771 STADIUM BOULEVARD,TWIN FALLS,ID,83301,4248,(208)733-8454,33,Town: Remote,No,No,Yes,Yes,538,26.5,20.3,128,61
160210000819,ID-002-0284,1602100,ID-002,6,8,SAWTOOTH MIDDLE SCHOOL,JOINT SCHOOL DISTRICT NO. 2,Ada County,3730 NORTH LINDER ROAD,MERIDIAN,ID,83646,5416,(208)855-4200,21,Suburb: Large,No,No,–,–,1060,46,23,121,37
160267000490,ID-273-0749,1602670,ID-273,PK,5,SELTICE ELEMENTARY SCHOOL,POST FALLS DISTRICT,Kootenai County,PO BOX 40,POST FALLS,ID,83877,40,(208)773-1681,23,Suburb: Small,No,No,Yes,Yes,339,17,19.9,117,23
160210000601,ID-002-0526,1602100,ID-002,PK,5,SEVEN OAKS ELEMENTARY,JOINT SCHOOL DISTRICT NO. 2,Ada County,1441 SOUTH SEVENOAKS WAY,EAGLE,ID,83616,6615,(208)350-4095,21,Suburb: Large,No,No,–,–,455,23.84,19.1,51,7
160102000798,ID-221-0251,1601020,ID-221,KG,5,SHADOW BUTTE ELEMENTARY SCHOOL,EMMETT INDEPENDENT DISTRICT,Gem County,3900 WEST IDAHO BOULEVARD,EMMETT,ID,83617,8924,(208)365-0877,41,Rural: Fringe,No,No,Yes,Yes,525,23.68,22.2,246,0
160036000591,ID-001-0288,1600360,ID-001,PK,6,SHADOW HILLS ELEMENTARY,BOISE INDEPENDENT DISTRICT,Ada County,8301 WEST SLOAN STREET,BOISE,ID,83714,2189,(208)854-6060,12,City: Midsize,No,No,–,–,562,29.2,19.2,128,36
160291000510,ID-060-0035,1602910,ID-060,9,12,SHELLEY SENIOR HIGH SCHOOL,SHELLEY JOINT DISTRICT,Bingham County,570 WEST FIR STREET,SHELLEY,ID,83274,1449,(208)357-7400,31,Town: Fringe,No,No,Yes,Yes,660,34.68,19,148,79
160234000379,ID-131-0214,1602340,ID-131,PK,5,SHERMAN ELEMENTARY,NAMPA SCHOOL DISTRICT,Canyon County,1521 EAST SHERMAN AVENUE,NAMPA,ID,83686,5445,(208)468-4628,22,Suburb: Midsize,No,No,Yes,Yes,440,25.98,16.9,349,37
160294000512,ID-312-0770,1602940,ID-312,PK,5,SHOSHONE ELEMENTARY SCHOOL,SHOSHONE JOINT DISTRICT,Lincoln County,61 EAST HIGHWAY 24,SHOSHONE,ID,83352,5338,(208)886-2381,43,Rural: Remote,No,No,Yes,Yes,231,13.5,17.1,143,25
160294000851,ID-312-0295,1602940,ID-312,9,12,SHOSHONE HIGH SCHOOL,SHOSHONE JOINT DISTRICT,Lincoln County,61 EAST HIGHWAY 24,SHOSHONE,ID,83352,5338,(208)886-2381,43,Rural: Remote,No,No,Yes,Yes,134,10.57,12.7,66,0
160294000850,ID-312-0294,1602940,ID-312,6,8,SHOSHONE MIDDLE SCHOOL,SHOSHONE JOINT DISTRICT,Lincoln County,61 EAST HIGHWAY 24,SHOSHONE,ID,83352,5338,(208)886-2381,43,Rural: Remote,No,No,Yes,Yes,123,8.81,14,64,0
160210000989,ID-002-0899,1602100,ID-002,PK,5,SIENA ELEMENTARY,JOINT SCHOOL DISTRICT NO. 2,Ada County,2870 EAST ROME DRIVE,MERIDIAN,ID,83642,7299,(208)350-4370,21,Suburb: Large,No,No,–,–,592,27.5,21.5,62,13
160030000197,ID-061-1102,1600300,ID-061,8,12,SILVER CREEK HIGH SCHOOL,BLAINE COUNTY DISTRICT,Blaine County,1060 FOX ACRES ROAD,HAILEY,ID,83333,8473,(208)578-5060,33,Town: Remote,No,No,–,–,43,4.5,9.6,15,2
160330000562,ID-393-0173,1603300,ID-393,PK,6,SILVER HILLS ELEMENTARY SCHOOL,WALLACE DISTRICT,Shoshone County,PO BOX 2160,OSBURN,ID,83849,9998,(208)556-1556,33,Town: Remote,No,No,Yes,Yes,281,18.87,14.9,138,18
160210000640,ID-002-0330,1602100,ID-002,PK,5,SILVER SAGE ELEMENTARY SCHOOL,JOINT SCHOOL DISTRICT NO. 2,Ada County,7700 SNOHOMISH STREET,BOISE,ID,83709,5975,(208)855-4485,21,Suburb: Large,No,No,–,–,309,16.86,18.3,83,18
160177001029,ID-003-1308,1601770,ID-003,PK,5,SILVER TRAIL ELEMENTARY SCHOOL,KUNA JOINT DISTRICT,Ada County,2950 WEST MASON CREEK ROAD,MERIDIAN,ID,83642,7238,(208)472-9731,31,Town: Fringe,No,No,–,–,455,20.95,21.7,79,29
160153000268,ID-091-0053,1601530,ID-091,9,12,SKYLINE SENIOR HIGH SCHOOL,IDAHO FALLS DISTRICT,Bonneville County,1767 BLUE SKY DRIVE,IDAHO FALLS,ID,83402,4802,(208)525-7770,13,City: Small,No,No,Yes,Yes,1250,62,20.2,362,92
160234000515,ID-131-0994,1602340,ID-131,9,12,SKYVIEW HIGH SCHOOL,NAMPA SCHOOL DISTRICT,Canyon County,1303 EAST GREENHURST ROAD,NAMPA,ID,83686,7216,(208)498-0561,22,Suburb: Midsize,No,No,Yes,Yes,1353,75,18,358,95
160060001092,ID-139-1397,1600600,ID-139,KG,5,SKYWAY ELEMENTARY,VALLIVUE SCHOOL DISTRICT,Canyon County,19430 WARD ROAD,CALDWELL,ID,83605,3000,(208)454-0445,22,Suburb: Midsize,No,No,Yes,Yes,738,34.38,21.5,342,85
160078000799,ID-271-0217,1600780,ID-271,PK,5,SKYWAY ELEMENTARY SCHOOL,COEUR D'ALENE DISTRICT,Kootenai County,6621 COURCELLES PARKWAY,COEUR D'ALENE,ID,83815,8384,(208)664-8998,13,City: Small,No,No,Yes,Yes,619,30,20.6,137,61
160234000507,ID-131-0996,1602340,ID-131,PK,5,SNAKE RIVER ELEMENTARY,NAMPA SCHOOL DISTRICT,Canyon County,500 STAMPEDE DRIVE,NAMPA,ID,83687,6868,(208)468-4614,22,Suburb: Midsize,No,No,Yes,Yes,412,26,15.8,255,53
160297000521,ID-052-0032,1602970,ID-052,9,12,SNAKE RIVER HIGH SCHOOL,SNAKE RIVER DISTRICT,Bingham County,922 WEST HIGHWAY 39,BLACKFOOT,ID,83221,5306,(208)684-3061,41,Rural: Fringe,No,No,Yes,No,553,30.89,17.9,104,44
160297000520,ID-052-0031,1602970,ID-052,7,8,SNAKE RIVER JR HIGH SCHOOL,SNAKE RIVER DISTRICT,Bingham County,918 WEST HIGHWAY 39,BLACKFOOT,ID,83221,5306,(208)684-3018,41,Rural: Fringe,No,No,Yes,No,296,14.71,20.1,76,23
160324000739,ID-411-1260,1603240,ID-411,1,12,SNAKE RIVER JUVENILE DETENTION,TWIN FALLS DISTRICT,Twin Falls County,2515 WRIGHT AVENUE,TWIN FALLS,ID,83301,7972,(208)736-2588,41,Rural: Fringe,No,No,–,–,39,1,39,3,0
160297000644,ID-052-0380,1602970,ID-052,5,6,SNAKE RIVER MIDDLE SCHOOL,SNAKE RIVER DISTRICT,Bingham County,1060 W 110 S,BLACKFOOT,ID,83221,6039,(208)684-5171,42,Rural: Distant,No,No,Yes,Yes,288,13,22.2,77,29
160300000526,ID-150-0079,1603000,ID-150,9,12,SODA SPRINGS HIGH SCHOOL,SODA SPRINGS JOINT DISTRICT,Caribou County,300 EAST 1ST NORTH STREET,SODA SPRINGS,ID,83276,1211,(208)547-4308,41,Rural: Fringe,No,No,–,–,254,16.4,15.5,40,13
160078000156,ID-271-0742,1600780,ID-271,PK,5,SORENSEN MAGNET SCHOOL OF THE ARTS AND HUMANITIES,COEUR D'ALENE DISTRICT,Kootenai County,311 NORTH 9TH STREET,COEUR D'ALENE,ID,83814,4203,(208)664-2822,13,City: Small,No,Yes,–,–,314,14.2,22.1,50,16
160192000974,ID-321-1225,1601920,ID-321,KG,4,SOUTH FORK ELEMENTARY,MADISON DISTRICT,Madison County,7133 SOUTH 2000 WEST,REXBURG,ID,83440,4528,(208)359-3369,42,Rural: Distant,No,No,Yes,Yes,316,16,19.8,101,52
160157001001,ID-251-1110,1601570,ID-251,PK,5,SOUTH FORK ELEMENTARY SCHOOL,JEFFERSON COUNTY JOINT DISTRICT,Jefferson County,327 N 4100 E,RIGBY,ID,83442,5536,(208)745-7085,41,Rural: Fringe,No,No,Yes,Yes,759,30.8,24.6,142,101
160111000205,ID-215-0099,1601110,ID-215,9,12,SOUTH FREMONT HIGH SCHOOL,FREMONT COUNTY JOINT DISTRICT,Fremont County,855 NORTH BRIDGE,ST ANTHONY,ID,83445,5402,(208)624-3416,41,Rural: Fringe,No,No,Yes,Yes,472,29.1,16.2,140,59
160111000625,ID-215-0098,1601110,ID-215,6,8,SOUTH FREMONT JR HIGH,FREMONT COUNTY JOINT DISTRICT,Fremont County,550 NORTH 1ST WEST,ST ANTHONY,ID,83445,1151,(208)624-7880,41,Rural: Fringe,No,No,Yes,Yes,382,21.26,18,153,57
160324001093,ID-411-1393,1603240,ID-411,6,8,SOUTH HILLS MIDDLE SCHOOL,TWIN FALLS DISTRICT,Twin Falls County,1550 HARRISON STREET,TWIN FALLS,ID,83301,8727,(208)732-5160,33,Town: Remote,No,No,Yes,Yes,595,34.77,17.1,546,0
160036000073,ID-001-0005,1600360,ID-001,7,9,SOUTH JUNIOR HIGH SCHOOL,BOISE INDEPENDENT DISTRICT,Ada County,3101 CASSIA STREET,BOISE,ID,83705,2337,(208)854-6110,12,City: Midsize,No,No,Yes,Yes,689,47.33,14.6,392,56
160234000419,ID-131-0062,1602340,ID-131,6,8,SOUTH MIDDLE SCHOOL,NAMPA SCHOOL DISTRICT,Canyon County,229 WEST GREENHURST ROAD,NAMPA,ID,83686,2971,(208)468-4740,22,Suburb: Midsize,No,No,Yes,Yes,850,42.35,20.1,305,80
160096001045,ID-201-1349,1600960,ID-201,9,12,SOUTHEAST IDAHO PROFESSIONAL TECHNICAL SCHOOL,PRESTON JOINT DISTRICT,Oneida County,25 EAST 50 SOUTH SUITE A,MALAD CITY,ID,83252,1305,(208)332-6800,43,Rural: Remote,Yes,No,†,†,0,12.68,†,–,–
160000200616,ID-084-0405,1600002,ID-084,PK,6,SOUTHSIDE ELEMENTARY SCHOOL,LAKE PEND OREILLE SCHOOL DISTRICT,Bonner County,PO BOX 159,COCOLALLA,ID,83813,159,(208)263-3020,42,Rural: Distant,No,No,Yes,Yes,143,8.65,16.5,51,16
160051000043,ID-132-1087,1600510,ID-132,1,12,SOUTHWEST IDAHO JUVENILE DETENTION,CALDWELL DISTRICT,Canyon County,222 12TH AVE N,CALDWELL,ID,83605,3554,(208)454-7240,22,Suburb: Midsize,No,No,–,–,78,1,78,11,2
160093000663,ID-093-1016,1600930,ID-093,PK,12,SPECIAL SERVICES CENTER,BONNEVILLE JOINT DISTRICT,Bonneville County,3549 NORTH AMMON ROAD,IDAHO FALLS,ID,83401,1301,(208)525-4414,23,Suburb: Small,No,No,–,–,31,7.25,4.3,3,0
160180000313,ID-272-0745,1601800,ID-272,PK,6,SPIRIT LAKE ELEMENTARY SCHOOL,LAKELAND DISTRICT,Kootenai County,32605 NORTH 5TH AVENUE,SPIRIT LAKE,ID,83869,1089,(208)623-2501,42,Rural: Distant,No,No,Yes,Yes,326,18,18.1,153,26
160306000491,ID-041-1138,1603060,ID-041,9,12,ST MARIES COMMUNITY EDUCATION ALTERNATIVE,ST MARIES JOINT DISTRICT,Benewah County,PO BOX 384,ST MARIES,ID,83861,1849,(208)245-2152,41,Rural: Fringe,No,No,–,–,16,1.74,9.2,–,–
160306000532,ID-041-0029,1603060,ID-041,9,12,ST MARIES HIGH SCHOOL,ST MARIES JOINT DISTRICT,Benewah County,424 HELLS GULCH ROAD,ST MARIES,ID,83861,9803,(208)245-2142,41,Rural: Fringe,No,No,Yes,Yes,289,17.29,16.7,76,29
160306000534,ID-041-0028,1603060,ID-041,6,8,ST MARIES MIDDLE SCHOOL,ST MARIES JOINT DISTRICT,Benewah County,1315 JEFFERSON AVENUE,ST MARIES,ID,83861,1428,(208)245-3495,32,Town: Distant,No,No,Yes,Yes,208,11.63,17.9,73,26
160072000143,ID-181-0486,1600720,ID-181,KG,8,STANLEY ELEM/JR HIGH SCHOOL,CHALLIS JOINT DISTRICT,Custer County,PO BOX 77,STANLEY,ID,83278,77,(208)774-3503,43,Rural: Remote,No,No,–,–,9,1,9,–,–
160210000373,ID-002-0334,1602100,ID-002,PK,5,STAR ELEMENTARY SCHOOL,JOINT SCHOOL DISTRICT NO. 2,Ada County,700 NORTH STAR ROAD,STAR,ID,83669,5417,(208)855-4110,31,Town: Fringe,No,No,–,–,565,27.09,20.9,100,24
160210001104,ID-002-1406,1602100,ID-002,6,8,STAR MIDDLE SCHOOL,JOINT SCHOOL DISTRICT NO. 2,Ada County,2211 NORTH POLLARD LANE,STAR,ID,83669,5150,(208)350-4471,41,Rural: Fringe,No,No,–,–,575,27.76,20.7,91,20
160225000400,ID-193-0502,1602250,ID-193,PK,4,STEPHENSEN ELEMENTARY SCHOOL,MOUNTAIN HOME DISTRICT,Elmore County,200 GUNFIGHTER AVENUE,MOUNTAIN HOME AFB,ID,83648,1022,(208)832-4651,32,Town: Distant,No,No,–,–,350,13.8,25.4,30,50
160249000434,ID-351-0797,1602490,ID-351,PK,3,STONE ELEMENTARY SCHOOL,ONEIDA COUNTY DISTRICT,Oneida County,10808 S 23000 W,STONE,ID,83252,6026,(208)698-3585,43,Rural: Remote,No,No,Yes,Yes,15,1,15,8,3
160171001103,ID-414-1408,1601710,ID-414,KG,5,STRICKER ELEMENTARY SCHOOL,KIMBERLY DISTRICT,Twin Falls County,141 CENTER STREET WEST,KIMBERLY,ID,83341,,(208)332-6800,41,Rural: Fringe,No,No,Yes,No,577,24.75,23.3,142,41
160309000538,ID-322-0147,1603090,ID-322,9,12,SUGAR-SALEM HIGH SCHOOL,SUGAR-SALEM JOINT DISTRICT,Madison County,1 DIGGER DRIVE,SUGAR CITY,ID,83448,5014,(208)356-0274,32,Town: Distant,No,No,Yes,No,523,28.5,18.4,78,67
160309000702,ID-322-0226,1603090,ID-322,7,8,SUGAR-SALEM JUNIOR HIGH SCHOOL,SUGAR-SALEM JOINT DISTRICT,Madison County,PO BOX 180,SUGAR CITY,ID,83448,180,(208)356-4437,32,Town: Distant,No,No,Yes,Yes,272,14,19.4,71,42
160210000364,ID-002-0333,1602100,ID-002,PK,5,SUMMERWIND SCHOOL OF MATH AND SCIENCE,JOINT SCHOOL DISTRICT NO. 2,Ada County,3675 NORTH JULLION WAY,BOISE,ID,83704,4041,(208)375-0210,12,City: Midsize,No,Yes,Yes,Yes,432,20.51,21.1,142,29
160159000972,ID-261-2516,1601590,ID-261,4,5,SUMMIT ELEMENTARY,JEROME JOINT DISTRICT,Jerome County,200 10TH AVENUE WEST,JEROME,ID,83338,7034,(208)324-3396,33,Town: Remote,No,No,Yes,Yes,689,31,22.2,371,74
160093001062,ID-093-1360,1600930,ID-093,KG,6,SUMMIT HILLS ELEMENTARY SCHOOL,BONNEVILLE JOINT DISTRICT,Bonneville County,2853 NORTH LUCINA AVENUE,IDAHO FALLS,ID,83401,3434,(208)525-4433,23,Suburb: Small,No,No,Yes,Yes,541,25.5,21.2,143,65
160153000725,ID-091-0668,1601530,ID-091,PK,6,SUNNYSIDE ELEMENTARY SCHOOL,IDAHO FALLS DISTRICT,Bonneville County,165 COBBLESTONE LANE,IDAHO FALLS,ID,83404,7941,(208)524-7880,13,City: Small,No,No,–,–,635,24.5,25.9,29,13
160291000508,ID-060-0391,1602910,ID-060,KG,2,SUNRISE ELEMENTARY SCHOOL,SHELLEY JOINT DISTRICT,Bingham County,200 EAST FIR STREET,SHELLEY,ID,83274,1216,(208)357-7688,31,Town: Fringe,No,No,Yes,Yes,550,21,26.2,178,60
160177001127,ID-003-1439,1601770,ID-003,–,–,SWAN FALLS HIGH SCHOOL,KUNA JOINT DISTRICT,†,7300 SOUTH LINDER ROAD,MERIDIAN,ID,83642,,(208)332-6800,†,N,No,†,†,†,†,†,†,†,†
160312000541,ID-092-0424,1603120,ID-092,PK,8,SWAN VALLEY ELEMENTARY SCHOOL,SWAN VALLEY ELEMENTARY DISTRICT,Bonneville County,PO BOX 220,IRWIN,ID,83428,220,(208)483-2405,43,Rural: Remote,No,No,Yes,Yes,53,4,13.3,11,6
160102000192,ID-221-0707,1601020,ID-221,KG,5,SWEET MONTOUR ELEMENTARY SCHOOL,EMMETT INDEPENDENT DISTRICT,Gem County,HC 78 BOX 2654,SWEET,ID,83670,9802,(208)584-3378,42,Rural: Distant,No,No,Yes,Yes,37,2.42,15.3,11,0
160264000481,ID-025-0361,1602640,ID-025,PK,5,SYRINGA ELEMENTARY SCHOOL,POCATELLO DISTRICT,Bannock County,388 EAST GRIFFITH ROAD,POCATELLO,ID,83201,3510,(208)237-4040,13,City: Small,No,No,Yes,Yes,428,20.86,20.5,217,0
160051000109,ID-132-0281,1600510,ID-132,6,8,SYRINGA MIDDLE SCHOOL,CALDWELL DISTRICT,Canyon County,1100 WILLOW STREET,CALDWELL,ID,83605,5316,(208)455-3305,22,Suburb: Midsize,No,No,Yes,Yes,789,41.04,19.2,643,53
160016601066,ID-488-1367,1600166,ID-488,KG,8,SYRINGA MOUNTAIN CHARTER SCHOOL,SYRINGA MOUNTAIN SCHOOL INC.,Blaine County,PO BOX 3531,HAILEY,ID,83333,8516,(208)806-2880,33,Town: Remote,Yes,No,Yes,No,110,8.57,12.8,–,–
160036000074,ID-001-0321,1600360,ID-001,PK,6,TAFT ELEMENTARY SCHOOL,BOISE INDEPENDENT DISTRICT,Ada County,3722 ANDERSON STREET,BOISE,ID,83703,5216,(208)854-6180,12,City: Midsize,No,No,Yes,Yes,326,17.25,18.9,9,314
160186000711,ID-340-1034,1601860,ID-340,9,12,TAMMANY HIGH SCHOOL,LEWISTON INDEPENDENT DISTRICT,Nez Perce County,1982 TAMMANY CREEK ROAD,LEWISTON,ID,83501,5244,(208)748-3270,41,Rural: Fringe,No,No,Yes,Yes,110,7.72,14.2,28,8
160001500892,ID-461-0642,1600015,ID-461,PK,12,TAYLORS CROSSING CHARTER SCHOOL,TAYLOR'S CROSSING PUBLIC CHARTER SCHOOL INC.,Bonneville County,1445 NORTH WOOD RIVER DRIVE,IDAHO FALLS,ID,83401,5095,(208)552-0397,41,Rural: Fringe,Yes,No,Yes,Yes,367,18.38,20,89,39
160153000727,ID-091-0199,1601530,ID-091,7,8,TAYLORVIEW MIDDLE SCHOOL,IDAHO FALLS DISTRICT,Bonneville County,350 CASTLEROCK LANE,IDAHO FALLS,ID,83404,8401,(208)524-7850,13,City: Small,No,No,Yes,Yes,821,44.44,18.5,252,60
160093001063,ID-093-1357,1600930,ID-093,9,12,TECHNICAL CAREERS HIGH SCHOOL,BONNEVILLE JOINT DISTRICT,Bonneville County,3497 NORTH AMMON ROAD,IDAHO FALLS,ID,83401,1301,(208)525-4433,23,Suburb: Small,No,No,–,–,109,10.86,10,–,–
160153000269,ID-091-0414,1601530,ID-091,PK,6,TEMPLE VIEW ELEMENTARY SCHOOL,IDAHO FALLS DISTRICT,Bonneville County,1500 SCORPIUS DRIVE,IDAHO FALLS,ID,83402,1804,(208)525-7660,13,City: Small,No,No,Yes,Yes,402,19.39,20.7,171,26
160264000482,ID-025-0366,1602640,ID-025,PK,6,TENDOY ELEMENTARY SCHOOL,POCATELLO DISTRICT,Bannock County,957 EAST ALAMEDA ROAD,POCATELLO,ID,83201,3041,(208)233-2921,13,City: Small,No,No,Yes,Yes,256,15.7,16.3,175,0
160303000529,ID-292-0765,1603030,ID-292,KG,5,TENDOY ELEMENTARY SCHOOL,SOUTH LEMHI DISTRICT,Lemhi County,PO BOX 13,TENDOY,ID,83468,13,(208)756-3524,43,Rural: Remote,No,No,Yes,Yes,19,1,19,–,–
160340000280,ID-253-0728,1603400,ID-253,PK,5,TERRETON ELEMENTARY SCHOOL,WEST JEFFERSON DISTRICT,Jefferson County,1252 E 1500 N,TERRETON,ID,83450,5136,(208)663-4393,43,Rural: Remote,No,No,Yes,Yes,223,11.9,18.7,85,39
160111000207,ID-215-0703,1601110,ID-215,PK,5,TETON ELEMENTARY SCHOOL,FREMONT COUNTY JOINT DISTRICT,Fremont County,825 SOUTH 4TH WEST,ST ANTHONY,ID,83445,1933,(208)458-4931,42,Rural: Distant,No,No,Yes,Yes,96,6.5,14.8,26,14
160318000543,ID-401-0175,1603180,ID-401,9,12,TETON HIGH SCHOOL,TETON COUNTY DISTRICT,Teton County,555 ROSS AVENUE,DRIGGS,ID,83422,5220,(208)228-5924,43,Rural: Remote,No,No,Yes,Yes,498,29.13,17.1,99,45
160318000544,ID-401-0195,1603180,ID-401,6,8,TETON MIDDLE SCHOOL,TETON COUNTY DISTRICT,Teton County,935 NORTH 5TH EAST,DRIGGS,ID,83422,5378,(208)228-5925,43,Rural: Remote,No,No,Yes,Yes,458,27.47,16.7,111,47
160318000545,ID-401-0822,1603180,ID-401,KG,3,TETONIA ELEMENTARY SCHOOL,TETON COUNTY DISTRICT,Teton County,PO BOX 129,TETONIA,ID,83452,129,(208)456-2288,43,Rural: Remote,No,No,Yes,Yes,87,4.5,19.3,25,14
160129000228,ID-148-0462,1601290,ID-148,1,5,THATCHER ELEMENTARY SCHOOL,GRACE JOINT DISTRICT,Franklin County,PO BOX 14,THATCHER,ID,83283,5802,(208)427-6346,43,Rural: Remote,No,No,Yes,Yes,99,5.37,18.4,23,25
160102000923,ID-221-1111,1601020,ID-221,6,12,THE PATRIOT CENTER,EMMETT INDEPENDENT DISTRICT,Gem County,330 WEST MAIN STREET,EMMETT,ID,83617,3030,(208)365-3642,32,Town: Distant,No,No,Yes,No,29,1.9,15.3,–,–
160015701018,ID-473-1339,1600157,ID-473,PK,8,THE VILLAGE CHARTER SCHOOL,THE VILLAGE CHARTER SCHOOL INC.,Ada County,219 NORTH ROOSEVELT,BOISE,ID,83706,1850,(208)336-2000,12,City: Midsize,Yes,No,Yes,No,485,24.88,19.5,8,0
160153000270,ID-091-0419,1601530,ID-091,PK,6,THERESA BUNKER ELEMENTARY SCHOOL,IDAHO FALLS DISTRICT,Bonneville County,1385 EAST 16TH STREET,IDAHO FALLS,ID,83404,5476,(208)525-7606,13,City: Small,No,No,Yes,Yes,293,15.8,18.5,137,48
160060000839,ID-139-0559,1600600,ID-139,KG,12,THOMAS JEFFERSON CHARTER,VALLIVUE SCHOOL DISTRICT,Canyon County,1209 ADAM SMITH AVE,CALDWELL,ID,83605,6970,(208)455-8772,22,Suburb: Midsize,Yes,No,Yes,Yes,385,20.9,18.4,95,43
160321000546,ID-416-0835,1603210,ID-416,PK,8,THREE CREEK ELEM/JR HIGH SCHOOL,THREE CREEK JOINT ELEMENTARY DISTRICT,Owyhee County,49909 THREE CREEK ROAD,ROGERSON,ID,83302,3,(208)857-2281,43,Rural: Remote,No,No,–,–,7,0.9,7.8,†,†
160093001097,ID-093-1415,1600930,ID-093,9,12,THUNDER RIDGE HIGH SCHOOL,BONNEVILLE JOINT DISTRICT,Bonneville County,4941 EAST 1ST STREET,IDAHO FALLS,ID,83401,,(208)523-4739,41,Rural: Fringe,No,No,–,–,1397,66.88,20.9,138,8
160093000670,ID-093-0501,1600930,ID-093,PK,6,TIEBREAKER ELEMENTARY SCHOOL,BONNEVILLE JOINT DISTRICT,Bonneville County,3100 FIRST STREET,IDAHO FALLS,ID,83401,4550,(208)525-4480,23,Suburb: Small,No,No,Yes,Yes,487,23.5,20.7,223,36
160300000527,ID-150-0078,1603000,ID-150,5,8,TIGERT MIDDLE SCHOOL,SODA SPRINGS JOINT DISTRICT,Caribou County,250 EAST 2ND SOUTH STREET,SODA SPRINGS,ID,83276,1412,(208)547-4922,33,Town: Remote,No,No,–,–,277,16.26,17,64,21
160180000842,ID-272-0585,1601800,ID-272,7,8,TIMBERLAKE JUNIOR HIGH SCHOOL,LAKELAND DISTRICT,Kootenai County,PO BOX 1080,SPIRIT LAKE,ID,83869,1080,(208)623-2582,42,Rural: Distant,No,No,Yes,Yes,286,15.5,18.5,88,25
160180000843,ID-272-0586,1601800,ID-272,9,12,TIMBERLAKE SENIOR HIGH SCHOOL,LAKELAND DISTRICT,Kootenai County,PO BOX 909,SPIRIT LAKE,ID,83869,909,(208)623-6303,42,Rural: Distant,No,No,–,–,579,30.9,18.7,117,42
160252000983,ID-171-2520,1602520,ID-171,PK,5,TIMBERLINE ELEMENTARY,OROFINO JOINT DISTRICT,Clearwater County,22869 HIGHWAY 11,WEIPPE,ID,83544,5111,(208)435-4411,43,Rural: Remote,No,No,Yes,Yes,95,6.18,15.4,51,12
160252000445,ID-171-0087,1602520,ID-171,6,12,TIMBERLINE HIGH SCHOOL,OROFINO JOINT DISTRICT,Clearwater County,22869 HIGHWAY 11,WEIPPE,ID,83544,5111,(208)435-4411,43,Rural: Remote,No,No,Yes,Yes,125,11.45,10.9,54,18
160036000643,ID-001-0243,1600360,ID-001,10,12,TIMBERLINE HIGH SCHOOL,BOISE INDEPENDENT DISTRICT,Ada County,701 EAST BOISE AVENUE,BOISE,ID,83706,5119,(208)854-6230,12,City: Midsize,No,No,–,–,1371,72.31,19,183,55
160036000590,ID-001-0287,1600360,ID-001,PK,6,TRAIL WIND ELEMENTARY,BOISE INDEPENDENT DISTRICT,Ada County,3701 EAST LAKE FOREST DRIVE,BOISE,ID,83716,6999,(208)854-6320,12,City: Midsize,No,No,–,–,646,30,21.5,56,19
160018801110,ID-532-1424,1600188,ID-532,KG,6,TREASURE VALLEY CLASSICAL ACADEMY,TREASURE VALLEY CLASSICAL ACADEMY INC.,Payette County,500 SW 3RD STREET,FRUITLAND,ID,83619,,(208)953-1663,32,Town: Distant,Yes,†,†,†,†,†,†,†,†
160234001090,ID-131-1394,1602340,ID-131,9,11,TREASURE VALLEY LEADERSHIP ACADEMY,NAMPA SCHOOL DISTRICT,Canyon County,3313 PARKRIDGE DRIVE,NAMPA,ID,83687,3500,(208)498-0578,22,Suburb: Midsize,No,No,Yes,Yes,47,5,9.4,19,8
160036000823,ID-001-0573,1600360,ID-001,4,12,TREASURE VALLEY MATH/SCIENCE,BOISE INDEPENDENT DISTRICT,Ada County,6801 NORTH GARY LANE,BOISE,ID,83714,2444,(208)854-6800,12,City: Midsize,No,Yes,–,–,8,10.75,0.7,†,†
160267001129,ID-273-1445,1602670,ID-273,–,–,TREATY ROCK ELEMENTARY,POST FALLS DISTRICT,†,4916 EAST HOPE AVENUE,POST FALLS,ID,83854,,(208)332-6800,†,N,No,†,†,†,†,†,†,†,†
160000900581,ID-287-0766,1600009,ID-287,PK,6,TROY ELEMENTARY SCHOOL,TROY SCHOOL DISTRICT,Latah County,103 TROJAN DRIVE,TROY,ID,83871,280,(208)835-4261,42,Rural: Distant,No,No,Yes,Yes,141,8.65,16.3,31,8
160000900582,ID-287-0772,1600009,ID-287,7,12,TROY JR/SR HIGH SCHOOL,TROY SCHOOL DISTRICT,Latah County,101 TROJAN DRIVE,TROY,ID,83871,280,(208)835-2361,42,Rural: Distant,No,No,–,–,131,11.03,11.9,22,9
160324000555,ID-411-0178,1603240,ID-411,9,12,TWIN FALLS HIGH SCHOOL,TWIN FALLS DISTRICT,Twin Falls County,1615 FILER AVENUE EAST,TWIN FALLS,ID,83301,4258,(208)733-6551,33,Town: Remote,No,No,–,–,1232,53.19,23.2,252,98
160180000956,ID-272-0891,1601800,ID-272,PK,6,TWIN LAKES ELEMENTARY SCHOOL,LAKELAND DISTRICT,Kootenai County,PO BOX 159,RATHDRUM,ID,83858,39,(208)687-5870,41,Rural: Fringe,No,No,Yes,Yes,377,19,19.8,92,35
160264000483,ID-025-0360,1602640,ID-025,PK,5,TYHEE ELEMENTARY SCHOOL,POCATELLO DISTRICT,Bannock County,12743 WEST TYHEE ROAD,POCATELLO,ID,83202,5111,(208)237-0551,23,Suburb: Small,No,No,Yes,Yes,578,25.3,22.8,270,0
160093000178,ID-093-0429,1600930,ID-093,PK,6,UCON ELEMENTARY SCHOOL,BONNEVILLE JOINT DISTRICT,Bonneville County,10841 N 41 E,IDAHO FALLS,ID,83401,5459,(208)525-4430,23,Suburb: Small,No,No,Yes,Yes,436,20.49,21.3,108,60
160234000762,ID-131-1154,1602340,ID-131,9,12,UNION HIGH SCHOOL,NAMPA SCHOOL DISTRICT,Canyon County,506 FLETCHER DRIVE,NAMPA,ID,83686,8854,(208)498-0559,22,Suburb: Midsize,No,No,Yes,Yes,157,12.17,12.9,77,16
160017000847,ID-486-1366,1600170,ID-486,KG,3,UPPER CARMEN PUBLIC CHARTER SCHOOL,UPPER CARMEN PUBLIC CHARTER SCHOOL INC.,Lemhi County,PO BOX 33,CARMEN,ID,83462,9998,(208)756-4590,42,Rural: Distant,Yes,No,–,–,101,7.45,13.6,–,–
160306000536,ID-041-0374,1603060,ID-041,KG,6,UPRIVER ELEMENTARY SCHOOL,ST MARIES JOINT DISTRICT,Benewah County,PO BOX 249,FERNWOOD,ID,83830,249,(208)245-3650,43,Rural: Remote,No,No,Yes,Yes,76,5.5,13.8,45,8
160210000374,ID-002-0335,1602100,ID-002,PK,5,USTICK ELEMENTARY SCHOOL,JOINT SCHOOL DISTRICT NO. 2,Ada County,12435 WEST USTICK ROAD,BOISE,ID,83713,17,(208)855-4120,12,City: Midsize,No,No,Yes,Yes,474,24.28,19.5,230,26
160327000558,ID-262-0119,1603270,ID-262,PK,12,VALLEY SCHOOL,VALLEY DISTRICT,Jerome County,882 VALLEY ROAD SOUTH,HAZELTON,ID,83335,5050,(208)829-5353,43,Rural: Remote,No,No,Yes,Yes,608,38.23,15.9,250,58
160309000853,ID-322-0874,1603090,ID-322,9,12,VALLEY VIEW ALTERNATIVE HIGH SCHOOL,SUGAR-SALEM JOINT DISTRICT,Madison County,PO BOX 150,SUGAR CITY,ID,83448,150,(208)356-6845,32,Town: Distant,No,No,Yes,Yes,10,1,10,3,0
160036000075,ID-001-0320,1600360,ID-001,PK,6,VALLEY VIEW ELEMENTARY SCHOOL,BOISE INDEPENDENT DISTRICT,Ada County,3555 NORTH MILWAUKEE STREET,BOISE,ID,83704,4452,(208)854-6370,12,City: Midsize,No,No,Yes,Yes,407,19.48,20.9,196,23
160042000094,ID-101-0437,1600420,ID-101,PK,5,VALLEY VIEW ELEMENTARY SCHOOL,BOUNDARY COUNTY DISTRICT,Boundary County,6750 AUGUSTA STREET,BONNERS FERRY,ID,83805,8501,(208)267-5519,33,Town: Remote,No,No,Yes,Yes,428,23,18.6,202,57
160060000914,ID-139-9017,1600600,ID-139,9,12,VALLIVUE ACADEMY,VALLIVUE SCHOOL DISTRICT,Canyon County,6123 TIMBER DRIVE,CALDWELL,ID,83607,8204,(208)455-1917,22,Suburb: Midsize,No,No,Yes,Yes,125,10,12.5,92,4
160060000118,ID-139-0074,1600600,ID-139,9,12,VALLIVUE HIGH SCHOOL,VALLIVUE SCHOOL DISTRICT,Canyon County,1407 HOMEDALE ROAD,CALDWELL,ID,83607,1848,(208)454-9253,22,Suburb: Midsize,No,No,Yes,Yes,1187,61.5,19.3,442,123
160060000539,ID-139-0985,1600600,ID-139,6,8,VALLIVUE MIDDLE SCHOOL,VALLIVUE SCHOOL DISTRICT,Canyon County,16412 SOUTH 10TH AVENUE,CALDWELL,ID,83607,8248,(208)454-1426,41,Rural: Fringe,No,No,Yes,Yes,976,47.5,20.5,404,118
160051000107,ID-132-0451,1600510,ID-132,KG,5,VAN BUREN ELEMENTARY SCHOOL,CALDWELL DISTRICT,Canyon County,3115 MARBLE FRONT ROAD,CALDWELL,ID,83605,8001,(208)455-3326,41,Rural: Fringe,No,No,Yes,Yes,623,32,19.5,518,42
160027000492,ID-055-0252,1600270,ID-055,PK,PK,VAUGHN HUGIE FAMILY ED CENTER,BLACKFOOT DISTRICT,Bingham County,440 WEST JUDICIAL STREET,BLACKFOOT,ID,83221,1611,(208)785-8835,32,Town: Distant,No,No,–,–,43,1,43,–,–
160078000694,ID-271-1037,1600780,ID-271,8,12,VENTURE HIGH SCHOOL,COEUR D'ALENE DISTRICT,Kootenai County,1619 NORTH 9TH,COEUR D'ALENE,ID,83814,4635,(208)667-7460,13,City: Small,No,No,Yes,Yes,147,15.33,9.6,66,18
160324000552,ID-411-0177,1603240,ID-411,6,8,VERA C O'LEARY MIDDLE SCHOOL,TWIN FALLS DISTRICT,Twin Falls County,2350 ELIZABETH BOULEVARD,TWIN FALLS,ID,83301,7551,(208)733-2155,33,Town: Remote,No,No,Yes,No,811,37.36,21.7,190,83
160318000547,ID-401-0823,1603180,ID-401,KG,3,VICTOR ELEMENTARY SCHOOL,TETON COUNTY DISTRICT,Teton County,PO BOX 169,VICTOR,ID,83455,169,(208)787-2245,43,Rural: Remote,No,No,–,–,153,8.75,17.5,22,10
160000300858,ID-451-0868,1600003,ID-451,PK,12,VICTORY CHARTER SCHOOL,VICTORY CHARTER SCHOOL INC.,Canyon County,1081 EAST LEWIS LANE,NAMPA,ID,83686,8843,(208)442-9400,41,Rural: Fringe,Yes,No,Yes,Yes,406,15.4,26.4,71,67
160210001084,ID-002-1384,1602100,ID-002,6,8,VICTORY MIDDLE SCHOOL,JOINT SCHOOL DISTRICT NO. 2,Ada County,920 WEST KODIAK DRIVE,MERIDIAN,ID,83642,8242,(208)350-4443,41,Rural: Fringe,No,No,–,–,939,43.27,21.7,100,23
160014100942,ID-463-0888,1600141,ID-463,KG,12,VISION CHARTER SCHOOL,VISION CHARTER SCHOOL INC.,Canyon County,19291 WARD ROAD,CALDWELL,ID,83605,7936,(208)455-9220,22,Suburb: Midsize,Yes,No,Yes,No,725,28.51,25.4,261,0
160048001106,ID-412-1403,1600480,ID-412,9,12,WAKAPA ACADEMY,BUHL JOINT DISTRICT,Twin Falls County,525 SAWTOOTH AVENUE,BUHL,ID,83316,5708,(208)329-7000,41,Rural: Fringe,No,No,Yes,Yes,26,2.66,9.8,12,3
160330000565,ID-393-0174,1603300,ID-393,7,12,WALLACE JR/SR HIGH SCHOOL,WALLACE DISTRICT,Shoshone County,NUMBER 1 MINERS' ALLEY,WALLACE,ID,83873,2223,(208)753-5315,33,Town: Remote,No,No,Yes,Yes,225,18.84,11.9,75,16
160027000032,ID-055-0385,1600270,ID-055,KG,5,WAPELLO ELEMENTARY SCHOOL,BLACKFOOT DISTRICT,Bingham County,195 E 350 N,BLACKFOOT,ID,83221,5886,(208)785-8844,42,Rural: Distant,No,No,Yes,Yes,226,12.49,18.1,62,22
160051000108,ID-132-0448,1600510,ID-132,PK,5,WASHINGTON ELEMENTARY SCHOOL,CALDWELL DISTRICT,Canyon County,2918 WASHINGTON AVENUE,CALDWELL,ID,83605,5226,(208)455-3317,22,Suburb: Midsize,No,No,Yes,Yes,543,28,19.4,452,40
160000200617,ID-084-0408,1600002,ID-084,PK,6,WASHINGTON ELEMENTARY SCHOOL,LAKE PEND OREILLE SCHOOL DISTRICT,Bonner County,420 SOUTH BOYER AVENUE,SANDPOINT,ID,83864,1102,(208)263-4759,32,Town: Distant,No,No,Yes,Yes,308,15.72,19.6,76,19
160036000076,ID-001-0305,1600360,ID-001,PK,6,WASHINGTON ELEMENTARY SCHOOL,BOISE INDEPENDENT DISTRICT,Ada County,1607 NORTH 15TH STREET,BOISE,ID,83702,2609,(208)854-6420,12,City: Midsize,No,No,–,–,305,16.55,18.4,25,7
160264000484,ID-025-0359,1602640,ID-025,KG,5,WASHINGTON ELEMENTARY SCHOOL,POCATELLO DISTRICT,Bannock County,226 SOUTH 10TH AVENUE,POCATELLO,ID,83201,4802,(208)232-2976,13,City: Small,No,No,Yes,Yes,207,11.73,17.6,134,0
160186000329,ID-340-0793,1601860,ID-340,KG,6,WEBSTER ELEMENTARY SCHOOL,LEWISTON INDEPENDENT DISTRICT,Nez Perce County,1409 8TH STREET,LEWISTON,ID,83501,2908,(208)748-3800,13,City: Small,No,No,Yes,Yes,303,17.62,17.2,94,38
160333000568,ID-431-0192,1603330,ID-431,9,12,WEISER HIGH SCHOOL,WEISER DISTRICT,Washington County,690 WEST INDIANHEAD ROAD,WEISER,ID,83672,1598,(208)414-2595,33,Town: Remote,No,No,Yes,Yes,515,26.47,19.5,176,42
160333000569,ID-431-0191,1603330,ID-431,6,8,WEISER MIDDLE SCHOOL,WEISER DISTRICT,Washington County,320 EAST GALLOWAY STREET,WEISER,ID,83672,2001,(208)414-2620,33,Town: Remote,No,No,Yes,Yes,414,22.29,18.6,169,37
160336000570,ID-232-0712,1603360,ID-232,PK,4,WENDELL ELEMENTARY SCHOOL,WENDELL DISTRICT,Gooding County,232 NORTH BOISE STREET,WENDELL,ID,83355,5136,(208)536-6611,33,Town: Remote,No,No,Yes,Yes,473,21.91,21.6,265,81
160336000271,ID-232-0209,1603360,ID-232,9,12,WENDELL HIGH SCHOOL,WENDELL DISTRICT,Gooding County,850 EAST MAIN STREET,WENDELL,ID,83355,5383,(208)536-2100,41,Rural: Fringe,No,No,Yes,Yes,280,19.13,14.6,113,42
160336000571,ID-232-0104,1603360,ID-232,5,8,WENDELL MIDDLE SCHOOL,WENDELL DISTRICT,Gooding County,920 EAST MAIN STREET,WENDELL,ID,83355,,(208)536-5531,41,Rural: Fringe,No,No,Yes,Yes,330,19.37,17,168,60
160060000119,ID-139-0461,1600600,ID-139,PK,5,WEST CANYON ELEMENTARY SCHOOL,VALLIVUE SCHOOL DISTRICT,Canyon County,19548 USTICK ROAD,CALDWELL,ID,83607,9416,(208)459-6938,41,Rural: Fringe,No,No,Yes,Yes,506,25,20.2,204,40
160225000403,ID-193-0493,1602250,ID-193,PK,4,WEST ELEMENTARY SCHOOL,MOUNTAIN HOME DISTRICT,Elmore County,415 WEST 2ND NORTH,MOUNTAIN HOME,ID,83647,2548,(208)587-2595,32,Town: Distant,No,No,Yes,Yes,475,21.2,22.4,201,35
160340000281,ID-253-0115,1603400,ID-253,9,12,WEST JEFFERSON HIGH SCHOOL,WEST JEFFERSON DISTRICT,Jefferson County,1260 E 1500 N,TERRETON,ID,83450,5136,(208)663-4391,43,Rural: Remote,No,No,Yes,Yes,213,16.5,12.9,48,31
160340001053,ID-253-1315,1603400,ID-253,6,8,WEST JEFFERSON MIDDLE SCHOOL,WEST JEFFERSON DISTRICT,Jefferson County,1252 E 1500 N,TERRETON,ID,83450,5136,(208)663-4393,43,Rural: Remote,No,No,Yes,Yes,142,9.1,15.6,48,24
160036000987,ID-001-0676,1600360,ID-001,7,9,WEST JUNIOR HIGH,BOISE INDEPENDENT DISTRICT,Ada County,8371 WEST SALT CREEK COURT,BOISE,ID,83709,5019,(208)854-6450,21,Suburb: Large,No,No,–,–,885,51.15,17.3,209,52
160234000422,ID-131-0061,1602340,ID-131,6,8,WEST MIDDLE SCHOOL,NAMPA SCHOOL DISTRICT,Canyon County,28 SOUTH MIDLAND BOULEVARD,NAMPA,ID,83651,2425,(208)468-4750,22,Suburb: Midsize,No,No,Yes,Yes,757,38.17,19.8,397,105
160219000389,ID-331-0149,1602190,ID-331,6,8,WEST MINICO MIDDLE SCHOOL,MINIDOKA COUNTY JOINT DISTRICT,Minidoka County,155 S 600 W,PAUL,ID,83347,8621,(208)438-5018,33,Town: Remote,No,No,Yes,Yes,511,27.6,18.5,238,80
160222000395,ID-281-0755,1602220,ID-281,KG,2,WEST PARK ELEMENTARY SCHOOL,MOSCOW DISTRICT,Latah County,510 HOME STREET,MOSCOW,ID,83843,2244,(208)882-2714,32,Town: Distant,No,No,Yes,Yes,204,12.66,16.1,82,16
160267000970,ID-273-2517,1602670,ID-273,1,5,WEST RIDGE ELEMENTARY SCHOOL,POST FALLS DISTRICT,Kootenai County,PO BOX 40,POST FALLS,ID,83854,40,(208)773-7291,23,Suburb: Small,No,No,Yes,Yes,453,21,21.6,169,34
160342000388,ID-202-0227,1603420,ID-202,9,12,WEST SIDE SENIOR HIGH SCHOOL,WEST SIDE JOINT DISTRICT,Franklin County,PO BOX 89,DAYTON,ID,83232,89,(208)747-3411,42,Rural: Distant,No,No,Yes,Yes,221,11.88,18.6,52,33
160258000456,ID-371-0805,1602580,ID-371,4,5,WESTSIDE ELEMENTARY SCHOOL,PAYETTE JOINT DISTRICT,Payette County,609 NORTH 5TH STREET,PAYETTE,ID,83661,2329,(208)642-3241,32,Town: Distant,No,No,Yes,Yes,237,10,23.7,177,10
160153000633,ID-091-0421,1601530,ID-091,PK,6,WESTSIDE ELEMENTARY SCHOOL,IDAHO FALLS DISTRICT,Bonneville County,2680 NEWMAN DRIVE,IDAHO FALLS,ID,83402,3818,(208)525-7666,13,City: Small,No,No,Yes,No,471,21.53,21.9,110,70
160014200809,ID-464-2514,1600142,ID-464,PK,9,WHITE PINE CHARTER SCHOOL,WHITE PINE CHARTER SCHOOL INC.,Bonneville County,2959 EAST JOHN ADAMS PARKWAY,AMMON,ID,83406,4508,(208)522-4432,23,Suburb: Small,Yes,No,Yes,No,537,22.94,23.4,124,55
160066000387,ID-151-0216,1600660,ID-151,KG,6,WHITE PINE ELEMENTARY,CASSIA COUNTY JOINT DISTRICT,Cassia County,1900 HILAND AVENUE,BURLEY,ID,83318,2713,(208)878-6632,33,Town: Remote,No,No,Yes,Yes,566,27.57,20.5,228,38
160036000706,ID-001-0666,1600360,ID-001,PK,6,WHITE PINE ELEMENTARY SCHOOL,BOISE INDEPENDENT DISTRICT,Ada County,401 EAST LINDEN STREET,BOISE,ID,83706,6806,(208)854-6530,12,City: Midsize,No,No,–,–,505,26.21,19.3,135,10
160186000330,ID-340-0792,1601860,ID-340,PK,6,WHITMAN ELEMENTARY SCHOOL,LEWISTON INDEPENDENT DISTRICT,Nez Perce County,1840 9TH AVENUE,LEWISTON,ID,83501,3158,(208)748-3850,13,City: Small,No,No,Yes,Yes,406,20.23,20.1,120,41
160036000078,ID-001-0306,1600360,ID-001,PK,6,WHITNEY ELEMENTARY SCHOOL,BOISE INDEPENDENT DISTRICT,Ada County,1609 SOUTH OWYHEE STREET,BOISE,ID,83705,3058,(208)854-6580,12,City: Midsize,No,No,Yes,Yes,601,31.01,19.4,6,589
160036000079,ID-001-0327,1600360,ID-001,PK,6,WHITTIER ELEMENTARY SCHOOL,BOISE INDEPENDENT DISTRICT,Ada County,301 NORTH 29TH STREET,BOISE,ID,83702,4625,(208)854-6630,12,City: Midsize,No,No,Yes,Yes,528,30.05,17.6,21,500
160348000585,ID-133-0452,1603480,ID-133,PK,5,WILDER ELEMENTARY SCHOOL,WILDER DISTRICT,Canyon County,210 A AVENUE EAST,WILDER,ID,83676,6098,(208)482-6220,42,Rural: Distant,No,No,Yes,Yes,323,16.97,19,323,0
160348000530,ID-133-0233,1603480,ID-133,9,12,WILDER HIGH SCHOOL,WILDER DISTRICT,Canyon County,419 HUFF ROAD,WILDER,ID,83676,5003,(208)482-6229,42,Rural: Distant,No,No,Yes,Yes,124,6.68,18.6,124,0
160348001091,ID-133-1389,1603480,ID-133,6,8,WILDER MIDDLE SCHOOL,WILDER DISTRICT,Canyon County,419 HUFF ROAD,WILDER,ID,83676,5003,(208)482-6228,42,Rural: Distant,No,No,Yes,Yes,95,4.85,19.6,–,–
160006000589,ID-381-0167,1600060,ID-381,6,8,WILLIAM THOMAS MIDDLE SCHOOL,AMERICAN FALLS JOINT DISTRICT,Power County,355 BANNOCK AVENUE,AMERICAN FALLS,ID,83211,1119,(208)226-5203,32,Town: Distant,No,No,Yes,Yes,358,22.41,16,189,29
160234000833,ID-131-0581,1602340,ID-131,PK,5,WILLOW CREEK ELEMENTARY,NAMPA SCHOOL DISTRICT,Canyon County,198 ELEMENTARY LANE,NAMPA,ID,83651,9998,(208)468-4617,22,Suburb: Midsize,No,No,Yes,Yes,587,31,18.9,297,72
160210001060,ID-002-1356,1602100,ID-002,PK,5,WILLOW CREEK ELEMENTARY SCHOOL,JOINT SCHOOL DISTRICT NO. 2,Ada County,6195 NORTH LONG LAKE WAY,MERIDIAN,ID,83646,1,(208)350-4410,21,Suburb: Large,No,No,–,–,698,30.5,22.9,74,16
160051000609,ID-132-0289,1600510,ID-132,PK,5,WILSON ELEMENTARY SCHOOL,CALDWELL DISTRICT,Canyon County,400 EAST LINDEN,CALDWELL,ID,83605,5240,(208)455-3313,22,Suburb: Midsize,No,No,Yes,Yes,573,28.62,20,361,53
160078000157,ID-271-0743,1600780,ID-271,PK,5,WINTON ELEMENTARY SCHOOL,COEUR D'ALENE DISTRICT,Kootenai County,920 LA CROSSE AVENUE,COEUR D'ALENE,ID,83814,2417,(208)664-3440,13,City: Small,No,No,Yes,Yes,508,25,20.3,239,69
160030000038,ID-061-0042,1600300,ID-061,9,12,WOOD RIVER HIGH SCHOOL,BLAINE COUNTY DISTRICT,Blaine County,1250 FOX ACRES ROAD,HAILEY,ID,83333,8824,(208)578-5020,41,Rural: Fringe,No,No,–,–,913,66.61,13.7,152,75
160030000493,ID-061-0984,1600300,ID-061,6,8,WOOD RIVER MIDDLE SCHOOL,BLAINE COUNTY DISTRICT,Blaine County,900 2ND AVENUE NORTH,HAILEY,ID,83333,5095,(208)578-5030,33,Town: Remote,No,No,–,–,746,55.39,13.5,133,68
160093000910,ID-093-0637,1600930,ID-093,PK,6,WOODLAND HILLS ELEMENTARY,BONNEVILLE JOINT DISTRICT,Bonneville County,4700 SWEET WATER WAY,AMMON,ID,83406,7546,(208)552-4850,23,Suburb: Small,No,No,–,–,567,24,23.6,56,17
160078000747,ID-271-0246,1600780,ID-271,6,8,WOODLAND MIDDLE SCHOOL,COEUR D'ALENE DISTRICT,Kootenai County,2101 SUITE MICHELLE,COEUR D'ALENE,ID,83815,483,(208)667-5996,13,City: Small,No,No,Yes,No,839,43.33,19.4,203,78
160014000949,ID-462-2512,1600140,ID-462,KG,12,XAVIER CHARTER SCHOOL,XAVIER CHARTER SCHOOL INC.,Twin Falls County,1218 NORTH COLLEGE ROAD WEST,TWIN FALLS,ID,83301,5651,(208)734-3947,41,Rural: Fringe,Yes,No,Yes,Yes,698,32.48,21.5,133,56
