NCES School ID,State School ID,NCES District ID,State District ID,Low Grade*,High Grade*,School Name,District,County Name*,Street Address,City,State,ZIP,ZIP 4-digit,Phone,Locale Code*,Locale*,Charter,Magnet*,Title I School*,Title 1 School Wide*,Students*,Teachers*,Student Teacher Ratio*,Free Lunch*,Reduced Lunch*
350153000403,NM-069-031,3501530,NM-069,7,8,7TH AND 8TH GRADE ACADEMY,LAS VEGAS CITY PUBLIC SCHOOLS,San Miguel County,901 DOUGLAS AVENUE,LAS VEGAS,NM,87701,,(505)454-5710,33,Town: Remote,No,No,Yes,Yes,218,16.89,12.9,218,0
350006000017,NM-001-321,3500060,NM-001,PK,5,A. MONTOYA ELEMENTARY,ALBUQUERQUE PUBLIC SCHOOLS,Bernalillo County,24 PUBLIC SCHOOL RD,TIJERAS,NM,87059,,(505)281-0880,41,Rural: Fringe,No,No,Yes,Yes,462,30.3,15.2,180,33
350090000259,NM-055-005,3500900,NM-055,KG,6,ABIQUIU ELEMENTARY,ESPANOLA PUBLIC SCHOOLS,Rio Arriba County,714 CALLE DON DIEGO,ESPANOLA,NM,87532,,(505)753-2254,43,Rural: Remote,No,No,Yes,Yes,99,10.4,9.5,99,0
350006000893,NM-001-090,3500060,NM-001,9,12,ABQ CHARTER ACADEMY,ALBUQUERQUE PUBLIC SCHOOLS,Bernalillo County,405 DR. MARTIN LUTHER KING JR.,ALBUQUERQUE,NM,87102,,(505)242-6640,11,City: Large,Yes,No,Yes,Yes,299,12.65,23.6,188,15
350012201071,NM-516-001,3500122,NM-516,1,12,ABQ SCHOOL OF EXCELLENCE,ABQ SCHOOL OF EXCELLENCE,Bernalillo County,13201 LOMAS BLVD NE,ALBUQUERQUE,NM,87112,,(505)312-7711,11,City: Large,Yes,No,Yes,Yes,658,40.53,16.2,358,70
350012301066,NM-517-001,3500123,NM-517,KG,12,ABQ SIGN LANGUAGE ACADEMY,ABQ SIGN LANGUAGE ACADEMY,Bernalillo County,620 LOMAS BLVD NW,ALBUQUERQUE,NM,87102,,(505)244-7553,11,City: Large,Yes,No,Yes,Yes,95,11.98,7.9,34,0
350237000788,NM-071-012,3502370,NM-071,9,12,ACADEMY AT LARRAGOITE,SANTA FE PUBLIC SCHOOLS,Santa Fe County,2505 CAMINO ENTRADA,SANTA FE,NM,87507,,(505)467-0310,13,City: Small,No,No,Yes,Yes,38,3.18,11.9,19,0
350003000799,NM-046-004,3500030,NM-046,10,12,ACADEMY DEL SOL ALT.,ALAMOGORDO PUBLIC SCHOOLS,Otero County,1200 N FLORIDA AVE BLDG C,ALAMOGORDO,NM,88310,,(575)812-5500,33,Town: Remote,No,No,Yes,Yes,152,7.45,20.4,152,0
350237000841,NM-071-024,3502370,NM-071,7,12,ACADEMY FOR TECH & CLASS,SANTA FE PUBLIC SCHOOLS,Santa Fe County,PO BOX 8646,SANTA FE,NM,87508,,(505)473-4282,41,Rural: Fringe,Yes,No,Yes,Yes,390,28.26,13.8,83,35
350006001074,NM-001-749,3500060,NM-001,9,12,ACE LEADERSHIP HIGH SCHOOL,ALBUQUERQUE PUBLIC SCHOOLS,Bernalillo County,1240 BELLAMAH AVE. NW,ALBUQUERQUE,NM,87104,,(505)242-4733,11,City: Large,Yes,No,Yes,Yes,247,11.5,21.5,247,0
350237000534,NM-071-008,3502370,NM-071,KG,6,ACEQUIA MADRE ELEMENTARY,SANTA FE PUBLIC SCHOOLS,Santa Fe County,700 ACEQUIA MADRE ST,SANTA FE,NM,87501,,(505)467-4000,13,City: Small,No,No,–,–,155,11.4,13.6,30,8
350018501150,NM-579-001,3500185,NM-579,–,–,ACES TECHNICAL CHARTER SCHOOL,ACES TECHNICAL CHARTER SCHOOL,†,4501 MONTGOMERY BLVD. NE,ALBUQUERQUE,NM,87109,,(505)506-1186,†,N,Yes,†,†,†,†,†,†,†,†
350006000020,NM-001-206,3500060,NM-001,PK,5,ADOBE ACRES ELEMENTARY,ALBUQUERQUE PUBLIC SCHOOLS,Bernalillo County,1724 CAMINO DEL VALLE SW,ALBUQUERQUE,NM,87105,,(505)877-4799,21,Suburb: Large,No,No,Yes,Yes,472,33.5,14.1,470,0
350006000021,NM-001-207,3500060,NM-001,PK,5,ALAMEDA ELEMENTARY,ALBUQUERQUE PUBLIC SCHOOLS,Bernalillo County,412 ALAMEDA BLVD NW,ALBUQUERQUE,NM,87114,,(505)898-0070,21,Suburb: Large,No,No,Yes,Yes,256,16,16,254,0
350150000376,NM-017-010,3501500,NM-017,PK,5,ALAMEDA ELEMENTARY,LAS CRUCES PUBLIC SCHOOLS,DoÃƒÂ±a Ana County,1325 N. ALAMEDA,LAS CRUCES,NM,88005,,(575)527-9486,12,City: Midsize,No,No,Yes,Yes,415,25.45,16.3,413,0
350003000001,NM-046-015,3500030,NM-046,9,12,ALAMOGORDO HIGH,ALAMOGORDO PUBLIC SCHOOLS,Otero County,103 CUBA AVE,ALAMOGORDO,NM,88310,,(575)812-6500,33,Town: Remote,No,No,Yes,Yes,1564,76.67,20.4,650,144
350006000022,NM-001-210,3500060,NM-001,PK,5,ALAMOSA ELEMENTARY,ALBUQUERQUE PUBLIC SCHOOLS,Bernalillo County,6500 SUNSET GARDENS RD SW,ALBUQUERQUE,NM,87121,,(505)836-0288,11,City: Large,No,No,Yes,Yes,518,36,14.4,512,0
350018101134,NM-574-001,3500181,NM-574,KG,1,ALBUQUERQUE COLLEGIATE CHARTER SCHOOL,ALBUQUERQUE COLLEGIATE CHARTER SCHOOL,Bernalillo County,1720 BRIDGE BLVD SW SUITE #101,ALBUQUERQUE,NM,87105,,(505)539-5283,11,City: Large,Yes,No,Yes,Yes,38,4,9.5,17,0
350006000024,NM-001-590,3500060,NM-001,9,12,ALBUQUERQUE HIGH,ALBUQUERQUE PUBLIC SCHOOLS,Bernalillo County,800 ODELIA RD NE,ALBUQUERQUE,NM,87102,,(505)843-6400,11,City: Large,No,No,Yes,Yes,1806,89.95,20.1,1010,146
350013000921,NM-524-001,3500130,NM-524,6,12,ALBUQUERQUE INSTITUTE OF MATH & SCIENCE,ALBUQUERQUE INSTITUTE OF MATH & SCIENCE,Bernalillo County,933 BRADBURY SE,ALBUQUERQUE,NM,87106,,(505)559-4249,11,City: Large,Yes,No,–,–,355,19.2,18.5,0,0
350090000260,NM-055-015,3500900,NM-055,PK,6,ALCALDE ELEMENTARY,ESPANOLA PUBLIC SCHOOLS,Rio Arriba County,714 CALLE DON DIEGO,ESPANOLA,NM,87532,,(505)852-4253,41,Rural: Fringe,No,No,Yes,Yes,208,14.5,14.3,208,0
350013800938,NM-532-001,3500138,NM-532,6,12,ALDO LEOPOLD CHARTER,ALDO LEOPOLD CHARTER,Grant County,1422 HWY 180 EAST,SILVER CITY,NM,88061,,(575)538-2547,33,Town: Remote,Yes,No,Yes,Yes,177,14.8,12,84,15
350021000147,NM-061-016,3500210,NM-061,PK,5,ALGODONES ELEMENTARY,BERNALILLO PUBLIC SCHOOLS,Sandoval County,224 N CAMINO DEL PUEBLO,ALGODONES,NM,87001,,(505)867-2803,41,Rural: Fringe,No,No,Yes,Yes,165,9.5,17.4,165,0
350006000924,NM-001-116,3500060,NM-001,KG,8,ALICE KING COMMUNITY SCHOOL,ALBUQUERQUE PUBLIC SCHOOLS,Bernalillo County,8100 MOUNTAIN RD. NE,ALBUQUERQUE,NM,87110,,(505)344-0746,11,City: Large,Yes,No,–,–,477,34.67,13.8,97,41
350011600900,NM-511-001,3500116,NM-511,9,12,ALMA D'ARTE CHARTER,ALMA D'ARTE CHARTER,DoÃƒÂ±a Ana County,402 W COURT AVE,LAS CRUCES,NM,88005,,(575)541-0145,12,City: Midsize,Yes,No,Yes,Yes,162,16,10.1,162,0
350108001104,NM-019-018,3501080,NM-019,9,12,ALTA VISTA EARLY COLLEGE HIGH SCHOOL,GADSDEN INDEPENDENT SCHOOLS,DoÃƒÂ±a Ana County,5235 HIGHWAY 28,ANTHONY,NM,88021,,(575)882-6400,41,Rural: Fringe,No,Yes,Yes,Yes,159,10.6,15,159,0
350216000804,NM-079-001,3502160,NM-079,PK,3,ALTA VISTA ELEMENTARY,QUESTA INDEPENDENT SCHOOLS,Taos County,PO BOX 829,QUESTA,NM,87556,,(575)586-0032,43,Rural: Remote,No,No,Yes,Yes,88,6.35,13.9,88,0
350216000495,NM-079-003,3502160,NM-079,4,6,ALTA VISTA INTERMEDIATE,QUESTA INDEPENDENT SCHOOLS,Taos County,PO BOX 829,QUESTA,NM,87556,,(575)586-0032,43,Rural: Remote,No,No,Yes,Yes,77,3.56,21.6,77,0
350017801138,NM-575-001,3500178,NM-575,KG,3,ALTURA PREPARATORY SCHOOL,ALTURA PREPARATORY SCHOOL,Bernalillo County,955 SAN PEDRO SE,ALBUQUERQUE,NM,87108,,(505)539-5369,11,City: Large,Yes,No,Yes,Yes,61,4.09,14.9,47,2
350006000025,NM-001-213,3500060,NM-001,KG,5,ALVARADO ELEMENTARY,ALBUQUERQUE PUBLIC SCHOOLS,Bernalillo County,1100 SOLAR RD NW,ALBUQUERQUE,NM,87107,,(505)344-4412,11,City: Large,No,No,Yes,Yes,296,24,12.3,165,17
350051000200,NM-084-037,3500510,NM-084,PK,4,ALVIS ELEMENTARY,CLAYTON MUNICIPAL SCHOOLS,Union County,404 ASPEN ST,CLAYTON,NM,88415,,(575)374-9611,43,Rural: Remote,No,No,Yes,Yes,187,13.58,13.8,110,24
350013100810,NM-525-001,3500131,NM-525,9,12,AMY BIEHL CHARTER HIGH SCHOOL,AMY BIEHL CHARTER HIGH SCHOOL,Bernalillo County,123 4TH STREET SW,ALBUQUERQUE,NM,87102,,(505)299-9409,11,City: Large,Yes,No,Yes,Yes,302,24.18,12.5,130,34
350237001061,NM-071-141,3502370,NM-071,KG,6,AMY BIEHL COMMUNITY SCHOOL AT RANCHO VIEJO,SANTA FE PUBLIC SCHOOLS,Santa Fe County,310 AVIENDA DEL SUR,SANTA FE,NM,87508,,(505)467-2100,41,Rural: Fringe,No,No,Yes,Yes,473,28.41,16.6,254,53
350252000844,NM-076-006,3502520,NM-076,KG,8,ANANSI CHARTER SCHOOL,TAOS MUNICIPAL SCHOOLS,Taos County,PO BOX 1709,EL PRADO,NM,87529,,(575)758-5202,41,Rural: Fringe,Yes,No,Yes,No,194,14.88,13,73,27
350009000619,NM-030-017,3500090,NM-030,7,12,ANIMAS 7-12 SCHOOL,ANIMAS PUBLIC SCHOOLS,Hidalgo County,PO BOX 85,ANIMAS,NM,88020,,(575)548-2299,43,Rural: Remote,No,No,Yes,Yes,85,6.29,13.5,38,9
350009000618,NM-030-016,3500090,NM-030,PK,4,ANIMAS ELEMENTARY,ANIMAS PUBLIC SCHOOLS,Hidalgo County,PO BOX 85,ANIMAS,NM,88020,,(575)548-2299,43,Rural: Remote,No,No,Yes,Yes,68,6.28,10.8,39,11
350099000280,NM-065-015,3500990,NM-065,KG,5,ANIMAS ELEMENTARY,FARMINGTON MUNICIPAL SCHOOLS,San Juan County,1612 HUTTON AVE,FARMINGTON,NM,87401,,(505)324-9840,13,City: Small,No,No,Yes,Yes,435,30,14.5,435,0
350009030019,NM-030-020,3500090,NM-030,5,6,ANIMAS MIDDLE,ANIMAS PUBLIC SCHOOLS,Hidalgo County,PO BOX 85,ANIMAS,NM,88020,,(575)548-2299,43,Rural: Remote,No,No,Yes,Yes,24,2.16,11.1,11,5
350168000703,NM-086-150,3501680,NM-086,PK,6,ANN PARISH ELEMENTARY,LOS LUNAS PUBLIC SCHOOLS,Valencia County,PO DRAWER 1300,LOS LUNAS,NM,87031,,(505)866-8231,41,Rural: Fringe,No,No,Yes,Yes,452,28.1,16.1,449,0
350108000625,NM-019-016,3501080,NM-019,PK,6,ANTHONY ELEMENTARY,GADSDEN INDEPENDENT SCHOOLS,DoÃƒÂ±a Ana County,609 CHURCH ST,ANTHONY,NM,88021,,(575)882-6203,21,Suburb: Large,No,No,Yes,Yes,379,25.15,15.1,379,0
350108001132,NM-019-060,3501080,NM-019,PK,PK,ANTHONY ON-TRACK PREK CENTER,GADSDEN INDEPENDENT SCHOOLS,DoÃƒÂ±a Ana County,609 CHURCH ST,ANTHONY,NM,88021,,(575)882-1904,21,Suburb: Large,No,No,–,–,175,8,21.9,172,0
350240000324,NM-025-020,3502400,NM-025,6,8,ANTON CHICO MIDDLE,SANTA ROSA CONSOLIDATED SCHOOLS,Guadalupe County,1753 State Hwy 119,ANTON CHICO,NM,87711,,(575)472-3171,43,Rural: Remote,No,No,Yes,Yes,38,2.73,13.9,38,0
350099000281,NM-065-017,3500990,NM-065,KG,5,APACHE ELEMENTARY,FARMINGTON MUNICIPAL SCHOOLS,San Juan County,700 WEST APACHE,FARMINGTON,NM,87401,,(505)324-9840,13,City: Small,No,No,Yes,Yes,458,30,15.3,458,0
350006000026,NM-001-214,3500060,NM-001,PK,5,APACHE ELEMENTARY,ALBUQUERQUE PUBLIC SCHOOLS,Bernalillo County,12800 COPPER ST NE,ALBUQUERQUE,NM,87123,,(505)292-7735,11,City: Large,No,No,Yes,Yes,325,24.2,13.4,320,0
350006000027,NM-001-215,3500060,NM-001,PK,5,ARMIJO ELEMENTARY,ALBUQUERQUE PUBLIC SCHOOLS,Bernalillo County,1440 GATEWOOD RD SW,ALBUQUERQUE,NM,87105,,(505)877-2920,21,Suburb: Large,No,No,Yes,Yes,333,26.15,12.7,330,0
350261000591,NM-073-016,3502610,NM-073,PK,5,ARREY ELEMENTARY,T OR C MUNICIPAL SCHOOLS,Sierra County,7 ARREY CEMETERY RD,ARREY,NM,87930,,(575)894-8150,43,Rural: Remote,No,No,Yes,Yes,91,8.33,10.9,91,0
350150001105,NM-017-019,3501500,NM-017,9,12,ARROWHEAD PARK MEDICAL ACADEMY,LAS CRUCES PUBLIC SCHOOLS,DoÃƒÂ±a Ana County,3600 ARROWHEAD DRIVE,LAS CRUCES,NM,88001,,(575)527-9540,22,Suburb: Midsize,No,Yes,Yes,No,239,7.24,33,0,0
350252000790,NM-076-004,3502520,NM-076,KG,5,ARROYO DEL NORTE ELEMENTARY,TAOS MUNICIPAL SCHOOLS,Taos County,405 HONDO SECO ROAD,ARROYO SECO,NM,87514,,(575)758-5202,42,Rural: Distant,No,No,Yes,Yes,113,8.91,12.7,113,0
350006000028,NM-001-329,3500060,NM-001,PK,5,ARROYO DEL OSO ELEMENTARY,ALBUQUERQUE PUBLIC SCHOOLS,Bernalillo County,6504 HARPER NE,ALBUQUERQUE,NM,87109,,(505)821-9393,11,City: Large,No,No,Yes,Yes,387,25.6,15.1,192,43
350012000127,NM-022-014,3500120,NM-022,10,12,ARTESIA HIGH,ARTESIA PUBLIC SCHOOLS,Eddy County,1006 W. RICHARDSON,ARTESIA,NM,88210,,(575)746-3585,33,Town: Remote,No,No,–,–,793,48.21,16.4,231,36
350012000130,NM-022-187,3500120,NM-022,8,9,ARTESIA PARK JUNIOR HIGH,ARTESIA PUBLIC SCHOOLS,Eddy County,15TH AND CANNON,ARTESIA,NM,88210,,(575)746-3585,33,Town: Remote,No,No,Yes,Yes,566,38.25,14.8,199,32
350012000134,NM-022-189,3500120,NM-022,6,7,ARTESIA ZIA INTERMEDIATE,ARTESIA PUBLIC SCHOOLS,Eddy County,1100 BULLOCK AVE,ARTESIA,NM,88210,,(575)746-3585,33,Town: Remote,No,No,Yes,Yes,594,35.5,16.7,241,43
350057000209,NM-012-042,3500570,NM-012,PK,5,ARTS ACADEMY AT BELLA VISTA,CLOVIS MUNICIPAL SCHOOLS,Curry County,2900 CESAR CHAVEZ DR,CLOVIS,NM,88101,,(575)769-4300,33,Town: Remote,No,Yes,Yes,Yes,371,21.5,17.3,371,0
350237001059,NM-071-054,3502370,NM-071,KG,8,ASPEN COMMUNITY SCHOOL,SANTA FE PUBLIC SCHOOLS,Santa Fe County,450 LA MADERA,SANTA FE,NM,87501,,(505)467-4500,13,City: Small,No,Yes,Yes,Yes,403,34.1,11.8,403,0
350165000427,NM-041-017,3501650,NM-041,KG,6,ASPEN ELEMENTARY,LOS ALAMOS PUBLIC SCHOOLS,Los Alamos County,2182 33RD STREET,LOS ALAMOS,NM,87544,,(505)663-2275,32,Town: Distant,No,No,Yes,No,448,31.87,14.1,66,13
350237000537,NM-071-033,3502370,NM-071,PK,6,ATALAYA ELEMENTARY,SANTA FE PUBLIC SCHOOLS,Santa Fe County,721 CAMINO CABRA,SANTA FE,NM,87501,,(505)467-4400,41,Rural: Fringe,No,No,–,–,313,22.3,14,76,18
350006000029,NM-001-216,3500060,NM-001,PK,5,ATRISCO ELEMENTARY,ALBUQUERQUE PUBLIC SCHOOLS,Bernalillo County,1201 ATRISCO RD SW,ALBUQUERQUE,NM,87105,,(505)877-2772,21,Suburb: Large,No,No,Yes,Yes,320,26.1,12.3,318,0
350006001037,NM-001-576,3500060,NM-001,9,12,ATRISCO HERITAGE ACADEMY HS,ALBUQUERQUE PUBLIC SCHOOLS,Bernalillo County,10800 DENNIS CHAVEZ BLV SW,ALBUQUERQUE,NM,87121,,(505)243-1458,41,Rural: Fringe,No,No,Yes,Yes,2425,135.75,17.9,2422,0
350015000135,NM-064-018,3500150,NM-064,9,12,AZTEC HIGH,AZTEC MUNICIPAL SCHOOLS,San Juan County,500 E. CHACO,AZTEC,NM,87410,,(575)334-9474,31,Town: Fringe,No,No,Yes,No,830,48.42,17.1,329,50
350001100973,NM-099-004,3500011,NM-099,9,12,AZTEC YOUTH ACADEMY,JUVENILE JUSTICE,DoÃƒÂ±a Ana County,300 SAN MATEO NE SUITE 827,ALBUQUERQUE,NM,87110,,(505)526-5900,41,Rural: Fringe,No,No,–,–,28,8,3.5,25,0
350126000357,NM-033-172,3501260,NM-033,PK,4,B.T. WASHINGTON ELEMENTARY,HOBBS MUNICIPAL SCHOOLS,Lea County,1200 EAST HUMBLE,HOBBS,NM,88240,,(575)433-2100,33,Town: Remote,No,No,Yes,Yes,223,12,18.6,123,19
350006000030,NM-001-222,3500060,NM-001,KG,5,BANDELIER ELEMENTARY,ALBUQUERQUE PUBLIC SCHOOLS,Bernalillo County,3309 PERSHING ST SE,ALBUQUERQUE,NM,87106,,(505)255-8744,11,City: Large,No,No,Yes,No,519,33.1,15.7,170,27
350006000031,NM-001-225,3500060,NM-001,PK,6,BARCELONA ELEMENTARY,ALBUQUERQUE PUBLIC SCHOOLS,Bernalillo County,2311 BARCELONA RD SW,ALBUQUERQUE,NM,87105,,(505)877-0400,21,Suburb: Large,No,No,Yes,Yes,410,24.11,17,403,0
350165000428,NM-041-021,3501650,NM-041,PK,6,BARRANCA MESA ELEMENTARY,LOS ALAMOS PUBLIC SCHOOLS,Los Alamos County,57 LOMA DEL ESCOLAR,LOS ALAMOS,NM,87544,,(505)663-2730,41,Rural: Fringe,No,No,–,–,487,32.87,14.8,46,2
350057000208,NM-012-040,3500570,NM-012,KG,5,BARRY ELEMENTARY,CLOVIS MUNICIPAL SCHOOLS,Curry County,3401 THORNTON STREET,CLOVIS,NM,88101,,(575)769-4300,33,Town: Remote,No,No,–,–,385,22,17.5,132,71
350069000941,NM-042-005,3500690,NM-042,PK,5,BATAAN ELEMENTARY,DEMING PUBLIC SCHOOLS,Luna County,2200 HWY 418 SW,DEMING,NM,88030,,(575)544-0900,41,Rural: Fringe,No,No,Yes,Yes,479,33.06,14.5,479,0
350060000225,NM-024-023,3500600,NM-024,PK,6,BAYARD ELEMENTARY,COBRE CONSOLIDATED SCHOOLS,Grant County,100 PARK ST,BAYARD,NM,88023,,(575)537-4011,33,Town: Remote,No,No,Yes,Yes,247,19.85,12.4,247,0
350006000032,NM-001-228,3500060,NM-001,PK,5,BEL-AIR ELEMENTARY,ALBUQUERQUE PUBLIC SCHOOLS,Bernalillo County,4725 CANDELARIA RD NE,ALBUQUERQUE,NM,87110,,(505)888-4033,11,City: Large,No,No,Yes,Yes,278,21.8,12.8,275,0
350018000140,NM-087-026,3500180,NM-087,9,12,BELEN HIGH,BELEN CONSOLIDATED SCHOOLS,Valencia County,520 NORTH MAIN ST,BELEN,NM,87002,,(505)966-1300,41,Rural: Fringe,No,No,Yes,Yes,1021,51,20,1021,0
350018000848,NM-087-001,3500180,NM-087,9,12,BELEN INFINITY HIGH,BELEN CONSOLIDATED SCHOOLS,Valencia County,520 NORTH MAIN ST,BELEN,NM,87002,,(505)966-1500,23,Suburb: Small,No,No,Yes,Yes,89,5.1,17.5,89,0
350018000141,NM-087-025,3500180,NM-087,7,8,BELEN MIDDLE,BELEN CONSOLIDATED SCHOOLS,Valencia County,520 NORTH MAIN ST,BELEN,NM,87002,,(505)966-1600,23,Suburb: Small,No,No,Yes,Yes,552,31.9,17.3,552,0
350069000236,NM-042-024,3500690,NM-042,PK,5,BELL ELEMENTARY,DEMING PUBLIC SCHOOLS,Luna County,1000 EAST MAPLE,DEMING,NM,88030,,(575)546-9712,33,Town: Remote,No,No,Yes,Yes,238,17.93,13.3,238,0
350006000033,NM-001-229,3500060,NM-001,PK,5,BELLEHAVEN ELEMENTARY,ALBUQUERQUE PUBLIC SCHOOLS,Bernalillo County,8701 PRINCESS JEANNE ST NE,ALBUQUERQUE,NM,87112,,(505)298-7489,11,City: Large,No,No,Yes,Yes,360,22,16.4,351,0
350174000449,NM-031-123,3501740,NM-031,2,2,BEN ALEXANDER ELEMENTARY,LOVINGTON MUNICIPAL SCHOOLS,Lea County,1400 SOUTH SIXTH,LOVINGTON,NM,88260,,(575)739-2580,33,Town: Remote,No,No,Yes,Yes,249,13.42,18.6,157,22
350108030017,NM-019-020,3501080,NM-019,PK,6,BERINO ELEMENTARY,GADSDEN INDEPENDENT SCHOOLS,DoÃƒÂ±a Ana County,455 SHRODE RD,ANTHONY,NM,88021,,(575)882-6203,41,Rural: Fringe,No,No,Yes,Yes,427,32.72,13.1,427,0
350021000152,NM-061-136,3500210,NM-061,3,5,BERNALILLO ELEMENTARY,BERNALILLO PUBLIC SCHOOLS,Sandoval County,480 CALLE DEL NORTE,BERNALILLO,NM,87004,,(505)867-3366,21,Suburb: Large,No,No,Yes,Yes,391,27.5,14.2,391,0
350021000148,NM-061-027,3500210,NM-061,9,12,BERNALILLO HIGH,BERNALILLO PUBLIC SCHOOLS,Sandoval County,250 ISIDRO SANCHEZ ROAD,BERNALILLO,NM,87004,,(505)867-2388,21,Suburb: Large,No,No,Yes,Yes,813,50.96,16,813,0
350021000149,NM-061-026,3500210,NM-061,6,8,BERNALILLO MIDDLE,BERNALILLO PUBLIC SCHOOLS,Sandoval County,224 N CAMINO DEL PUEBLO,BERNALILLO,NM,87004,,(505)867-3309,21,Suburb: Large,No,No,Yes,Yes,429,27.25,15.7,429,0
350225000505,NM-004-024,3502250,NM-004,PK,5,BERRENDO ELEMENTARY,ROSWELL INDEPENDENT SCHOOLS,Chaves County,505 W. PINE LODGE RD,ROSWELL,NM,88201,,(575)627-2875,41,Rural: Fringe,No,No,Yes,Yes,413,24.75,16.7,413,0
350225000506,NM-004-025,3502250,NM-004,6,8,BERRENDO MIDDLE,ROSWELL INDEPENDENT SCHOOLS,Chaves County,800 MARION RICHARDS,ROSWELL,NM,88201,,(575)627-2775,41,Rural: Fringe,No,No,Yes,Yes,692,35.83,19.3,692,0
350024000155,NM-066-025,3500240,NM-066,1,6,BLANCO ELEMENTARY,BLOOMFIELD SCHOOLS,San Juan County,7313 US HWY 64,BLANCO,NM,87412,,(505)634-3900,42,Rural: Distant,No,No,Yes,Yes,199,13.5,14.7,199,0
350024000609,NM-066-030,3500240,NM-066,PK,KG,BLOOMFIELD EARLY CHILDHOOD CENTER,BLOOMFIELD SCHOOLS,San Juan County,310 N LAJARA ST,BLOOMFIELD,NM,87413,,(505)634-3883,31,Town: Fringe,No,No,Yes,Yes,312,19.5,16,312,0
350024000156,NM-066-026,3500240,NM-066,9,12,BLOOMFIELD HIGH,BLOOMFIELD SCHOOLS,San Juan County,520 NORTH FIRST ST.,BLOOMFIELD,NM,87413,,(505)634-3400,31,Town: Fringe,No,No,Yes,Yes,716,46.14,15.5,716,0
350117000327,NM-088-915,3501170,NM-088,KG,6,BLUEWATER ELEMENTARY,GRANTS-CIBOLA COUNTY SCHOOLS,Cibola County,15 WEST CHESS ROAD,BLUEWATER,NM,87005,,(505)285-2603,42,Rural: Distant,No,No,Yes,Yes,95,6.85,13.9,95,0
350099000282,NM-065-019,3500990,NM-065,KG,5,BLUFFVIEW ELEMENTARY,FARMINGTON MUNICIPAL SCHOOLS,San Juan County,1204 CAMINO REAL,FARMINGTON,NM,87401,,(505)324-9840,13,City: Small,No,No,Yes,Yes,414,32.53,12.7,414,0
350150000396,NM-017-172,3501500,NM-017,PK,5,BOOKER T. WASHINGTON,LAS CRUCES PUBLIC SCHOOLS,DoÃƒÂ±a Ana County,505 SOUTH MAIN SUITE 249,LAS CRUCES,NM,88001,,(575)527-9595,12,City: Midsize,No,No,Yes,Yes,342,20.65,16.6,342,0
350168000436,NM-086-028,3501680,NM-086,PK,6,BOSQUE FARMS ELEMENTARY,LOS LUNAS PUBLIC SCHOOLS,Valencia County,PO DRAWER 1300,LOS LUNAS,NM,87031,,(505)866-8231,23,Suburb: Small,No,No,Yes,Yes,538,30.1,17.9,234,33
350126000345,NM-033-028,3501260,NM-033,KG,5,BROADMOOR ELEMENTARY,HOBBS MUNICIPAL SCHOOLS,Lea County,1500 NORTH HOUSTON,HOBBS,NM,88240,,(575)433-1500,33,Town: Remote,No,No,Yes,Yes,368,21.85,16.8,194,26
350210000485,NM-057-028,3502100,NM-057,PK,KG,BROWN EARLY CHILDHOOD CENTER,PORTALES MUNICIPAL SCHOOLS,Roosevelt County,520 WEST 5TH STREET,PORTALES,NM,88130,,(575)356-7075,33,Town: Remote,No,No,Yes,Yes,365,25,14.6,84,8
350003000002,NM-046-028,3500030,NM-046,KG,5,BUENA VISTA ELEMENTARY,ALAMOGORDO PUBLIC SCHOOLS,Otero County,2600 19TH ST,ALAMOGORDO,NM,88310,,(575)812-5100,33,Town: Remote,No,No,Yes,Yes,256,12.46,20.5,256,0
350015000136,NM-064-017,3500150,NM-064,6,8,C.V. KOOGLER MIDDLE,AZTEC MUNICIPAL SCHOOLS,San Juan County,455 N LIGHT PLANT RD,AZTEC,NM,87410,,(575)334-9474,31,Town: Fringe,No,No,Yes,Yes,660,39,16.9,318,55
350057000211,NM-012-068,3500570,NM-012,PK,5,CAMEO ELEMENTARY,CLOVIS MUNICIPAL SCHOOLS,Curry County,1500 CAMEO STREET,CLOVIS,NM,88101,,(575)769-4300,33,Town: Remote,No,No,Yes,Yes,303,16,18.9,303,0
350001101108,NM-099-006,3500011,NM-099,6,12,CAMINO NUEVO YOUTH,JUVENILE JUSTICE,Bernalillo County,4050 EDITH BLVD NE,ALBUQUERQUE,NM,87107,,(505)841-2400,21,Suburb: Large,No,No,–,–,35,14.05,2.5,32,0
350150000765,NM-017-002,3501500,NM-017,6,8,CAMINO REAL MIDDLE,LAS CRUCES PUBLIC SCHOOLS,DoÃƒÂ±a Ana County,505 SOUTH MAIN SUITE 249,LAS CRUCES,NM,88001,,(575)527-6030,12,City: Midsize,No,No,Yes,Yes,926,53.14,17.4,345,64
350237000724,NM-071-020,3502370,NM-071,9,12,CAPITAL HIGH,SANTA FE PUBLIC SCHOOLS,Santa Fe County,4851 PASEO DEL SOL,SANTA FE,NM,87507,,(505)467-1000,13,City: Small,No,No,Yes,Yes,1421,85.42,16.6,1418,0
350027000160,NM-040-033,3500270,NM-040,PK,5,CAPITAN ELEMENTARY,CAPITAN MUNICIPAL SCHOOLS,Lincoln County,150 SOUTH FOREST AVE,CAPITAN,NM,88316,,(575)354-2239,43,Rural: Remote,No,No,Yes,Yes,210,17.7,11.9,109,24
350027000161,NM-040-034,3500270,NM-040,9,12,CAPITAN HIGH,CAPITAN MUNICIPAL SCHOOLS,Lincoln County,519 SMOKEY BEAR BLVD,CAPITAN,NM,88316,,(575)354-2239,43,Rural: Remote,No,No,Yes,Yes,171,12.56,13.6,74,24
350027000544,NM-040-036,3500270,NM-040,6,8,CAPITAN MIDDLE,CAPITAN MUNICIPAL SCHOOLS,Lincoln County,519 SMOKEY BEAR BLVD,CAPITAN,NM,88316,,(575)354-2239,43,Rural: Remote,No,No,Yes,Yes,119,9.34,12.7,53,18
350006000456,NM-001-592,3500060,NM-001,9,12,CAREER ENRICHMENT,ALBUQUERQUE PUBLIC SCHOOLS,Bernalillo County,807 MOUNTAIN RD NE,ALBUQUERQUE,NM,87102,,(505)247-3658,11,City: Large,No,No,†,†,–,34.35,†,0,0
350039000772,NM-067-025,3500390,NM-067,9,12,CAREER PREP ALTERNATIVE,CENTRAL CONSOLIDATED SCHOOLS,San Juan County,P. O. BOX 3514,SHIPROCK,NM,87420,,(505)368-4980,41,Rural: Fringe,No,No,Yes,Yes,156,13.6,11.5,156,0
350090000814,NM-055-019,3500900,NM-055,7,8,CARLOS F. VIGIL MIDDLE,ESPANOLA PUBLIC SCHOOLS,Rio Arriba County,714 CALLE DON DIEGO,ESPANOLA,NM,87532,,(505)753-1348,41,Rural: Fringe,No,No,Yes,Yes,529,31,17.1,529,0
350237000538,NM-071-022,3502370,NM-071,KG,6,CARLOS GILBERT ELEMENTARY,SANTA FE PUBLIC SCHOOLS,Santa Fe County,300 GRIFFIN STREET,SANTA FE,NM,87501,,(505)467-4700,13,City: Small,No,No,–,–,347,23.34,14.9,86,16
350006000035,NM-001-339,3500060,NM-001,PK,5,CARLOS REY ELEMENTARY,ALBUQUERQUE PUBLIC SCHOOLS,Bernalillo County,1215 CERRILLOS RD SW,ALBUQUERQUE,NM,87121,,(505)836-7738,11,City: Large,No,No,Yes,Yes,650,40.25,16.1,644,0
350030001109,NM-020-035,3500300,NM-020,9,12,CARLSBAD EARLY COLLEGE HIGH,CARLSBAD MUNICIPAL SCHOOLS,Eddy County,1500 UNIVERSITY,CARLSBAD,NM,88220,,(575)234-9415,41,Rural: Fringe,No,Yes,Yes,No,227,13.55,16.8,42,20
350030000163,NM-020-034,3500300,NM-020,9,12,CARLSBAD HIGH,CARLSBAD MUNICIPAL SCHOOLS,Eddy County,3000 W. CHURCH,CARLSBAD,NM,88220,,(575)234-3300,41,Rural: Fringe,No,No,Yes,Yes,1590,81.05,19.6,425,89
350030000169,NM-020-032,3500300,NM-020,7,8,CARLSBAD INTERMEDIATE SCHOOL,CARLSBAD MUNICIPAL SCHOOLS,Eddy County,800 W. CHURCH,CARLSBAD,NM,88220,,(575)234-3300,33,Town: Remote,No,No,Yes,Yes,943,55.56,17,349,82
350030000162,NM-020-018,3500300,NM-020,6,6,CARLSBAD SIXTH GRADE ACADEMY,CARLSBAD MUNICIPAL SCHOOLS,Eddy County,301 S. ALTA VISTA,CARLSBAD,NM,88220,,(575)234-3300,33,Town: Remote,No,No,Yes,Yes,499,25.05,19.9,206,51
350033000176,NM-037-035,3500330,NM-037,KG,5,CARRIZOZO ELEMENTARY,CARRIZOZO MUNICIPAL SCHOOLS,Lincoln County,PO BOX 99,CARRIZOZO,NM,88301,,(575)648-2348,43,Rural: Remote,No,No,Yes,Yes,45,5.32,8.5,45,0
350033000177,NM-037-036,3500330,NM-037,9,12,CARRIZOZO HIGH,CARRIZOZO MUNICIPAL SCHOOLS,Lincoln County,PO BOX 99,CARRIZOZO,NM,88301,,(575)648-2348,43,Rural: Remote,No,No,Yes,Yes,56,5.6,10,56,0
350033000178,NM-037-157,3500330,NM-037,6,8,CARRIZOZO MIDDLE,CARRIZOZO MUNICIPAL SCHOOLS,Lincoln County,PO BOX 99,CARRIZOZO,NM,88301,,(575)648-2348,43,Rural: Remote,No,No,Yes,Yes,41,4.63,8.9,41,0
350111000299,NM-043-034,3501110,NM-043,PK,5,CATHERINE A. MILLER ELEMENTARY,GALLUP-MCKINLEY CTY SCHOOLS,McKinley County,6201 CHALLENGER RD,CHURCH ROCK,NM,87311,,(505)721-1051,41,Rural: Fringe,No,No,Yes,Yes,338,23.5,14.4,338,0
350096000623,NM-032-049,3500960,NM-032,6,8,CATON MIDDLE,EUNICE MUNICIPAL SCHOOLS,Lea County,PO BOX 129,EUNICE,NM,88231,,(575)394-3338,33,Town: Remote,No,No,Yes,Yes,197,7.47,26.4,119,11
350150001090,NM-017-018,3501500,NM-017,9,12,CENTENNIAL HIGH SCHOOL,LAS CRUCES PUBLIC SCHOOLS,DoÃƒÂ±a Ana County,1950 S SONOMA RANCH BLVD,LAS CRUCES,NM,88001,,(575)527-9330,12,City: Midsize,No,No,Yes,Yes,1558,81.42,19.1,671,74
350162000422,NM-029-034,3501620,NM-029,5,6,CENTRAL ELEMENTARY,LORDSBURG MUNICIPAL SCHOOLS,Hidalgo County,1352 HARDIN ST,LORDSBURG,NM,88045,,(575)542-9222,43,Rural: Remote,No,No,Yes,Yes,87,6.23,14,87,0
350060000226,NM-024-033,3500600,NM-024,PK,6,CENTRAL ELEMENTARY,COBRE CONSOLIDATED SCHOOLS,Grant County,211 CEDAR ST,SANTA CLARA,NM,88026,,(575)537-4011,33,Town: Remote,No,No,Yes,Yes,268,23.45,11.4,268,0
350150000379,NM-017-034,3501500,NM-017,PK,5,CENTRAL ELEMENTARY,LAS CRUCES PUBLIC SCHOOLS,DoÃƒÂ±a Ana County,505 SOUTH MAIN SUITE 249,LAS CRUCES,NM,88001,,(575)527-9496,12,City: Midsize,No,No,Yes,Yes,218,18.3,11.9,218,0
350012000128,NM-022-032,3500120,NM-022,KG,5,CENTRAL ELEMENTARY,ARTESIA PUBLIC SCHOOLS,Eddy County,405 SOUTH SIXTH,ARTESIA,NM,88210,,(575)746-3585,33,Town: Remote,No,No,Yes,Yes,171,12.52,13.7,102,19
350018000142,NM-087-034,3500180,NM-087,4,6,CENTRAL ELEMENTARY,BELEN CONSOLIDATED SCHOOLS,Valencia County,520 NORTH MAIN ST,BELEN,NM,87002,,(505)966-1200,23,Suburb: Small,No,No,Yes,Yes,244,15.6,15.6,244,0
350039000179,NM-067-035,3500390,NM-067,9,12,CENTRAL HIGH,CENTRAL CONSOLIDATED SCHOOLS,San Juan County,550 ROAD 6100,KIRTLAND,NM,87417,,(505)598-5881,31,Town: Fringe,No,No,Yes,Yes,708,44.71,15.8,708,0
350001200986,NM-091-004,3500012,NM-091,8,12,CENTRAL NM CORRECTIONS,NM CORRECTIONS,Valencia County,1525 MORRIS RD,LOS LUNAS,NM,87031,,(505)383-3359,23,Suburb: Small,No,No,–,–,2,0.5,4,0,0
350024000157,NM-066-033,3500240,NM-066,1,3,CENTRAL PRIMARY,BLOOMFIELD SCHOOLS,San Juan County,310 W. SYCAMORE,BLOOMFIELD,NM,87413,,(505)632-2121,31,Town: Fringe,No,No,Yes,Yes,496,31.65,15.7,496,0
350168000807,NM-086-009,3501680,NM-086,9,12,CENTURY ALT HIGH,LOS LUNAS PUBLIC SCHOOLS,Valencia County,PO DRAWER 1300,LOS LUNAS,NM,87301,,(505)866-8231,23,Suburb: Small,No,No,Yes,Yes,165,6.91,23.9,165,0
350011700891,NM-512-001,3500117,NM-512,9,12,CESAR CHAVEZ COMMUNITY SCHOOL,CESAR CHAVEZ COMMUNITY SCHOOL,Bernalillo County,1325 PALOMAS DR SE,ALBUQUERQUE,NM,87108,,(505)877-0558,11,City: Large,Yes,No,Yes,Yes,203,11.36,17.9,203,0
350150000794,NM-017-006,3501500,NM-017,PK,2,CESAR CHAVEZ ELEMENTARY,LAS CRUCES PUBLIC SCHOOLS,DoÃƒÂ±a Ana County,505 SOUTH MAIN SUITE 249,LAS CRUCES,NM,88001,,(575)527-6022,12,City: Midsize,No,No,Yes,Yes,509,37.03,13.7,509,0
350237000759,NM-071-005,3502370,NM-071,PK,5,CESAR CHAVEZ ELEMENTARY,SANTA FE PUBLIC SCHOOLS,Santa Fe County,6251 JAGUAR DRIVE,SANTA FE,NM,87507,,(505)467-3200,13,City: Small,No,No,Yes,Yes,413,30.44,13.6,413,0
350042000192,NM-053-036,3500420,NM-053,PK,5,CHAMA ELEMENTARY,CHAMA VALLEY INDEP. SCHOOLS,Rio Arriba County,182 NORTH PINE AVE,CHAMA,NM,87520,,(575)588-7285,43,Rural: Remote,No,No,Yes,Yes,102,8,12.8,101,0
350042000193,NM-053-042,3500420,NM-053,6,8,CHAMA MIDDLE,CHAMA VALLEY INDEP. SCHOOLS,Rio Arriba County,181 NORTH PINE AVE,CHAMA,NM,87520,,(575)588-7285,43,Rural: Remote,No,No,Yes,Yes,30,2.5,12,30,0
350165000429,NM-041-040,3501650,NM-041,KG,6,CHAMISA ELEMENTARY,LOS ALAMOS PUBLIC SCHOOLS,Los Alamos County,301 MEADOW LANE,WHITE ROCK,NM,87547,,(505)663-2470,32,Town: Distant,No,No,–,–,273,21.2,12.9,30,7
350006000642,NM-001-295,3500060,NM-001,KG,5,CHAMIZA ELEMENTARY,ALBUQUERQUE PUBLIC SCHOOLS,Bernalillo County,5401 HOMESTEAD CIR NW,ALBUQUERQUE,NM,87120,,(505)897-5174,11,City: Large,No,No,Yes,Yes,419,28.93,14.5,150,27
350006000036,NM-001-234,3500060,NM-001,PK,5,CHAPARRAL ELEMENTARY,ALBUQUERQUE PUBLIC SCHOOLS,Bernalillo County,6325 MILNE RD NW,ALBUQUERQUE,NM,87120,,(505)831-3301,11,City: Large,No,No,Yes,Yes,788,62.5,12.6,776,0
350069000237,NM-042-028,3500690,NM-042,PK,5,CHAPARRAL ELEMENTARY,DEMING PUBLIC SCHOOLS,Luna County,1400 EAST HOLLY,DEMING,NM,88030,,(575)546-2047,33,Town: Remote,No,No,Yes,Yes,400,26.04,15.4,400,0
350108000659,NM-019-030,3501080,NM-019,PK,6,CHAPARRAL ELEMENTARY,GADSDEN INDEPENDENT SCHOOLS,DoÃƒÂ±a Ana County,300 LISA DRIVE,CHAPARRAL,NM,88021,,(575)882-6203,41,Rural: Fringe,No,No,Yes,Yes,498,38,13.1,498,0
350237000539,NM-071-146,3502370,NM-071,KG,6,CHAPARRAL ELEMENTARY,SANTA FE PUBLIC SCHOOLS,Santa Fe County,2451 AVENIDA CHAPARRAL,SANTA FE,NM,87505,,(505)467-1400,13,City: Small,No,No,Yes,Yes,298,21.02,14.2,158,26
350108000935,NM-019-003,3501080,NM-019,9,12,CHAPARRAL HIGH,GADSDEN INDEPENDENT SCHOOLS,DoÃƒÂ±a Ana County,800 COUNTY LINE DR,ANTHONY,NM,88021,,(575)882-6203,41,Rural: Fringe,No,No,Yes,Yes,1082,56.46,19.2,1082,0
350108000202,NM-019-032,3501080,NM-019,7,8,CHAPARRAL MIDDLE,GADSDEN INDEPENDENT SCHOOLS,DoÃƒÂ±a Ana County,290 LISA DRIVE,CHAPARRAL,NM,88021,,(575)882-6203,41,Rural: Fringe,No,No,Yes,Yes,632,37.61,16.8,632,0
350003000003,NM-046-033,3500030,NM-046,6,8,CHAPARRAL MIDDLE,ALAMOGORDO PUBLIC SCHOOLS,Otero County,1401 COLLEGE AVE,ALAMOGORDO,NM,88310,,(575)812-6300,33,Town: Remote,No,No,Yes,Yes,658,40.76,16.1,345,57
350108001131,NM-019-061,3501080,NM-019,PK,PK,CHAPARRAL ON-TRACK PREK CENTER,GADSDEN INDEPENDENT SCHOOLS,DoÃƒÂ±a Ana County,800 COUNTY LINE ROAD,CHAPARRAL,NM,88081,,(575)649-7724,31,Town: Fringe,No,No,–,–,138,4,34.5,135,0
350024000771,NM-066-001,3500240,NM-066,9,12,CHARLIE Y. BROWN ALT,BLOOMFIELD SCHOOLS,San Juan County,924 S. BLOOMFIELD BLVD,BLOOMFIELD,NM,87413,,(505)634-3946,31,Town: Fringe,No,No,Yes,Yes,92,5.34,17.2,92,0
350111000732,NM-043-030,3501110,NM-043,PK,5,CHEE DODGE ELEMENTARY,GALLUP-MCKINLEY CTY SCHOOLS,McKinley County,641 N HWY 491,YAH TA HEY,NM,87375,,(505)721-1051,41,Rural: Fringe,No,No,Yes,Yes,290,23,12.6,290,0
350006000037,NM-001-236,3500060,NM-001,KG,5,CHELWOOD ELEMENTARY,ALBUQUERQUE PUBLIC SCHOOLS,Bernalillo County,12701 CONSTITUTION AV NE,ALBUQUERQUE,NM,87112,,(505)296-5655,11,City: Large,No,No,Yes,Yes,508,34.1,14.9,501,0
350111001027,NM-043-003,3501110,NM-043,6,8,CHIEF MANUELITO MIDDLE,GALLUP-MCKINLEY CTY SCHOOLS,McKinley County,1325 SOUTH RICO ST,GALLUP,NM,87301,,(505)721-1051,41,Rural: Fringe,No,No,Yes,Yes,581,37.5,15.5,581,0
350001600983,NM-095-994,3500016,NM-095,PK,12,CHILDRENS PSYCHIATRY,CHILDRENS PSYC,Bernalillo County,1001 YALE BLVD NE,ALBUQUERQUE,NM,87106,,(505)272-2890,11,City: Large,No,No,–,–,30,4,7.5,0,0
350090000264,NM-055-039,3500900,NM-055,KG,6,CHIMAYO ELEMENTARY,ESPANOLA PUBLIC SCHOOLS,Rio Arriba County,714 CALLE DON DIEGO,ESPANOLA,NM,87532,,(505)753-2254,32,Town: Distant,No,No,Yes,Yes,144,11,13.1,144,0
350006000925,NM-001-118,3500060,NM-001,PK,8,CHRISTINE DUNCAN HERITAGE ACADEMY,ALBUQUERQUE PUBLIC SCHOOLS,Bernalillo County,1900 ATRISCO DR. NW,ALBUQUERQUE,NM,87120,,(505)839-4971,11,City: Large,Yes,No,Yes,Yes,433,28,15.5,433,0
350252000914,NM-076-010,3502520,NM-076,7,12,CHRYSALIS ALTERNATIVE,TAOS MUNICIPAL SCHOOLS,Taos County,134 CERVANTES,TAOS,NM,87571,,(575)758-5202,33,Town: Remote,No,No,–,–,3,0.94,3.2,†,†
350006000038,NM-001-580,3500060,NM-001,9,12,CIBOLA HIGH,ALBUQUERQUE PUBLIC SCHOOLS,Bernalillo County,1510 ELLISON DR NW,ALBUQUERQUE,NM,87114,,(505)897-0110,11,City: Large,No,No,–,–,1847,99.95,18.5,620,146
350001001034,NM-083-021,3500010,NM-083,KG,5,CIELO AZUL ELEMENTARY,RIO RANCHO PUBLIC SCHOOLS,Sandoval County,3804 SHILOH RD NE,RIO RANCHO,NM,87144,,(505)338-2320,41,Rural: Fringe,No,No,Yes,Yes,752,50.54,14.9,227,60
350006001050,NM-001-780,3500060,NM-001,KG,8,CIEN AGUAS INTERNATIONAL,ALBUQUERQUE PUBLIC SCHOOLS,Bernalillo County,2000 RANDOLPH RD. SE,ALBUQUERQUE,NM,87106,,(505)255-0001,11,City: Large,Yes,No,Yes,No,426,27.47,15.5,196,58
350048000197,NM-008-033,3500480,NM-008,KG,4,CIMARRON ELEMENTARY,CIMARRON MUNICIPAL SCHOOLS,Colfax County,132 N. COLLISON AVE.,CIMARRON,NM,87714,,(575)376-2445,43,Rural: Remote,No,No,Yes,Yes,53,6.57,8.1,47,1
350048000198,NM-008-034,3500480,NM-008,9,12,CIMARRON HIGH,CIMARRON MUNICIPAL SCHOOLS,Colfax County,165 N. COLLISON AVE.,CIMARRON,NM,87714,,(575)376-2445,43,Rural: Remote,No,No,Yes,Yes,74,7.46,9.9,44,13
350048000699,NM-008-036,3500480,NM-008,5,8,CIMARRON MIDDLE,CIMARRON MUNICIPAL SCHOOLS,Colfax County,132 N. COLLISON AVE.,CIMARRON,NM,87714,,(575)376-2445,43,Rural: Remote,No,No,Yes,Yes,47,6.93,6.8,31,2
350051000203,NM-084-039,3500510,NM-084,9,12,CLAYTON HIGH,CLAYTON MUNICIPAL SCHOOLS,Union County,323 SOUTH 5TH ST,CLAYTON,NM,88415,,(575)374-9611,43,Rural: Remote,No,No,Yes,Yes,143,11.24,12.7,56,15
350051000204,NM-084-038,3500510,NM-084,7,8,CLAYTON JUNIOR HIGH,CLAYTON MUNICIPAL SCHOOLS,Union County,224 SPRUCE ST,CLAYTON,NM,88415,,(575)374-9611,43,Rural: Remote,No,No,Yes,Yes,74,6.07,12.2,39,8
350001001024,NM-083-011,3500010,NM-083,9,12,CLEVELAND HIGH SCHOOL,RIO RANCHO PUBLIC SCHOOLS,Sandoval County,4800 CLEVELAND HEIGHTS RD NE,RIO RANCHO,NM,87144,,(505)938-0300,41,Rural: Fringe,No,No,–,–,2461,122.94,20,554,125
350006000617,NM-001-407,3500060,NM-001,6,8,CLEVELAND MIDDLE,ALBUQUERQUE PUBLIC SCHOOLS,Bernalillo County,6910 NATALIE ST NE,ALBUQUERQUE,NM,87110,,(505)881-9227,11,City: Large,No,No,Yes,Yes,628,43.5,14.4,355,63
350243000559,NM-023-037,3502430,NM-023,KG,6,CLIFF ELEMENTARY,SILVER CONSOLIDATED SCHOOLS,Grant County,622 STATE HWY 211,CLIFF,NM,88028,,(575)535-2051,43,Rural: Remote,No,No,Yes,Yes,132,11.25,11.7,132,0
350243000560,NM-023-034,3502430,NM-023,7,12,CLIFF HIGH,SILVER CONSOLIDATED SCHOOLS,Grant County,622 STATE HWY 211,CLIFF,NM,88028,,(575)535-2051,43,Rural: Remote,No,No,Yes,Yes,103,11.5,9,58,3
350054000206,NM-048-038,3500540,NM-048,PK,5,CLOUDCROFT ELEMENTARY,CLOUDCROFT MUNICIPAL SCHOOLS,Otero County,PO BOX 198,CLOUDCROFT,NM,88317,,(575)601-4416,43,Rural: Remote,No,No,Yes,Yes,146,11.31,12.9,53,15
350054000207,NM-048-039,3500540,NM-048,9,12,CLOUDCROFT HIGH,CLOUDCROFT MUNICIPAL SCHOOLS,Otero County,PO BOX 198,CLOUDCROFT,NM,88317,,(575)601-4416,43,Rural: Remote,No,No,–,–,144,9.44,15.3,45,23
350054030005,NM-048-042,3500540,NM-048,6,8,CLOUDCROFT MIDDLE,CLOUDCROFT MUNICIPAL SCHOOLS,Otero County,PO BOX 198,CLOUDCROFT,NM,88317,,(575)601-4416,43,Rural: Remote,No,No,Yes,Yes,91,6,15.2,36,12
350057000213,NM-012-036,3500570,NM-012,9,12,CLOVIS HIGH,CLOVIS MUNICIPAL SCHOOLS,Curry County,1900 THORNTON,CLOVIS,NM,88101,,(575)769-4300,33,Town: Remote,No,No,Yes,Yes,1525,84.97,17.9,578,54
350057000222,NM-012-056,3500570,NM-012,9,9,CLOVIS HS FRESHMAN ACADEMY,CLOVIS MUNICIPAL SCHOOLS,Curry County,1400 CAMEO,CLOVIS,NM,88101,,(575)769-4300,33,Town: Remote,No,No,Yes,Yes,572,32.46,17.6,572,0
350060000227,NM-024-036,3500600,NM-024,9,12,COBRE HIGH,COBRE CONSOLIDATED SCHOOLS,Grant County,1300 TOM FOY BLVD,BAYARD,NM,88023,,(575)537-4020,33,Town: Remote,No,No,Yes,No,340,21.85,15.6,340,0
350021000150,NM-061-020,3500210,NM-061,PK,5,COCHITI ELEMENTARY,BERNALILLO PUBLIC SCHOOLS,Sandoval County,800 QUAIL HILL TRAIL,PENA BLANCA,NM,87041,,(505)867-5547,41,Rural: Fringe,No,No,Yes,Yes,193,14.8,13,193,0
350006000040,NM-001-237,3500060,NM-001,PK,5,COCHITI ELEMENTARY,ALBUQUERQUE PUBLIC SCHOOLS,Bernalillo County,3100 SAN ISIDRO RD NW,ALBUQUERQUE,NM,87107,,(505)345-1432,11,City: Large,No,No,Yes,Yes,289,21.05,13.7,286,0
350021000727,NM-061-024,3500210,NM-061,6,8,COCHITI MIDDLE,BERNALILLO PUBLIC SCHOOLS,Sandoval County,800 QUAIL HILL TRAIL,PENA BLANCA,NM,87041,,(505)867-5547,41,Rural: Fringe,No,No,Yes,Yes,69,8,8.6,69,0
350001000750,NM-083-050,3500010,NM-083,KG,5,COLINAS DEL NORTE ELEMENTARY,RIO RANCHO PUBLIC SCHOOLS,Sandoval County,1001 NIGHT SKY AVE NE,RIO RANCHO,NM,87144,,(505)896-3378,21,Suburb: Large,No,No,Yes,Yes,751,51.91,14.5,367,63
350006001100,NM-001-591,3500060,NM-001,9,12,COLLEGE AND CAREER HIGH SCHOOL,ALBUQUERQUE PUBLIC SCHOOLS,Bernalillo County,525 BUENA VISTA DR SE,ALBUQUERQUE,NM,87106,,(505)224-4880,11,City: Large,No,Yes,–,–,168,7.34,22.9,45,10
350126000686,NM-033-030,3501260,NM-033,KG,5,COLLEGE LANE ELEMENTARY,HOBBS MUNICIPAL SCHOOLS,Lea County,2000 COLLEGE LANE,HOBBS,NM,88240,,(575)433-2600,41,Rural: Fringe,No,No,Yes,Yes,521,28.93,18,181,38
350006000041,NM-001-240,3500060,NM-001,PK,5,COLLET PARK ELEMENTARY,ALBUQUERQUE PUBLIC SCHOOLS,Bernalillo County,2100 MORRIS ST NE,ALBUQUERQUE,NM,87112,,(505)298-3010,11,City: Large,No,No,Yes,Yes,377,27.85,13.5,370,0
350150000884,NM-017-009,3501500,NM-017,PK,5,COLUMBIA ELEMENTARY,LAS CRUCES PUBLIC SCHOOLS,DoÃƒÂ±a Ana County,4555 ELKS DRIVE,LAS CRUCES,NM,88005,,(575)527-1561,22,Suburb: Midsize,No,No,Yes,Yes,454,27.36,16.6,454,0
350069000238,NM-042-036,3500690,NM-042,PK,5,COLUMBUS ELEMENTARY,DEMING PUBLIC SCHOOLS,Luna County,PO BOX 210,COLUMBUS,NM,88029,,(575)531-2710,43,Rural: Remote,No,No,Yes,Yes,600,36.7,16.3,600,0
350006000042,NM-001-241,3500060,NM-001,KG,5,COMANCHE ELEMENTARY,ALBUQUERQUE PUBLIC SCHOOLS,Bernalillo County,3505 PENNSYLVANIA ST NE,ALBUQUERQUE,NM,87110,,(505)884-5275,11,City: Large,No,No,Yes,Yes,371,23.8,15.6,204,26
350150000380,NM-017-036,3501500,NM-017,PK,5,CONLEE ELEMENTARY,LAS CRUCES PUBLIC SCHOOLS,DoÃƒÂ±a Ana County,505 SOUTH MAIN SUITE 249,LAS CRUCES,NM,88001,,(575)527-9656,12,City: Midsize,No,No,Yes,Yes,470,33.9,13.9,470,0
350006000709,NM-001-035,3500060,NM-001,PK,12,CONTINUATION SCHOOL,ALBUQUERQUE PUBLIC SCHOOLS,Bernalillo County,5100 2ND ST NW,ALBUQUERQUE,NM,87106,,(505)468-7284,11,City: Large,No,No,Yes,Yes,2,0,†,†,†
350015401081,NM-541-001,3500154,NM-541,–,–,CORAL COMMUNITY CHARTER,CORAL COMMUNITY CHARTER,Bernalillo County,4401 SILVER AVENUE SE,ALBUQUERQUE,NM,87108,,(505)292-6725,11,City: Large,Yes,No,Yes,Yes,251,14.6,17.2,90,13
350063000231,NM-038-038,3500630,NM-038,PK,6,CORONA ELEMENTARY,CORONA MUNICIPAL SCHOOLS,Lincoln County,250 FRANKLIN ST,CORONA,NM,88318,,(575)849-1711,43,Rural: Remote,No,No,Yes,Yes,34,5.85,5.8,31,0
350063000232,NM-038-039,3500630,NM-038,7,12,CORONA HIGH,CORONA MUNICIPAL SCHOOLS,Lincoln County,531 FRANKLIN ST,CORONA,NM,88318,,(575)849-1911,43,Rural: Remote,No,No,Yes,Yes,29,6.79,4.3,26,0
350126000346,NM-033-032,3501260,NM-033,KG,5,CORONADO ELEMENTARY,HOBBS MUNICIPAL SCHOOLS,Lea County,2600 NORTH BRAZOS,HOBBS,NM,88240,,(575)433-2300,33,Town: Remote,No,No,Yes,Yes,438,24.04,18.2,230,30
350006001054,NM-001-243,3500060,NM-001,KG,5,CORONADO ELEMENTARY,ALBUQUERQUE PUBLIC SCHOOLS,Bernalillo County,601 4TH ST SW,ALBUQUERQUE,NM,87102,,(505)843-8283,11,City: Large,No,Yes,–,–,306,18.45,16.6,102,40
350138000366,NM-056-038,3501380,NM-056,9,12,CORONADO HIGH,JEMEZ MOUNTAIN PUBLIC SCHOOLS,Rio Arriba County,PO BOX 230,GALLINA,NM,87017,,(575)638-5419,43,Rural: Remote,No,No,Yes,Yes,46,3,15.3,46,0
350138000409,NM-056-060,3501380,NM-056,6,8,CORONADO MIDDLE,JEMEZ MOUNTAIN PUBLIC SCHOOLS,Rio Arriba County,PO BOX 230,GALLINA,NM,87017,,(575)638-5419,43,Rural: Remote,No,No,Yes,Yes,31,2.75,11.3,31,0
350006000107,NM-001-351,3500060,NM-001,KG,5,CORRALES ELEMENTARY,ALBUQUERQUE PUBLIC SCHOOLS,Sandoval County,200 TARGET RD,CORRALES,NM,87048,,(505)792-7400,21,Suburb: Large,No,No,–,–,378,22.5,16.8,105,9
350006001028,NM-001-028,3500060,NM-001,KG,12,CORRALES INTERNATIONAL,ALBUQUERQUE PUBLIC SCHOOLS,Bernalillo County,5500 WILSHIRE AVE. NE,ALBUQUERQUE,NM,87113,,(505)344-9733,11,City: Large,Yes,No,–,–,239,19.5,12.3,42,4
350006001031,NM-001-769,3500060,NM-001,6,12,COTTONWOOD CLASSICAL PREP,ALBUQUERQUE PUBLIC SCHOOLS,Bernalillo County,7801 JEFFERSON ST. NE,ALBUQUERQUE,NM,87109,,(505)998-1021,11,City: Large,Yes,No,–,–,727,48.38,15,27,4
350246000843,NM-074-003,3502460,NM-074,KG,8,COTTONWOOD VALLEY CHARTER,SOCORRO CONSOLIDATED SCHOOLS,Socorro County,PO BOX 1829,SOCORRO,NM,87801,,(575)838-2026,33,Town: Remote,Yes,No,Yes,No,170,13,13.1,170,0
350099000283,NM-065-037,3500990,NM-065,KG,5,COUNTRY CLUB ELEMENTARY,FARMINGTON MUNICIPAL SCHOOLS,San Juan County,5300 FOOTHILLS DRIVE,FARMINGTON,NM,87401,,(505)324-9840,13,City: Small,No,No,–,–,584,34,17.2,166,2
350006001133,NM-001-952,3500060,NM-001,KG,8,COYOTE WILLOW FAMILY SCHOOL,ALBUQUERQUE PUBLIC SCHOOLS,Bernalillo County,7125 IRVING BLVD NW,ALBUQUERQUE,NM,87114,,(505)253-0050,21,Suburb: Large,No,Yes,–,–,215,10.8,19.9,16,3
350030000463,NM-020-038,3500300,NM-020,1,5,CRAFT ELEMENTARY,CARLSBAD MUNICIPAL SCHOOLS,Eddy County,406 WEST LEA,CARLSBAD,NM,88220,,(575)234-3300,33,Town: Remote,No,No,Yes,Yes,190,13.65,13.9,87,9
350111000300,NM-043-038,3501110,NM-043,PK,5,CROWNPOINT ELEMENTARY,GALLUP-MCKINLEY CTY SCHOOLS,McKinley County,#1 CODETALKER DR.,CROWNPOINT,NM,87313,,(505)721-1051,43,Rural: Remote,No,No,Yes,Yes,315,23.5,13.4,315,0
350111000301,NM-043-039,3501110,NM-043,9,12,CROWNPOINT HIGH,GALLUP-MCKINLEY CTY SCHOOLS,McKinley County,#1 EAGLE DR,CROWNPOINT,NM,87313,,(505)721-1051,43,Rural: Remote,No,No,Yes,Yes,267,16.9,15.8,267,0
350111000881,NM-043-088,3501110,NM-043,6,8,CROWNPOINT MIDDLE,GALLUP-MCKINLEY CTY SCHOOLS,McKinley County,#1 EAGLE DR,CROWNPOINT,NM,87313,,(505)721-1051,43,Rural: Remote,No,No,Yes,Yes,174,13.4,13,174,0
350066000233,NM-062-037,3500660,NM-062,PK,5,CUBA ELEMENTARY,CUBA INDEPENDENT SCHOOLS,Sandoval County,PO BOX 70,CUBA,NM,87013,,(575)289-3211,43,Rural: Remote,No,No,Yes,Yes,194,19.69,9.9,194,0
350066000234,NM-062-038,3500660,NM-062,9,12,CUBA HIGH,CUBA INDEPENDENT SCHOOLS,Sandoval County,PO BOX 70,CUBA,NM,87013,,(575)289-3211,43,Rural: Remote,No,No,Yes,Yes,242,22.08,11,242,0
350066000235,NM-062-075,3500660,NM-062,6,8,CUBA MIDDLE,CUBA INDEPENDENT SCHOOLS,Sandoval County,PO BOX 70,CUBA,NM,87013,,(575)289-3211,43,Rural: Remote,No,No,Yes,Yes,110,10.09,10.9,110,0
350117000328,NM-088-038,3501170,NM-088,KG,6,CUBERO ELEMENTARY,GRANTS-CIBOLA COUNTY SCHOOLS,Cibola County,100 MAIN ST,CUBERO,NM,87014,,(505)285-2603,43,Rural: Remote,No,No,Yes,Yes,269,21.75,12.4,269,0
350213000491,NM-003-045,3502130,NM-003,KG,6,DATIL ELEMENTARY,QUEMADO INDEPENDENT SCHOOLS,Catron County,HWY 12,DATIL,NM,87821,,(575)773-4700,43,Rural: Remote,No,No,Yes,Yes,14,2.11,6.6,7,2
350111030021,NM-043-160,3501110,NM-043,PK,5,DAVID SKEET ELEMENTARY,GALLUP-MCKINLEY CTY SCHOOLS,McKinley County,JONES RANCH RD 45,VANDERWAGEN,NM,87326,,(505)721-1051,43,Rural: Remote,No,No,Yes,Yes,225,18,12.5,225,0
350111001137,NM-043-174,3501110,NM-043,PK,5,DEL NORTE ELEMENTARY,GALLUP-MCKINLEY CTY SCHOOLS,McKinley County,700 WEST WILSON,GALLUP,NM,87301,,(505)721-1051,33,Town: Remote,No,No,Yes,Yes,473,34,13.9,473,0
350225000508,NM-004-041,3502250,NM-004,KG,5,DEL NORTE ELEMENTARY,ROSWELL INDEPENDENT SCHOOLS,Chaves County,2701 N. GARDEN AVE,ROSWELL,NM,88201,,(575)637-3325,33,Town: Remote,No,No,Yes,Yes,520,29.95,17.4,520,0
350006000044,NM-001-514,3500060,NM-001,9,12,DEL NORTE HIGH,ALBUQUERQUE PUBLIC SCHOOLS,Bernalillo County,5323 MONTGOMERY NE,ALBUQUERQUE,NM,87110,,(505)883-7222,11,City: Large,No,No,Yes,Yes,1089,66.45,16.4,679,68
350069000963,NM-042-006,3500690,NM-042,9,12,DEMING CESAR CHAVEZ,DEMING PUBLIC SCHOOLS,Luna County,PO BOX 1658,DEMING,NM,88030,,(575)544-8404,33,Town: Remote,Yes,No,Yes,Yes,158,6.15,25.7,158,0
350069000239,NM-042-044,3500690,NM-042,9,12,DEMING HIGH,DEMING PUBLIC SCHOOLS,Luna County,1300 S. IRON ST.,DEMING,NM,88030,,(575)546-2678,33,Town: Remote,No,No,Yes,Yes,1338,77.38,17.3,1338,0
350069000240,NM-042-025,3500690,NM-042,6,6,DEMING INTERMEDIATE,DEMING PUBLIC SCHOOLS,Luna County,1750 PEAR ST. SW,DEMING,NM,88030,,(575)546-6568,41,Rural: Fringe,No,No,Yes,Yes,409,24.82,16.5,409,0
350006000681,NM-001-203,3500060,NM-001,PK,5,DENNIS CHAVEZ ELEMENTARY,ALBUQUERQUE PUBLIC SCHOOLS,Bernalillo County,7500 BARSTOW NE,ALBUQUERQUE,NM,87109,,(505)821-1810,11,City: Large,No,No,–,–,559,40.24,13.9,98,9
350018000143,NM-087-080,3500180,NM-087,PK,6,DENNIS CHAVEZ ELEMENTARY,BELEN CONSOLIDATED SCHOOLS,Valencia County,520 NORTH MAIN ST,BELEN,NM,87002,,(505)966-1800,23,Suburb: Small,No,No,Yes,Yes,280,17.4,16.1,280,0
350072000245,NM-085-044,3500720,NM-085,KG,6,DES MOINES ELEMENTARY,DES MOINES MUNICIPAL SCHOOLS,Union County,500 DES MOINES AVENUE,DES MOINES,NM,88418,,(575)278-2611,43,Rural: Remote,No,No,Yes,Yes,41,6.64,6.2,12,6
350072000246,NM-085-045,3500720,NM-085,7,12,DES MOINES HIGH,DES MOINES MUNICIPAL SCHOOLS,Union County,500 DES MOINES AVENUE,DES MOINES,NM,88418,,(575)278-2611,43,Rural: Remote,No,No,Yes,Yes,48,6.36,7.5,11,5
350150000649,NM-017-045,3501500,NM-017,PK,5,DESERT HILLS ELEMENTARY,LAS CRUCES PUBLIC SCHOOLS,DoÃƒÂ±a Ana County,505 SOUTH MAIN SUITE 249,LAS CRUCES,NM,88001,,(575)527-9619,12,City: Midsize,No,No,Yes,Yes,676,39.77,17,249,42
350006000764,NM-001-430,3500060,NM-001,6,8,DESERT RIDGE MIDDLE,ALBUQUERQUE PUBLIC SCHOOLS,Bernalillo County,8400 BARSTOW NE,ALBUQUERQUE,NM,87122,,(505)857-9282,11,City: Large,No,No,–,–,1014,64.77,15.7,159,30
350003000012,NM-046-144,3500030,NM-046,KG,5,DESERT STAR ELEMENTARY,ALAMOGORDO PUBLIC SCHOOLS,Otero County,400 S WASHINGTON AVE,ALAMOGORDO,NM,88310,,(575)812-5750,33,Town: Remote,No,No,Yes,Yes,567,22.57,25.1,567,0
350108000655,NM-019-040,3501080,NM-019,KG,6,DESERT TRAIL ELEMENTARY,GADSDEN INDEPENDENT SCHOOLS,DoÃƒÂ±a Ana County,290 E. LISA,CHAPARRAL,NM,88021,,(575)882-6203,41,Rural: Fringe,No,No,Yes,Yes,503,34,14.8,503,0
350108000700,NM-019-035,3501080,NM-019,KG,6,DESERT VIEW ELEMENTARY,GADSDEN INDEPENDENT SCHOOLS,DoÃƒÂ±a Ana County,1105 VALLE VISTA DR,SUNLAND PARK,NM,88063,,(575)882-6203,21,Suburb: Large,No,No,Yes,Yes,472,33,14.3,472,0
350168000792,NM-086-003,3501680,NM-086,PK,6,DESERT VIEW ELEMENTARY,LOS LUNAS PUBLIC SCHOOLS,Valencia County,PO DRAWER 1300,LOS LUNAS,NM,87031,,(505)866-8231,23,Suburb: Small,No,No,Yes,Yes,429,28.7,14.9,428,0
350030001118,NM-020-160,3500300,NM-020,1,5,DESERT WILLOW ELEMENTARY,CARLSBAD MUNICIPAL SCHOOLS,Eddy County,2100 PRIMROSE ST,CARLSBAD,NM,88220,,(575)234-3310,41,Rural: Fringe,No,No,Yes,Yes,677,34.1,19.9,338,73
350006000273,NM-001-900,3500060,NM-001,KG,8,DESERT WILLOW FAMILY SCHOOL,ALBUQUERQUE PUBLIC SCHOOLS,Bernalillo County,3303 MONROE NE,ALBUQUERQUE,NM,87110,,(505)888-1647,11,City: Large,No,Yes,–,–,294,16.5,17.8,16,3
350075000247,NM-006-043,3500750,NM-006,PK,5,DEXTER ELEMENTARY,DEXTER CONSOLIDATED SCHOOLS,Chaves County,PO BOX 159,DEXTER,NM,88230,,(575)734-5420,42,Rural: Distant,No,No,Yes,Yes,420,25.45,16.5,420,0
350075000248,NM-006-045,3500750,NM-006,9,12,DEXTER HIGH,DEXTER CONSOLIDATED SCHOOLS,Chaves County,PO BOX 159,DEXTER,NM,88230,,(575)734-5420,42,Rural: Distant,No,No,Yes,Yes,296,15.59,19,296,0
350075000249,NM-006-048,3500750,NM-006,6,8,DEXTER MIDDLE,DEXTER CONSOLIDATED SCHOOLS,Chaves County,PO BOX 159,DEXTER,NM,88230,,(575)734-5420,42,Rural: Distant,No,No,Yes,Yes,214,12.96,16.5,214,0
350006000853,NM-001-063,3500060,NM-001,9,12,DIGITAL ARTS AND TECHNOLOGY,ALBUQUERQUE PUBLIC SCHOOLS,Bernalillo County,1011 LAMBERTON NE,ALBUQUERQUE,NM,87107,,(505)341-0888,11,City: Large,Yes,No,Yes,Yes,265,20,13.3,61,0
350090000265,NM-055-042,3500900,NM-055,KG,6,DIXON ELEMENTARY,ESPANOLA PUBLIC SCHOOLS,Rio Arriba County,714 CALLE DON DIEGO,ESPANOLA,NM,87532,,(505)753-2254,42,Rural: Distant,No,No,Yes,Yes,65,4.9,13.3,65,0
350006000045,NM-001-244,3500060,NM-001,PK,5,DOLORES GONZALES ELEMENTARY,ALBUQUERQUE PUBLIC SCHOOLS,Bernalillo County,900 ATLANTIC ST SW,ALBUQUERQUE,NM,87102,,(505)764-2020,11,City: Large,No,No,Yes,Yes,375,31.5,11.9,375,0
350156000411,NM-068-112,3501560,NM-068,2,3,DON CECILIO MARTINEZ ELEMENTARY,WEST LAS VEGAS PUBLIC SCHOOLS,San Miguel County,179 BRIDGE STREET,LAS VEGAS,NM,87701,,(505)426-2861,33,Town: Remote,No,No,Yes,Yes,170,†,†,170,0
350150000382,NM-017-048,3501500,NM-017,PK,5,DONA ANA ELEMENTARY,LAS CRUCES PUBLIC SCHOOLS,DoÃƒÂ±a Ana County,505 SOUTH MAIN SUITE 249,LAS CRUCES,NM,88001,,(575)527-9506,22,Suburb: Midsize,No,No,Yes,Yes,339,25.46,13.3,339,0
350079000250,NM-060-044,3500790,NM-060,PK,6,DORA ELEMENTARY,DORA MUNICIPAL SCHOOLS,Roosevelt County,100 SCHOOL ST,DORA,NM,88115,,(575)477-2216,43,Rural: Remote,No,No,Yes,Yes,145,9.35,15.5,74,12
350079000251,NM-060-045,3500790,NM-060,7,12,DORA HIGH,DORA MUNICIPAL SCHOOLS,Roosevelt County,100 SCHOOL ST,DORA,NM,88115,,(575)477-2216,43,Rural: Remote,No,No,Yes,Yes,113,9.55,11.8,32,15
350006000752,NM-001-350,3500060,NM-001,PK,5,DOUBLE EAGLE ELEMENTARY,ALBUQUERQUE PUBLIC SCHOOLS,Bernalillo County,8901 LOWELL ST NE,ALBUQUERQUE,NM,87122,,(505)857-0187,21,Suburb: Large,No,No,–,–,563,34.24,16.4,39,10
350016401102,NM-559-001,3500164,NM-559,–,–,DREAM DINE,DREAM DINE,San Juan County,PO BOX 4386,SHIPROCK,NM,87420,,(505)368-2500,32,Town: Distant,Yes,No,Yes,Yes,18,2.65,6.8,18,0
350162000423,NM-029-060,3501620,NM-029,7,8,DUGAN-TARANGO MIDDLE,LORDSBURG MUNICIPAL SCHOOLS,Hidalgo County,1352 HARDIN STREET,LORDSBURG,NM,88045,,(575)542-9806,43,Rural: Remote,No,No,Yes,Yes,77,4.03,19.1,77,0
350081000252,NM-054-044,3500810,NM-054,PK,5,DULCE ELEMENTARY,DULCE INDEPENDENT SCHOOLS,Rio Arriba County,HAWK DR,DULCE,NM,87528,,(575)759-3353,43,Rural: Remote,No,No,Yes,Yes,287,22,13,287,0
350081000253,NM-054-045,3500810,NM-054,9,12,DULCE HIGH,DULCE INDEPENDENT SCHOOLS,Rio Arriba County,113 HAWK DR,DULCE,NM,87528,,(575)759-3353,43,Rural: Remote,No,No,Yes,Yes,165,14,11.8,165,0
350081000716,NM-054-050,3500810,NM-054,6,8,DULCE MIDDLE,DULCE INDEPENDENT SCHOOLS,Rio Arriba County,113 HAWKS DR,DULCE,NM,87528,,(575)759-3225,43,Rural: Remote,No,No,Yes,Yes,135,12,11.3,135,0
350006000047,NM-001-249,3500060,NM-001,KG,5,DURANES ELEMENTARY,ALBUQUERQUE PUBLIC SCHOOLS,Bernalillo County,2436 ZICKERT RD NW,ALBUQUERQUE,NM,87104,,(505)764-2017,11,City: Large,No,No,Yes,Yes,172,15.5,11.1,171,0
350017401113,NM-562-001,3500174,NM-562,6,11,DZIT DIT LOOL SCHOOL OF EMPOWERMENT ACTION AND PERSEVERANCE,DZIT DIT LOOL SCHOOL OF EMPOWERMENT ACTION AND PERSEVERANCE,McKinley County,PO BOX 156,NAVAJO,NM,87328,,(505)777-2053,43,Rural: Remote,Yes,No,Yes,Yes,40,3.66,10.9,40,0
350237000541,NM-071-099,3502370,NM-071,PK,6,E.J. MARTINEZ ELEMENTARY,SANTA FE PUBLIC SCHOOLS,Santa Fe County,401 N. SAN MATEO,SANTA FE,NM,87505,,(505)467-3800,13,City: Small,No,No,Yes,Yes,272,16.8,16.2,143,34
350048000199,NM-008-047,3500480,NM-008,PK,4,EAGLE NEST ELEMENTARY,CIMARRON MUNICIPAL SCHOOLS,Colfax County,132 NORTH COLLISON,EAGLE NEST,NM,87718,,(575)376-2445,43,Rural: Remote,No,No,Yes,Yes,100,9.05,11,48,6
350048000302,NM-008-048,3500480,NM-008,5,8,EAGLE NEST MIDDLE,CIMARRON MUNICIPAL SCHOOLS,Colfax County,225 LAKE ST,EAGLE NEST,NM,87718,,(575)376-2445,43,Rural: Remote,No,No,Yes,Yes,94,6,15.7,40,9
350001000761,NM-083-001,3500010,NM-083,6,8,EAGLE RIDGE MIDDLE,RIO RANCHO PUBLIC SCHOOLS,Sandoval County,800 FRUTA ROAD,RIO RANCHO,NM,87124,,(505)892-6630,21,Suburb: Large,No,No,Yes,Yes,936,51.52,18.2,415,69
350189001145,NM-081-151,3501890,NM-081,PK,PK,EARLY CHILDHOOD CENTER,MORIARTY-EDGEWOOD SCHOOL DISTRICT,Torrance County,PO BOX 2000,MORIARTY,NM,87035,,(505)832-4471,42,Rural: Distant,No,No,–,–,57,5.99,9.5,27,4
350030000166,NM-020-047,3500300,NM-020,PK,KG,EARLY CHILDHOOD EDUCATION CENTER,CARLSBAD MUNICIPAL SCHOOLS,Eddy County,1801 WEST LEA,CARLSBAD,NM,88220,,(575)234-3300,33,Town: Remote,No,No,Yes,Yes,612,33.22,18.4,253,72
350006000916,NM-001-593,3500060,NM-001,9,12,EARLY COLLEGE ACADEMY,ALBUQUERQUE PUBLIC SCHOOLS,Bernalillo County,807 MOUNTAIN RD NE,ALBUQUERQUE,NM,87102,,(505)247-3658,11,City: Large,No,Yes,–,–,193,1.4,137.9,32,16
350069001144,NM-042-010,3500690,NM-042,9,12,EARLY COLLEGE HIGH SCHOOL,DEMING PUBLIC SCHOOLS,Luna County,2300 E. PINE ST.,DEMING,NM,88030,,(575)543-1049,33,Town: Remote,No,Yes,Yes,Yes,49,3.66,13.4,49,0
350150001064,NM-017-016,3501500,NM-017,9,12,EARLY COLLEGE HIGH SCHOOL,LAS CRUCES PUBLIC SCHOOLS,DoÃƒÂ±a Ana County,3400 SOUTH ESPINA STREET,LAS CRUCES,NM,88001,,(575)527-9540,22,Suburb: Midsize,No,Yes,–,–,339,20.04,16.9,98,16
350225001128,NM-004-133,3502250,NM-004,9,12,EARLY COLLEGE HIGH SCHOOL,ROSWELL INDEPENDENT SCHOOLS,Chaves County,25 MARTIN STREET,ROSWELL,NM,88203,,(575)627-2750,33,Town: Remote,No,Yes,Yes,Yes,156,8.8,17.7,156,0
350237001120,NM-071-166,3502370,NM-071,9,12,EARLY COLLEGE OPPORTUNITIES,SANTA FE PUBLIC SCHOOLS,Santa Fe County,2301 W. ZIA RD.,SANTA FE,NM,87505,,(505)467-2701,13,City: Small,No,Yes,Yes,Yes,117,9.28,12.6,117,0
350225000509,NM-004-044,3502250,NM-004,PK,5,EAST GRAND PLAINS ELEMENTARY,ROSWELL INDEPENDENT SCHOOLS,Chaves County,3773 E. GRAND PLAINS,ROSWELL,NM,88201,,(575)637-3350,42,Rural: Distant,No,No,Yes,Yes,303,17.25,17.6,303,0
350006000808,NM-001-024,3500060,NM-001,9,12,EAST MOUNTAIN HIGH SCHOOL,ALBUQUERQUE PUBLIC SCHOOLS,Bernalillo County,P.O. BOX 340,SANDIA PARK,NM,87047,,(505)281-7400,42,Rural: Distant,Yes,No,–,–,364,23.75,15.3,49,32
350150000688,NM-017-044,3501500,NM-017,PK,5,EAST PICACHO ELEMENTARY,LAS CRUCES PUBLIC SCHOOLS,DoÃƒÂ±a Ana County,505 SOUTH MAIN SUITE 249,LAS CRUCES,NM,88001,,(575)527-9516,22,Suburb: Midsize,No,No,Yes,Yes,532,34.44,15.4,532,0
350006000048,NM-001-252,3500060,NM-001,PK,5,EAST SAN JOSE ELEMENTARY,ALBUQUERQUE PUBLIC SCHOOLS,Bernalillo County,415 THAXTON AVE SE,ALBUQUERQUE,NM,87102,,(505)764-2005,11,City: Large,No,No,Yes,Yes,417,33,12.6,401,2
350006001099,NM-001-517,3500060,NM-001,9,12,ECADEMY VIRTUAL HIGH SCHOOL,ALBUQUERQUE PUBLIC SCHOOLS,Bernalillo County,5300 CUTLER NE,ALBUQUERQUE,NM,87110,,(505)247-4209,11,City: Large,No,Yes,Yes,Yes,374,29.6,12.6,156,16
350189000818,NM-081-003,3501890,NM-081,6,8,EDGEWOOD MIDDLE,MORIARTY-EDGEWOOD SCHOOL DISTRICT,Santa Fe County,17 VENUS RD WEST,MORIARTY,NM,87035,,(505)835-5835,32,Town: Distant,No,No,Yes,Yes,346,21.09,16.4,144,31
350126000347,NM-033-046,3501260,NM-033,PK,5,EDISON ELEMENTARY,HOBBS MUNICIPAL SCHOOLS,Lea County,501 EAST GYPSY,HOBBS,NM,88240,,(575)433-1600,33,Town: Remote,No,No,Yes,Yes,313,17,18.4,226,23
350006000647,NM-001-219,3500060,NM-001,KG,5,EDMUND G ROSS ELEMENTARY,ALBUQUERQUE PUBLIC SCHOOLS,Bernalillo County,6700 PALOMAS NE,ALBUQUERQUE,NM,87109,,(505)821-0185,11,City: Large,No,No,Yes,Yes,483,30.04,16.1,478,0
350111000833,NM-043-177,3501110,NM-043,KG,12,EDUCATION DEV CENTER,GALLUP-MCKINLEY CTY SCHOOLS,McKinley County,1100 EAST AZTEC AVE,GALLUP,NM,87301,,(505)721-1051,33,Town: Remote,No,No,†,†,–,0,†,0,0
350006000896,NM-001-262,3500060,NM-001,3,5,EDWARD GONZALES ELEMENTARY,ALBUQUERQUE PUBLIC SCHOOLS,Bernalillo County,554 90TH ST SW,ALBUQUERQUE,NM,87121,,(505)831-6214,11,City: Large,No,No,Yes,Yes,543,34.4,15.8,542,0
350237000610,NM-071-110,3502370,NM-071,6,8,EDWARD ORTIZ MIDDLE,SANTA FE PUBLIC SCHOOLS,Santa Fe County,4164 SOUTH MEADOWS,SANTA FE,NM,87505,,(505)467-2300,13,City: Small,No,No,Yes,Yes,626,38.1,16.4,626,0
350006000049,NM-001-480,3500060,NM-001,6,8,EISENHOWER MIDDLE,ALBUQUERQUE PUBLIC SCHOOLS,Bernalillo County,11001 CAMERO RD NE,ALBUQUERQUE,NM,87111,,(505)292-2530,11,City: Large,No,No,–,–,840,50.3,16.7,159,38
350006000854,NM-001-069,3500060,NM-001,KG,12,EL CAMINO REAL ACADEMY,ALBUQUERQUE PUBLIC SCHOOLS,Bernalillo County,3713 ISLETA BLVD SW,ALBUQUERQUE,NM,87105,,(505)314-2212,21,Suburb: Large,Yes,No,Yes,Yes,316,20.1,15.7,316,0
350237000535,NM-071-011,3502370,NM-071,PK,8,EL CAMINO REAL ACADEMY COMMUNITY,SANTA FE PUBLIC SCHOOLS,Santa Fe County,2500 S. MEADOWS,SANTA FE,NM,87507,,(505)467-1300,13,City: Small,No,No,Yes,Yes,848,56.78,14.9,848,0
350225000511,NM-004-050,3502250,NM-004,PK,5,EL CAPITAN ELEMENTARY,ROSWELL INDEPENDENT SCHOOLS,Chaves County,2807 WEST BLAND ST,ROSWELL,NM,88201,,(575)637-3400,41,Rural: Fringe,No,No,Yes,Yes,448,26.75,16.7,448,0
350237000644,NM-071-135,3502370,NM-071,KG,8,EL DORADO COMMUNITY SCHOOL,SANTA FE PUBLIC SCHOOLS,Santa Fe County,#2 AVENIDA TORREON,SANTA FE,NM,87508,,(505)467-4900,31,Town: Fringe,No,No,–,–,512,37.3,13.7,134,16
350198000474,NM-078-047,3501980,NM-078,PK,3,EL RITO ELEMENTARY,MESA VISTA CONSOLIDATED SCHOOLS,Rio Arriba County,10 ELEMENTARY RD,EL RITO,NM,87530,,(575)581-4273,43,Rural: Remote,No,No,Yes,Yes,67,4.34,15.4,67,0
350006000050,NM-001-515,3500060,NM-001,PK,12,ELDORADO HIGH,ALBUQUERQUE PUBLIC SCHOOLS,Bernalillo County,11300 MONTGOMERY BLVD NE,ALBUQUERQUE,NM,87111,,(505)296-4871,11,City: Large,No,No,–,–,1758,95.15,18.5,451,106
350084000255,NM-058-047,3500840,NM-058,PK,6,ELIDA ELEMENTARY,ELIDA MUNICIPAL SCHOOLS,Roosevelt County,103 N CHURCH STREET,ELIDA,NM,88116,,(575)274-6211,43,Rural: Remote,No,No,Yes,No,85,7.75,11,31,13
350084000256,NM-058-048,3500840,NM-058,7,12,ELIDA HIGH,ELIDA MUNICIPAL SCHOOLS,Roosevelt County,103 N CHURCH STREET,ELIDA,NM,88116,,(575)274-6211,43,Rural: Remote,No,No,–,–,75,7.5,10,18,13
350006000051,NM-001-255,3500060,NM-001,PK,5,EMERSON ELEMENTARY,ALBUQUERQUE PUBLIC SCHOOLS,Bernalillo County,620 GEORGIA ST SE,ALBUQUERQUE,NM,87108,,(505)255-9091,11,City: Large,No,No,Yes,Yes,459,34.5,13.3,440,0
350001030011,NM-083-100,3500010,NM-083,KG,5,ENCHANTED HILLS ELEMENTARY,RIO RANCHO PUBLIC SCHOOLS,Sandoval County,5400 OBREGON RD. NE,RIO RANCHO,NM,87144,,(505)891-8526,21,Suburb: Large,No,No,Yes,No,768,44.77,17.2,205,42
350252000579,NM-076-175,3502520,NM-076,PK,5,ENOS GARCIA ELEMENTARY,TAOS MUNICIPAL SCHOOLS,Taos County,305 DON FERNANDO,TAOS,NM,87571,,(575)758-5202,33,Town: Remote,No,No,Yes,Yes,502,33.95,14.8,502,0
350001000736,NM-083-372,3500010,NM-083,KG,5,ERNEST STAPLETON ELEMENTARY,RIO RANCHO PUBLIC SCHOOLS,Sandoval County,3100 STAPLETON AVE NE,RIO RANCHO,NM,87124,,(505)891-8473,21,Suburb: Large,No,No,Yes,Yes,796,53.55,14.9,215,60
350006000052,NM-001-450,3500060,NM-001,6,8,ERNIE PYLE MIDDLE,ALBUQUERQUE PUBLIC SCHOOLS,Bernalillo County,1820 VALDORA DR SW,ALBUQUERQUE,NM,87105,,(505)877-3770,21,Suburb: Large,No,No,Yes,Yes,603,38.33,15.7,600,0
350042000194,NM-053-165,3500420,NM-053,7,12,ESCALANTE MIDDLE/HIGH SCHOOL,CHAMA VALLEY INDEP. SCHOOLS,Rio Arriba County,STATEROUTE 531 1158,TIERRA AMARILLA,NM,87575,,(575)588-7285,43,Rural: Remote,No,No,Yes,Yes,150,11.75,12.8,147,0
350090000268,NM-055-050,3500900,NM-055,9,12,ESPANOLA VALLEY HIGH,ESPANOLA PUBLIC SCHOOLS,Rio Arriba County,714 CALLE DON DIEGO,ESPANOLA,NM,87532,,(505)753-2254,41,Rural: Fringe,No,No,Yes,Yes,862,50.92,16.9,862,0
350099000693,NM-065-038,3500990,NM-065,KG,5,ESPERANZA ELEMENTARY,FARMINGTON MUNICIPAL SCHOOLS,San Juan County,4501 WILDFLOWER DR.,FARMINGTON,NM,87401,,(505)324-9840,13,City: Small,No,No,Yes,Yes,600,34.8,17.2,600,0
350093000279,NM-080-050,3500930,NM-080,9,12,ESTANCIA HIGH,ESTANCIA MUNICIPAL SCHOOLS,Torrance County,709 W HOPEWELL,ESTANCIA,NM,87016,,(505)384-2001,43,Rural: Remote,No,No,Yes,Yes,183,15.25,12,183,0
350093000717,NM-080-172,3500930,NM-080,7,8,ESTANCIA MIDDLE,ESTANCIA MUNICIPAL SCHOOLS,Torrance County,807 W HOPEWELL,ESTANCIA,NM,87016,,(505)384-2001,43,Rural: Remote,No,No,Yes,Yes,91,6.04,15.1,91,0
350015201085,NM-550-001,3500152,NM-550,KG,12,ESTANCIA VALLEY CLASSICAL ACADEMY,ESTANCIA VALLEY CLASSICAL ACADEMY,Torrance County,PO BOX 2340,MORIARTY,NM,87035,,(505)832-2223,42,Rural: Distant,Yes,No,Yes,Yes,562,30.27,18.6,123,0
350006000054,NM-001-261,3500060,NM-001,PK,5,EUGENE FIELD ELEMENTARY,ALBUQUERQUE PUBLIC SCHOOLS,Bernalillo County,700 EDITH BLVD SE,ALBUQUERQUE,NM,87102,,(505)764-2014,11,City: Large,No,No,Yes,Yes,198,14,14.1,196,0
350096000622,NM-032-050,3500960,NM-032,9,12,EUNICE HIGH,EUNICE MUNICIPAL SCHOOLS,Lea County,PO BOX 129,EUNICE,NM,88231,,(575)394-2332,33,Town: Remote,No,No,Yes,Yes,257,16.34,15.7,134,13
350090000270,NM-055-053,3500900,NM-055,PK,6,EUTIMIO SALAZAR ELEMENTARY,ESPANOLA PUBLIC SCHOOLS,Rio Arriba County,714 CALLE DON DIEGO,ESPANOLA,NM,87532,,(505)753-2254,32,Town: Distant,No,No,Yes,Yes,406,30.5,13.3,406,0
350039000773,NM-067-026,3500390,NM-067,KG,5,EVA B STOKELY ELEMENTARY,CENTRAL CONSOLIDATED SCHOOLS,San Juan County,PO BOX 3568,SHIPROCK,NM,87420,,(505)368-5109,41,Rural: Fringe,No,No,Yes,Yes,286,25.95,11,286,0
350016701103,NM-557-001,3500167,NM-557,6,12,EXPLORE ACADEMY,EXPLORE ACADEMY,Bernalillo County,5100 MASTHEAD ST NE,ALBUQUERQUE,NM,87109,,(505)336-1466,11,City: Large,Yes,No,Yes,Yes,441,33.04,13.3,69,0
350150000383,NM-017-051,3501500,NM-017,KG,5,FAIRACRES ELEMENTARY,LAS CRUCES PUBLIC SCHOOLS,DoÃƒÂ±a Ana County,505 SOUTH MAIN SUITE 249,LAS CRUCES,NM,88001,,(575)527-9606,41,Rural: Fringe,No,No,Yes,Yes,457,28.75,15.9,247,30
350099000284,NM-065-053,3500990,NM-065,9,12,FARMINGTON HIGH,FARMINGTON MUNICIPAL SCHOOLS,San Juan County,2200 SUNSET AVENUE,FARMINGTON,NM,87401,,(505)324-9840,13,City: Small,No,No,Yes,Yes,1400,80.98,17.3,645,50
350099030006,NM-065-055,3500990,NM-065,PK,PK,FARMINGTON PRESCHOOL ACADEMY EAST,FARMINGTON MUNICIPAL SCHOOLS,San Juan County,5840 FORTUNA,FARMINGTON,NM,87402,,(505)324-9840,13,City: Small,No,No,–,–,117,8.41,13.9,42,0
350099001091,NM-065-056,3500990,NM-065,PK,PK,FARMINGTON PRESCHOOL ACADEMY WEST,FARMINGTON MUNICIPAL SCHOOLS,San Juan County,301 N COURT,FARMINGTON,NM,87401,,(505)599-8744,13,City: Small,No,No,–,–,133,5.75,23.1,41,0
350102000294,NM-059-053,3501020,NM-059,PK,4,FLOYD ELEMENTARY,FLOYD MUNICIPAL SCHOOLS,Roosevelt County,1566 NM 267,FLOYD,NM,88118,,(575)478-2211,43,Rural: Remote,No,No,Yes,Yes,98,8.89,11,69,6
350102000295,NM-059-054,3501020,NM-059,9,12,FLOYD HIGH,FLOYD MUNICIPAL SCHOOLS,Roosevelt County,1564 NM 267,FLOYD,NM,88118,,(575)478-2211,43,Rural: Remote,No,No,Yes,Yes,73,6.29,11.6,45,9
350102000770,NM-059-001,3501020,NM-059,5,8,FLOYD MIDDLE,FLOYD MUNICIPAL SCHOOLS,Roosevelt County,1562 NM 267,FLOYD,NM,88118,,(575)478-2211,43,Rural: Remote,No,No,Yes,Yes,62,6.82,9.1,45,6
350001100985,NM-099-003,3500011,NM-099,6,12,FOOTHILL HIGH SCHOOL,JUVENILE JUSTICE,Bernalillo County,300 SAN MATEO NE SUITE 827,ALBUQUERQUE,NM,87107,,(505)841-2400,21,Suburb: Large,No,No,–,–,36,12.75,2.8,33,0
350249000574,NM-010-056,3502490,NM-010,KG,2,FORRESTER ELEMENTARY,SPRINGER MUNICIPAL SCHOOLS,Colfax County,311 MIRANDA,SPRINGER,NM,87747,,(575)483-2482,43,Rural: Remote,No,No,Yes,Yes,27,3.6,7.5,27,0
350105000296,NM-016-051,3501050,NM-016,PK,5,FORT SUMNER ELEMENTARY,FORT SUMNER MUNICIPAL SCHOOLS,De Baca County,PO BOX 387,FORT SUMNER,NM,88119,,(575)355-7734,43,Rural: Remote,No,No,Yes,Yes,169,13.11,12.9,169,0
350105000297,NM-016-052,3501050,NM-016,9,12,FORT SUMNER HIGH,FORT SUMNER MUNICIPAL SCHOOLS,De Baca County,PO BOX 387,FORT SUMNER,NM,88119,,(575)355-7734,43,Rural: Remote,No,No,Yes,Yes,91,8.08,11.3,91,0
350105000718,NM-016-060,3501050,NM-016,6,8,FORT SUMNER MIDDLE,FORT SUMNER MUNICIPAL SCHOOLS,De Baca County,PO BOX 387,FORT SUMNER,NM,88119,,(575)355-7734,43,Rural: Remote,No,No,Yes,Yes,60,6.05,9.9,60,0
350237000542,NM-071-145,3502370,NM-071,PK,6,FRANCIS X. NAVA ELEMENTARY,SANTA FE PUBLIC SCHOOLS,Santa Fe County,2655 SIRINGO ROAD,SANTA FE,NM,87505,,(505)467-1200,13,City: Small,No,No,Yes,Yes,196,15.2,12.9,196,0
350006000055,NM-001-596,3500060,NM-001,9,12,FREEDOM HIGH,ALBUQUERQUE PUBLIC SCHOOLS,Bernalillo County,5200 CUTLER NE,ALBUQUERQUE,NM,87110,,(505)884-6012,11,City: Large,No,Yes,Yes,Yes,147,11.8,12.5,146,0
350243000566,NM-023-123,3502430,NM-023,1,6,G.W.STOUT ELEMENTARY,SILVER CONSOLIDATED SCHOOLS,Grant County,2601 NORTH SILVER ST,SILVER CITY,NM,88061,,(575)956-2100,33,Town: Remote,No,No,Yes,Yes,412,28,14.7,412,0
350108001129,NM-019-062,3501080,NM-019,PK,PK,GADSDEN ADMIN COMPLEX PREK CENTER,GADSDEN INDEPENDENT SCHOOLS,DoÃƒÂ±a Ana County,4950 MCNUTT ROAD,SUNLAND PARK,NM,88063,,(575)882-6740,21,Suburb: Large,No,No,–,–,150,6,25,147,0
350108001065,NM-019-017,3501080,NM-019,PK,6,GADSDEN ELEMENTARY,GADSDEN INDEPENDENT SCHOOLS,DoÃƒÂ±a Ana County,1440 HWY 478,SUNLAND PARK,NM,88063,,(575)882-3050,41,Rural: Fringe,No,No,Yes,Yes,488,34.69,14.1,488,0
350108000632,NM-019-054,3501080,NM-019,9,12,GADSDEN HIGH,GADSDEN INDEPENDENT SCHOOLS,DoÃƒÂ±a Ana County,6308 HIGHWAY 28,ANTHONY,NM,88021,,(575)882-6203,41,Rural: Fringe,No,No,Yes,Yes,1530,75.15,20.4,1530,0
350108000631,NM-019-052,3501080,NM-019,7,8,GADSDEN MIDDLE,GADSDEN INDEPENDENT SCHOOLS,DoÃƒÂ±a Ana County,1301 WEST WASHINGTON,ANTHONY,NM,88021,,(575)882-6203,41,Rural: Fringe,No,No,Yes,Yes,790,54.15,14.6,790,0
350138000368,NM-056-054,3501380,NM-056,KG,5,GALLINA ELEMENTARY,JEMEZ MOUNTAIN PUBLIC SCHOOLS,Rio Arriba County,PO BOX 230,GALLINA,NM,87017,,(575)638-5419,43,Rural: Remote,No,No,Yes,Yes,49,3.15,15.6,49,0
350111000545,NM-043-016,3501110,NM-043,6,12,GALLUP CENTRAL ALTERNATIVE,GALLUP-MCKINLEY CTY SCHOOLS,McKinley County,325 MARGUERITE ST.,GALLUP,NM,87301,,(505)721-1051,33,Town: Remote,No,No,Yes,Yes,217,14,15.5,217,0
350111000303,NM-043-055,3501110,NM-043,9,12,GALLUP HIGH,GALLUP-MCKINLEY CTY SCHOOLS,McKinley County,1055 RICO STREET,GALLUP,NM,87301,,(505)721-1051,41,Rural: Fringe,No,No,Yes,Yes,884,53.62,16.5,884,0
350111000304,NM-043-054,3501110,NM-043,6,8,GALLUP MIDDLE,GALLUP-MCKINLEY CTY SCHOOLS,McKinley County,1001 S. GRANDVIEW,GALLUP,NM,87301,,(505)721-1051,33,Town: Remote,No,No,Yes,Yes,438,29,15.1,438,0
350123000342,NM-018-053,3501230,NM-018,PK,2,GARFIELD ELEMENTARY,HATCH VALLEY PUBLIC SCHOOLS,DoÃƒÂ±a Ana County,8820 HWY 187,GARFIELD,NM,87936,,(575)267-8280,43,Rural: Remote,No,No,Yes,Yes,112,7.17,15.6,112,0
350006000056,NM-001-410,3500060,NM-001,6,8,GARFIELD MIDDLE,ALBUQUERQUE PUBLIC SCHOOLS,Bernalillo County,3501 SIXTH ST NW,ALBUQUERQUE,NM,87107,,(505)344-1647,11,City: Large,No,Yes,Yes,Yes,380,27.5,13.8,376,0
350006001114,NM-001-496,3500060,NM-001,PK,8,GEORGE I SANCHEZ,ALBUQUERQUE PUBLIC SCHOOLS,Bernalillo County,4050 118TH ST SW,ALBUQUERQUE,NM,87121,,(505)253-0300,41,Rural: Fringe,No,No,Yes,Yes,1624,95.4,17,1620,0
350006000726,NM-001-328,3500060,NM-001,KG,5,GEORGIA O'KEEFFE ELEMENTARY,ALBUQUERQUE PUBLIC SCHOOLS,Bernalillo County,11701 SAN VICTORIO NE,ALBUQUERQUE,NM,87111,,(505)293-4259,11,City: Large,No,No,–,–,651,40,16.3,111,23
350018000144,NM-087-066,3500180,NM-087,PK,6,GIL SANCHEZ ELEMENTARY,BELEN CONSOLIDATED SCHOOLS,Valencia County,520 NORTH MAIN ST,BELEN,NM,87002,,(505)966-1900,41,Rural: Fringe,No,No,Yes,Yes,306,18.6,16.5,306,0
350011100890,NM-514-001,3500111,NM-514,–,–,GILBERT L SENA CHARTER HS,GILBERT L SENA CHARTER HS,Bernalillo County,69 HOTEL CIR NE,ALBUQUERQUE,NM,87123,,(505)237-2374,11,City: Large,Yes,No,Yes,Yes,177,13.4,13.2,177,0
350225000513,NM-004-130,3502250,NM-004,9,12,GODDARD HIGH,ROSWELL INDEPENDENT SCHOOLS,Chaves County,701 E. COUNTRY CLUB,ROSWELL,NM,88201,,(575)627-4811,33,Town: Remote,No,No,Yes,Yes,1119,59.34,18.9,338,54
350237000543,NM-071-057,3502370,NM-071,KG,8,GONZALES ELEMENTARY,SANTA FE PUBLIC SCHOOLS,Santa Fe County,851 WEST ALAMEDA,SANTA FE,NM,87501,,(505)467-3100,13,City: Small,No,No,Yes,Yes,429,30.28,14.2,227,36
350006001040,NM-001-030,3500060,NM-001,9,12,GORDON BERNELL CHARTER,ALBUQUERQUE PUBLIC SCHOOLS,Bernalillo County,2821 4TH STREET NW,ALBUQUERQUE,NM,87107,,(505)468-7707,11,City: Large,Yes,No,–,–,426,15.05,28.3,3,0
350006000057,NM-001-230,3500060,NM-001,KG,5,GOV BENT ELEMENTARY,ALBUQUERQUE PUBLIC SCHOOLS,Bernalillo County,5700 HENDRIX RD NE,ALBUQUERQUE,NM,87110,,(505)881-9797,11,City: Large,No,No,Yes,Yes,410,29.3,14,404,0
350114000325,NM-015-055,3501140,NM-015,PK,5,GRADY ELEMENTARY,GRADY MUNICIPAL SCHOOLS,Curry County,100 FRANKLIN ST,GRADY,NM,88120,,(575)357-2192,43,Rural: Remote,No,No,Yes,Yes,83,7.29,11.4,83,0
350114000326,NM-015-057,3501140,NM-015,9,12,GRADY HIGH,GRADY MUNICIPAL SCHOOLS,Curry County,100 FRANKLIN ST,GRADY,NM,88120,,(575)357-2192,43,Rural: Remote,No,No,Yes,Yes,40,5.36,7.5,37,0
350114000899,NM-015-056,3501140,NM-015,6,8,GRADY MIDDLE SCHOOL,GRADY MUNICIPAL SCHOOLS,Curry County,100 FRANKLIN ST,GRADY,NM,88120,,(575)357-2192,43,Rural: Remote,No,No,Yes,Yes,42,3.63,11.6,42,0
350012000620,NM-022-054,3500120,NM-022,PK,KG,GRAND HEIGHTS EARLY CHILDHOOD,ARTESIA PUBLIC SCHOOLS,Eddy County,2302 WEST GRAND AVE,ARTESIA,NM,88210,,(575)746-3585,33,Town: Remote,No,No,Yes,Yes,352,26.88,13.1,138,20
350006000058,NM-001-413,3500060,NM-001,6,8,GRANT MIDDLE,ALBUQUERQUE PUBLIC SCHOOLS,Bernalillo County,1111 EASTERDAY NE,ALBUQUERQUE,NM,87112,,(505)299-2113,11,City: Large,No,No,Yes,Yes,465,39.3,11.8,463,1
350117000329,NM-088-055,3501170,NM-088,9,12,GRANTS HIGH,GRANTS-CIBOLA COUNTY SCHOOLS,Cibola County,500 MOUNTAIN ROAD,GRANTS,NM,87020,,(505)285-2603,33,Town: Remote,No,No,Yes,Yes,862,55.05,15.7,862,0
350006000059,NM-001-267,3500060,NM-001,KG,5,GRIEGOS ELEMENTARY,ALBUQUERQUE PUBLIC SCHOOLS,Bernalillo County,4040 SAN ISIDRO NW,ALBUQUERQUE,NM,87107,,(505)345-3661,11,City: Large,No,No,Yes,Yes,314,22.2,14.1,164,23
350001200976,NM-091-007,3500012,NM-091,8,12,GUADALUPE COUNTY CORRECTIONS,NM CORRECTIONS,Guadalupe County,SOUTH HWY 54,SANTA ROSA,NM,88435,,(575)472-1001,33,Town: Remote,No,No,–,–,2,0.5,4,0,0
350120000339,NM-005-054,3501200,NM-005,PK,5,HAGERMAN ELEMENTARY,HAGERMAN MUNICIPAL SCHOOLS,Chaves County,406 NORTH CAMBRIDGE AVE,HAGERMAN,NM,88232,,(575)752-3254,43,Rural: Remote,No,No,Yes,Yes,221,15.72,14.1,221,0
350120000340,NM-005-055,3501200,NM-005,9,12,HAGERMAN HIGH,HAGERMAN MUNICIPAL SCHOOLS,Chaves County,406 NORTH CAMBRIDGE AVE,HAGERMAN,NM,88232,,(575)752-3254,43,Rural: Remote,No,No,Yes,Yes,140,9.72,14.4,137,0
350120000341,NM-005-056,3501200,NM-005,6,8,HAGERMAN MIDDLE,HAGERMAN MUNICIPAL SCHOOLS,Chaves County,406 NORTH CAMBRIDGE AVE,HAGERMAN,NM,88232,,(575)752-3254,43,Rural: Remote,No,No,Yes,Yes,97,6.66,14.6,94,0
350006000060,NM-001-415,3500060,NM-001,6,8,HARRISON MIDDLE,ALBUQUERQUE PUBLIC SCHOOLS,Bernalillo County,3912 ISLETA BLVD SW,ALBUQUERQUE,NM,87105,,(505)877-1279,21,Suburb: Large,No,No,Yes,Yes,415,24.6,16.9,413,0
350243000561,NM-023-157,3502430,NM-023,1,6,HARRISON SCHMITT ELEMENTARY,SILVER CONSOLIDATED SCHOOLS,Grant County,4042 HWY. 90 SW,SILVER CITY,NM,88061,,(575)956-2170,41,Rural: Fringe,No,No,Yes,Yes,426,28,15.2,424,0
350123000343,NM-018-057,3501230,NM-018,PK,2,HATCH VALLEY ELEMENTARY,HATCH VALLEY PUBLIC SCHOOLS,DoÃƒÂ±a Ana County,801 EAST HERRERA,HATCH,NM,87937,,(575)267-8270,43,Rural: Remote,No,No,Yes,Yes,221,11.54,19.2,221,0
350123000344,NM-018-058,3501230,NM-018,9,12,HATCH VALLEY HIGH,HATCH VALLEY PUBLIC SCHOOLS,DoÃƒÂ±a Ana County,170 E HERRERA RD,HATCH,NM,87937,,(575)267-8230,43,Rural: Remote,No,No,Yes,Yes,390,25.81,15.1,390,0
350123000666,NM-018-050,3501230,NM-018,6,8,HATCH VALLEY MIDDLE,HATCH VALLEY PUBLIC SCHOOLS,DoÃƒÂ±a Ana County,901 EAST HERRERA,HATCH,NM,87937,,(575)267-8250,43,Rural: Remote,No,No,Yes,Yes,285,19.08,14.9,285,0
350006000061,NM-001-270,3500060,NM-001,PK,5,HAWTHORNE ELEMENTARY,ALBUQUERQUE PUBLIC SCHOOLS,Bernalillo County,420 GENERAL SOMERVELL ST NE,ALBUQUERQUE,NM,87123,,(505)299-4424,11,City: Large,No,No,Yes,Yes,364,27.1,13.4,356,1
350006000062,NM-001-416,3500060,NM-001,6,8,HAYES MIDDLE,ALBUQUERQUE PUBLIC SCHOOLS,Bernalillo County,1100 TEXAS ST NE,ALBUQUERQUE,NM,87110,,(505)265-7741,11,City: Large,No,Yes,Yes,Yes,363,30.45,11.9,361,0
350006001098,NM-001-752,3500060,NM-001,9,12,HEALTH LEADERSHIP HIGH SCHOOL,ALBUQUERQUE PUBLIC SCHOOLS,Bernalillo County,1900 RANDOLPH RD. SE,ALBUQUERQUE,NM,87106,,(505)750-4547,11,City: Large,Yes,No,Yes,Yes,229,9.33,24.5,229,0
350003000004,NM-046-056,3500030,NM-046,KG,5,HEIGHTS ELEMENTARY,ALAMOGORDO PUBLIC SCHOOLS,Otero County,2410 10TH ST,ALAMOGORDO,NM,88310,,(575)812-5200,33,Town: Remote,No,No,Yes,Yes,332,17.18,19.3,332,0
350099000285,NM-065-059,3500990,NM-065,6,8,HEIGHTS MIDDLE SCHOOL,FARMINGTON MUNICIPAL SCHOOLS,San Juan County,3700 COLLEGE BLVD,FARMINGTON,NM,87401,,(505)324-9840,13,City: Small,No,No,Yes,Yes,706,40.5,17.4,272,17
350126001067,NM-033-008,3501260,NM-033,6,8,HEIZER MIDDLE SCHOOL,HOBBS MUNICIPAL SCHOOLS,Lea County,101 STANOLIND RD,HOBBS,NM,88240,,(575)433-1100,41,Rural: Fringe,No,No,Yes,Yes,674,41.58,16.2,317,54
350006001043,NM-001-395,3500060,NM-001,PK,2,HELEN CORDERO PRIMARY,ALBUQUERQUE PUBLIC SCHOOLS,Bernalillo County,8800 EUCARIZ SW,ALBUQUERQUE,NM,87121,,(505)833-5830,11,City: Large,No,No,Yes,Yes,558,33,16.9,554,0
350012000129,NM-022-056,3500120,NM-022,1,5,HERMOSA ELEMENTARY,ARTESIA PUBLIC SCHOOLS,Eddy County,601 HERMOSA DRIVE,ARTESIA,NM,88210,,(575)746-3585,33,Town: Remote,No,No,Yes,Yes,321,21.15,15.2,135,31
350150000384,NM-017-059,3501500,NM-017,PK,5,HERMOSA HGTS ELEMENTARY,LAS CRUCES PUBLIC SCHOOLS,DoÃƒÂ±a Ana County,505 SOUTH MAIN SUITE 249,LAS CRUCES,NM,88001,,(575)527-9530,12,City: Midsize,No,No,Yes,Yes,422,30.7,13.7,422,0
350099000286,NM-065-058,3500990,NM-065,6,8,HERMOSA MIDDLE SCHOOL,FARMINGTON MUNICIPAL SCHOOLS,San Juan County,1500 E 25TH,FARMINGTON,NM,87401,,(505)324-9840,13,City: Small,No,No,Yes,Yes,640,35.53,18,296,22
350090000271,NM-055-059,3500900,NM-055,KG,6,HERNANDEZ ELEMENTARY,ESPANOLA PUBLIC SCHOOLS,Rio Arriba County,714 CALLE DON DIEGO,ESPANOLA,NM,87532,,(505)753-2254,32,Town: Distant,No,No,Yes,Yes,108,6.54,16.5,108,0
350003000005,NM-046-057,3500030,NM-046,KG,5,HIGH ROLLS MOUNTAIN PARK ELEMENTARY,ALAMOGORDO PUBLIC SCHOOLS,Otero County,23 KARR CANYON RD,HIGH ROLLS,NM,88325,,(575)812-5275,42,Rural: Distant,No,No,Yes,Yes,28,2.25,12.4,13,2
350006001079,NM-001-611,3500060,NM-001,PK,12,HIGHLAND AUTISM CENTER,ALBUQUERQUE PUBLIC SCHOOLS,Bernalillo County,220 MONROE SW,ALBUQUERQUE,NM,87108,,(505)266-6869,11,City: Large,No,No,Yes,Yes,60,6.3,9.5,31,0
350057000214,NM-012-058,3500570,NM-012,PK,5,HIGHLAND ELEMENTARY,CLOVIS MUNICIPAL SCHOOLS,Curry County,100 E PLAINS ST,CLOVIS,NM,88101,,(575)769-4445,33,Town: Remote,No,No,Yes,Yes,271,13,20.8,271,0
350150000702,NM-017-053,3501500,NM-017,PK,5,HIGHLAND ELEMENTARY,LAS CRUCES PUBLIC SCHOOLS,DoÃƒÂ±a Ana County,4201 EMERALD ST,LAS CRUCES,NM,88012,,(575)527-9636,12,City: Midsize,No,No,Yes,Yes,839,51.95,16.2,371,81
350006000063,NM-001-520,3500060,NM-001,9,12,HIGHLAND HIGH,ALBUQUERQUE PUBLIC SCHOOLS,Bernalillo County,4700 COAL AV SE,ALBUQUERQUE,NM,87108,,(505)265-3711,11,City: Large,No,No,Yes,Yes,1128,80.65,14,1110,1
350126000349,NM-033-057,3501260,NM-033,6,8,HIGHLAND MIDDLE SCHOOL,HOBBS MUNICIPAL SCHOOLS,Lea County,2500 N. JEFFERSON,HOBBS,NM,88240,,(575)433-1200,33,Town: Remote,No,No,Yes,Yes,913,41.18,22.2,363,59
350030001148,NM-020-058,3500300,NM-020,PK,PK,HILLCREST PRESCHOOL,CARLSBAD MUNICIPAL SCHOOLS,Eddy County,215 NORTH SIXTH ST.,CARLSBAD,NM,88220,,(575)234-3313,33,Town: Remote,No,No,–,–,313,12.98,24.1,97,34
350150000689,NM-017-055,3501500,NM-017,PK,5,HILLRISE ELEMENTARY,LAS CRUCES PUBLIC SCHOOLS,DoÃƒÂ±a Ana County,505 SOUTH MAIN SUITE 249,LAS CRUCES,NM,88001,,(575)527-9666,12,City: Midsize,No,No,Yes,Yes,552,37.33,14.8,551,0
350126000348,NM-033-055,3501260,NM-033,9,10,HOBBS FRESHMAN HIGH,HOBBS MUNICIPAL SCHOOLS,Lea County,1401 E SANGER,HOBBS,NM,88240,,(575)433-0300,33,Town: Remote,No,No,Yes,Yes,718,37.52,19.1,261,34
350126000350,NM-033-058,3501260,NM-033,9,12,HOBBS HIGH,HOBBS MUNICIPAL SCHOOLS,Lea County,800 N. JEFFERSON,HOBBS,NM,88240,,(575)433-0200,33,Town: Remote,No,No,–,–,1950,97.62,20,575,76
350006000064,NM-001-273,3500060,NM-001,PK,5,HODGIN ELEMENTARY,ALBUQUERQUE PUBLIC SCHOOLS,Bernalillo County,3801 MORNINGSIDE DR NE,ALBUQUERQUE,NM,87110,,(505)881-9855,11,City: Large,No,No,Yes,Yes,491,37.05,13.3,466,0
350003000006,NM-046-058,3500030,NM-046,PK,5,HOLLOMAN ELEMENTARY,ALAMOGORDO PUBLIC SCHOOLS,Otero County,750 ARNOLD AVE,HOLLOMAN AFB,NM,88330,,(575)812-6100,33,Town: Remote,No,No,–,–,560,26,21.5,40,96
350003000007,NM-046-037,3500030,NM-046,6,8,HOLLOMAN MIDDLE,ALAMOGORDO PUBLIC SCHOOLS,Otero County,381 1ST ST,HOLLOMAN AFB,NM,88330,,(575)812-6200,33,Town: Remote,No,No,–,–,240,15.4,15.6,7,30
350186000636,NM-044-059,3501860,NM-044,KG,KG,HOLMAN ELEMENTARY,MORA INDEPENDENT SCHOOLS,Mora County,PO BOX 140,MORA,NM,87732,,(575)387-3132,43,Rural: Remote,No,No,Yes,Yes,31,2.95,10.5,31,0
350129000359,NM-039-059,3501290,NM-039,PK,6,HONDO ELEMENTARY,HONDO VALLEY PUBLIC SCHOOLS,Lincoln County,111 DON PABLO LANE,HONDO,NM,88336,,(575)653-4411,43,Rural: Remote,No,No,Yes,Yes,76,8.17,9.3,76,0
350129000360,NM-039-060,3501290,NM-039,7,12,HONDO HIGH,HONDO VALLEY PUBLIC SCHOOLS,Lincoln County,111 DON PABLO LANE,HONDO,NM,88336,,(575)653-4411,43,Rural: Remote,No,No,Yes,Yes,65,7.64,8.5,65,0
350006000066,NM-001-418,3500060,NM-001,6,8,HOOVER MIDDLE,ALBUQUERQUE PUBLIC SCHOOLS,Bernalillo County,12015 TIVOLI NE,ALBUQUERQUE,NM,87111,,(505)298-6896,11,City: Large,No,No,Yes,Yes,564,34.65,16.3,249,72
350010700874,NM-503-022,3500107,NM-503,PK,5,HORIZON ACADEMY WEST,HORIZON ACADEMY WEST,Bernalillo County,3021 TODOS SANTOS NW,ALBUQUERQUE,NM,87120,,(505)998-0459,11,City: Large,Yes,No,Yes,Yes,497,28,17.8,221,64
350261000593,NM-073-058,3502610,NM-073,9,12,HOT SPRINGS HIGH,T OR C MUNICIPAL SCHOOLS,Sierra County,1200 N PERSHING AVE,T OR C,NM,87901,,(575)894-8150,33,Town: Remote,No,No,Yes,Yes,362,21.2,17.1,362,0
350132000361,NM-050-059,3501320,NM-050,PK,6,HOUSE ELEMENTARY,HOUSE MUNICIPAL SCHOOLS,Quay County,309 APPLE ST,HOUSE,NM,88121,,(575)279-7353,43,Rural: Remote,No,No,Yes,Yes,26,5.47,4.8,12,2
350132000362,NM-050-060,3501320,NM-050,9,12,HOUSE HIGH,HOUSE MUNICIPAL SCHOOLS,Quay County,309 APPLE ST,HOUSE,NM,88121,,(575)279-7353,43,Rural: Remote,No,No,Yes,Yes,24,7.47,3.2,11,3
350132000909,NM-050-058,3501320,NM-050,7,8,HOUSE JUNIOR HIGH,HOUSE MUNICIPAL SCHOOLS,Quay County,309 APPLE ST,HOUSE,NM,88121,,(575)279-7353,43,Rural: Remote,No,No,Yes,Yes,13,4.06,3.2,9,1
350126000351,NM-033-059,3501260,NM-033,6,9,HOUSTON MIDDLE SCHOOL,HOBBS MUNICIPAL SCHOOLS,Lea County,300 N. HOUSTON,HOBBS,NM,88240,,(575)433-1300,33,Town: Remote,No,No,Yes,Yes,874,43.01,20.3,336,44
350017901136,NM-573-001,3500179,NM-573,KG,6,HOZHO ACADEMY,HOZHO ACADEMY,McKinley County,PO BOX 1772,GALLUP,NM,87305,,(505)722-4463,33,Town: Remote,Yes,No,Yes,Yes,123,10,12.3,54,8
350006000616,NM-001-221,3500060,NM-001,PK,5,HUBERT H HUMPHREY ELEMENTARY,ALBUQUERQUE PUBLIC SCHOOLS,Bernalillo County,9801 ACADEMY HILLS DR NE,ALBUQUERQUE,NM,87111,,(505)821-4981,11,City: Large,No,No,–,–,477,27,17.7,50,23
350060000228,NM-024-059,3500600,NM-024,PK,6,HURLEY ELEMENTARY,COBRE CONSOLIDATED SCHOOLS,Grant County,300 CARASCO AVE,HURLEY,NM,88043,,(575)537-4011,41,Rural: Fringe,No,No,Yes,Yes,145,14.9,9.7,145,0
350001000805,NM-083-013,3500010,NM-083,9,12,INDEPENDENCE HIGH SCHOOL,RIO RANCHO PUBLIC SCHOOLS,Sandoval County,421 QUANTUM RD NE,RIO RANCHO,NM,87124,,(505)338-4658,21,Suburb: Large,No,No,Yes,Yes,194,13.55,14.3,82,20
350111000305,NM-043-062,3501110,NM-043,PK,5,INDIAN HILLS ELEMENTARY,GALLUP-MCKINLEY CTY SCHOOLS,McKinley County,3604 CINIZA DRIVE,GALLUP,NM,87301,,(505)721-1051,33,Town: Remote,No,No,Yes,Yes,283,22,12.9,283,0
350006000067,NM-001-276,3500060,NM-001,PK,5,INEZ ELEMENTARY,ALBUQUERQUE PUBLIC SCHOOLS,Bernalillo County,1700 PENNSYLVANIA ST NE,ALBUQUERQUE,NM,87110,,(505)299-9010,11,City: Large,No,Yes,Yes,Yes,363,25.5,14.2,359,0
350006001056,NM-001-781,3500060,NM-001,PK,12,INTERNATIONAL SCHOOL AT MESA DEL SOL,ALBUQUERQUE PUBLIC SCHOOLS,Bernalillo County,2660 EASTMAN CROSSING SE,ALBUQUERQUE,NM,87106,,(505)508-3295,41,Rural: Fringe,Yes,No,–,–,340,30.2,11.3,149,37
350014101057,NM-535-001,3500141,NM-535,KG,8,J PAUL TAYLOR ACADEMY,J PAUL TAYLOR ACADEMY,DoÃƒÂ±a Ana County,402 W. COURT AVE BLDG 2,LAS CRUCES,NM,88005,,(575)652-4006,12,City: Midsize,Yes,No,Yes,Yes,200,13.1,15.3,54,30
350006000068,NM-001-420,3500060,NM-001,6,8,JACKSON MIDDLE,ALBUQUERQUE PUBLIC SCHOOLS,Bernalillo County,10600 INDIAN SCHOOL RD NE,ALBUQUERQUE,NM,87112,,(505)299-7377,11,City: Large,No,No,Yes,Yes,534,33.54,15.9,527,0
350135000364,NM-034-064,3501350,NM-034,PK,5,JAL ELEMENTARY,JAL PUBLIC SCHOOLS,Lea County,PO BOX 1386,JAL,NM,88252,,(575)395-2101,43,Rural: Remote,No,No,Yes,Yes,277,17,16.3,115,21
350135000365,NM-034-066,3501350,NM-034,9,12,JAL HIGH,JAL PUBLIC SCHOOLS,Lea County,100 PROPERTY STREET,JAL,NM,88252,,(575)395-2101,43,Rural: Remote,No,No,–,–,129,9.02,14.3,39,9
350135000363,NM-034-060,3501350,NM-034,6,8,JAL JR HIGH,JAL PUBLIC SCHOOLS,Lea County,100 PROPERTY STREET,JAL,NM,88252,,(575)395-2101,43,Rural: Remote,No,No,–,–,134,6.25,21.4,58,10
350057000210,NM-012-066,3500570,NM-012,PK,5,JAMES BICKLEY ELEMENTARY,CLOVIS MUNICIPAL SCHOOLS,Curry County,500 WEST 14TH ST,CLOVIS,NM,88101,,(575)769-4300,33,Town: Remote,No,No,Yes,Yes,348,20,17.4,348,0
350210000486,NM-057-032,3502100,NM-057,1,2,JAMES ELEMENTARY,PORTALES MUNICIPAL SCHOOLS,Roosevelt County,701 WEST 18TH ST,PORTALES,NM,88130,,(575)359-3675,33,Town: Remote,No,No,Yes,Yes,369,28,13.2,234,31
350006000825,NM-001-490,3500060,NM-001,6,8,JAMES MONROE MIDDLE,ALBUQUERQUE PUBLIC SCHOOLS,Bernalillo County,6100 PARADISE BLVD NW,ALBUQUERQUE,NM,87114,,(505)897-0101,11,City: Large,No,No,Yes,No,1039,56.9,18.3,424,93
350090000266,NM-055-048,3500900,NM-055,1,6,JAMES RODRIGUEZ ELEMENTARY,ESPANOLA PUBLIC SCHOOLS,Rio Arriba County,714 CALLE DON DIEGO,ESPANOLA,NM,87532,,(505)753-2254,32,Town: Distant,No,No,Yes,Yes,366,24.1,15.2,366,0
350006000053,NM-001-258,3500060,NM-001,PK,5,JANET KAHN FINE ARTS ACADEMY,ALBUQUERQUE PUBLIC SCHOOLS,Bernalillo County,9717 INDIAN SCHOOL RD NE,ALBUQUERQUE,NM,87112,,(505)299-4483,11,City: Large,No,Yes,Yes,Yes,474,32.2,14.7,470,0
350018000145,NM-087-068,3500180,NM-087,PK,3,JARAMILLO ELEMENTARY,BELEN CONSOLIDATED SCHOOLS,Valencia County,520 NORTH MAIN ST,BELEN,NM,87002,,(505)966-2001,23,Suburb: Small,No,No,Yes,Yes,325,23.5,13.8,325,0
350126000352,NM-033-066,3501260,NM-033,PK,5,JEFFERSON ELEMENTARY,HOBBS MUNICIPAL SCHOOLS,Lea County,1200 WEST PARK,HOBBS,NM,88240,,(575)433-1700,33,Town: Remote,No,No,Yes,Yes,381,22.25,17.1,204,43
350111000306,NM-043-066,3501110,NM-043,PK,5,JEFFERSON ELEMENTARY,GALLUP-MCKINLEY CTY SCHOOLS,McKinley County,300 MOLLICA DRIVE,GALLUP,NM,87301,,(505)721-1051,33,Town: Remote,No,No,Yes,Yes,349,24,14.5,349,0
350174000445,NM-031-068,3501740,NM-031,3,3,JEFFERSON ELEMENTARY,LOVINGTON MUNICIPAL SCHOOLS,Lea County,300 W. JEFFERSON AVE,LOVINGTON,NM,88260,,(575)739-2540,33,Town: Remote,No,No,Yes,Yes,293,12.82,22.9,171,32
350006000069,NM-001-425,3500060,NM-001,6,8,JEFFERSON MIDDLE,ALBUQUERQUE PUBLIC SCHOOLS,Bernalillo County,712 GIRARD NE,ALBUQUERQUE,NM,87106,,(505)255-8691,11,City: Large,No,No,Yes,Yes,838,53.35,15.7,389,84
350030000859,NM-020-001,3500300,NM-020,KG,12,JEFFERSON MONTESSORI,CARLSBAD MUNICIPAL SCHOOLS,Eddy County,500 W CHURCH ST,CARLSBAD,NM,88220,,(575)234-3300,33,Town: Remote,Yes,No,Yes,Yes,234,15.82,14.8,45,13
350141000372,NM-063-145,3501410,NM-063,PK,5,JEMEZ VALLEY ELEMENTARY,JEMEZ VALLEY PUBLIC SCHOOLS,Sandoval County,8501 HWY 4,JEMEZ PUEBLO,NM,87024,,(575)834-7391,42,Rural: Distant,No,No,Yes,Yes,121,11.6,10.4,91,12
350141000373,NM-063-166,3501410,NM-063,9,12,JEMEZ VALLEY HIGH,JEMEZ VALLEY PUBLIC SCHOOLS,Sandoval County,8501 HWY 4,JEMEZ PUEBLO,NM,87024,,(575)834-7391,42,Rural: Distant,No,No,Yes,Yes,66,8.53,7.7,34,10
350141000729,NM-063-170,3501410,NM-063,6,8,JEMEZ VALLEY MIDDLE,JEMEZ VALLEY PUBLIC SCHOOLS,Sandoval County,8501 HWY 4,JEMEZ PUEBLO,NM,87024,,(575)834-7391,42,Rural: Distant,No,No,Yes,Yes,80,4.03,19.9,59,7
350006000812,NM-001-445,3500060,NM-001,6,8,JIMMY CARTER MIDDLE,ALBUQUERQUE PUBLIC SCHOOLS,Bernalillo County,8901 BLUEWATER NW,ALBUQUERQUE,NM,87121,,(505)833-7540,11,City: Large,No,No,Yes,Yes,1007,72.2,13.9,1002,0
350030000174,NM-020-144,3500300,NM-020,1,5,JOE STANLEY SMITH ELEMENTARY,CARLSBAD MUNICIPAL SCHOOLS,Eddy County,505 S. ALTA VISTA,CARLSBAD,NM,88220,,(575)234-3300,33,Town: Remote,No,No,Yes,Yes,371,21.7,17.1,208,37
350006000019,NM-001-405,3500060,NM-001,6,8,JOHN ADAMS MIDDLE,ALBUQUERQUE PUBLIC SCHOOLS,Bernalillo County,5401 GLENRIO RD NW,ALBUQUERQUE,NM,87105,,(505)831-0400,11,City: Large,No,No,Yes,Yes,517,45.7,11.3,513,0
350006000070,NM-001-217,3500060,NM-001,KG,5,JOHN BAKER ELEMENTARY,ALBUQUERQUE PUBLIC SCHOOLS,Bernalillo County,12015-B TIVOLI ST NE,ALBUQUERQUE,NM,87111,,(505)298-7486,11,City: Large,No,No,–,–,499,33,15.1,148,32
350111000661,NM-043-190,3501110,NM-043,6,8,JOHN F. KENNEDY MIDDLE,GALLUP-MCKINLEY CTY SCHOOLS,McKinley County,600 S. BOARDMAN DR.,GALLUP,NM,87301,,(505)721-1051,33,Town: Remote,No,No,Yes,Yes,671,38.5,17.4,671,0
350150000385,NM-017-061,3501500,NM-017,PK,5,JORNADA ELEMENTARY,LAS CRUCES PUBLIC SCHOOLS,DoÃƒÂ±a Ana County,505 SOUTH MAIN SUITE 249,LAS CRUCES,NM,88001,,(575)527-9536,12,City: Midsize,No,No,Yes,Yes,521,31.15,16.7,520,0
350243000562,NM-023-115,3502430,NM-023,1,6,JOSE BARRIOS ELEMENTARY,SILVER CONSOLIDATED SCHOOLS,Grant County,1625 LITTLE WALNUT,SILVER CITY,NM,88061,,(575)956-2120,33,Town: Remote,No,No,Yes,Yes,264,19,13.9,264,0
350039001115,NM-067-060,3500390,NM-067,KG,6,JUDY NELSON ELEMENTARY,CENTRAL CONSOLIDATED SCHOOLS,San Juan County,#5 CR 6575,KIRTLAND,NM,87417,,(505)598-6285,41,Rural: Fringe,No,No,Yes,Yes,599,38.8,15.4,599,0
350168000722,NM-086-080,3501680,NM-086,PK,6,KATHERINE GALLEGOS ELEMENTARY,LOS LUNAS PUBLIC SCHOOLS,Valencia County,PO DRAWER 1300,LOS LUNAS,NM,87031,,(505)866-8231,23,Suburb: Small,No,No,Yes,Yes,645,32.1,20.1,271,65
350237000548,NM-071-070,3502370,NM-071,PK,6,KEARNY ELEMENTARY,SANTA FE PUBLIC SCHOOLS,Santa Fe County,901 AVENIDA CAMPANAS,SANTA FE,NM,87501,,(505)467-1800,13,City: Small,No,No,Yes,Yes,444,30.8,14.4,444,0
350006000071,NM-001-427,3500060,NM-001,6,8,KENNEDY MIDDLE,ALBUQUERQUE PUBLIC SCHOOLS,Bernalillo County,721 TOMASITA NE,ALBUQUERQUE,NM,87123,,(505)298-6701,11,City: Large,No,No,Yes,Yes,466,33.28,14,465,0
350006000072,NM-001-279,3500060,NM-001,KG,5,KIRTLAND ELEMENTARY,ALBUQUERQUE PUBLIC SCHOOLS,Bernalillo County,3530 GIBSON BLVD SE,ALBUQUERQUE,NM,87118,,(505)255-3131,11,City: Large,No,No,Yes,Yes,224,15,14.9,205,0
350039000712,NM-067-038,3500390,NM-067,KG,6,KIRTLAND ELEMENTARY,CENTRAL CONSOLIDATED SCHOOLS,San Juan County,30 ROAD 6446,KIRTLAND,NM,87417,,(505)598-5893,31,Town: Fringe,No,No,Yes,Yes,524,35.3,14.8,524,0
350039000180,NM-067-034,3500390,NM-067,7,8,KIRTLAND MIDDLE,CENTRAL CONSOLIDATED SCHOOLS,San Juan County,538 ROAD 6100,KIRTLAND,NM,87417,,(505)598-6114,31,Town: Fringe,No,No,Yes,Yes,507,28.49,17.8,507,0
350039000947,NM-067-024,3500390,NM-067,PK,PK,KIRTLAND PRE-K EARLY,CENTRAL CONSOLIDATED SCHOOLS,San Juan County,30 CR 6446,KIRTLAND,NM,87417,,(505)598-4550,31,Town: Fringe,No,No,–,–,108,4.9,22,105,0
350051000205,NM-084-045,3500510,NM-084,5,6,KISER ELEMENTARY,CLAYTON MUNICIPAL SCHOOLS,Union County,224 SPRUCE ST,CLAYTON,NM,88415,,(575)374-9611,43,Rural: Remote,No,No,Yes,Yes,71,5.21,13.6,45,6
350006000073,NM-001-231,3500060,NM-001,PK,6,KIT CARSON ELEMENTARY,ALBUQUERQUE PUBLIC SCHOOLS,Bernalillo County,1921 BYRON AV SW,ALBUQUERQUE,NM,87105,,(505)877-2724,21,Suburb: Large,No,No,Yes,Yes,419,33.1,12.7,414,0
350006000065,NM-001-485,3500060,NM-001,6,8,L.B. JOHNSON MIDDLE,ALBUQUERQUE PUBLIC SCHOOLS,Bernalillo County,6811 TAYLOR RANCH DR NW,ALBUQUERQUE,NM,87120,,(505)898-1492,11,City: Large,No,No,Yes,No,751,56.45,13.3,324,60
350006000875,NM-001-061,3500060,NM-001,6,12,LA ACADEMIA DE ESPERANZA,ALBUQUERQUE PUBLIC SCHOOLS,Bernalillo County,1401 OLD COORS RD SW,ALBUQUERQUE,NM,87121,,(505)764-5500,21,Suburb: Large,Yes,No,Yes,Yes,306,29,10.6,306,0
350016600901,NM-560-001,3500166,NM-560,6,8,LA ACADEMIA DOLORES HUERTA,LA ACADEMIA DOLORES HUERTA,DoÃƒÂ±a Ana County,1480 NORTH MAIN,LAS CRUCES,NM,88001,,(575)527-5800,12,City: Midsize,Yes,No,Yes,Yes,127,11.47,11.1,127,0
350057000215,NM-012-072,3500570,NM-012,PK,5,LA CASITA ELEMENTARY,CLOVIS MUNICIPAL SCHOOLS,Curry County,400 DAVIS STREET,CLOVIS,NM,88101,,(575)769-4300,33,Town: Remote,No,No,Yes,Yes,262,12.5,21,262,0
350006000698,NM-001-525,3500060,NM-001,9,12,LA CUEVA HIGH,ALBUQUERQUE PUBLIC SCHOOLS,Bernalillo County,7801 WILSHIRE NE,ALBUQUERQUE,NM,87122,,(505)823-2327,11,City: Large,No,No,–,–,1762,89.74,19.6,247,39
350006000074,NM-001-282,3500060,NM-001,KG,5,LA LUZ ELEMENTARY,ALBUQUERQUE PUBLIC SCHOOLS,Bernalillo County,225 GRIEGOS RD NW,ALBUQUERQUE,NM,87107,,(505)761-8415,11,City: Large,No,No,Yes,Yes,181,14.5,12.5,179,0
350003000008,NM-046-072,3500030,NM-046,KG,5,LA LUZ ELEMENTARY,ALAMOGORDO PUBLIC SCHOOLS,Otero County,99 ALAMO,LA LUZ,NM,88337,,(575)812-5300,41,Rural: Fringe,No,No,Yes,Yes,248,14.25,17.4,248,0
350018030003,NM-087-038,3500180,NM-087,PK,6,LA MERCED ELEMENTARY,BELEN CONSOLIDATED SCHOOLS,Valencia County,520 NORTH MAIN ST,BELEN,NM,87002,,(505)966-2100,41,Rural: Fringe,No,No,Yes,Yes,465,30.1,15.4,465,0
350006000075,NM-001-285,3500060,NM-001,PK,5,LA MESA ELEMENTARY,ALBUQUERQUE PUBLIC SCHOOLS,Bernalillo County,7500 COPPER AV NE,ALBUQUERQUE,NM,87108,,(505)262-1581,11,City: Large,No,No,Yes,Yes,479,30,16,474,0
350108001130,NM-019-063,3501080,NM-019,PK,PK,LA MESA ON TRACK PREK CENTER,GADSDEN INDEPENDENT SCHOOLS,DoÃƒÂ±a Ana County,253 E CHIMURI,LA MESA,NM,88044,,(575)233-3475,41,Rural: Fringe,No,No,–,–,77,4,19.3,74,0
350243000563,NM-023-145,3502430,NM-023,7,8,LA PLATA MIDDLE,SILVER CONSOLIDATED SCHOOLS,Grant County,3500 NORTH SILVER ST,SILVER CITY,NM,88061,,(575)956-2060,33,Town: Remote,No,No,Yes,Yes,296,23,12.9,296,0
350013400923,NM-528-001,3500134,NM-528,PK,8,LA PROMESA EARLY LEARNING,LA PROMESA EARLY LEARNING,Bernalillo County,7500 LA MORADA NW,ALBUQUERQUE,NM,87120,,(505)836-7706,11,City: Large,Yes,No,Yes,Yes,378,24,15.8,378,0
350018000849,NM-087-003,3500180,NM-087,PK,6,LA PROMESA ELEMENTARY,BELEN CONSOLIDATED SCHOOLS,Socorro County,520 NORTH MAIN ST,BELEN,NM,87002,,(505)966-2400,42,Rural: Distant,No,No,Yes,Yes,210,16.3,12.9,210,0
350006000962,NM-001-114,3500060,NM-001,–,–,LA RESOLANA LEADERSHIP,ALBUQUERQUE PUBLIC SCHOOLS,Bernalillo County,230 TRUMAN NE,ALBUQUERQUE,NM,87108,,(505)243-8114,11,City: Large,Yes,No,Yes,Yes,73,7,10.4,73,0
350015501084,NM-546-001,3500155,NM-546,KG,6,LA TIERRA MONTESSORI SCHOOL OF THE ARTS AND SCIENCES,LA TIERRA MONTESSORI SCHOOL OF THE ARTS AND SCIENCES,Rio Arriba County,PO BOX 1399,ESPANOLA,NM,87532,,(505)852-0200,32,Town: Distant,Yes,No,Yes,Yes,79,7,11.3,38,0
350108000629,NM-019-076,3501080,NM-019,PK,6,LA UNION ELEMENTARY,GADSDEN INDEPENDENT SCHOOLS,DoÃƒÂ±a Ana County,875 MERCANTILE,ANTHONY,NM,88021,,(575)882-6203,41,Rural: Fringe,No,No,Yes,Yes,299,24,12.5,299,0
350099000287,NM-065-073,3500990,NM-065,KG,5,LADERA DEL NORTE ELEMENTARY,FARMINGTON MUNICIPAL SCHOOLS,San Juan County,308 EAST 35TH STREET,FARMINGTON,NM,87401,,(505)324-9840,13,City: Small,No,No,Yes,No,568,32,17.8,179,7
350001200974,NM-091-006,3500012,NM-091,8,12,LAE COUNTY CORRECTIONS,NM CORRECTIONS,Lea County,6900 WEST MILLEN DR,HOBBS,NM,88240,,(575)392-4055,41,Rural: Fringe,No,No,–,–,9,0.5,18,0,0
350117000330,NM-088-057,3501170,NM-088,9,12,LAGUNA-ACOMA HIGH,GRANTS-CIBOLA COUNTY SCHOOLS,Cibola County,540 EXIT 108 S. 22,CASA BLANCA,NM,87007,,(505)285-2667,43,Rural: Remote,No,No,Yes,Yes,203,20.62,9.8,203,0
350117000665,NM-088-058,3501170,NM-088,7,8,LAGUNA-ACOMA MIDDLE,GRANTS-CIBOLA COUNTY SCHOOLS,Cibola County,540 EXIT 108 S. 22,CASA BLANCA,NM,87007,,(505)285-2603,43,Rural: Remote,No,No,Yes,Yes,51,5.24,9.7,51,0
350147000374,NM-007-073,3501470,NM-007,PK,5,LAKE ARTHUR ELEMENTARY,LAKE ARTHUR MUNICIPAL SCHOOLS,Chaves County,700 BROADWAY,LAKE ARTHUR,NM,88253,,(575)365-2000,42,Rural: Distant,No,No,Yes,Yes,42,3.85,10.9,39,0
350147000375,NM-007-075,3501470,NM-007,9,12,LAKE ARTHUR HIGH,LAKE ARTHUR MUNICIPAL SCHOOLS,Chaves County,700 BROADWAY,LAKE ARTHUR,NM,88253,,(575)365-2000,42,Rural: Distant,No,No,Yes,Yes,32,5.4,5.9,29,0
350147000701,NM-007-077,3501470,NM-007,6,8,LAKE ARTHUR MIDDLE,LAKE ARTHUR MUNICIPAL SCHOOLS,Chaves County,700 BROADWAY,LAKE ARTHUR,NM,88253,,(575)365-2000,42,Rural: Distant,No,No,Yes,Yes,19,4.65,4.1,16,0
350150000386,NM-017-075,3501500,NM-017,9,12,LAS CRUCES HIGH,LAS CRUCES PUBLIC SCHOOLS,DoÃƒÂ±a Ana County,505 SOUTH MAIN SUITE 249,LAS CRUCES,NM,88001,,(575)527-9400,12,City: Midsize,No,No,Yes,Yes,1738,96.11,18.1,972,96
350016801019,NM-567-001,3500168,NM-567,9,12,LAS MONTANAS CHARTER,LAS MONTANAS CHARTER,DoÃƒÂ±a Ana County,1405 S. SOLANO AVE,LAS CRUCES,NM,88001,,(575)636-2100,12,City: Midsize,Yes,No,Yes,Yes,166,18.3,9.1,166,0
350006000077,NM-001-288,3500060,NM-001,PK,5,LAVALAND ELEMENTARY,ALBUQUERQUE PUBLIC SCHOOLS,Bernalillo County,501 57TH ST NW,ALBUQUERQUE,NM,87105,,(505)836-4911,11,City: Large,No,No,Yes,Yes,549,37,14.8,544,0
350186000784,NM-044-001,3501860,NM-044,7,8,LAZARO LARRY GARCIA MIDDLE,MORA INDEPENDENT SCHOOLS,Mora County,PO BOX 687,MORA,NM,87732,,(575)387-3127,43,Rural: Remote,No,No,Yes,Yes,70,8.2,8.5,70,0
350174000446,NM-031-076,3501740,NM-031,1,1,LEA ELEMENTARY,LOVINGTON MUNICIPAL SCHOOLS,Lea County,1202 W. BIRCH AVENUE,LOVINGTON,NM,88260,,(575)739-2625,33,Town: Remote,No,No,Yes,Yes,232,17.77,13.1,145,23
350006000043,NM-001-373,3500060,NM-001,KG,5,LEW WALLACE ELEMENTARY,ALBUQUERQUE PUBLIC SCHOOLS,Bernalillo County,513 SIXTH ST NW,ALBUQUERQUE,NM,87102,,(505)848-9409,11,City: Large,No,No,Yes,Yes,209,13.2,15.8,208,0
350111000308,NM-043-077,3501110,NM-043,PK,5,LINCOLN ELEMENTARY,GALLUP-MCKINLEY CTY SCHOOLS,McKinley County,801 WEST HILL,GALLUP,NM,87301,,(505)721-1051,33,Town: Remote,No,No,Yes,Yes,243,20,12.2,243,0
350057000216,NM-012-080,3500570,NM-012,–,–,LINCOLN JACKSON ARTS,CLOVIS MUNICIPAL SCHOOLS,Curry County,206 ALPHON STREET,CLOVIS,NM,88101,,(575)769-4300,33,Town: Remote,No,No,†,†,–,0,†,0,0
350001000682,NM-083-481,3500010,NM-083,6,8,LINCOLN MIDDLE,RIO RANCHO PUBLIC SCHOOLS,Sandoval County,2287 LEMA ROAD SE,RIO RANCHO,NM,87124,,(505)892-1100,21,Suburb: Large,No,No,Yes,No,972,55.52,17.5,284,58
350138000992,NM-056-003,3501380,NM-056,KG,8,LINDRITH AREA HERITAGE,JEMEZ MOUNTAIN PUBLIC SCHOOLS,Rio Arriba County,PO BOX 119,LINDRITH,NM,87029,,(575)774-6669,43,Rural: Remote,Yes,No,–,–,18,1.78,10.1,13,1
350210001073,NM-057-155,3502100,NM-057,5,6,LINDSEY-STEINER ELEMENTARY,PORTALES MUNICIPAL SCHOOLS,Roosevelt County,1000 NORTH AVENUE M,PORTALES,NM,88130,,(575)356-7060,33,Town: Remote,No,No,Yes,Yes,410,26,15.8,255,27
350174000447,NM-031-078,3501740,NM-031,PK,KG,LLANO ELEMENTARY,LOVINGTON MUNICIPAL SCHOOLS,Lea County,1000 SOUTH FIRST,LOVINGTON,NM,88260,,(575)739-2670,33,Town: Remote,No,No,Yes,Yes,490,23.82,20.6,274,30
350057000217,NM-012-084,3500570,NM-012,PK,5,LOCKWOOD ELEMENTARY,CLOVIS MUNICIPAL SCHOOLS,Curry County,400 LOCKWOOD DRIVE,CLOVIS,NM,88101,,(575)769-4300,41,Rural: Fringe,No,No,Yes,Yes,356,22.5,15.8,356,0
350159000420,NM-051-080,3501590,NM-051,PK,5,LOGAN ELEMENTARY,LOGAN MUNICIPAL SCHOOLS,Quay County,301 NORTH 2ND ST,LOGAN,NM,88426,,(575)487-2252,43,Rural: Remote,No,No,Yes,Yes,135,8.85,15.3,50,11
350159000421,NM-051-081,3501590,NM-051,9,12,LOGAN HIGH,LOGAN MUNICIPAL SCHOOLS,Quay County,301 NORTH 2ND ST,LOGAN,NM,88426,,(575)487-2252,43,Rural: Remote,No,No,–,–,92,6.05,15.2,24,11
350159000885,NM-051-082,3501590,NM-051,6,8,LOGAN MIDDLE,LOGAN MUNICIPAL SCHOOLS,Quay County,301 NORTH 2ND ST,LOGAN,NM,88426,,(575)487-2252,43,Rural: Remote,No,No,Yes,Yes,72,5.95,12.1,28,12
350150000387,NM-017-065,3501500,NM-017,PK,5,LOMA HEIGHTS ELEMENTARY,LAS CRUCES PUBLIC SCHOOLS,DoÃƒÂ±a Ana County,505 SOUTH MAIN SUITE 249,LAS CRUCES,NM,88001,,(575)527-9546,12,City: Midsize,No,No,Yes,Yes,499,34.48,14.5,499,0
350108000656,NM-019-086,3501080,NM-019,KG,6,LOMA LINDA ELEMENTARY,GADSDEN INDEPENDENT SCHOOLS,DoÃƒÂ±a Ana County,1451 DONALDSON AVE.,ANTHONY,NM,88021,,(575)882-6203,21,Suburb: Large,No,No,Yes,Yes,347,27.9,12.4,347,0
350006000078,NM-001-291,3500060,NM-001,KG,5,LONGFELLOW ELEMENTARY,ALBUQUERQUE PUBLIC SCHOOLS,Bernalillo County,400 EDITH NE,ALBUQUERQUE,NM,87102,,(505)764-2024,11,City: Large,No,Yes,Yes,Yes,266,19.5,13.6,265,0
350219000499,NM-009-080,3502190,NM-009,PK,2,LONGFELLOW ELEMENTARY,RATON PUBLIC SCHOOLS,Colfax County,700 EAST 4TH,RATON,NM,87740,,(575)445-9261,33,Town: Remote,No,No,Yes,Yes,230,15,15.3,229,0
350162000424,NM-029-082,3501620,NM-029,9,12,LORDSBURG HIGH,LORDSBURG MUNICIPAL SCHOOLS,Hidalgo County,501 WEST FOURTH ST,LORDSBURG,NM,88045,,(575)542-3782,43,Rural: Remote,No,No,Yes,Yes,125,9,13.9,125,0
350117000331,NM-088-056,3501170,NM-088,7,8,LOS ALAMITOS MIDDLE,GRANTS-CIBOLA COUNTY SCHOOLS,Cibola County,1100 MT. TAYLOR AVE,GRANTS,NM,87020,,(505)285-2603,33,Town: Remote,No,No,Yes,Yes,435,31.75,13.7,435,0
350165000431,NM-041-080,3501650,NM-041,10,12,LOS ALAMOS HIGH,LOS ALAMOS PUBLIC SCHOOLS,Los Alamos County,1300 DIAMOND DRIVE,LOS ALAMOS,NM,87544,,(505)663-2210,32,Town: Distant,No,No,–,–,860,55.74,15.4,59,7
350165000430,NM-041-124,3501650,NM-041,7,8,LOS ALAMOS MIDDLE,LOS ALAMOS PUBLIC SCHOOLS,Los Alamos County,2101 HAWK DRIVE,LOS ALAMOS,NM,87544,,(505)663-2375,32,Town: Distant,No,No,–,–,582,49.22,11.8,52,1
350168000258,NM-086-082,3501680,NM-086,PK,6,LOS LUNAS ELEMENTARY,LOS LUNAS PUBLIC SCHOOLS,Valencia County,PO DRAWER 1300,LOS LUNAS,NM,87031,,(505)866-8231,23,Suburb: Small,No,No,Yes,Yes,479,29.1,16.5,478,0
350168000866,NM-086-018,3501680,NM-086,1,8,LOS LUNAS FAMILY SCHOOL,LOS LUNAS PUBLIC SCHOOLS,Valencia County,PO DRAWER 1300,LOS LUNAS,NM,87031,,(505)866-8231,23,Suburb: Small,No,No,Yes,Yes,39,2.4,16.3,12,0
350168000439,NM-086-085,3501680,NM-086,9,12,LOS LUNAS HIGH,LOS LUNAS PUBLIC SCHOOLS,Valencia County,PO DRAWER 1300,LOS LUNAS,NM,87031,,(505)866-8231,23,Suburb: Small,No,No,Yes,Yes,1375,55.46,24.8,702,122
350168000440,NM-086-084,3501680,NM-086,7,8,LOS LUNAS MIDDLE,LOS LUNAS PUBLIC SCHOOLS,Valencia County,PO DRAWER 1300,LOS LUNAS,NM,87031,,(505)866-8231,23,Suburb: Small,No,No,Yes,Yes,818,36.8,22.2,461,67
350057000793,NM-012-003,3500570,NM-012,PK,PK,LOS NINOS,CLOVIS MUNICIPAL SCHOOLS,Curry County,3301 THORNTON,CLOVIS,NM,88101,,(575)769-4300,33,Town: Remote,No,No,–,–,124,6,20.7,124,0
350090000685,NM-055-142,3500900,NM-055,PK,KG,LOS NINOS ELEMENTARY,ESPANOLA PUBLIC SCHOOLS,Rio Arriba County,714 CALLE DON DIEGO,ESPANOLA,NM,87532,,(505)753-2254,32,Town: Distant,No,No,Yes,Yes,113,10,11.3,113,0
350153000402,NM-069-037,3501530,NM-069,KG,3,LOS NINOS ELEMENTARY,LAS VEGAS CITY PUBLIC SCHOOLS,San Miguel County,901 DOUGLAS AVENUE,LAS VEGAS,NM,87701,,(505)454-5720,33,Town: Remote,No,No,Yes,Yes,340,19.57,17.4,340,0
350006000079,NM-001-297,3500060,NM-001,PK,6,LOS PADILLAS ELEMENTARY,ALBUQUERQUE PUBLIC SCHOOLS,Bernalillo County,2525 LOS PADILLAS RD SW,ALBUQUERQUE,NM,87105,,(505)877-0108,21,Suburb: Large,No,No,Yes,Yes,208,18.5,11.2,204,0
350006000852,NM-001-017,3500060,NM-001,7,12,LOS PUENTES CHARTER,ALBUQUERQUE PUBLIC SCHOOLS,Bernalillo County,4012 4TH ST. NW,ALBUQUERQUE,NM,87107,,(505)342-5959,11,City: Large,Yes,No,Yes,Yes,146,14.93,9.8,146,0
350006000099,NM-001-336,3500060,NM-001,PK,5,LOS RANCHOS ELEMENTARY,ALBUQUERQUE PUBLIC SCHOOLS,Bernalillo County,7609 FOURTH ST NW,ALBUQUERQUE,NM,87107,,(505)898-0794,21,Suburb: Large,No,No,Yes,Yes,293,21.65,13.5,290,0
350171000442,NM-021-085,3501710,NM-021,PK,5,LOVING ELEMENTARY,LOVING MUNICIPAL SCHOOLS,Eddy County,601 SOUTH SIXTH,LOVING,NM,88256,,(575)745-2010,42,Rural: Distant,No,No,Yes,Yes,293,16.6,17.7,293,0
350171000443,NM-021-086,3501710,NM-021,9,12,LOVING HIGH,LOVING MUNICIPAL SCHOOLS,Eddy County,602 SOUTH SIXTH,LOVING,NM,88256,,(575)745-2010,42,Rural: Distant,No,No,Yes,No,181,13.6,13.3,181,0
350171000731,NM-021-088,3501710,NM-021,6,8,LOVING MIDDLE,LOVING MUNICIPAL SCHOOLS,Eddy County,600 SOUTH SIXTH,LOVING,NM,88256,,(575)745-2010,42,Rural: Distant,No,No,Yes,Yes,133,9.2,14.5,133,0
350174000444,NM-031-080,3501740,NM-031,6,6,LOVINGTON 6TH GRADE ACADEMY,LOVINGTON MUNICIPAL SCHOOLS,Lea County,500 W. JEFFERSON AVE,LOVINGTON,NM,88260,,(575)739-2330,33,Town: Remote,No,No,Yes,Yes,321,17.17,18.7,185,31
350174001044,NM-031-083,3501740,NM-031,9,9,LOVINGTON FRESHMAN ACADEMY,LOVINGTON MUNICIPAL SCHOOLS,Lea County,701 WEST AVE K,LOVINGTON,NM,88260,,(575)739-2260,33,Town: Remote,No,No,Yes,Yes,265,16.45,16.1,133,25
350174000448,NM-031-081,3501740,NM-031,10,12,LOVINGTON HIGH,LOVINGTON MUNICIPAL SCHOOLS,Lea County,701 W. AVE K,LOVINGTON,NM,88260,,(575)739-2230,33,Town: Remote,No,No,Yes,Yes,647,33.92,19.1,286,39
350006000080,NM-001-300,3500060,NM-001,PK,5,LOWELL ELEMENTARY,ALBUQUERQUE PUBLIC SCHOOLS,Bernalillo County,1700 SUNSHINE TERRACE SE,ALBUQUERQUE,NM,87106,,(505)764-2011,11,City: Large,No,No,Yes,Yes,257,18.2,14.1,256,0
350093000278,NM-080-169,3500930,NM-080,1,3,LOWER ELEMENTARY,ESTANCIA MUNICIPAL SCHOOLS,Torrance County,119 N 7TH,ESTANCIA,NM,87016,,(505)384-2001,43,Rural: Remote,No,No,Yes,Yes,146,5.32,27.4,146,0
350156000408,NM-068-012,3501560,NM-068,2,5,LUIS E. ARMIJO ELEMENTARY,WEST LAS VEGAS PUBLIC SCHOOLS,San Miguel County,179 BRIDGE STREET,LAS VEGAS,NM,87701,,(505)426-2661,33,Town: Remote,No,No,Yes,Yes,252,†,†,252,0
350153000863,NM-069-003,3501530,NM-069,KG,KG,LVCS EARLY CHILDHOOD,LAS VEGAS CITY PUBLIC SCHOOLS,San Miguel County,901 DOUGLAS AVENUE,LAS VEGAS,NM,87701,,(505)454-5780,33,Town: Remote,No,No,Yes,Yes,97,6.25,15.5,97,0
350138000371,NM-056-087,3501380,NM-056,PK,8,LYBROOK ELEMENTARY,JEMEZ MOUNTAIN PUBLIC SCHOOLS,Rio Arriba County,PO BOX 350,CUBA,NM,87013,,(575)638-5419,43,Rural: Remote,No,No,Yes,Yes,53,3.1,17.1,53,0
350015000139,NM-064-136,3500150,NM-064,PK,3,LYDIA RIPPEY ELEMENTARY,AZTEC MUNICIPAL SCHOOLS,San Juan County,401 RIO PECOS ROAD,AZTEC,NM,87410,,(575)334-9474,31,Town: Fringe,No,No,Yes,Yes,451,29.12,15.5,451,0
350150000388,NM-017-086,3501500,NM-017,6,8,LYNN MIDDLE,LAS CRUCES PUBLIC SCHOOLS,DoÃƒÂ±a Ana County,505 SOUTH MAIN SUITE 249,LAS CRUCES,NM,88001,,(575)527-9445,12,City: Midsize,No,Yes,Yes,Yes,707,38.02,18.6,707,0
350150000389,NM-017-093,3501500,NM-017,PK,5,MAC ARTHUR ELEMENTARY,LAS CRUCES PUBLIC SCHOOLS,DoÃƒÂ±a Ana County,505 SOUTH MAIN SUITE 249,LAS CRUCES,NM,88001,,(575)527-9556,12,City: Midsize,No,No,Yes,Yes,418,27.72,15.1,418,0
350006000046,NM-001-303,3500060,NM-001,PK,5,MACARTHUR ELEMENTARY,ALBUQUERQUE PUBLIC SCHOOLS,Bernalillo County,1100 MACARTHUR RD NW,ALBUQUERQUE,NM,87107,,(505)344-1482,11,City: Large,No,No,Yes,Yes,231,19.85,11.6,229,0
350006000081,NM-001-435,3500060,NM-001,6,8,MADISON MIDDLE,ALBUQUERQUE PUBLIC SCHOOLS,Bernalillo County,3501 MOON ST NE,ALBUQUERQUE,NM,87111,,(505)299-4735,11,City: Large,No,No,Yes,Yes,775,47.15,16.4,311,58
350177000453,NM-075-133,3501770,NM-075,PK,5,MAGDALENA ELEMENTARY,MAGDALENA MUNICIPAL SCHOOLS,Socorro County,201 DUGGINS DR,MAGDALENA,NM,87825,,(575)854-2241,43,Rural: Remote,No,No,Yes,Yes,168,11.73,14.3,168,0
350177000452,NM-075-095,3501770,NM-075,9,12,MAGDALENA HIGH,MAGDALENA MUNICIPAL SCHOOLS,Socorro County,201 DUGGINS DR,MAGDALENA,NM,87825,,(575)854-2241,43,Rural: Remote,No,No,Yes,Yes,98,9.78,10,98,0
350177000694,NM-075-100,3501770,NM-075,6,8,MAGDALENA MIDDLE,MAGDALENA MUNICIPAL SCHOOLS,Socorro County,201 DUGGINS DR,MAGDALENA,NM,87825,,(575)854-2241,43,Rural: Remote,No,No,Yes,Yes,84,9.02,9.3,84,0
350001000952,NM-083-012,3500010,NM-083,KG,5,MAGGIE CORDOVA ELEMENTARY SCHOOL,RIO RANCHO PUBLIC SCHOOLS,Sandoval County,1500 VERANDA RD SE,RIO RANCHO,NM,87124,,(505)994-0229,21,Suburb: Large,No,No,Yes,Yes,849,61.27,13.9,270,48
350237001106,NM-071-173,3502370,NM-071,7,12,MANDELA INTERNATIONAL MAGNET (MIMS),SANTA FE PUBLIC SCHOOLS,Santa Fe County,1604 AGUA FRIA,SANTA FE,NM,87505,,(505)467-1901,13,City: Small,No,Yes,–,–,224,20.54,10.9,51,13
350006000082,NM-001-530,3500060,NM-001,PK,12,MANZANO HIGH,ALBUQUERQUE PUBLIC SCHOOLS,Bernalillo County,12200 LOMAS BLVD NE,ALBUQUERQUE,NM,87112,,(505)559-2200,11,City: Large,No,No,Yes,Yes,1514,84.83,17.8,840,137
350006000895,NM-001-260,3500060,NM-001,PK,5,MANZANO MESA ELEMENTARY,ALBUQUERQUE PUBLIC SCHOOLS,Bernalillo County,801 ELIZABETH ST SE,ALBUQUERQUE,NM,87123,,(505)292-6707,11,City: Large,No,No,Yes,Yes,702,47.6,14.7,371,33
350006000683,NM-001-365,3500060,NM-001,PK,5,MARIE M HUGHES ELEMENTARY,ALBUQUERQUE PUBLIC SCHOOLS,Bernalillo County,5701 MOJAVE NW,ALBUQUERQUE,NM,87120,,(505)897-3080,11,City: Large,No,No,Yes,Yes,512,31.75,16.1,239,42
350006000821,NM-001-039,3500060,NM-001,9,12,MARK ARMIJO ACADEMY,ALBUQUERQUE PUBLIC SCHOOLS,Bernalillo County,6800 GONZALES RD SW,ALBUQUERQUE,NM,87121,,(505)873-7758,11,City: Large,Yes,No,Yes,Yes,174,11.72,14.8,96,1
350006000083,NM-001-364,3500060,NM-001,PK,5,MARK TWAIN ELEMENTARY,ALBUQUERQUE PUBLIC SCHOOLS,Bernalillo County,6316 CONSTITUTION AVE NE,ALBUQUERQUE,NM,87110,,(505)255-8337,11,City: Large,No,No,Yes,Yes,384,38.55,10,367,0
350057000218,NM-012-091,3500570,NM-012,6,8,MARSHALL MIDDLE,CLOVIS MUNICIPAL SCHOOLS,Curry County,100 COMMERCE WAY,CLOVIS,NM,88101,,(575)769-4300,33,Town: Remote,No,No,Yes,Yes,616,39,15.8,616,0
350001000710,NM-083-375,3500010,NM-083,KG,5,MARTIN KING JR ELEMENTARY,RIO RANCHO PUBLIC SCHOOLS,Sandoval County,1301 NICKLAUS DR SE,RIO RANCHO,NM,87124,,(505)892-2575,21,Suburb: Large,No,No,Yes,Yes,941,54.38,17.3,290,65
350006000692,NM-001-250,3500060,NM-001,KG,5,MARYANN BINFORD ELEMENTARY,ALBUQUERQUE PUBLIC SCHOOLS,Bernalillo County,1400 CORRIZ SW,ALBUQUERQUE,NM,87121,,(505)836-0623,11,City: Large,No,No,Yes,Yes,679,42.5,16,673,0
350006000084,NM-001-305,3500060,NM-001,KG,5,MATHESON PARK ELEMENTARY,ALBUQUERQUE PUBLIC SCHOOLS,Bernalillo County,10809 LEXINGTON AVE NE,ALBUQUERQUE,NM,87112,,(505)299-5087,11,City: Large,No,No,Yes,Yes,248,18.1,13.7,247,0
350180000460,NM-011-100,3501800,NM-011,KG,6,MAXWELL ELEMENTARY,MAXWELL MUNICIPAL SCHOOLS,Colfax County,PO BOX 275,MAXWELL,NM,87728,,(575)375-2371,43,Rural: Remote,No,No,Yes,Yes,70,6.44,10.9,70,0
350180000461,NM-011-105,3501800,NM-011,9,12,MAXWELL HIGH,MAXWELL MUNICIPAL SCHOOLS,Colfax County,PO BOX 275,MAXWELL,NM,87728,,(575)375-2371,43,Rural: Remote,No,No,Yes,Yes,33,3.36,9.8,33,0
350180000458,NM-011-108,3501800,NM-011,7,8,MAXWELL MIDDLE,MAXWELL MUNICIPAL SCHOOLS,Colfax County,PO BOX 275,MAXWELL,NM,87728,,(575)375-2371,43,Rural: Remote,No,No,Yes,Yes,27,2.2,12.3,27,0
350150000390,NM-017-100,3501500,NM-017,9,12,MAYFIELD HIGH,LAS CRUCES PUBLIC SCHOOLS,DoÃƒÂ±a Ana County,505 SOUTH MAIN SUITE 249,LAS CRUCES,NM,88001,,(575)527-9415,12,City: Midsize,No,No,Yes,Yes,1441,83.59,17.2,660,85
350006000085,NM-001-307,3500060,NM-001,PK,5,MCCOLLUM ELEMENTARY,ALBUQUERQUE PUBLIC SCHOOLS,Bernalillo County,10900 SAN JACINTO ST NE,ALBUQUERQUE,NM,87112,,(505)298-5009,11,City: Large,No,No,Yes,Yes,349,32.5,10.7,325,0
350099000288,NM-065-095,3500990,NM-065,KG,5,MCCORMICK ELEMENTARY,FARMINGTON MUNICIPAL SCHOOLS,San Juan County,701 MC CORMICK ROAD,FARMINGTON,NM,87401,,(505)324-9840,13,City: Small,No,No,Yes,Yes,444,33,13.5,444,0
350015000137,NM-064-099,3500150,NM-064,PK,3,MCCOY AVENUE ELEMENTARY,AZTEC MUNICIPAL SCHOOLS,San Juan County,901 NORTH MCCOY AVE,AZTEC,NM,87410,,(575)334-9474,31,Town: Fringe,No,No,Yes,Yes,400,30.13,13.3,400,0
350015301083,NM-547-001,3500153,NM-547,KG,12,MCCURDY CHARTER SCHOOL,MCCURDY CHARTER SCHOOL,Santa Fe County,PO BOX 2250,ESPANOLA,NM,87532,,(505)692-6090,32,Town: Distant,Yes,No,Yes,Yes,527,31,17,291,44
350099000289,NM-065-100,3500990,NM-065,KG,5,MCKINLEY ELEMENTARY,FARMINGTON MUNICIPAL SCHOOLS,San Juan County,1201 N. BUTLER AVE.,FARMINGTON,NM,87401,,(505)324-9840,13,City: Small,No,No,Yes,Yes,598,38.5,15.5,274,2
350006000615,NM-001-440,3500060,NM-001,6,8,MCKINLEY MIDDLE,ALBUQUERQUE PUBLIC SCHOOLS,Bernalillo County,4500 COMANCHE RD NE,ALBUQUERQUE,NM,87110,,(505)881-9390,11,City: Large,No,No,Yes,Yes,436,31.82,13.7,434,0
350010901030,NM-501-001,3500109,NM-501,6,12,MEDIA ARTS COLLABORATIVE CHARTER,MEDIA ARTS COLLABORATIVE CHARTER,Bernalillo County,4401 CENTRAL AVE NE BLDG 2,ALBUQUERQUE,NM,87108,,(505)243-1957,11,City: Large,Yes,No,Yes,Yes,254,21.82,11.6,117,22
350183000465,NM-014-094,3501830,NM-014,PK,6,MELROSE ELEMENTARY,MELROSE PUBLIC SCHOOLS,Curry County,100 E MISSOURI,MELROSE,NM,88124,,(575)253-4269,43,Rural: Remote,No,No,Yes,Yes,175,10.6,16.5,66,18
350183000466,NM-014-095,3501830,NM-014,9,12,MELROSE HIGH,MELROSE PUBLIC SCHOOLS,Curry County,100 MISSOURI AVE,MELROSE,NM,88124,,(575)253-4267,43,Rural: Remote,No,No,Yes,Yes,64,5.41,11.8,17,7
350183000898,NM-014-093,3501830,NM-014,7,8,MELROSE JUNIOR,MELROSE PUBLIC SCHOOLS,Curry County,100 MISSOURI AVE,MELROSE,NM,88124,,(575)253-4269,43,Rural: Remote,No,No,Yes,Yes,40,3.41,11.7,12,1
350069000242,NM-042-096,3500690,NM-042,KG,5,MEMORIAL ELEMENTARY,DEMING PUBLIC SCHOOLS,Luna County,1000 SOUTH 10TH ST,DEMING,NM,88030,,(575)546-2502,33,Town: Remote,No,No,Yes,Yes,411,26.36,15.6,411,0
350024000158,NM-066-095,3500240,NM-066,7,8,MESA ALTA JR HIGH,BLOOMFIELD SCHOOLS,San Juan County,329 N. BERGIN LANE,BLOOMFIELD,NM,87413,,(505)632-8021,31,Town: Fringe,No,No,Yes,Yes,413,25.1,16.5,413,0
350039000181,NM-067-110,3500390,NM-067,PK,5,MESA ELEMENTARY,CENTRAL CONSOLIDATED SCHOOLS,San Juan County,PO BOX 1803,SHIPROCK,NM,87420,,(505)368-4529,32,Town: Distant,No,No,Yes,Yes,326,21,15.5,326,0
350057030016,NM-012-095,3500570,NM-012,PK,5,MESA ELEMENTARY,CLOVIS MUNICIPAL SCHOOLS,Curry County,4801 NORRIS,CLOVIS,NM,88101,,(575)769-4300,33,Town: Remote,No,No,–,–,490,24,20.4,108,48
350150001063,NM-017-015,3501500,NM-017,6,8,MESA MIDDLE,LAS CRUCES PUBLIC SCHOOLS,DoÃƒÂ±a Ana County,7225 JORNADA RD N,LAS CRUCES,NM,88001,,(575)527-9510,41,Rural: Fringe,No,No,Yes,Yes,665,39.14,17,665,0
350225000514,NM-004-042,3502250,NM-004,6,8,MESA MIDDLE,ROSWELL INDEPENDENT SCHOOLS,Chaves County,1601 EAST BLAND ST,ROSWELL,NM,88201,,(575)627-2800,41,Rural: Fringe,No,No,Yes,Yes,457,28.2,16.2,457,0
350099000290,NM-065-106,3500990,NM-065,KG,5,MESA VERDE ELEMENTARY,FARMINGTON MUNICIPAL SCHOOLS,San Juan County,3801 COLLEGE BLVD.,FARMINGTON,NM,87401,,(505)324-9840,13,City: Small,No,No,Yes,Yes,442,31,14.3,174,3
350117000332,NM-088-099,3501170,NM-088,PK,6,MESA VIEW ELEMENTARY,GRANTS-CIBOLA COUNTY SCHOOLS,Cibola County,400 EAST WASHINGTON,GRANTS,NM,87020,,(505)285-2603,33,Town: Remote,No,No,Yes,Yes,480,33.7,14.2,480,0
350099000601,NM-065-108,3500990,NM-065,6,8,MESA VIEW MIDDLE SCHOOL,FARMINGTON MUNICIPAL SCHOOLS,San Juan County,4451 WILDFLOWER DR.,FARMINGTON,NM,87401,,(505)324-9840,13,City: Small,No,No,Yes,Yes,524,35.63,14.7,282,8
350198000475,NM-078-119,3501980,NM-078,9,12,MESA VISTA HIGH,MESA VISTA CONSOLIDATED SCHOOLS,Rio Arriba County,HWY 285 JUNCTION 111,OJO CALIENTE,NM,87549,,(575)583-2274,43,Rural: Remote,No,No,Yes,Yes,85,7.45,11.4,82,0
350198000705,NM-078-125,3501980,NM-078,7,8,MESA VISTA MIDDLE,MESA VISTA CONSOLIDATED SCHOOLS,Rio Arriba County,HWY 285 JUNCTION 111,OJO CALIENTE,NM,87549,,(575)583-2274,43,Rural: Remote,No,No,Yes,Yes,44,3.33,13.2,44,0
350150000392,NM-017-097,3501500,NM-017,PK,5,MESILLA ELEMENTARY,LAS CRUCES PUBLIC SCHOOLS,DoÃƒÂ±a Ana County,505 SOUTH MAIN SUITE 249,LAS CRUCES,NM,88001,,(575)527-9566,22,Suburb: Midsize,No,No,Yes,Yes,296,20.8,14.2,296,0
350150000393,NM-017-110,3501500,NM-017,PK,5,MESILLA PARK ELEMENTARY,LAS CRUCES PUBLIC SCHOOLS,DoÃƒÂ±a Ana County,505 SOUTH MAIN SUITE 249,LAS CRUCES,NM,88001,,(575)527-9615,12,City: Midsize,No,No,Yes,Yes,433,31.1,13.9,433,0
350150001078,NM-017-017,3501500,NM-017,6,8,MESILLA VALLEY ALTERNATIVE MIDDLE SCHOOL,LAS CRUCES PUBLIC SCHOOLS,DoÃƒÂ±a Ana County,505 SOUTH MAIN SUITE 249,LAS CRUCES,NM,88001,,(575)527-6059,12,City: Midsize,No,No,Yes,Yes,99,6.12,16.2,99,0
350108000628,NM-019-104,3501080,NM-019,PK,6,MESQUITE ELEMENTARY,GADSDEN INDEPENDENT SCHOOLS,DoÃƒÂ±a Ana County,205 NM HWY 228,MESQUITE,NM,88048,,(575)882-6203,31,Town: Fringe,No,No,Yes,Yes,307,25,12.3,307,0
350096000624,NM-032-048,3500960,NM-032,PK,5,METTIE JORDAN ELEMENTARY,EUNICE MUNICIPAL SCHOOLS,Lea County,PO BOX 129,EUNICE,NM,88231,,(575)394-2440,33,Town: Remote,No,No,Yes,Yes,447,22.19,20.1,268,37
350111000860,NM-043-097,3501110,NM-043,–,–,MIDDLE COLLEGE HIGH,GALLUP-MCKINLEY CTY SCHOOLS,McKinley County,200 COLLEGE ROAD #9,GALLUP,NM,87301,,(505)721-1051,41,Rural: Fringe,Yes,Yes,–,–,91,3.5,26,88,0
350246000568,NM-074-079,3502460,NM-074,KG,5,MIDWAY ELEMENTARY,SOCORRO CONSOLIDATED SCHOOLS,Socorro County,9 MIDWAY ROAD,POLVADERA,NM,87828,,(575)835-1098,42,Rural: Distant,No,No,Yes,Yes,105,5.96,17.6,105,0
350153000407,NM-069-150,3501530,NM-069,KG,6,MIKE SENA ELEMENTARY,LAS VEGAS CITY PUBLIC SCHOOLS,San Miguel County,901 DOUGLAS AVENUE,LAS VEGAS,NM,87701,,(505)454-5750,42,Rural: Distant,No,No,Yes,Yes,66,5.25,12.6,66,0
350237001139,NM-071-189,3502370,NM-071,7,8,MILAGRO MIDDLE,SANTA FE PUBLIC SCHOOLS,Santa Fe County,351 W. ZIA ROAD,SANTA FE,NM,87505,,(505)467-3300,13,City: Small,No,No,Yes,Yes,528,40.14,13.2,332,36
350117000333,NM-088-104,3501170,NM-088,PK,6,MILAN ELEMENTARY,GRANTS-CIBOLA COUNTY SCHOOLS,Cibola County,404 SAND,MILAN,NM,87021,,(505)285-2603,33,Town: Remote,No,No,Yes,Yes,461,34.49,13.4,461,0
350225000515,NM-004-095,3502250,NM-004,PK,5,MILITARY HGTS ELEMENTARY,ROSWELL INDEPENDENT SCHOOLS,Chaves County,1900 NORTH MICHIGAN,ROSWELL,NM,88201,,(575)637-3425,33,Town: Remote,No,No,Yes,Yes,482,26.5,18.2,482,0
350126000353,NM-033-072,3501260,NM-033,KG,5,MILLS ELEMENTARY,HOBBS MUNICIPAL SCHOOLS,Lea County,200 WEST COPPER,HOBBS,NM,88240,,(575)433-2400,33,Town: Remote,No,No,Yes,Yes,369,20.8,17.7,149,23
350069001140,NM-042-045,3500690,NM-042,9,12,MIMBRES VALLEY HIGH SCHOOL,DEMING PUBLIC SCHOOLS,Luna County,720 BUCKEYE ST.,DEMING,NM,88030,,(575)543-1049,33,Town: Remote,No,No,Yes,Yes,78,3.46,22.5,78,0
350014801089,NM-542-001,3500148,NM-542,PK,12,MISSION ACHIEVEMENT AND SUCCESS 1.0,MISSION ACHIEVEMENT AND SUCCESS,Bernalillo County,1718 YALE BLVD SE,ALBUQUERQUE,NM,87106,,(505)242-3118,11,City: Large,Yes,No,Yes,Yes,1063,38,28,708,104
350014801146,NM-542-002,3500148,NM-542,KG,3,MISSION ACHIEVEMENT AND SUCCESS 2.0,MISSION ACHIEVEMENT AND SUCCESS,Bernalillo County,1255 OLD COORS RD SW,ALBUQUERQUE,NM,87121,,(505)242-3118,21,Suburb: Large,Yes,No,Yes,Yes,104,8,13,83,7
350006000087,NM-001-309,3500060,NM-001,PK,5,MISSION AVENUE ELEMENTARY,ALBUQUERQUE PUBLIC SCHOOLS,Bernalillo County,725 MISSION AV NE,ALBUQUERQUE,NM,87107,,(505)344-5269,11,City: Large,No,Yes,Yes,Yes,373,26.4,14.1,368,0
350225000516,NM-004-100,3502250,NM-004,PK,5,MISSOURI AVE ELEMENTARY,ROSWELL INDEPENDENT SCHOOLS,Chaves County,700 W DEMING,ROSWELL,NM,88201,,(575)637-3450,33,Town: Remote,No,No,Yes,Yes,373,22.7,16.4,373,0
350006000088,NM-001-310,3500060,NM-001,KG,5,MITCHELL ELEMENTARY,ALBUQUERQUE PUBLIC SCHOOLS,Bernalillo County,10121 COMANCHE RD NE,ALBUQUERQUE,NM,87111,,(505)299-1937,11,City: Large,No,No,Yes,Yes,333,25.85,12.9,330,0
350111000768,NM-043-073,3501110,NM-043,9,12,MIYAMURA HIGH SCHOOL,GALLUP-MCKINLEY CTY SCHOOLS,McKinley County,680 SOUTH BOARDMAN,GALLUP,NM,87301,,(505)721-1051,33,Town: Remote,No,No,Yes,Yes,1180,69.9,16.9,1180,0
350017000816,NM-564-001,3500170,NM-564,7,12,MONTE DEL SOL CHARTER,MONTE DEL SOL CHARTER,Santa Fe County,4157 WALKING RAIN RD,SANTA FE,NM,87507,,(505)982-5225,13,City: Small,Yes,No,Yes,Yes,349,31.3,11.2,175,52
350006000089,NM-001-312,3500060,NM-001,KG,5,MONTE VISTA ELEMENTARY,ALBUQUERQUE PUBLIC SCHOOLS,Bernalillo County,3211 MONTE VISTA BLVD NE,ALBUQUERQUE,NM,87106,,(505)260-2030,11,City: Large,No,No,–,–,484,28,17.3,127,35
350150001062,NM-017-014,3501500,NM-017,PK,5,MONTE VISTA ELEMENTARY,LAS CRUCES PUBLIC SCHOOLS,DoÃƒÂ±a Ana County,4675 PEACHTREE HILLS,LAS CRUCES,NM,88012,,(575)527-9490,41,Rural: Fringe,No,No,Yes,Yes,616,40.24,15.3,614,0
350225000517,NM-004-105,3502250,NM-004,KG,5,MONTERREY ELEMENTARY,ROSWELL INDEPENDENT SCHOOLS,Chaves County,910 W. GAYLE STREET,ROSWELL,NM,88201,,(575)637-3475,33,Town: Remote,No,No,Yes,Yes,498,28.75,17.3,498,0
350030000170,NM-020-100,3500300,NM-020,1,5,MONTERREY ELEMENTARY,CARLSBAD MUNICIPAL SCHOOLS,Eddy County,1101 NORTH 9TH ST.,CARLSBAD,NM,88220,,(575)234-3300,41,Rural: Fringe,No,No,Yes,Yes,355,20.55,17.3,136,39
350013500929,NM-529-001,3500135,NM-529,KG,8,MONTESSORI ELEMENTARY SCHOOL,MONTESSORI ELEMENTARY SCHOOL,Bernalillo County,1730 MONTANO RD NW,ALBUQUERQUE,NM,87107,,(505)796-0149,11,City: Large,Yes,No,Yes,Yes,432,21,20.6,38,0
350006000894,NM-001-095,3500060,NM-001,KG,5,MONTESSORI OF THE RIO GRANDE,ALBUQUERQUE PUBLIC SCHOOLS,Bernalillo County,1650 GABALDON DR. N.W.,ALBUQUERQUE,NM,87104,,(505)842-5993,11,City: Large,Yes,No,–,–,216,14.05,15.4,0,0
350006000090,NM-001-315,3500060,NM-001,PK,5,MONTEZUMA ELEMENTARY,ALBUQUERQUE PUBLIC SCHOOLS,Bernalillo County,3100 INDIAN SCHOOL NE,ALBUQUERQUE,NM,87106,,(505)260-2040,11,City: Large,No,No,Yes,Yes,392,36.65,10.7,390,0
350186000637,NM-044-104,3501860,NM-044,1,6,MORA ELEMENTARY,MORA INDEPENDENT SCHOOLS,Mora County,PO BOX 140,MORA,NM,87732,,(575)387-3132,43,Rural: Remote,No,No,Yes,Yes,177,15.8,11.2,177,0
350186000638,NM-044-105,3501860,NM-044,9,12,MORA HIGH,MORA INDEPENDENT SCHOOLS,Mora County,PO BOX 179,MORA,NM,87732,,(575)387-3100,43,Rural: Remote,No,No,Yes,Yes,121,10.5,11.5,121,0
350048000857,NM-008-003,3500480,NM-008,9,12,MORENO VALLEY HIGH,CIMARRON MUNICIPAL SCHOOLS,Colfax County,PO BOX 1037,ANGEL FIRE,NM,87710,,(575)377-3100,43,Rural: Remote,Yes,No,–,–,61,6.67,9.1,11,0
350189000467,NM-081-100,3501890,NM-081,PK,5,MORIARTY ELEMENTARY,MORIARTY-EDGEWOOD SCHOOL DISTRICT,Torrance County,2015 SCHOOL LOOP,MORIARTY,NM,87035,,(505)835-5835,42,Rural: Distant,No,No,Yes,Yes,401,26.14,15.3,400,0
350189000468,NM-081-101,3501890,NM-081,9,12,MORIARTY HIGH,MORIARTY-EDGEWOOD SCHOOL DISTRICT,Torrance County,200 CENTER ST,MORIARTY,NM,87035,,(505)835-5835,42,Rural: Distant,No,No,Yes,Yes,697,37.7,18.5,357,54
350189000469,NM-081-102,3501890,NM-081,6,8,MORIARTY MIDDLE,MORIARTY-EDGEWOOD SCHOOL DISTRICT,Torrance County,200 CENTER ST,MORIARTY,NM,87035,,(505)835-5835,42,Rural: Distant,No,No,Yes,Yes,278,16.39,17,277,0
350015000785,NM-064-001,3500150,NM-064,KG,8,MOSAIC ACADEMY CHARTER,AZTEC MUNICIPAL SCHOOLS,San Juan County,450 LLANO STREET,AZTEC,NM,87410,,(575)334-9474,31,Town: Fringe,Yes,No,Yes,Yes,180,11.68,15.4,85,35
350192000470,NM-028-100,3501920,NM-028,PK,6,MOSQUERO ELEMENTARY,MOSQUERO MUNICIPAL SCHOOLS,Harding County,43 MCNEIL AVE,MOSQUERO,NM,87733,,(575)673-2271,43,Rural: Remote,No,No,Yes,No,21,3.62,5.8,3,4
350192000471,NM-028-101,3501920,NM-028,7,12,MOSQUERO HIGH,MOSQUERO MUNICIPAL SCHOOLS,Harding County,43 MCNEIL AVE,MOSQUERO,NM,87733,,(575)673-2271,43,Rural: Remote,No,No,Yes,Yes,15,4.38,3.4,5,1
350117000334,NM-088-106,3501170,NM-088,PK,6,MOUNT TAYLOR ELEMENTARY,GRANTS-CIBOLA COUNTY SCHOOLS,Cibola County,1607 DEL NORTE,GRANTS,NM,87020,,(505)285-2603,33,Town: Remote,No,No,Yes,Yes,526,36.6,14.4,526,0
350165000433,NM-041-101,3501650,NM-041,KG,6,MOUNTAIN ELEMENTARY,LOS ALAMOS PUBLIC SCHOOLS,Los Alamos County,2280 NORTH ROAD,LOS ALAMOS,NM,87544,,(505)663-2325,32,Town: Distant,No,No,–,–,427,30.97,13.8,30,3
350006000920,NM-001-098,3500060,NM-001,KG,8,MOUNTAIN MAHOGANY COMMUNITY SCHOOL,ALBUQUERQUE PUBLIC SCHOOLS,Bernalillo County,5014 4TH STREET NW,ALBUQUERQUE,NM,87107,,(505)341-1424,11,City: Large,Yes,No,Yes,Yes,191,15.72,12.2,78,33
350006000092,NM-001-324,3500060,NM-001,KG,5,MOUNTAIN VIEW ELEMENTARY,ALBUQUERQUE PUBLIC SCHOOLS,Bernalillo County,5317 SECOND ST SW,ALBUQUERQUE,NM,87105,,(505)877-3800,21,Suburb: Large,No,No,Yes,Yes,260,18.2,14.3,257,0
350001000739,NM-083-105,3500010,NM-083,6,8,MOUNTAIN VIEW MIDDLE,RIO RANCHO PUBLIC SCHOOLS,Sandoval County,4101 MONTREAL LOOP NE,RIO RANCHO,NM,87144,,(505)867-0711,21,Suburb: Large,No,No,–,–,901,47.95,18.8,219,34
350003000798,NM-046-003,3500030,NM-046,6,8,MOUNTAIN VIEW MIDDLE,ALAMOGORDO PUBLIC SCHOOLS,Otero County,500 SOUTH WASHINGTON AVENUE,ALAMOGORDO,NM,88310,,(575)812-6400,33,Town: Remote,No,No,Yes,Yes,526,28.15,18.7,526,0
350225000518,NM-004-036,3502250,NM-004,6,8,MOUNTAIN VIEW MIDDLE,ROSWELL INDEPENDENT SCHOOLS,Chaves County,312 E. MTN. VIEW RD,ROSWELL,NM,88201,,(575)627-2825,41,Rural: Fringe,No,No,Yes,Yes,515,29.75,17.3,515,0
350195000472,NM-082-105,3501950,NM-082,PK,5,MOUNTAINAIR ELEMENTARY,MOUNTAINAIR PUBLIC SCHOOLS,Torrance County,PO BOX 456,MOUNTAINAIR,NM,87036,,(505)847-2333,43,Rural: Remote,No,No,Yes,Yes,96,8.39,11.4,96,0
350195000473,NM-082-107,3501950,NM-082,9,12,MOUNTAINAIR HIGH,MOUNTAINAIR PUBLIC SCHOOLS,Torrance County,PO BOX 456,MOUNTAINAIR,NM,87036,,(505)847-2333,43,Rural: Remote,No,No,Yes,Yes,78,7.5,10.4,78,0
350195000915,NM-082-106,3501950,NM-082,6,8,MOUNTAINAIR JR HIGH,MOUNTAINAIR PUBLIC SCHOOLS,Torrance County,PO BOX 456,MOUNTAINAIR,NM,87036,,(505)847-2333,43,Rural: Remote,No,No,Yes,Yes,46,5.11,9,46,0
350126001111,NM-033-177,3501260,NM-033,PK,5,MURRAY ELEMENTARY,HOBBS MUNICIPAL SCHOOLS,Lea County,510 N DAL PASO ST,HOBBS,NM,88240,,(575)433-1600,33,Town: Remote,No,No,Yes,Yes,555,31.35,17.7,329,36
350069000758,NM-042-001,3500690,NM-042,PK,PK,MY LITTLE SCHOOL,DEMING PUBLIC SCHOOLS,Luna County,905 SOUTH ZINC,DEMING,NM,88030,,(575)543-1014,33,Town: Remote,No,No,–,–,75,6,12.5,75,0
350024000651,NM-066-125,3500240,NM-066,4,6,NAABA ANI ELEMENTARY,BLOOMFIELD SCHOOLS,San Juan County,1201 N FIRST STREET,BLOOMFIELD,NM,87413,,(505)634-3500,41,Rural: Fringe,No,No,Yes,Yes,534,29,18.4,534,0
350225000512,NM-004-052,3502250,NM-004,PK,5,NANCY LOPEZ ELEMENTARY,ROSWELL INDEPENDENT SCHOOLS,Chaves County,1208 E. BLAND STREET,ROSWELL,NM,88201,,(575)637-3500,33,Town: Remote,No,No,Yes,Yes,292,19.7,14.8,292,0
350039000182,NM-067-114,3500390,NM-067,PK,5,NASCHITTI ELEMENTARY,CENTRAL CONSOLIDATED SCHOOLS,San Juan County,PO DRAWER F,SHEEP SPRINGS,NM,87364,,(505)696-3415,43,Rural: Remote,No,No,Yes,Yes,92,9.45,9.7,92,0
350006000918,NM-001-006,3500060,NM-001,KG,12,NATIVE AMERICAN COMM ACADEMY,ALBUQUERQUE PUBLIC SCHOOLS,Bernalillo County,1000 INDIAN SCHOOL RD,ALBUQUERQUE,NM,87104,,(505)266-0992,11,City: Large,Yes,No,Yes,Yes,462,41.75,11.1,456,0
350006000093,NM-001-327,3500060,NM-001,PK,5,NAVAJO ELEMENTARY,ALBUQUERQUE PUBLIC SCHOOLS,Bernalillo County,2936 HUGHES RD SW,ALBUQUERQUE,NM,87105,,(505)873-8512,21,Suburb: Large,No,No,Yes,Yes,487,35.5,13.7,484,0
350111000309,NM-043-079,3501110,NM-043,PK,5,NAVAJO ELEMENTARY,GALLUP-MCKINLEY CTY SCHOOLS,McKinley County,123 CEDAR,NAVAJO,NM,87328,,(505)721-1051,42,Rural: Distant,No,No,Yes,Yes,274,20.65,13.3,274,0
350111000861,NM-043-100,3501110,NM-043,6,8,NAVAJO MIDDLE SCHOOL,GALLUP-MCKINLEY CTY SCHOOLS,McKinley County,1 WALNUT AVE,NAVAJO,NM,87328,,(505)721-1051,42,Rural: Distant,No,No,Yes,Yes,129,8.25,15.6,129,0
350111000310,NM-043-075,3501110,NM-043,9,12,NAVAJO PINE HIGH,GALLUP-MCKINLEY CTY SCHOOLS,McKinley County,4 WALNUT ST,NAVAJO,NM,87328,,(505)721-1051,42,Rural: Distant,No,No,Yes,Yes,111,14.22,7.8,111,0
350011001045,NM-506-001,3500110,NM-506,–,–,NEW AMERICA SCHOOL,NEW AMERICA SCHOOL,Bernalillo County,1734 ISLETA BLVD SW,ALBUQUERQUE,NM,87105,,(505)264-7340,21,Suburb: Large,Yes,No,Yes,Yes,281,11.5,24.4,154,0
350015601082,NM-549-001,3500156,NM-549,9,12,NEW AMERICA SCHOOL - LAS CRUCES,NEW AMERICA SCHOOL - LAS CRUCES,DoÃƒÂ±a Ana County,207 S MAIN ST,LAS CRUCES,NM,88001,,(575)527-9085,12,City: Midsize,Yes,No,Yes,Yes,208,10.12,20.6,208,0
350006000123,NM-001-549,3500060,NM-001,7,12,NEW FUTURES HIGH SCHOOL,ALBUQUERQUE PUBLIC SCHOOLS,Bernalillo County,5400 CUTLER NE,ALBUQUERQUE,NM,87110,,(505)883-5680,11,City: Large,No,No,Yes,Yes,91,14.05,6.5,89,0
350174000796,NM-031-004,3501740,NM-031,9,12,NEW HOPE ALTERNATIVE HIGH,LOVINGTON MUNICIPAL SCHOOLS,Lea County,601 NORTH 5TH ST,LOVINGTON,NM,88260,,(575)739-2415,33,Town: Remote,No,No,Yes,Yes,84,4.5,18.7,45,6
350016001096,NM-554-001,3500160,NM-554,4,12,NEW MEXICO CONNECTIONS ACADEMY,NEW MEXICO CONNECTIONS ACADEMY,Santa Fe County,4001 OFFICE CT SUITE 201,SANTA FE,NM,87507,,(505)984-1133,13,City: Small,Yes,No,Yes,Yes,1033,33.45,30.9,424,111
350006001072,NM-001-768,3500060,NM-001,KG,8,NEW MEXICO INTERNATIONAL SCHOOL,ALBUQUERQUE PUBLIC SCHOOLS,Bernalillo County,8650 ALAMEDA BLVD. NE BLDG. 2B,ALBUQUERQUE,NM,87122,,(505)503-7670,11,City: Large,Yes,No,–,–,272,14.6,18.6,19,0
350099001080,NM-065-021,3500990,NM-065,–,–,NEW MEXICO VIRTUAL ACADEMY,FARMINGTON MUNICIPAL SCHOOLS,San Juan County,PO BOX 1679,FARMINGTON,NM,87409,,(505)436-2383,13,City: Small,Yes,No,Yes,Yes,497,10.84,45.8,171,36
350039000183,NM-067-116,3500390,NM-067,PK,5,NEWCOMB ELEMENTARY,CENTRAL CONSOLIDATED SCHOOLS,San Juan County,P.O. BOX 7917,NEWCOMB,NM,87455,,(505)696-3415,43,Rural: Remote,No,No,Yes,Yes,249,20.25,12.3,249,0
350039000654,NM-067-130,3500390,NM-067,9,12,NEWCOMB HIGH,CENTRAL CONSOLIDATED SCHOOLS,San Juan County,P.O. BOX 7927,NEWCOMB,NM,87455,,(505)696-3417,43,Rural: Remote,No,No,Yes,Yes,241,17.1,14.1,241,0
350039000684,NM-067-126,3500390,NM-067,6,8,NEWCOMB MIDDLE,CENTRAL CONSOLIDATED SCHOOLS,San Juan County,P.O. BOX 7927,NEWCOMB,NM,87455,,(505)696-3434,43,Rural: Remote,No,No,Yes,Yes,202,12.2,16.6,199,0
350006001075,NM-001-516,3500060,NM-001,9,12,NEX GEN ACADEMY,ALBUQUERQUE PUBLIC SCHOOLS,Bernalillo County,5325 MONTGOMERY NE,ALBUQUERQUE,NM,87109,,(505)878-6400,11,City: Large,No,Yes,–,–,317,24,13.2,75,28
350237001107,NM-071-170,3502370,NM-071,PK,8,NINA OTERO COMMUNITY SCHOOL,SANTA FE PUBLIC SCHOOLS,Santa Fe County,5901 HERRERA DRIVE,SANTA FE,NM,87507,,(505)467-4200,13,City: Small,No,No,Yes,Yes,754,51.22,14.7,754,0
350039000184,NM-067-152,3500390,NM-067,PK,5,NIZHONI ELEMENTARY,CENTRAL CONSOLIDATED SCHOOLS,San Juan County,P.O. BOX 3567,SHIPROCK,NM,87420,,(505)368-4565,41,Rural: Fringe,No,No,Yes,Yes,387,20.95,18.5,387,0
350011901058,NM-509-001,3500119,NM-509,9,12,NM SCHOOL FOR THE ARTS,NM SCHOOL FOR ARTS,Santa Fe County,275 E ALAMEDA,SANTA FE,NM,87501,,(505)310-4194,13,City: Small,Yes,No,Yes,Yes,213,17.36,12.3,31,10
350001300980,NM-094-015,3500013,NM-094,PK,12,NM SCHOOL FOR THE BLIND AND VISUALLY IMPAIRED,NM SCHOOL FOR THE BLIND AND VISUALLY IMPAIRED,Otero County,1900 N. WHITE SANDS,ALAMOGORDO,NM,88310,,(575)437-3505,33,Town: Remote,No,No,–,–,41,17.5,2.3,0,0
350001400972,NM-093-150,3500014,NM-093,KG,12,NM SCHOOL FOR THE DEAF,NM SCHOOL FOR THE DEAF,Santa Fe County,1060 CERRILLOS RD,SANTA FE,NM,87505,,(505)476-6300,13,City: Small,No,No,–,–,121,36,3.4,121,0
350003000010,NM-046-114,3500030,NM-046,PK,5,NORTH ELEMENTARY,ALAMOGORDO PUBLIC SCHOOLS,Otero County,1300 N. FLORIDA,ALAMOGORDO,NM,88310,,(575)812-5400,33,Town: Remote,No,No,Yes,Yes,395,22.5,17.6,395,0
350006000964,NM-001-268,3500060,NM-001,KG,5,NORTH STAR ELEMENTARY,ALBUQUERQUE PUBLIC SCHOOLS,Bernalillo County,9301 VENTURA NE,ALBUQUERQUE,NM,87122,,(505)856-6578,21,Suburb: Large,No,No,–,–,629,35,18,38,12
350010600873,NM-504-001,3500106,NM-504,PK,8,NORTH VALLEY ACADEMY,NORTH VALLEY CHARTER,Bernalillo County,7939 4TH STREET NW,LOS RANCHOS DE ALBUQUERQUE,NM,87114,,(505)998-0501,21,Suburb: Large,Yes,No,Yes,Yes,517,31,16.7,216,48
350108001032,NM-019-120,3501080,NM-019,PK,6,NORTH VALLEY ELEMENTARY,GADSDEN INDEPENDENT SCHOOLS,DoÃƒÂ±a Ana County,PO BOX C,SAN MIGUEL,NM,88058,,(575)882-6203,41,Rural: Fringe,No,No,Yes,Yes,323,25,12.9,323,0
350099000291,NM-065-118,3500990,NM-065,KG,6,NORTHEAST ELEMENTARY,FARMINGTON MUNICIPAL SCHOOLS,San Juan County,1400 EAST 23RD,FARMINGTON,NM,87401,,(505)324-9840,13,City: Small,No,No,Yes,Yes,616,35,17.6,246,5
350001201049,NM-091-010,3500012,NM-091,8,12,NORTHEASTERN NM CORRECTIONAL FACILITY,NM CORRECTIONS,Union County,185 DR MICHAEL JENKINS RD,CLAYTON,NM,87020,,(575)374-4005,43,Rural: Remote,No,No,–,–,1,0.5,2,0,0
350001200987,NM-091-003,3500012,NM-091,8,12,NORTHWESTERN NM CORRECTIONS,NM CORRECTIONS,Cibola County,2111 NORTH LOBO CANYON RD,GRANTS,NM,87020,,(505)876-8300,41,Rural: Fringe,No,No,–,–,6,0.5,12,0,0
350237030025,NM-071-168,3502370,NM-071,PK,PK,NYE EARLY CHILDHOOD,SANTA FE PUBLIC SCHOOLS,Santa Fe County,3160 AGUA FRIA ST.,SANTA FE,NM,87501,,(505)467-4600,23,Suburb: Small,No,No,–,–,169,7.74,21.8,169,0
350030001123,NM-020-161,3500300,NM-020,1,5,OCOTILLO ELEMENTARY,CARLSBAD MUNICIPAL SCHOOLS,Eddy County,2106 CAPTAIN WILLIAMS LN,CARLSBAD,NM,88220,,(575)628-4498,33,Town: Remote,No,No,Yes,Yes,696,37.5,18.6,217,60
350039000187,NM-067-075,3500390,NM-067,PK,6,OJO AMARILLO ELEMENTARY,CENTRAL CONSOLIDATED SCHOOLS,San Juan County,P.O. BOX 768,FRUITLAND,NM,87416,,(505)960-5271,41,Rural: Fringe,No,No,Yes,Yes,394,30.4,13,394,0
350198000476,NM-078-118,3501980,NM-078,4,6,OJO CALIENTE ELEMENTARY,MESA VISTA CONSOLIDATED SCHOOLS,Rio Arriba County,HWY 285 JUNCTION 111,OJO CALIENTE,NM,87549,,(575)583-2316,43,Rural: Remote,No,No,Yes,Yes,47,4.83,9.7,47,0
350006000095,NM-001-227,3500060,NM-001,PK,5,ONATE ELEMENTARY,ALBUQUERQUE PUBLIC SCHOOLS,Bernalillo County,12415 BRENTWOOD HILLS NE,ALBUQUERQUE,NM,87112,,(505)291-6819,11,City: Large,No,No,Yes,Yes,258,17.75,14.5,89,27
350150000720,NM-017-130,3501500,NM-017,9,12,ONATE HIGH,LAS CRUCES PUBLIC SCHOOLS,DoÃƒÂ±a Ana County,505 SOUTH MAIN SUITE 249,LAS CRUCES,NM,88001,,(575)527-9430,41,Rural: Fringe,No,No,Yes,Yes,1603,89.37,17.9,794,119
350003000011,NM-046-118,3500030,NM-046,–,–,OREGON ELEMENTARY,ALAMOGORDO PUBLIC SCHOOLS,Otero County,1500 OREGON AVE,ALAMOGORDO,NM,88310,,(575)812-5600,33,Town: Remote,No,No,Yes,Yes,141,8,17.6,141,0
350006000096,NM-001-332,3500060,NM-001,KG,5,OSUNA ELEMENTARY,ALBUQUERQUE PUBLIC SCHOOLS,Bernalillo County,4715 MOON ST NE,ALBUQUERQUE,NM,87111,,(505)296-4811,11,City: Large,No,No,Yes,No,533,31,17.2,164,38
350207000482,NM-072-123,3502070,NM-072,PK,3,PABLO ROYBAL ELEMENTARY,POJOAQUE VALLEY PUBLIC SCHOOLS,Santa Fe County,1574 STATE ROAD 502,SANTA FE,NM,87506,,(505)455-2282,41,Rural: Fringe,No,No,Yes,Yes,502,34.19,14.7,245,18
350006000782,NM-001-275,3500060,NM-001,PK,5,PAINTED SKY ELEMENTARY,ALBUQUERQUE PUBLIC SCHOOLS,Bernalillo County,8101 GAVIN DR NW,ALBUQUERQUE,NM,87120,,(505)836-7763,11,City: Large,No,No,Yes,Yes,720,47,15.3,715,0
350006000097,NM-001-333,3500060,NM-001,PK,6,PAJARITO ELEMENTARY,ALBUQUERQUE PUBLIC SCHOOLS,Bernalillo County,2701 DON FELIPE SW,ALBUQUERQUE,NM,87105,,(505)877-9718,11,City: Large,No,No,Yes,Yes,414,35.9,11.5,399,0
350015000138,NM-064-123,3500150,NM-064,4,5,PARK AVENUE ELEMENTARY,AZTEC MUNICIPAL SCHOOLS,San Juan County,507 S PARK AVENUE,AZTEC,NM,87410,,(575)334-9474,31,Town: Fringe,No,No,Yes,Yes,423,29.75,14.2,423,0
350225000519,NM-004-122,3502250,NM-004,PK,PK,PARKVIEW EARLY LITERACY CENTER,ROSWELL INDEPENDENT SCHOOLS,Chaves County,1700 WEST ALAMEDA ST,ROSWELL,NM,88201,,(575)637-3525,33,Town: Remote,No,No,–,–,290,19,15.3,290,0
350246000789,NM-074-001,3502460,NM-074,PK,5,PARKVIEW ELEMENTARY,SOCORRO CONSOLIDATED SCHOOLS,Socorro County,107 FRANCISO DE AVAD,SOCORRO,NM,87801,,(575)835-1086,33,Town: Remote,No,No,Yes,Yes,489,35.02,14,489,0
350057000219,NM-012-122,3500570,NM-012,PK,5,PARKVIEW ELEMENTARY,CLOVIS MUNICIPAL SCHOOLS,Curry County,1121 MAPLE STREET,CLOVIS,NM,88101,,(575)769-4300,33,Town: Remote,No,No,Yes,Yes,443,24,18.5,443,0
350030001127,NM-020-005,3500300,NM-020,KG,11,PECOS CONNECTIONS ACADEMY,CARLSBAD MUNICIPAL SCHOOLS,Eddy County,1503 WEST PIERCE STREET,CARLSBAD,NM,88220,,(575)236-4005,33,Town: Remote,Yes,No,Yes,Yes,893,27.06,33,473,0
350225000520,NM-004-126,3502250,NM-004,PK,5,PECOS ELEMENTARY,ROSWELL INDEPENDENT SCHOOLS,Chaves County,600 EAST HOBBS ST,ROSWELL,NM,88201,,(575)637-3550,33,Town: Remote,No,No,Yes,Yes,338,22.7,14.9,338,0
350201000479,NM-070-173,3502010,NM-070,PK,5,PECOS ELEMENTARY,PECOS INDEPENDENT SCHOOLS,San Miguel County,NM HWY 63,PECOS,NM,87552,,(505)757-4700,42,Rural: Distant,No,No,Yes,Yes,288,19.15,15,99,0
350201000478,NM-070-124,3502010,NM-070,9,12,PECOS HIGH,PECOS INDEPENDENT SCHOOLS,San Miguel County,NM HWY 63,PECOS,NM,87552,,(505)757-4700,42,Rural: Distant,No,No,Yes,Yes,165,7.73,21.3,130,0
350201000706,NM-070-150,3502010,NM-070,6,8,PECOS MIDDLE,PECOS INDEPENDENT SCHOOLS,San Miguel County,NM HWY 63,PECOS,NM,87552,,(505)757-4700,42,Rural: Distant,No,No,Yes,Yes,159,9.83,16.2,130,0
350204000480,NM-077-121,3502040,NM-077,PK,6,PENASCO ELEMENTARY,PENASCO INDEPENDENT SCHOOLS,Taos County,13 SCHOOL RD,PENASCO,NM,87553,,(575)587-2230,43,Rural: Remote,No,No,Yes,Yes,205,12.42,16.5,205,0
350012000131,NM-022-128,3500120,NM-022,KG,8,PENASCO ELEMENTARY,ARTESIA PUBLIC SCHOOLS,Chaves County,12 DUNKIN ROAD,HOPE,NM,88250,,(575)746-3585,43,Rural: Remote,No,No,–,–,17,2.1,8.1,3,0
350204000481,NM-077-123,3502040,NM-077,9,12,PENASCO HIGH,PENASCO INDEPENDENT SCHOOLS,Taos County,13 SCHOOL RD,PENASCO,NM,87553,,(575)587-2230,43,Rural: Remote,No,No,Yes,No,108,12.89,8.4,108,0
350204000695,NM-077-128,3502040,NM-077,7,8,PENASCO MIDDLE,PENASCO INDEPENDENT SCHOOLS,Taos County,13 SCHOOL RD,PENASCO,NM,87553,,(575)587-2230,43,Rural: Remote,No,No,Yes,Yes,55,5.32,10.3,55,0
350001200977,NM-091-001,3500012,NM-091,8,12,PENITENTIARY OF NM-SANTA FE,NM CORRECTIONS,Santa Fe County,4331 STATE HIGHWAY 14,SANTA FE,NM,87504,,(505)473-3200,41,Rural: Fringe,No,No,–,–,3,0.5,6,0,0
350168000441,NM-086-122,3501680,NM-086,PK,6,PERALTA ELEMENTARY,LOS LUNAS PUBLIC SCHOOLS,Valencia County,PO DRAWER 1300,LOS LUNAS,NM,87031,,(505)866-8231,23,Suburb: Small,No,No,Yes,Yes,321,20.1,16,320,0
350006000039,NM-001-317,3500060,NM-001,PK,5,PETROGLYPH ELEMENTARY,ALBUQUERQUE PUBLIC SCHOOLS,Bernalillo County,5100 MARNA LYNN AVE NW,ALBUQUERQUE,NM,87114,,(505)898-0923,11,City: Large,No,No,Yes,Yes,658,39.65,16.6,238,50
350150000669,NM-017-035,3501500,NM-017,6,8,PICACHO MIDDLE,LAS CRUCES PUBLIC SCHOOLS,DoÃƒÂ±a Ana County,505 SOUTH MAIN SUITE 249,LAS CRUCES,NM,88001,,(575)527-9455,12,City: Midsize,No,No,Yes,Yes,769,44.38,17.3,769,0
350099000787,NM-065-006,3500990,NM-065,9,12,PIEDRA VISTA HIGH,FARMINGTON MUNICIPAL SCHOOLS,San Juan County,5700 COLLEGE BLVD,FARMINGTON,NM,87402,,(505)324-9840,41,Rural: Fringe,No,No,–,–,1448,81.5,17.8,611,60
350165000434,NM-041-127,3501650,NM-041,PK,6,PINON ELEMENTARY,LOS ALAMOS PUBLIC SCHOOLS,Los Alamos County,90 GRAND CANYON DR,WHITE ROCK,NM,87547,,(505)663-2680,32,Town: Distant,No,No,–,–,338,27.87,12.1,12,1
350237000641,NM-071-100,3502370,NM-071,PK,6,PINON ELEMENTARY,SANTA FE PUBLIC SCHOOLS,Santa Fe County,2921 CAMINO CABALLOS,SANTA FE,NM,87507,,(505)467-1600,13,City: Small,No,No,Yes,Yes,545,33.77,16.1,279,54
350021000151,NM-061-127,3500210,NM-061,PK,5,PLACITAS ELEMENTARY,BERNALILLO PUBLIC SCHOOLS,Sandoval County,224 N CAMINO DEL PUEBLO,BERNALILLO,NM,87004,,(505)867-2488,41,Rural: Fringe,No,No,–,–,127,10,12.7,127,0
350207000483,NM-072-124,3502070,NM-072,9,12,POJOAQUE HIGH,POJOAQUE VALLEY PUBLIC SCHOOLS,Santa Fe County,1574 STATE ROAD 502,SANTA FE,NM,87506,,(505)455-2282,41,Rural: Fringe,No,No,Yes,Yes,657,37.93,17.3,333,54
350207000723,NM-072-128,3502070,NM-072,4,5,POJOAQUE INTERMEDIATE,POJOAQUE VALLEY PUBLIC SCHOOLS,Santa Fe County,1574 STATE ROAD 502,SANTA FE,NM,87506,,(505)455-2282,41,Rural: Fringe,No,No,Yes,Yes,284,17.49,16.2,183,14
350207000484,NM-072-125,3502070,NM-072,7,8,POJOAQUE MIDDLE,POJOAQUE VALLEY PUBLIC SCHOOLS,Santa Fe County,1574 STATE ROAD 502,SANTA FE,NM,87506,,(505)455-2282,32,Town: Distant,No,No,Yes,Yes,359,16.95,21.2,178,24
350006000098,NM-001-448,3500060,NM-001,6,8,POLK MIDDLE,ALBUQUERQUE PUBLIC SCHOOLS,Bernalillo County,2220 RAYMAC RD SW,ALBUQUERQUE,NM,87105,,(505)877-6444,21,Suburb: Large,No,No,Yes,Yes,288,26.3,11,287,0
350210000488,NM-057-124,3502100,NM-057,9,12,PORTALES HIGH,PORTALES MUNICIPAL SCHOOLS,Roosevelt County,201 S KNOXVILLE AVE,PORTALES,NM,88130,,(575)356-7015,33,Town: Remote,No,No,Yes,Yes,762,41.43,18.4,374,58
350210000489,NM-057-123,3502100,NM-057,7,8,PORTALES JR HIGH,PORTALES MUNICIPAL SCHOOLS,Roosevelt County,700 EAST 3RD ST,PORTALES,NM,88130,,(575)356-7045,33,Town: Remote,No,No,Yes,Yes,393,27,14.6,240,34
350006000822,NM-001-047,3500060,NM-001,6,12,PUBLIC ACADEMY FOR PERFORMING ARTS,ALBUQUERQUE PUBLIC SCHOOLS,Bernalillo County,11800 PRINCESS JEANNE AVE. NE,ALBUQUERQUE,NM,87112,,(505)830-3128,11,City: Large,Yes,No,Yes,No,424,28.14,15.1,176,48
350001000650,NM-083-319,3500010,NM-083,KG,5,PUESTA DEL SOL ELEMENTARY,RIO RANCHO PUBLIC SCHOOLS,Sandoval County,450 SOUTHERN BLVD SE,RIO RANCHO,NM,87124,,(505)994-3305,21,Suburb: Large,No,No,Yes,Yes,732,51.05,14.3,387,52
350213000492,NM-003-129,3502130,NM-003,PK,6,QUEMADO ELEMENTARY,QUEMADO INDEPENDENT SCHOOLS,Catron County,HWY 60,QUEMADO,NM,87829,,(575)773-4700,43,Rural: Remote,No,No,Yes,Yes,62,8.9,7,42,12
350213000493,NM-003-130,3502130,NM-003,7,12,QUEMADO HIGH,QUEMADO INDEPENDENT SCHOOLS,Catron County,HWY 60,QUEMADO,NM,87829,,(575)773-4700,43,Rural: Remote,No,No,Yes,Yes,81,9.14,8.9,52,6
350216000496,NM-079-129,3502160,NM-079,9,12,QUESTA HIGH,QUESTA INDEPENDENT SCHOOLS,Taos County,PO BOX 529,QUESTA,NM,87556,,(575)586-1604,43,Rural: Remote,No,No,Yes,Yes,100,10.32,9.7,100,0
350216000687,NM-079-130,3502160,NM-079,7,8,QUESTA JR HIGH,QUESTA INDEPENDENT SCHOOLS,Taos County,PO BOX 529,QUESTA,NM,87556,,(575)586-1604,43,Rural: Remote,No,No,Yes,Yes,51,5.62,9.1,51,0
350246000572,NM-074-155,3502460,NM-074,6,8,R. SARRACINO MIDDLE,SOCORRO CONSOLIDATED SCHOOLS,Socorro County,1425 EL CAMINO REAL,SOCORRO,NM,87801,,(575)835-0283,33,Town: Remote,No,No,Yes,Yes,361,20.9,17.3,361,0
350237000645,NM-071-130,3502370,NM-071,PK,5,R.M. SWEENEY ELEMENTARY,SANTA FE PUBLIC SCHOOLS,Santa Fe County,501 AIRPORT ROAD,SANTA FE,NM,87505,,(505)467-1500,13,City: Small,No,No,Yes,Yes,462,25.2,18.3,462,0
350162000426,NM-029-174,3501620,NM-029,PK,4,R.V.TRAYLOR ELEMENTARY,LORDSBURG MUNICIPAL SCHOOLS,Hidalgo County,500 OWNBY,LORDSBURG,NM,88045,,(575)542-3252,43,Rural: Remote,No,No,Yes,Yes,220,15.54,14.2,220,0
350018401149,NM-577-001,3500184,NM-577,KG,1,RAICES DEL SABER XINACHTLI COMMUNITY SCHOOL,RAICES DEL SABER XINACHTLI COMMUNITY SCHOOL,†,2211 NORTH VALLEY DRIVE,LAS CRUCES,NM,88007,,(575)571-2177,†,N,Yes,†,†,†,†,†,†,†,†
350111000311,NM-043-132,3501110,NM-043,PK,5,RAMAH ELEMENTARY,GALLUP-MCKINLEY CTY SCHOOLS,McKinley County,17 EVANS CIRCLE,RAMAH,NM,87321,,(505)721-1051,43,Rural: Remote,No,No,Yes,Yes,164,15.5,10.6,164,0
350111000662,NM-043-130,3501110,NM-043,6,12,RAMAH HIGH,GALLUP-MCKINLEY CTY SCHOOLS,McKinley County,27 LEWIS ST,RAMAH,NM,87321,,(505)721-1051,43,Rural: Remote,No,No,Yes,Yes,162,13.62,11.9,162,0
350237000887,NM-071-023,3502370,NM-071,PK,5,RAMIREZ THOMAS ELEMENTARY,SANTA FE PUBLIC SCHOOLS,Santa Fe County,610 ALTA VISTA,SANTA FE,NM,87505,,(505)467-3000,13,City: Small,No,No,Yes,Yes,497,31.67,15.7,494,0
350252000580,NM-076-133,3502520,NM-076,PK,5,RANCHOS DE TAOS ELEMENTARY,TAOS MUNICIPAL SCHOOLS,Taos County,200 RANCHOS ELEMENTARY RD,RANCHOS DE TAOS,NM,87557,,(575)758-5202,33,Town: Remote,No,No,Yes,Yes,307,26.13,11.7,307,0
350219000500,NM-009-136,3502190,NM-009,7,12,RATON HIGH,RATON PUBLIC SCHOOLS,Colfax County,1535 TIGER CIRCLE,RATON,NM,87740,,(575)445-9261,33,Town: Remote,No,No,Yes,No,393,27.95,14.1,392,0
350219000501,NM-009-135,3502190,NM-009,3,6,RATON INTERMEDIATE,RATON PUBLIC SCHOOLS,Colfax County,500 SOUTH THIRD,RATON,NM,87740,,(575)445-9881,33,Town: Remote,No,No,Yes,Yes,310,21,14.8,308,0
350168000438,NM-086-083,3501680,NM-086,PK,6,RAYMOND GABALDON ELEMENTARY,LOS LUNAS PUBLIC SCHOOLS,Valencia County,PO DRAWER 1300,LOS LUNAS,NM,87031,,(505)866-8231,23,Suburb: Small,No,No,Yes,Yes,448,26.1,17.2,448,0
350069001023,NM-042-007,3500690,NM-042,7,8,RED MOUNTAIN MIDDLE,DEMING PUBLIC SCHOOLS,Luna County,1001 S. DIAMOND,DEMING,NM,88030,,(575)546-0668,41,Rural: Fringe,No,No,Yes,Yes,789,51.84,15.2,789,0
350014300845,NM-539-001,3500143,NM-539,PK,8,RED RIVER VALLEY CHARTER SCHOOL,RED RIVER VALLEY CHARTER SCHOOL,Taos County,PO BOX 742,RED RIVER,NM,87558,,(575)754-6117,43,Rural: Remote,Yes,No,Yes,Yes,86,7.33,11.7,86,0
350111000312,NM-043-134,3501110,NM-043,PK,5,RED ROCK ELEMENTARY,GALLUP-MCKINLEY CTY SCHOOLS,McKinley County,1305 RED ROCK DRIVE,GALLUP,NM,87301,,(505)721-1051,33,Town: Remote,No,No,Yes,Yes,365,26.1,14,365,0
350006000094,NM-001-330,3500060,NM-001,KG,5,REGINALD CHAVEZ ELEMENTARY,ALBUQUERQUE PUBLIC SCHOOLS,Bernalillo County,2700 MOUNTAIN RD NW,ALBUQUERQUE,NM,87104,,(505)764-2008,11,City: Large,No,No,Yes,Yes,294,22.6,13,294,0
350222000503,NM-002-135,3502220,NM-002,PK,6,RESERVE ELEMENTARY,RESERVE PUBLIC SCHOOLS,Catron County,PO BOX 350,RESERVE,NM,87830,,(575)533-6241,43,Rural: Remote,No,No,Yes,Yes,74,7.79,9.5,73,0
350222000504,NM-002-136,3502220,NM-002,7,12,RESERVE HIGH,RESERVE PUBLIC SCHOOLS,Catron County,PO BOX 350,RESERVE,NM,87830,,(575)533-6241,43,Rural: Remote,No,No,Yes,Yes,73,8.09,9,73,0
350216000494,NM-079-039,3502160,NM-079,KG,6,RIO COSTILLA SW LEARNING ACADEMY,QUESTA INDEPENDENT SCHOOLS,Taos County,PO BOX 99,COSTILLA,NM,87524,,(575)586-0089,43,Rural: Remote,No,No,Yes,Yes,27,1.1,24.5,27,0
350156000911,NM-068-004,3501560,NM-068,KG,8,RIO GALLINAS SCHOOL,WEST LAS VEGAS PUBLIC SCHOOLS,San Miguel County,1300 MINERAL HILL,LAS VEGAS,NM,87701,,(505)426-2311,33,Town: Remote,Yes,No,Yes,Yes,67,6,11.2,67,0
350018000146,NM-087-045,3500180,NM-087,PK,6,RIO GRANDE ELEMENTARY,BELEN CONSOLIDATED SCHOOLS,Valencia County,520 NORTH MAIN ST,BELEN,NM,87002,,(505)966-2200,23,Suburb: Small,No,No,Yes,Yes,297,22,13.5,297,0
350123000753,NM-018-001,3501230,NM-018,3,5,RIO GRANDE ELEMENTARY,HATCH VALLEY PUBLIC SCHOOLS,DoÃƒÂ±a Ana County,940 EAST HERRERA,HATCH,NM,87937,,(575)267-8260,43,Rural: Remote,No,No,Yes,Yes,283,14.51,19.5,283,0
350006000100,NM-001-540,3500060,NM-001,9,12,RIO GRANDE HIGH,ALBUQUERQUE PUBLIC SCHOOLS,Bernalillo County,2300 ARENAL RD SW,ALBUQUERQUE,NM,87105,,(505)873-0220,21,Suburb: Large,No,No,Yes,Yes,1562,91.48,17.1,1550,2
350150000932,NM-017-012,3501500,NM-017,9,12,RIO GRANDE PREPARATORY INSTITUTE,LAS CRUCES PUBLIC SCHOOLS,DoÃƒÂ±a Ana County,US HWY 28,MESILLA,NM,88046,,(575)527-6058,22,Suburb: Midsize,No,No,Yes,Yes,310,15.67,19.8,309,0
350001000954,NM-083-018,3500010,NM-083,6,12,RIO RANCHO CYBER ACADEMY,RIO RANCHO PUBLIC SCHOOLS,Sandoval County,1330 JACKIE RD SE,RIO RANCHO,NM,87124,,(505)892-7222,21,Suburb: Large,No,Yes,–,–,151,9.05,16.7,22,10
350001000101,NM-083-340,3500010,NM-083,KG,5,RIO RANCHO ELEMENTARY,RIO RANCHO PUBLIC SCHOOLS,Sandoval County,4601 PEPE ORTIZ SE,RIO RANCHO,NM,87124,,(505)892-0220,21,Suburb: Large,No,No,Yes,Yes,625,47.91,13,273,50
350001000779,NM-083-006,3500010,NM-083,9,12,RIO RANCHO HIGH,RIO RANCHO PUBLIC SCHOOLS,Sandoval County,301 LOMA COLORADO DR NE,RIO RANCHO,NM,87124,,(505)896-5600,21,Suburb: Large,No,No,Yes,No,2597,125.28,20.7,699,132
350001000865,NM-083-016,3500010,NM-083,6,8,RIO RANCHO MIDDLE SCHOOL,RIO RANCHO PUBLIC SCHOOLS,Sandoval County,1600 LOMA COLORADO BLVD NE,RIO RANCHO,NM,87144,,(505)891-5335,21,Suburb: Large,No,No,Yes,Yes,1173,67.16,17.5,396,97
350240000555,NM-025-015,3502400,NM-025,KG,5,RITA A. MARQUEZ ELEMENTARY,SANTA ROSA CONSOLIDATED SCHOOLS,Guadalupe County,MAIN ST,ANTON CHICO,NM,87711,,(575)472-3171,43,Rural: Remote,No,No,Yes,Yes,69,6.93,10,69,0
350108000719,NM-019-140,3501080,NM-019,PK,6,RIVERSIDE ELEMENTARY,GADSDEN INDEPENDENT SCHOOLS,DoÃƒÂ±a Ana County,4085 MCNUTT RD,SUNLAND PARK,NM,88063,,(575)882-6203,21,Suburb: Large,No,No,Yes,Yes,588,43.57,13.5,588,0
350006000823,NM-001-051,3500060,NM-001,6,12,ROBERT F. KENNEDY CHARTER,ALBUQUERQUE PUBLIC SCHOOLS,Bernalillo County,4300 BLAKE RD SW,ALBUQUERQUE,NM,87121,,(505)243-1118,11,City: Large,Yes,No,Yes,Yes,349,21.27,16.4,349,0
350153000406,NM-069-136,3501530,NM-069,9,12,ROBERTSON HIGH,LAS VEGAS CITY PUBLIC SCHOOLS,San Miguel County,901 DOUGLAS AVENUE,LAS VEGAS,NM,87701,,(505)454-5770,33,Town: Remote,No,No,Yes,Yes,460,25.16,18.3,221,26
350099000740,NM-065-148,3500990,NM-065,6,12,ROCINANTE HIGH,FARMINGTON MUNICIPAL SCHOOLS,San Juan County,3250 EAST 30TH ST.,FARMINGTON,NM,87401,,(505)324-9840,13,City: Small,No,No,Yes,Yes,240,12.16,19.7,240,0
350111000546,NM-043-138,3501110,NM-043,PK,5,ROCKY VIEW ELEMENTARY,GALLUP-MCKINLEY CTY SCHOOLS,McKinley County,345 BASILIO STREET,GALLUP,NM,87301,,(505)721-1051,33,Town: Remote,No,No,Yes,Yes,296,21,14.1,296,0
350111000313,NM-043-135,3501110,NM-043,–,–,ROOSEVELT ELEMENTARY,GALLUP-MCKINLEY CTY SCHOOLS,McKinley County,400 EAST LOGAN,GALLUP,NM,87301,,(505)721-1051,33,Town: Remote,No,No,Yes,Yes,166,15,11.1,166,0
350006000102,NM-001-452,3500060,NM-001,6,8,ROOSEVELT MIDDLE,ALBUQUERQUE PUBLIC SCHOOLS,Bernalillo County,11799 STATE HIGHWAY 14S,TIJERAS,NM,87059,,(505)281-3316,41,Rural: Fringe,No,No,Yes,No,358,24.35,14.7,117,16
350017600846,NM-570-001,3500176,NM-570,KG,8,ROOTS & WINGS COMMUNITY,ROOTS AND WINGS COMMUNITY,Taos County,HC 81 BOX 22,QUESTA,NM,87556,,(575)586-2076,43,Rural: Remote,Yes,No,Yes,Yes,50,3.5,14.3,34,1
350012000132,NM-022-139,3500120,NM-022,KG,5,ROSELAWN ELEMENTARY,ARTESIA PUBLIC SCHOOLS,Eddy County,600 N. ROSELAWN AVE,ARTESIA,NM,88210,,(575)746-3585,33,Town: Remote,No,No,Yes,Yes,170,12.12,14,121,16
350001200970,NM-091-005,3500012,NM-091,8,12,ROSWELL CORRECTIONS,NM CORRECTIONS,Chaves County,578 WEST CHICKASAW RD,HAGERMAN,NM,88232,,(575)625-3100,42,Rural: Distant,No,No,–,–,3,0.5,6,0,0
350225000521,NM-004-135,3502250,NM-004,9,12,ROSWELL HIGH,ROSWELL INDEPENDENT SCHOOLS,Chaves County,500 WEST HOBBS ST,ROSWELL,NM,88203,,(575)637-3200,33,Town: Remote,No,No,Yes,Yes,1309,58.33,22.4,549,71
350189000760,NM-081-001,3501890,NM-081,KG,5,ROUTE 66 ELEMENTARY,MORIARTY-EDGEWOOD SCHOOL DISTRICT,Bernalillo County,805 BARTON RD,MORIARTY,NM,87035,,(505)835-5835,41,Rural: Fringe,No,No,Yes,Yes,324,23.35,13.9,215,28
350228000526,NM-027-135,3502280,NM-027,KG,6,ROY ELEMENTARY,ROY MUNICIPAL SCHOOLS,Harding County,5TH ST AND ROOSEVELT ST,ROY,NM,87743,,(575)485-2242,43,Rural: Remote,No,No,Yes,Yes,35,4.07,8.6,12,1
350228000527,NM-027-136,3502280,NM-027,7,12,ROY HIGH,ROY MUNICIPAL SCHOOLS,Harding County,5TH ST AND ROOSEVELT ST,ROY,NM,87743,,(575)485-2242,43,Rural: Remote,No,No,Yes,Yes,11,6.43,1.7,3,0
350069001035,NM-042-008,3500690,NM-042,PK,5,RUBEN S. TORRES ELEMENTARY,DEMING PUBLIC SCHOOLS,Luna County,1910 8TH ST. NW,DEMING,NM,88030,,(575)544-2723,33,Town: Remote,No,No,Yes,Yes,408,31.68,12.9,408,0
350006001033,NM-001-392,3500060,NM-001,PK,5,RUDOLFO ANAYA ELEMENTARY,ALBUQUERQUE PUBLIC SCHOOLS,Bernalillo County,2800 VERMEJO PARK DR SW,ALBUQUERQUE,NM,87121,,(505)452-3137,11,City: Large,No,No,Yes,Yes,729,51.05,14.3,705,0
350231000529,NM-036-139,3502310,NM-036,9,12,RUIDOSO HIGH,RUIDOSO MUNICIPAL SCHOOLS,Lincoln County,200 HORTON CIRCLE,RUIDOSO,NM,88345,,(575)258-4910,41,Rural: Fringe,No,No,Yes,Yes,569,31.03,18.3,298,38
350231000531,NM-036-130,3502310,NM-036,6,8,RUIDOSO MIDDLE,RUIDOSO MUNICIPAL SCHOOLS,Lincoln County,200 HORTON CIRCLE,RUIDOSO,NM,88345,,(575)257-4051,41,Rural: Fringe,No,No,Yes,Yes,476,30.42,15.6,476,0
350006000103,NM-001-360,3500060,NM-001,KG,5,S. Y. JACKSON ELEMENTARY,ALBUQUERQUE PUBLIC SCHOOLS,Bernalillo County,4720 CAIRO DR NE,ALBUQUERQUE,NM,87111,,(505)296-9536,11,City: Large,No,No,–,–,552,33.4,16.5,97,18
350237000550,NM-071-143,3502370,NM-071,KG,6,SALAZAR ELEMENTARY,SANTA FE PUBLIC SCHOOLS,Santa Fe County,1231 APACHE AVE.,SANTA FE,NM,87505,,(505)467-3900,13,City: Small,No,No,Yes,Yes,260,18.46,14.1,260,0
350246000569,NM-074-144,3502460,NM-074,PK,5,SAN ANTONIO ELEMENTARY,SOCORRO CONSOLIDATED SCHOOLS,Socorro County,4TH & MIERA,SAN ANTONIO,NM,87832,,(575)835-1758,42,Rural: Distant,No,No,Yes,Yes,75,6.12,12.3,75,0
350006000104,NM-001-345,3500060,NM-001,KG,5,SAN ANTONITO ELEMENTARY,ALBUQUERQUE PUBLIC SCHOOLS,Bernalillo County,12555 N HWY 14,SANDIA PARK,NM,87047,,(505)281-3931,42,Rural: Distant,No,Yes,–,–,364,23.2,15.7,73,9
350141000800,NM-063-004,3501410,NM-063,KG,8,SAN DIEGO RIVERSIDE,JEMEZ VALLEY PUBLIC SCHOOLS,Sandoval County,PO BOX 99,JEMEZ PUEBLO,NM,87024,,(575)834-7391,42,Rural: Distant,Yes,No,Yes,Yes,96,15,6.4,81,4
350234000532,NM-052-144,3502340,NM-052,PK,5,SAN JON ELEMENTARY,SAN JON MUNICIPAL SCHOOLS,Quay County,7TH AND ELM STREETS,SAN JON,NM,88434,,(575)576-2466,43,Rural: Remote,No,No,Yes,Yes,93,7.47,12.4,58,13
350234000533,NM-052-145,3502340,NM-052,9,12,SAN JON HIGH,SAN JON MUNICIPAL SCHOOLS,Quay County,7TH AND ELM STREETS,SAN JON,NM,88434,,(575)576-2466,43,Rural: Remote,No,No,Yes,Yes,30,4.51,6.7,13,6
350234000835,NM-052-001,3502340,NM-052,6,8,SAN JON MIDDLE SCHOOL,SAN JON MUNICIPAL SCHOOLS,Quay County,7TH AND ELM STREETS,SAN JON,NM,88434,,(575)576-2466,43,Rural: Remote,No,No,Yes,Yes,22,3.02,7.3,10,1
350099001119,NM-065-180,3500990,NM-065,9,12,SAN JUAN COLLEGE HIGH SCHOOL,FARMINGTON MUNICIPAL SCHOOLS,San Juan County,4601 COLLEGE BOULEVARD,FARMINGTON,NM,87402,,(505)566-3986,13,City: Small,No,Yes,–,–,235,10.9,21.6,65,18
350090000275,NM-055-144,3500900,NM-055,KG,6,SAN JUAN ELEMENTARY,ESPANOLA PUBLIC SCHOOLS,Rio Arriba County,714 CALLE DON DIEGO,ESPANOLA,NM,87532,,(505)852-4225,32,Town: Distant,No,No,Yes,Yes,284,20.75,13.7,284,0
350060000229,NM-024-143,3500600,NM-024,PK,6,SAN LORENZO ELEMENTARY,COBRE CONSOLIDATED SCHOOLS,Grant County,HC71 BOX 1500,SAN LORENZO,NM,88041,,(575)537-4011,43,Rural: Remote,No,No,Yes,Yes,74,7.8,9.5,74,0
350117000336,NM-088-152,3501170,NM-088,KG,6,SAN RAFAEL ELEMENTARY,GRANTS-CIBOLA COUNTY SCHOOLS,Cibola County,27 MESA VIEW ST,SAN RAFAEL,NM,87051,,(505)285-2603,42,Rural: Distant,No,No,Yes,Yes,64,8.35,7.7,64,0
350006000105,NM-001-348,3500060,NM-001,KG,6,SANDIA BASE ELEMENTARY,ALBUQUERQUE PUBLIC SCHOOLS,Bernalillo County,21001 WYOMING SE KAFB EAST,ALBUQUERQUE,NM,87116,,(505)268-4356,21,Suburb: Large,No,No,–,–,501,28.2,17.8,117,78
350057000221,NM-012-145,3500570,NM-012,PK,5,SANDIA ELEMENTARY,CLOVIS MUNICIPAL SCHOOLS,Curry County,2801 LORE STREET,CLOVIS,NM,88101,,(575)769-4300,33,Town: Remote,No,No,Yes,Yes,418,23,18.2,418,0
350006000106,NM-001-550,3500060,NM-001,9,12,SANDIA HIGH,ALBUQUERQUE PUBLIC SCHOOLS,Bernalillo County,7801 CANDELARIA NE,ALBUQUERQUE,NM,87110,,(505)294-1511,11,City: Large,No,Yes,Yes,No,1776,103.35,17.2,636,86
350001001039,NM-083-020,3500010,NM-083,PK,5,SANDIA VISTA ELEMENTARY,RIO RANCHO PUBLIC SCHOOLS,Sandoval County,6800 FRANKLIN RD NE,RIO RANCHO,NM,87144,,(505)338-2526,41,Rural: Fringe,No,No,–,–,663,46.36,14.3,176,37
350017201116,NM-563-001,3500172,NM-563,KG,7,SANDOVAL ACADEMY OF BILINGUAL EDUCATION,SANDOVAL ACADEMY OF BILINGUAL EDUCATION,Sandoval County,4321 FULCRUM WAY NE SUITE A,RIO RANCHO,NM,87144,,(505)771-0555,21,Suburb: Large,Yes,No,Yes,Yes,144,5.9,24.4,66,18
350126000354,NM-033-144,3501260,NM-033,KG,5,SANGER ELEMENTARY,HOBBS MUNICIPAL SCHOOLS,Lea County,2020 NORTH ADOBE,HOBBS,NM,88240,,(575)433-1800,33,Town: Remote,No,No,Yes,Yes,367,20.25,18.1,140,43
350237001110,NM-071-169,3502370,NM-071,9,12,SANTA FE ENGAGE,SANTA FE PUBLIC SCHOOLS,Santa Fe County,2505 CAMINO ENTRADA,SANTA FE,NM,87505,,(505)467-0310,13,City: Small,No,No,–,–,25,0.4,62.5,8,0
350237000551,NM-071-165,3502370,NM-071,9,12,SANTA FE HIGH,SANTA FE PUBLIC SCHOOLS,Santa Fe County,2100 YUCCA ROAD,SANTA FE,NM,87505,,(505)467-2400,13,City: Small,No,No,Yes,Yes,1536,89.32,17.2,637,92
350240000556,NM-025-144,3502400,NM-025,PK,5,SANTA ROSA ELEMENTARY,SANTA ROSA CONSOLIDATED SCHOOLS,Guadalupe County,658 5TH STREET,SANTA ROSA,NM,88435,,(575)472-3171,33,Town: Remote,No,No,Yes,Yes,247,16.91,14.6,247,0
350240000557,NM-025-146,3502400,NM-025,9,12,SANTA ROSA HIGH,SANTA ROSA CONSOLIDATED SCHOOLS,Guadalupe County,717 3RD ST,SANTA ROSA,NM,88435,,(575)472-3171,33,Town: Remote,No,No,Yes,Yes,182,13.38,13.6,179,0
350240000558,NM-025-150,3502400,NM-025,6,8,SANTA ROSA MIDDLE,SANTA ROSA CONSOLIDATED SCHOOLS,Guadalupe County,116 Camino de Vida,SANTA ROSA,NM,88435,,(575)472-3171,33,Town: Remote,No,No,Yes,Yes,113,8.83,12.8,113,0
350108000904,NM-019-008,3501080,NM-019,PK,6,SANTA TERESA ELEMENTARY,GADSDEN INDEPENDENT SCHOOLS,DoÃƒÂ±a Ana County,201 COMMERCIANTES,SANTA TERESA,NM,88008,,(575)882-6203,21,Suburb: Large,No,No,Yes,Yes,596,37,16.1,596,0
350108000323,NM-019-200,3501080,NM-019,9,12,SANTA TERESA HIGH,GADSDEN INDEPENDENT SCHOOLS,DoÃƒÂ±a Ana County,100 AIRPORT ROAD,SANTA TERESA,NM,88008,,(575)882-6203,21,Suburb: Large,No,No,Yes,Yes,1266,73.5,17.2,1266,0
350108000660,NM-019-175,3501080,NM-019,7,8,SANTA TERESA MIDDLE,GADSDEN INDEPENDENT SCHOOLS,DoÃƒÂ±a Ana County,4800 MCNUTT ROAD,SANTA TERESA,NM,88008,,(575)882-6203,21,Suburb: Large,No,No,Yes,Yes,645,43.77,14.7,645,0
350021000153,NM-061-151,3500210,NM-061,PK,5,SANTO DOMINGO ELEMENTARY,BERNALILLO PUBLIC SCHOOLS,Sandoval County,224 N CAMINO DEL PUEBLO,BERNALILLO,NM,87004,,(505)867-4441,42,Rural: Distant,No,No,Yes,Yes,239,19.05,12.5,239,0
350021000154,NM-061-028,3500210,NM-061,6,8,SANTO DOMINGO MIDDLE,BERNALILLO PUBLIC SCHOOLS,Sandoval County,224 N CAMINO PUEBLO,SANTO DOMINGO PUEBLO,NM,87052,,(505)867-4441,42,Rural: Distant,No,No,Yes,Yes,81,6.35,12.8,81,0
350011201051,NM-505-001,3500112,NM-505,PK,12,SCHOOL OF DREAMS ACADEMY,SCHOOL OF DREAMS ACADEMY,Valencia County,906 JUAN PEREA RD,LOS LUNAS,NM,87031,,(505)866-7632,23,Suburb: Small,Yes,No,Yes,Yes,457,19.65,23.3,361,20
350006000108,NM-001-597,3500060,NM-001,9,12,SCHOOL ON WHEELS HIGH SCHOOL,ALBUQUERQUE PUBLIC SCHOOLS,Bernalillo County,129 HARTLINE RD SW,ALBUQUERQUE,NM,87105,,(505)243-2395,11,City: Large,No,Yes,Yes,Yes,85,8.8,9.7,84,0
350117000337,NM-088-155,3501170,NM-088,KG,6,SEBOYETA ELEMENTARY,GRANTS-CIBOLA COUNTY SCHOOLS,Cibola County,HC 77 BOX 43,SEBOYETA,NM,87055,,(505)285-2603,43,Rural: Remote,No,No,Yes,Yes,40,6.09,6.6,40,0
350001500971,NM-097-867,3500015,NM-097,6,12,SEQUOYAH,SEQUOYAH,Bernalillo County,3405 PAN AMERICAN FWY,ALBUQUERQUE,NM,87107,,(505)222-0355,21,Suburb: Large,No,No,–,–,25,5,5,22,0
350006000824,NM-001-265,3500060,NM-001,KG,5,SEVEN BAR ELEMENTARY,ALBUQUERQUE PUBLIC SCHOOLS,Bernalillo County,4501 SEVEN BAR LOOP NW,ALBUQUERQUE,NM,87114,,(505)899-2797,11,City: Large,No,No,Yes,Yes,698,48.9,14.3,293,64
350001000953,NM-083-017,3500010,NM-083,PK,PK,SHINING STARS PRESCHOOL,RIO RANCHO PUBLIC SCHOOLS,Sandoval County,4477 9TH AVENUE SE,RIO RANCHO,NM,87124,,(505)892-7735,21,Suburb: Large,No,No,–,–,593,34.77,17.1,111,17
350039000186,NM-067-039,3500390,NM-067,9,12,SHIPROCK HIGH,CENTRAL CONSOLIDATED SCHOOLS,San Juan County,P.O. BOX 3578,SHIPROCK,NM,87420,,(505)368-5161,41,Rural: Fringe,No,No,Yes,Yes,618,38.1,16.2,618,0
350280001124,NM-089-166,3502800,NM-089,PK,5,SHIWI TS'ANA ELEMENTARY,ZUNI PUBLIC SCHOOLS,McKinley County,38 ZUNI ROUTE 301 NORTH,ZUNI,NM,87327,,(505)782-4441,33,Town: Remote,No,No,Yes,Yes,641,40.07,16,641,0
350225000826,NM-004-009,3502250,NM-004,6,8,SIDNEY GUTIERREZ MIDDLE,ROSWELL INDEPENDENT SCHOOLS,Chaves County,69 E. GAIL HARRIS,ROSWELL,NM,88201,,(575)347-9703,33,Town: Remote,Yes,No,–,–,66,6,11,66,0
350006001117,NM-001-750,3500060,NM-001,9,12,SIEMBRA LEADERSHIP HIGH SCHOOL,ALBUQUERQUE PUBLIC SCHOOLS,Bernalillo County,524 CENTRAL AVE SW,ALBUQUERQUE,NM,87102,,(505)205-0329,11,City: Large,Yes,No,Yes,Yes,123,5.5,22.4,123,0
350006000457,NM-001-594,3500060,NM-001,9,12,SIERRA ALTERNATIVE,ALBUQUERQUE PUBLIC SCHOOLS,Bernalillo County,2611 EUBANK NE,ALBUQUERQUE,NM,87112,,(505)296-6708,11,City: Large,No,No,†,†,–,0,†,0,0
350003000013,NM-046-150,3500030,NM-046,KG,5,SIERRA ELEMENTARY,ALAMOGORDO PUBLIC SCHOOLS,Otero County,2211 PUERTO RICO AVE,ALAMOGORDO,NM,88310,,(575)812-5800,33,Town: Remote,No,No,Yes,Yes,375,22.69,16.5,169,47
350261000435,NM-073-060,3502610,NM-073,4,5,SIERRA ELEMENTARY,T OR C MUNICIPAL SCHOOLS,Sierra County,1500 NORTH SILVER,T OR C,NM,87901,,(575)894-8150,33,Town: Remote,No,No,Yes,Yes,183,12.28,14.9,183,0
350225000522,NM-004-125,3502250,NM-004,6,8,SIERRA MIDDLE,ROSWELL INDEPENDENT SCHOOLS,Chaves County,615 S. SYCAMORE AVE,ROSWELL,NM,88201,,(575)627-2850,33,Town: Remote,No,No,Yes,Yes,717,32.5,22.1,717,0
350150000455,NM-017-144,3501500,NM-017,6,8,SIERRA MIDDLE,LAS CRUCES PUBLIC SCHOOLS,DoÃƒÂ±a Ana County,505 SOUTH MAIN SUITE 249,LAS CRUCES,NM,88001,,(575)527-9640,12,City: Midsize,No,Yes,Yes,Yes,905,47.09,19.2,523,53
350153000721,NM-069-054,3501530,NM-069,4,6,SIERRA VISTA ELEMENTARY,LAS VEGAS CITY PUBLIC SCHOOLS,San Miguel County,901 DOUGLAS AVENUE,LAS VEGAS,NM,87701,,(505)454-5740,33,Town: Remote,No,No,Yes,Yes,331,19.18,17.3,331,0
350006000109,NM-001-356,3500060,NM-001,PK,5,SIERRA VISTA ELEMENTARY,ALBUQUERQUE PUBLIC SCHOOLS,Bernalillo County,10220 PASEO DEL NORTE NW,ALBUQUERQUE,NM,87114,,(505)898-0272,21,Suburb: Large,No,No,Yes,Yes,652,44.4,14.7,312,61
350231000464,NM-036-145,3502310,NM-036,PK,2,SIERRA VISTA PRIMARY,RUIDOSO MUNICIPAL SCHOOLS,Lincoln County,200 HORTON CIRCLE,RUIDOSO,NM,88345,,(575)258-4943,33,Town: Remote,No,No,Yes,Yes,511,31.2,16.4,511,0
350243000564,NM-023-152,3502430,NM-023,9,12,SILVER HIGH,SILVER CONSOLIDATED SCHOOLS,Grant County,3200 NORTH SILVER ST,SILVER CITY,NM,88061,,(575)956-2158,33,Town: Remote,No,No,Yes,Yes,621,37.9,16.4,428,11
350243001141,NM-023-012,3502430,NM-023,PK,PK,SILVER SCHOLARS ACADEMY,SILVER CONSOLIDATED SCHOOLS,Grant County,600 E 32ND STREET,SILVER CITY,NM,88061,,(575)956-2140,33,Town: Remote,No,No,–,–,60,5,12,57,0
350017701126,NM-568-001,3500177,NM-568,6,10,SIX DIRECTIONS INDIGENOUS SCHOOL,SIX DIRECTIONS INDIGENOUS SCHOOL,McKinley County,2055 NM 602,GALLUP,NM,87301,,(505)863-1900,33,Town: Remote,Yes,No,Yes,Yes,68,4.1,16.6,26,1
350207001041,NM-072-132,3502070,NM-072,6,6,SIXTH GRADE ACADEMY,POJOAQUE VALLEY PUBLIC SCHOOLS,Santa Fe County,PO BOX 3468,POJOAQUE,NM,87501,,(505)455-2282,32,Town: Distant,No,No,Yes,Yes,153,10.88,14.1,89,11
350243000565,NM-023-155,3502430,NM-023,KG,KG,SIXTH STREET ELEMENTARY,SILVER CONSOLIDATED SCHOOLS,Grant County,405 WEST 6TH,SILVER CITY,NM,88061,,(575)956-2150,33,Town: Remote,No,No,Yes,Yes,168,13,12.9,167,0
350060000230,NM-024-132,3500600,NM-024,7,8,SNELL MIDDLE,COBRE CONSOLIDATED SCHOOLS,Grant County,501 TOM FOY BLVD,BAYARD,NM,88023,,(575)537-4011,33,Town: Remote,No,No,Yes,Yes,181,11.15,16.2,181,0
350246000571,NM-074-160,3502460,NM-074,9,12,SOCORRO HIGH,SOCORRO CONSOLIDATED SCHOOLS,Socorro County,1200 MICHIGAN ST,SOCORRO,NM,87801,,(575)835-0700,33,Town: Remote,No,No,Yes,Yes,454,27.22,16.7,454,0
350018301143,NM-576-001,3500183,NM-576,5,6,SOLARE COLLEGIATE CHARTER SCHOOL,SOLARE COLLEGIATE CHARTER SCHOOL,Bernalillo County,1623 LA VEGA DR SW,ALBUQUERQUE,NM,87105,,(505)917-6442,11,City: Large,Yes,†,†,†,†,†,†,†,†
350006000110,NM-001-357,3500060,NM-001,PK,5,SOMBRA DEL MONTE ELEMENTARY,ALBUQUERQUE PUBLIC SCHOOLS,Bernalillo County,9110 SHOSHONE RD NE,ALBUQUERQUE,NM,87111,,(505)291-6842,11,City: Large,No,No,Yes,Yes,311,22,14.1,308,0
350150000959,NM-017-007,3501500,NM-017,PK,5,SONOMA ELEMENTARY,LAS CRUCES PUBLIC SCHOOLS,DoÃƒÂ±a Ana County,4201 NORTHRISE DRIVE,LAS CRUCES,NM,88011,,(575)541-7320,41,Rural: Fringe,No,No,Yes,Yes,815,44.37,18.4,319,62
350189000749,NM-081-120,3501890,NM-081,KG,5,SOUTH MOUNTAIN ELEMENTARY,MORIARTY-EDGEWOOD SCHOOL DISTRICT,Santa Fe County,577 STATE RD 344,MORIARTY,NM,87015,,(505)835-5835,41,Rural: Fringe,No,No,Yes,Yes,314,18.13,17.3,144,28
350006000809,NM-001-025,3500060,NM-001,6,12,SOUTH VALLEY ACADEMY,ALBUQUERQUE PUBLIC SCHOOLS,Bernalillo County,3426 BLAKE ROAD SW,ALBUQUERQUE,NM,87105,,(505)452-3132,21,Suburb: Large,Yes,No,Yes,Yes,623,50.82,12.3,620,0
350012101076,NM-515-001,3500121,NM-515,6,8,SOUTH VALLEY PREP,SOUTH VALLEY PREP,Bernalillo County,2551 KARSTEN CT SE,ALBUQUERQUE,NM,87102,,(505)222-5642,11,City: Large,Yes,No,Yes,Yes,152,10.8,14.1,149,0
350126000355,NM-033-156,3501260,NM-033,PK,5,SOUTHERN HEIGHTS ELEMENTARY,HOBBS MUNICIPAL SCHOOLS,Lea County,101 EAST TEXAS,HOBBS,NM,88240,,(575)433-1900,33,Town: Remote,No,No,Yes,Yes,420,26.25,16,260,49
350001200982,NM-091-002,3500012,NM-091,8,12,SOUTHERN NM CORRECTIONS,NM CORRECTIONS,DoÃƒÂ±a Ana County,1983 JOE R SILVA BLVD,LAS CRUCES,NM,88004,,(575)523-3200,42,Rural: Distant,No,No,–,–,2,0.5,4,0,0
350013600927,NM-530-001,3500136,NM-530,4,8,SOUTHWEST PREPARATORY LEARNING CENTER,SOUTHWEST PREPARATORY LEARNING CENTER,Bernalillo County,10301 CANDELARIA RD NE,ALBUQUERQUE,NM,87112,,(505)296-7677,11,City: Large,Yes,No,Yes,Yes,175,10.3,17,62,7
350013700819,NM-531-001,3500137,NM-531,9,12,SOUTHWEST SECONDARY LEARNING CENTER,SOUTHWEST SECONDARY LEARNING CENTER,Bernalillo County,10301 CANDELARIA RD NE,ALBUQUERQUE,NM,87112,,(505)296-7677,11,City: Large,Yes,No,Yes,Yes,246,10.6,23.2,87,16
350001201046,NM-091-009,3500012,NM-091,8,12,SPRINGER CORRECTIONAL FACILITY,NM CORRECTIONS,Colfax County,201 HWY 468,SPRINGER,NM,87747,,(575)483-3100,43,Rural: Remote,No,No,–,–,4,0.5,8,0,0
350249000575,NM-010-150,3502490,NM-010,7,12,SPRINGER HIGH,SPRINGER MUNICIPAL SCHOOLS,Colfax County,1401 8TH ST,SPRINGER,NM,87747,,(575)483-2482,43,Rural: Remote,No,No,–,–,58,7.01,8.3,58,0
350111030020,NM-043-152,3501110,NM-043,PK,5,STAGECOACH ELEMENTARY,GALLUP-MCKINLEY CTY SCHOOLS,McKinley County,725 FREEDOM ROAD,GALLUP,NM,87301,,(505)721-1051,33,Town: Remote,No,No,Yes,Yes,289,21,13.8,289,0
350126000667,NM-033-075,3501260,NM-033,KG,5,STONE ELEMENTARY,HOBBS MUNICIPAL SCHOOLS,Lea County,1015 CALLE SUR,HOBBS,NM,88240,,(575)433-2500,33,Town: Remote,No,No,Yes,No,431,22,19.6,107,11
350168001029,NM-086-160,3501680,NM-086,PK,6,SUNDANCE ELEMENTARY,LOS LUNAS PUBLIC SCHOOLS,Valencia County,PO DRAWER 1300,LOS LUNAS,NM,87031,,(505)866-8231,41,Rural: Fringe,No,No,Yes,Yes,611,32.1,19,253,48
350108000626,NM-019-013,3501080,NM-019,PK,6,SUNLAND PARK ELEMENTARY,GADSDEN INDEPENDENT SCHOOLS,DoÃƒÂ±a Ana County,305 ALTO VISTA,SUNLAND PARK,NM,88063,,(575)882-6203,21,Suburb: Large,No,No,Yes,Yes,283,25,11.3,283,0
350108000905,NM-019-009,3501080,NM-019,PK,6,SUNRISE ELEMENTARY,GADSDEN INDEPENDENT SCHOOLS,DoÃƒÂ±a Ana County,1000 COUNTY LINE DR,ANTHONY,NM,88021,,(575)882-6203,41,Rural: Fringe,No,No,Yes,Yes,423,30,14.1,423,0
350150000730,NM-017-140,3501500,NM-017,3,5,SUNRISE ELEMENTARY,LAS CRUCES PUBLIC SCHOOLS,DoÃƒÂ±a Ana County,505 SOUTH MAIN SUITE 249,LAS CRUCES,NM,88001,,(575)527-9626,12,City: Midsize,No,No,Yes,Yes,422,25.03,16.9,422,0
350225000523,NM-004-120,3502250,NM-004,PK,5,SUNSET ELEMENTARY,ROSWELL INDEPENDENT SCHOOLS,Chaves County,606 WEST OCONNOR ROAD,ROSWELL,NM,88201,,(575)637-3575,41,Rural: Fringe,No,No,Yes,Yes,345,20.75,16.6,345,0
350030000175,NM-020-158,3500300,NM-020,1,5,SUNSET ELEMENTARY,CARLSBAD MUNICIPAL SCHOOLS,Eddy County,923 N. WALTER ST.,CARLSBAD,NM,88220,,(575)234-3300,33,Town: Remote,No,No,Yes,Yes,415,21.55,19.3,143,44
350006001036,NM-001-393,3500060,NM-001,KG,5,SUNSET VIEW ELEMENTARY,ALBUQUERQUE PUBLIC SCHOOLS,Bernalillo County,6121 PARADISE BLVD NW,ALBUQUERQUE,NM,87114,,(505)792-3254,11,City: Large,No,No,Yes,No,697,39.5,17.6,228,45
350006000725,NM-001-280,3500060,NM-001,PK,5,SUSIE RAYOS MARMON ELEMENTARY,ALBUQUERQUE PUBLIC SCHOOLS,Bernalillo County,1800 72ND ST NW,ALBUQUERQUE,NM,87120,,(505)831-5400,11,City: Large,No,No,Yes,Yes,618,40.3,15.3,614,0
350015101088,NM-544-001,3500151,NM-544,7,12,SW AERONAUTICS MATHEMATICS AND SCIENCE ACADEMY,SW AERONAUTICS MATHEMATICS AND SCIENCE ACADEMY,Bernalillo County,4100 AEROSPACE PKWY BW,ALBUQUERQUE,NM,87121,,(505)296-7677,41,Rural: Fringe,Yes,No,Yes,Yes,275,13,21.2,76,32
350261000594,NM-073-162,3502610,NM-073,PK,3,T OR C ELEMENTARY,T OR C MUNICIPAL SCHOOLS,Sierra County,1500 NORTH SILVER,T OR C,NM,87901,,(575)894-8150,33,Town: Remote,No,No,Yes,Yes,370,26.69,13.9,370,0
350261000595,NM-073-063,3502610,NM-073,6,8,T OR C MIDDLE,T OR C MUNICIPAL SCHOOLS,Sierra County,1802 PERSHING STREET,T OR C,NM,87901,,(575)894-8150,33,Town: Remote,No,No,Yes,Yes,302,18.48,16.3,302,0
350006000111,NM-001-455,3500060,NM-001,6,8,TAFT MIDDLE,ALBUQUERQUE PUBLIC SCHOOLS,Bernalillo County,620 SCHULTE RD NW,ALBUQUERQUE,NM,87107,,(505)344-4389,21,Suburb: Large,No,No,Yes,Yes,367,29.5,12.4,366,0
350011801055,NM-510-001,3500118,NM-510,5,12,TAOS ACADEMY,TAOS ACADEMY,Taos County,110 PASEO DEL CANON W,TAOS,NM,87571,,(505)751-3109,33,Town: Remote,Yes,No,Yes,Yes,215,17.6,12.2,116,5
350252000951,NM-076-011,3502520,NM-076,9,12,TAOS CYBER MAGNET,TAOS MUNICIPAL SCHOOLS,Taos County,310 CAMINO DE LA PLACITA,TAOS,NM,87571,,(575)758-5202,33,Town: Remote,No,Yes,Yes,Yes,25,1.08,23.1,25,0
350252000583,NM-076-165,3502520,NM-076,9,12,TAOS HIGH,TAOS MUNICIPAL SCHOOLS,Taos County,134 CERVANTES,TAOS,NM,87571,,(575)758-5202,33,Town: Remote,No,No,Yes,Yes,793,42.59,18.6,459,93
350012701060,NM-521-001,3500127,NM-521,KG,8,TAOS INTEGRATED SCHOOL OF ARTS,TAOS INTEGRATED SCHOOL OF THE ARTS,Taos County,PO BOX 668,TAOS,NM,87571,,(575)758-7755,33,Town: Remote,Yes,No,Yes,Yes,170,12.02,14.1,104,16
350016301094,NM-555-001,3500163,NM-555,KG,8,TAOS INTERNATIONAL SCHOOL,TAOS INTERNATIONAL SCHOOL,Taos County,118 ESTE ES ROAD,TAOS,NM,87571,,(505)776-2469,33,Town: Remote,Yes,No,Yes,Yes,134,12.68,10.6,134,0
350252000584,NM-076-164,3502520,NM-076,6,8,TAOS MIDDLE,TAOS MUNICIPAL SCHOOLS,Taos County,235 PASEO DEL CANON,TAOS,NM,87571,,(575)758-5202,33,Town: Remote,No,No,Yes,Yes,473,33.37,14.2,473,0
350252000817,NM-076-005,3502520,NM-076,KG,8,TAOS MUNICIPAL CHARTER,TAOS MUNICIPAL SCHOOLS,Taos County,1303 PASEO DEL CANON EAST,TAOS,NM,87571,,(575)751-7222,33,Town: Remote,Yes,No,–,–,213,13.75,15.5,105,19
350255000585,NM-035-162,3502550,NM-035,PK,6,TATUM ELEMENTARY,TATUM MUNICIPAL SCHOOLS,Lea County,306 WEST 3RD STREET,TATUM,NM,88267,,(575)398-4455,43,Rural: Remote,No,No,Yes,Yes,191,10.21,18.7,74,14
350255000586,NM-035-163,3502550,NM-035,9,12,TATUM HIGH,TATUM MUNICIPAL SCHOOLS,Lea County,307 WEST 3RD STREET,TATUM,NM,88267,,(575)398-4455,43,Rural: Remote,No,No,Yes,No,109,8.93,12.2,36,3
350255000587,NM-035-090,3502550,NM-035,7,8,TATUM JR HIGH,TATUM MUNICIPAL SCHOOLS,Lea County,320 WEST 3RD STREET,TATUM,NM,88267,,(575)398-4455,43,Rural: Remote,No,No,Yes,Yes,42,3.97,10.6,15,4
350126000356,NM-033-164,3501260,NM-033,KG,5,TAYLOR ELEMENTARY,HOBBS MUNICIPAL SCHOOLS,Lea County,1520 N. BRECKON,HOBBS,NM,88240,,(575)433-2000,33,Town: Remote,No,No,Yes,Yes,441,23.61,18.7,199,24
350006000112,NM-001-457,3500060,NM-001,6,8,TAYLOR MIDDLE,ALBUQUERQUE PUBLIC SCHOOLS,Bernalillo County,8200 GUADALUPE TR NW,LOS RANCHOS DE ALBUQUERQUE,NM,87114,,(505)898-3666,21,Suburb: Large,No,No,Yes,Yes,377,27.6,13.7,216,29
350174000450,NM-031-082,3501740,NM-031,7,8,TAYLOR MIDDLE,LOVINGTON MUNICIPAL SCHOOLS,Lea County,700 SOUTH 11TH ST,LOVINGTON,NM,88260,,(575)739-2435,33,Town: Remote,No,No,Yes,Yes,588,32.37,18.2,328,61
350006001112,NM-001-753,3500060,NM-001,9,11,TECHNOLOGY LEADERSHIP HIGH SCHOOL,ALBUQUERQUE PUBLIC SCHOOLS,Bernalillo County,10500 RESEARCH RD SE,ALBUQUERQUE,NM,87123,,(505)338-2266,11,City: Large,Yes,No,Yes,Yes,221,12.24,18.1,221,0
350237000552,NM-071-160,3502370,NM-071,PK,6,TESUQUE ELEMENTARY,SANTA FE PUBLIC SCHOOLS,Santa Fe County,BISHOPS LODGE RD,TESUQUE,NM,87574,,(505)467-4100,41,Rural: Fringe,No,No,Yes,Yes,104,8.6,12.1,104,0
350258000588,NM-013-161,3502580,NM-013,PK,5,TEXICO ELEMENTARY,TEXICO MUNICIPAL SCHOOLS,Curry County,520 N. GRIFFIN ST.,TEXICO,NM,88135,,(575)482-3801,42,Rural: Distant,No,No,Yes,Yes,263,17.48,15,97,26
350258000589,NM-013-162,3502580,NM-013,9,12,TEXICO HIGH,TEXICO MUNICIPAL SCHOOLS,Curry County,520 N. GRIFFIN ST.,TEXICO,NM,88135,,(575)482-3801,42,Rural: Distant,No,No,Yes,Yes,178,13.03,13.7,53,22
350258000590,NM-013-163,3502580,NM-013,6,8,TEXICO MIDDLE,TEXICO MUNICIPAL SCHOOLS,Curry County,520 N. GRIFFIN ST.,TEXICO,NM,88135,,(575)482-3801,42,Rural: Distant,No,No,Yes,Yes,131,7.67,17.1,51,20
350006001026,NM-001-016,3500060,NM-001,9,12,THE ALB TALENT DEVELOPMENT CHARTER,ALBUQUERQUE PUBLIC SCHOOLS,Bernalillo County,1800 ATRISCO RD NW,ALBUQUERQUE,NM,87120,,(505)503-2465,11,City: Large,Yes,No,Yes,Yes,156,14.59,10.7,156,0
350012601070,NM-520-001,3500126,NM-520,6,12,THE ASK ACADEMY,THE ASK ACADEMY,Sandoval County,4550 SUNDT RD NE,RIO RANCHO,NM,87124,,(505)891-0757,21,Suburb: Large,Yes,No,Yes,Yes,529,33.58,15.8,22,9
350018000867,NM-087-006,3500180,NM-087,1,8,THE FAMILY SCHOOL,BELEN CONSOLIDATED SCHOOLS,Valencia County,520 NORTH MAIN ST,BELEN,NM,87002,,(505)966-2270,23,Suburb: Small,No,No,Yes,Yes,127,5.3,24,127,0
350014201077,NM-536-001,3500142,NM-536,6,12,THE GREAT ACADEMY,THE GREAT ACADEMY,Bernalillo County,6001-A SAN MATEO BLVD NE,ALBUQUERQUE,NM,87109,,(505)792-0306,11,City: Large,Yes,No,Yes,Yes,168,6.62,25.4,69,1
350012501069,NM-519-001,3500125,NM-519,9,12,THE MASTERS PROGRAM,THE MASTERS PROGRAM,Santa Fe County,SFCC LL325 6401 RICHARDS AVE,SANTA FE,NM,87508,,(505)428-7320,23,Suburb: Small,Yes,No,Yes,Yes,214,11.2,19.1,70,26
350111000315,NM-043-162,3501110,NM-043,PK,5,THOREAU ELEMENTARY,GALLUP-MCKINLEY CTY SCHOOLS,McKinley County,6 4TH AVE,THOREAU,NM,87323,,(505)721-1051,43,Rural: Remote,No,No,Yes,Yes,288,21.1,13.6,288,0
350111000316,NM-043-145,3501110,NM-043,9,12,THOREAU HIGH,GALLUP-MCKINLEY CTY SCHOOLS,McKinley County,4 HAWK CIRCLE,THOREAU,NM,87323,,(505)721-1051,43,Rural: Remote,No,No,Yes,Yes,375,24.87,15.1,375,0
350111000663,NM-043-155,3501110,NM-043,6,8,THOREAU MIDDLE,GALLUP-MCKINLEY CTY SCHOOLS,McKinley County,8 HAWK CIRCLE,THOREAU,NM,87323,,(505)721-1051,43,Rural: Remote,No,No,Yes,Yes,245,17.25,14.2,245,0
350099000293,NM-065-162,3500990,NM-065,6,8,TIBBETTS MIDDLE SCHOOL,FARMINGTON MUNICIPAL SCHOOLS,San Juan County,3500 TWIN PEAKS BLVD,FARMINGTON,NM,87401,,(505)324-9840,41,Rural: Fringe,No,No,Yes,Yes,660,42.6,15.5,328,9
350012401068,NM-518-001,3500124,NM-518,6,12,TIERRA ADENTRO,TIERRA ADENTRO,Bernalillo County,1905 MOUNTAIN RD NW,ALBUQUERQUE,NM,87104,,(505)967-4720,11,City: Large,Yes,No,Yes,Yes,283,25,11.3,176,34
350042000195,NM-053-064,3500420,NM-053,PK,6,TIERRA AMARILLA ELEMENTARY,CHAMA VALLEY INDEP. SCHOOLS,Rio Arriba County,PO BOX 66,TIERRA AMARILLA,NM,87575,,(575)588-7285,43,Rural: Remote,No,No,Yes,Yes,122,9.35,13,117,0
350006001018,NM-001-389,3500060,NM-001,KG,5,TIERRA ANTIGUA ELEMENTARY,ALBUQUERQUE PUBLIC SCHOOLS,Bernalillo County,8121 RAINBOW BLVD NW,ALBUQUERQUE,NM,87114,,(505)792-3262,41,Rural: Fringe,No,No,–,–,929,52,17.9,198,50
350017300950,NM-565-001,3500173,NM-565,7,12,TIERRA ENCANTADA CHARTER SCHOOL,TIERRA ENCANTADA CHARTER SCHOOL,Santa Fe County,4601 MISSION BEND,SANTA FE,NM,87507,,(505)983-3337,13,City: Small,Yes,No,Yes,Yes,281,20,14.1,87,1
350111000797,NM-043-091,3501110,NM-043,PK,5,TOBE TURPEN ELEMENTARY,GALLUP-MCKINLEY CTY SCHOOLS,McKinley County,3301 MANUELITO,GALLUP,NM,87301,,(505)721-1051,33,Town: Remote,No,No,Yes,Yes,402,28,14.4,402,0
350111000317,NM-043-164,3501110,NM-043,PK,5,TOHATCHI ELEMENTARY,GALLUP-MCKINLEY CTY SCHOOLS,McKinley County,CHUSKA RD,TOHATCHI,NM,87325,,(505)721-1051,43,Rural: Remote,No,No,Yes,Yes,227,17,13.4,227,0
350111000318,NM-043-064,3501110,NM-043,9,12,TOHATCHI HIGH,GALLUP-MCKINLEY CTY SCHOOLS,McKinley County,COUGAR LANE N 491,TOHATCHI,NM,87325,,(505)721-1051,43,Rural: Remote,No,No,Yes,Yes,313,20.87,15,313,0
350111000664,NM-043-120,3501110,NM-043,6,8,TOHATCHI MIDDLE,GALLUP-MCKINLEY CTY SCHOOLS,McKinley County,MID SCHOOL LANE,TOHATCHI,NM,87325,,(505)721-1051,43,Rural: Remote,No,No,Yes,Yes,204,13.25,15.4,204,0
350006000113,NM-001-363,3500060,NM-001,KG,5,TOMASITA ELEMENTARY,ALBUQUERQUE PUBLIC SCHOOLS,Bernalillo County,701 TOMASITA ST NE,ALBUQUERQUE,NM,87123,,(505)291-6844,11,City: Large,No,No,Yes,Yes,329,24.15,13.6,323,0
350150030009,NM-017-145,3501500,NM-017,PK,5,TOMBAUGH ELEMENTARY,LAS CRUCES PUBLIC SCHOOLS,DoÃƒÂ±a Ana County,505 SOUTH MAIN SUITE 249,LAS CRUCES,NM,88001,,(575)527-9575,22,Suburb: Midsize,No,No,Yes,Yes,646,41.55,15.5,646,0
350168030007,NM-086-180,3501680,NM-086,PK,6,TOME ELEMENTARY,LOS LUNAS PUBLIC SCHOOLS,Valencia County,PO DRAWER 1300,LOS LUNAS,NM,87031,,(505)866-8231,41,Rural: Fringe,No,No,Yes,Yes,454,25.7,17.7,454,0
350006001047,NM-001-492,3500060,NM-001,6,8,TONY HILLERMAN MIDDLE SCHOOL,ALBUQUERQUE PUBLIC SCHOOLS,Bernalillo County,8101 RAINBOW BLVD NW,ALBUQUERQUE,NM,87114,,(505)792-0698,41,Rural: Fringe,No,No,–,–,1207,60.45,20,382,74
350090000276,NM-055-145,3500900,NM-055,KG,6,TONY QUINTANA ELEMENTARY,ESPANOLA PUBLIC SCHOOLS,Santa Fe County,714 CALLE DON DIEGO,ESPANOLA,NM,87532,,(505)753-2254,41,Rural: Fringe,No,No,Yes,Yes,237,19.3,12.3,237,0
350156000412,NM-068-125,3501560,NM-068,4,4,TONY SERNA JR. ELEMENTARY,WEST LAS VEGAS PUBLIC SCHOOLS,San Miguel County,179 BRIDGE STREET,LAS VEGAS,NM,87701,,(505)426-2621,33,Town: Remote,No,No,Yes,Yes,102,1.52,67.1,102,0
350165001122,NM-041-079,3501650,NM-041,9,9,TOPPER FRESHMAN ACADEMY,LOS ALAMOS PUBLIC SCHOOLS,Los Alamos County,3800 CANYON DRIVE,LOS ALAMOS,NM,87544,,(505)663-2510,32,Town: Distant,No,No,–,–,334,2.9,115.2,24,3
350006001142,NM-001-497,3500060,NM-001,KG,8,TRES VOLCANES COMMUNITY COLLABORATIVE SCHOOL,ALBUQUERQUE PUBLIC SCHOOLS,Bernalillo County,9601 TIERRA PINTADA NW,ALBUQUERQUE,NM,87120,,(505)253-0200,41,Rural: Fringe,No,No,Yes,Yes,574,41.7,13.8,294,49
350006000114,NM-001-475,3500060,NM-001,6,8,TRUMAN MIDDLE,ALBUQUERQUE PUBLIC SCHOOLS,Bernalillo County,9400 BENAVIDES RD SW,ALBUQUERQUE,NM,87121,,(505)836-3030,11,City: Large,No,No,Yes,Yes,989,69.35,14.3,987,1
350039000189,NM-067-160,3500390,NM-067,6,8,TSE'BIT'AI MIDDLE,CENTRAL CONSOLIDATED SCHOOLS,San Juan County,PO BOX 1703,SHIPROCK,NM,87420,,(505)368-4741,32,Town: Distant,No,No,Yes,Yes,496,28,17.7,496,0
350111000907,NM-043-089,3501110,NM-043,8,12,TSE'YI'GAI HIGH,GALLUP-MCKINLEY CTY SCHOOLS,McKinley County,118 COUNSELOR RD,PUEBLO PINTADO,NM,87013,,(505)721-1051,43,Rural: Remote,No,No,Yes,Yes,87,8,10.9,87,0
350264000602,NM-049-053,3502640,NM-049,PK,5,TUCUMCARI ELEMENTARY,TUCUMCARI PUBLIC SCHOOLS,Quay County,1623 SOUTH 9TH ST,TUCUMCARI,NM,88401,,(575)461-3910,33,Town: Remote,No,No,Yes,Yes,472,30.9,15.3,293,0
350264000599,NM-049-164,3502640,NM-049,9,12,TUCUMCARI HIGH,TUCUMCARI PUBLIC SCHOOLS,Quay County,1001 SOUTH 7TH ST,TUCUMCARI,NM,88401,,(575)461-3910,33,Town: Remote,No,No,Yes,Yes,267,17.1,15.6,116,0
350264000600,NM-049-163,3502640,NM-049,6,8,TUCUMCARI MIDDLE,TUCUMCARI PUBLIC SCHOOLS,Quay County,1000 SOUTH 5TH ST,TUCUMCARI,NM,88401,,(575)461-3910,33,Town: Remote,No,No,Yes,Yes,220,15.84,13.9,111,0
350267000604,NM-047-163,3502670,NM-047,PK,2,TULAROSA ELEMENTARY,TULAROSA MUNICIPAL SCHOOLS,Otero County,404 1ST STREET,TULAROSA,NM,88352,,(575)585-8800,33,Town: Remote,No,No,Yes,Yes,183,12.07,15.2,183,0
350267000605,NM-047-165,3502670,NM-047,9,12,TULAROSA HIGH,TULAROSA MUNICIPAL SCHOOLS,Otero County,504 1ST STREET,TULAROSA,NM,88352,,(575)585-8800,33,Town: Remote,No,No,Yes,Yes,231,18.5,12.5,231,0
350267000968,NM-047-160,3502670,NM-047,3,6,TULAROSA INTERMEDIATE,TULAROSA MUNICIPAL SCHOOLS,Otero County,304 1ST STREET,TULAROSA,NM,88352,,(575)585-8800,33,Town: Remote,No,No,Yes,Yes,279,18.25,15.3,279,0
350267000606,NM-047-164,3502670,NM-047,7,8,TULAROSA MIDDLE,TULAROSA MUNICIPAL SCHOOLS,Otero County,101B OLD MESCALERO RD,TULAROSA,NM,88352,,(575)585-8800,33,Town: Remote,No,No,Yes,Yes,134,12.66,10.6,134,0
350017130008,NM-566-001,3500171,NM-566,PK,8,TURQUOISE TRAIL CHARTER SCHOOL,TURQUOISE TRAIL CHARTER SCHOOL,Santa Fe County,13-A SAN MARCOS LOOP,SANTA FE,NM,87508,,(505)986-4000,41,Rural: Fringe,Yes,No,Yes,Yes,559,38.37,14.6,284,71
350006000811,NM-001-027,3500060,NM-001,5,8,TWENTY-FIRST CENTURY,ALBUQUERQUE PUBLIC SCHOOLS,Bernalillo County,4300 CUTLER AVE. NE,ALBUQUERQUE,NM,87110,,(505)254-0280,11,City: Large,Yes,No,Yes,Yes,294,18.15,16.2,3,2
350280000677,NM-089-192,3502800,NM-089,7,12,TWIN BUTTES CYBER ACADEMY,ZUNI PUBLIC SCHOOLS,McKinley County,PO DRAWER A,ZUNI,NM,87327,,(505)782-5511,41,Rural: Fringe,No,No,Yes,Yes,56,5.71,9.8,56,0
350111000321,NM-043-170,3501110,NM-043,PK,5,TWIN LAKES ELEMENTARY,GALLUP-MCKINLEY CTY SCHOOLS,McKinley County,HC 30 BOX 40,GALLUP,NM,87301,,(505)721-1051,42,Rural: Distant,No,No,Yes,Yes,163,15,10.9,163,0
350156000635,NM-068-157,3501560,NM-068,5,5,UNION ELEMENTARY,WEST LAS VEGAS PUBLIC SCHOOLS,San Miguel County,179 BRIDGE STREET,LAS VEGAS,NM,87701,,(505)426-2701,33,Town: Remote,No,No,Yes,Yes,96,0.84,114.3,96,0
350225000696,NM-004-132,3502250,NM-004,9,12,UNIVERSITY HIGH,ROSWELL INDEPENDENT SCHOOLS,Chaves County,25 MARTIN STREET,ROSWELL,NM,88201,,(575)627-2750,33,Town: Remote,No,No,Yes,Yes,144,8.2,17.6,144,0
350150000394,NM-017-150,3501500,NM-017,PK,5,UNIVERSITY HILLS ELEMENTARY,LAS CRUCES PUBLIC SCHOOLS,DoÃƒÂ±a Ana County,505 SOUTH MAIN SUITE 249,LAS CRUCES,NM,88001,,(575)527-9649,12,City: Midsize,No,No,Yes,Yes,394,26.88,14.7,394,0
350093000791,NM-080-001,3500930,NM-080,4,6,UPPER ELEMENTARY,ESTANCIA MUNICIPAL SCHOOLS,Torrance County,300 N 7TH,ESTANCIA,NM,87016,,(505)384-2001,43,Rural: Remote,No,No,Yes,Yes,126,14.3,8.8,126,0
350159001147,NM-051-100,3501590,NM-051,6,12,UTE LAKE ONLINE LEARNING CENTER,LOGAN MUNICIPAL SCHOOLS,Quay County,301 NORTH 2ND ST,LOGAN,NM,88426,,(575)487-2252,43,Rural: Remote,No,No,–,–,64,2.65,24.2,0,0
350108000934,NM-019-001,3501080,NM-019,PK,6,VADO ELEMENTARY,GADSDEN INDEPENDENT SCHOOLS,DoÃƒÂ±a Ana County,330 HOLGUIN ROAD,VADO,NM,88072,,(575)882-6203,41,Rural: Fringe,No,No,Yes,Yes,408,31,13.2,408,0
350168000762,NM-086-002,3501680,NM-086,PK,6,VALENCIA ELEMENTARY,LOS LUNAS PUBLIC SCHOOLS,Valencia County,PO DRAWER 1300,LOS LUNAS,NM,87031,,(505)866-8231,23,Suburb: Small,No,No,Yes,Yes,424,24.7,17.2,421,0
350210000417,NM-057-160,3502100,NM-057,3,4,VALENCIA ELEMENTARY,PORTALES MUNICIPAL SCHOOLS,Roosevelt County,1415 SOUTH GLOBE,PORTALES,NM,88130,,(575)356-7090,33,Town: Remote,No,No,Yes,Yes,447,30.5,14.7,284,27
350168000989,NM-086-017,3501680,NM-086,9,12,VALENCIA HIGH,LOS LUNAS PUBLIC SCHOOLS,Valencia County,PO DRAWER 1300,LOS LUNAS,NM,87031,,(505)866-8231,23,Suburb: Small,No,No,Yes,Yes,932,46.36,20.1,507,73
350168000614,NM-086-025,3501680,NM-086,7,8,VALENCIA MIDDLE SCHOOL,LOS LUNAS PUBLIC SCHOOLS,Valencia County,PO DRAWER 1300,LOS LUNAS,NM,87031,,(505)866-8231,41,Rural: Fringe,No,No,Yes,Yes,484,24.61,19.7,293,44
350006000115,NM-001-370,3500060,NM-001,PK,5,VALLE VISTA ELEMENTARY,ALBUQUERQUE PUBLIC SCHOOLS,Bernalillo County,1700 MAE AV SW,ALBUQUERQUE,NM,87105,,(505)836-7739,11,City: Large,No,No,Yes,Yes,469,32.05,14.6,453,0
350156000415,NM-068-050,3501560,NM-068,PK,5,VALLEY ELEMENTARY,WEST LAS VEGAS PUBLIC SCHOOLS,San Miguel County,PO BOX 519,RIBERA,NM,87560,,(505)426-2311,43,Rural: Remote,No,No,Yes,Yes,76,1.2,63.3,76,0
350006000116,NM-001-560,3500060,NM-001,9,12,VALLEY HIGH,ALBUQUERQUE PUBLIC SCHOOLS,Bernalillo County,1505 CANDELARIA RD NW,ALBUQUERQUE,NM,87107,,(505)345-9021,11,City: Large,No,Yes,Yes,Yes,1089,68.45,15.9,630,75
350156000416,NM-068-068,3501560,NM-068,6,8,VALLEY MIDDLE,WEST LAS VEGAS PUBLIC SCHOOLS,San Miguel County,PO BOX 519,RIBERA,NM,87560,,(505)426-2311,43,Rural: Remote,No,No,Yes,Yes,34,0.09,377.8,34,0
350225000524,NM-004-161,3502250,NM-004,PK,5,VALLEY VIEW ELEMENTARY,ROSWELL INDEPENDENT SCHOOLS,Chaves County,1400 S WASHINGTON,ROSWELL,NM,88203,,(575)637-3600,33,Town: Remote,No,No,Yes,Yes,579,30,19.3,579,0
350150000395,NM-017-166,3501500,NM-017,PK,5,VALLEY VIEW ELEMENTARY,LAS CRUCES PUBLIC SCHOOLS,DoÃƒÂ±a Ana County,505 SOUTH MAIN SUITE 249,LAS CRUCES,NM,88001,,(575)527-9586,12,City: Midsize,No,No,Yes,Yes,390,28.5,13.7,387,0
350006000117,NM-001-460,3500060,NM-001,6,8,VAN BUREN MIDDLE,ALBUQUERQUE PUBLIC SCHOOLS,Bernalillo County,700 LOUISIANA SE,ALBUQUERQUE,NM,87108,,(505)268-3833,11,City: Large,No,No,Yes,Yes,519,40.4,12.8,510,0
350093000613,NM-080-185,3500930,NM-080,KG,KG,VANSTONE ELEMENTARY,ESTANCIA MUNICIPAL SCHOOLS,Torrance County,809 W JOSEPH,ESTANCIA,NM,87016,,(505)384-2001,43,Rural: Remote,No,No,Yes,Yes,35,3.55,9.9,35,0
350000100607,NM-026-168,3500001,NM-026,PK,6,VAUGHN ELEMENTARY,VAUGHN MUNICIPAL SCHOOLS,Guadalupe County,PO BOX 489,VAUGHN,NM,88353,,(575)584-2283,43,Rural: Remote,No,No,Yes,Yes,37,5.39,6.9,37,0
350000100608,NM-026-169,3500001,NM-026,7,12,VAUGHN HIGH,VAUGHN MUNICIPAL SCHOOLS,Guadalupe County,PO BOX 489,VAUGHN,NM,88353,,(575)584-2283,43,Rural: Remote,No,No,Yes,Yes,36,5.23,6.9,36,0
350090000277,NM-055-169,3500900,NM-055,KG,6,VELARDE ELEMENTARY,ESPANOLA PUBLIC SCHOOLS,Rio Arriba County,714 CALLE DON DIEGO,ESPANOLA,NM,87532,,(505)753-2254,41,Rural: Fringe,No,No,Yes,Yes,58,6.25,9.3,58,0
350006000897,NM-001-264,3500060,NM-001,PK,5,VENTANA RANCH ELEMENTARY,ALBUQUERQUE PUBLIC SCHOOLS,Bernalillo County,6801 VENTANA VILLAGE RD NW,ALBUQUERQUE,NM,87114,,(505)890-7375,11,City: Large,No,No,Yes,No,796,41,19.4,261,54
350006000856,NM-001-840,3500060,NM-001,6,8,VISION QUEST ALTERNATIVE MIDDLE,ALBUQUERQUE PUBLIC SCHOOLS,Bernalillo County,5401 GLENRIO RD NW,ALBUQUERQUE,NM,87105,,(505)352-0343,11,City: Large,No,No,Yes,Yes,5,6.3,0.8,†,†
350001000864,NM-083-015,3500010,NM-083,KG,5,VISTA GRANDE ELEMENTARY,RIO RANCHO PUBLIC SCHOOLS,Sandoval County,7001 CHAYOTE RD NE,RIO RANCHO,NM,87144,,(505)771-2366,41,Rural: Fringe,No,No,Yes,Yes,680,41.8,16.3,221,37
350252001021,NM-076-012,3502520,NM-076,9,12,VISTA GRANDE HIGH SCHOOL,TAOS MUNICIPAL SCHOOLS,Taos County,213 PASEO DEL CANON EAST,TAOS,NM,87571,,(575)758-5100,33,Town: Remote,Yes,No,Yes,Yes,97,8.25,11.8,97,0
350150000377,NM-017-170,3501500,NM-017,6,8,VISTA MIDDLE,LAS CRUCES PUBLIC SCHOOLS,DoÃƒÂ±a Ana County,505 SOUTH MAIN SUITE 249,LAS CRUCES,NM,88001,,(575)527-9465,12,City: Midsize,No,Yes,Yes,Yes,714,37.5,19,714,0
350015000801,NM-064-002,3500150,NM-064,9,12,VISTA NUEVA HIGH,AZTEC MUNICIPAL SCHOOLS,San Juan County,315 S. ASH SUITE 100,AZTEC,NM,87410,,(575)334-9474,31,Town: Fringe,No,No,Yes,Yes,58,4.08,14.2,58,0
350006000966,NM-001-575,3500060,NM-001,9,12,VOLCANO VISTA HIGH,ALBUQUERQUE PUBLIC SCHOOLS,Bernalillo County,8100 RAINBOW RD NW,ALBUQUERQUE,NM,87114,,(505)890-0343,41,Rural: Fringe,No,No,–,–,2222,121,18.4,636,138
350057001097,NM-012-156,3500570,NM-012,6,8,W D GATTIS MIDDLE SCHOOL,CLOVIS MUNICIPAL SCHOOLS,Curry County,5100 N. THORNTON STREET,CLOVIS,NM,88101,,(575)769-4305,41,Rural: Fringe,No,No,Yes,Yes,599,37,16.2,272,45
350273000611,NM-045-172,3502730,NM-045,PK,6,WAGON MOUND ELEMENTARY,WAGON MOUND PUBLIC SCHOOLS,Mora County,300 PARK AVENUE,WAGON MOUND,NM,87752,,(575)666-3001,43,Rural: Remote,No,No,Yes,Yes,47,5,9.4,47,0
350273000612,NM-045-173,3502730,NM-045,7,12,WAGON MOUND HIGH,WAGON MOUND PUBLIC SCHOOLS,Mora County,300 PARK AVENUE,WAGON MOUND,NM,87752,,(575)666-3001,43,Rural: Remote,No,No,Yes,Yes,22,6.12,3.6,22,0
350015800883,NM-552-001,3500158,NM-552,9,12,WALATOWA CHARTER HIGH,WALATOWA CHARTER HIGH,Sandoval County,PO BOX 669,JEMEZ PUEBLO,NM,87024,,(575)834-0448,42,Rural: Distant,Yes,No,Yes,Yes,43,7,6.1,43,0
350225000525,NM-004-175,3502250,NM-004,PK,5,WASHINGTON AVE ELEMENTARY,ROSWELL INDEPENDENT SCHOOLS,Chaves County,408 N WASHINGTON AVE,ROSWELL,NM,88201,,(575)637-3625,33,Town: Remote,No,No,Yes,Yes,454,25.75,17.6,454,0
350006000118,NM-001-465,3500060,NM-001,6,8,WASHINGTON MIDDLE,ALBUQUERQUE PUBLIC SCHOOLS,Bernalillo County,1101 PARK SW,ALBUQUERQUE,NM,87102,,(505)764-2000,11,City: Large,No,No,Yes,Yes,485,33.3,14.6,481,0
350021000728,NM-061-140,3500210,NM-061,PK,2,WD CARROLL ELEMENTARY,BERNALILLO PUBLIC SCHOOLS,Sandoval County,301 CALLE DE ESCUELA,BERNALILLO,NM,87004,,(505)867-4441,21,Suburb: Large,No,No,Yes,Yes,324,26,12.5,324,0
350156000418,NM-068-173,3501560,NM-068,9,12,WEST LAS VEGAS HIGH SCHOOL,WEST LAS VEGAS PUBLIC SCHOOLS,San Miguel County,157 MORENO ST,LAS VEGAS,NM,87701,,(505)426-2500,33,Town: Remote,No,No,Yes,Yes,407,†,†,407,0
350156000419,NM-068-172,3501560,NM-068,6,8,WEST LAS VEGAS MIDDLE SCHOOL,WEST LAS VEGAS PUBLIC SCHOOLS,San Miguel County,179 BRIDGE STREET,LAS VEGAS,NM,87701,,(505)426-2541,33,Town: Remote,No,No,Yes,Yes,305,21,14.5,305,0
350006000119,NM-001-570,3500060,NM-001,9,12,WEST MESA HIGH,ALBUQUERQUE PUBLIC SCHOOLS,Bernalillo County,6701 FORTUNA RD NW,ALBUQUERQUE,NM,87121,,(505)831-6993,11,City: Large,No,No,Yes,Yes,1698,99.43,17.1,1683,3
350001200979,NM-091-008,3500012,NM-091,8,12,WESTERN NM CORRECTIONS,NM CORRECTIONS,Cibola County,1700 EAST OLD HWY 66,GRANTS,NM,87020,,(505)287-2941,33,Town: Remote,No,No,–,–,3,0.5,6,0,0
350006000120,NM-001-376,3500060,NM-001,PK,5,WHERRY ELEMENTARY,ALBUQUERQUE PUBLIC SCHOOLS,Bernalillo County,BLDG 25000TH KAFB EAST,ALBUQUERQUE,NM,87116,,(505)268-2434,21,Suburb: Large,No,No,Yes,Yes,405,29,14,397,0
350231000530,NM-036-160,3502310,NM-036,3,5,WHITE MOUNTAIN ELEMENTARY,RUIDOSO MUNICIPAL SCHOOLS,Lincoln County,200 HORTON CIRCLE,RUIDOSO,NM,88345,,(575)258-4220,33,Town: Remote,No,No,Yes,Yes,510,24.25,21,510,0
350150000397,NM-017-177,3501500,NM-017,PK,8,WHITE SANDS ELEMENTARY,LAS CRUCES PUBLIC SCHOOLS,DoÃƒÂ±a Ana County,505 SOUTH MAIN SUITE 249,LAS CRUCES,NM,88001,,(575)674-1241,42,Rural: Distant,No,No,–,–,285,22.4,12.7,35,27
350006000121,NM-001-379,3500060,NM-001,PK,5,WHITTIER ELEMENTARY,ALBUQUERQUE PUBLIC SCHOOLS,Bernalillo County,1110 QUINCY ST SE,ALBUQUERQUE,NM,87108,,(505)255-2008,11,City: Large,No,No,Yes,Yes,285,22.55,12.6,267,0
350249000576,NM-010-058,3502490,NM-010,3,6,WILFERTH ELEMENTARY,SPRINGER MUNICIPAL SCHOOLS,Colfax County,311 MIRANDA,SPRINGER,NM,87747,,(575)483-2482,43,Rural: Remote,No,No,Yes,Yes,43,4.37,9.8,43,0
350126000358,NM-033-176,3501260,NM-033,PK,5,WILL ROGERS ELEMENTARY,HOBBS MUNICIPAL SCHOOLS,Lea County,300 EAST CLINTON,HOBBS,NM,88240,,(575)433-2200,33,Town: Remote,No,No,Yes,Yes,319,20.3,15.7,205,30
350006001087,NM-001-782,3500060,NM-001,KG,5,WILLIAM W & JOSEPHINE DORN CHARTER COMMUNITY SCHOOL,ALBUQUERQUE PUBLIC SCHOOLS,Bernalillo County,1119 EDITH BLVD SE,ALBUQUERQUE,NM,87102,,(505)243-1434,11,City: Large,Yes,No,Yes,Yes,57,6.4,8.9,57,0
350006000122,NM-001-470,3500060,NM-001,6,8,WILSON MIDDLE,ALBUQUERQUE PUBLIC SCHOOLS,Bernalillo County,1138 CARDENAS DR SE,ALBUQUERQUE,NM,87108,,(505)268-3961,11,City: Large,No,No,Yes,Yes,449,31.55,14.2,447,0
350156000815,NM-068-003,3501560,NM-068,7,12,WLV FAMILY PARTNERSHIP,WEST LAS VEGAS PUBLIC SCHOOLS,San Miguel County,1341 SOUTH GONZALES ST,LAS VEGAS,NM,87701,,(505)426-2559,33,Town: Remote,No,No,Yes,Yes,30,1.9,15.8,29,0
350237000553,NM-071-176,3502370,NM-071,KG,6,WOOD-GORMLEY ELEMENTARY,SANTA FE PUBLIC SCHOOLS,Santa Fe County,141 EAST BOOTH ST,SANTA FE,NM,87501,,(505)467-4800,13,City: Small,No,No,–,–,340,21.8,15.6,50,17
350174000451,NM-031-181,3501740,NM-031,4,5,YARBRO ELEMENTARY,LOVINGTON MUNICIPAL SCHOOLS,Lea County,700 W. JEFFERSON AVE,LOVINGTON,NM,88260,,(575)739-2490,33,Town: Remote,No,No,Yes,Yes,574,30.4,18.9,340,57
350012000672,NM-022-001,3500120,NM-022,1,5,YESO ELEMENTARY,ARTESIA PUBLIC SCHOOLS,Eddy County,1812 CENTRE AVE,ARTESIA,NM,88210,,(575)746-3585,33,Town: Remote,No,No,Yes,Yes,523,28.79,18.2,170,33
350012000133,NM-022-183,3500120,NM-022,1,5,YUCCA ELEMENTARY,ARTESIA PUBLIC SCHOOLS,Eddy County,900 N. 13TH STREET,ARTESIA,NM,88210,,(575)746-3585,33,Town: Remote,No,No,Yes,Yes,350,20.46,17.1,146,29
350003000016,NM-046-181,3500030,NM-046,PK,5,YUCCA ELEMENTARY,ALAMOGORDO PUBLIC SCHOOLS,Otero County,310 DALE SCOTT BLVD,ALAMOGORDO,NM,88310,,(575)812-6900,33,Town: Remote,No,No,Yes,Yes,344,17.11,20.1,344,0
350108001125,NM-019-025,3501080,NM-019,KG,6,YUCCA HEIGHTS ELEMENTARY,GADSDEN INDEPENDENT SCHOOLS,Otero County,580 ANGELINA BLVD,CHAPARRAL,NM,88081,,(575)824-8210,41,Rural: Fringe,No,No,Yes,Yes,591,39,15.2,591,0
350057000223,NM-012-098,3500570,NM-012,6,8,YUCCA MIDDLE,CLOVIS MUNICIPAL SCHOOLS,Curry County,1500 SYCAMORE,CLOVIS,NM,88101,,(575)769-4300,33,Town: Remote,No,No,Yes,Yes,654,37,17.7,654,0
350057000224,NM-012-155,3500570,NM-012,PK,5,ZIA ELEMENTARY,CLOVIS MUNICIPAL SCHOOLS,Curry County,2400 NORRIS STREET,CLOVIS,NM,88101,,(575)769-4300,33,Town: Remote,No,No,–,–,464,23,20.2,115,39
350006000124,NM-001-385,3500060,NM-001,PK,5,ZIA ELEMENTARY,ALBUQUERQUE PUBLIC SCHOOLS,Bernalillo County,440 JEFFERSON ST NE,ALBUQUERQUE,NM,87108,,(505)260-2020,11,City: Large,No,No,Yes,Yes,317,25.5,12.4,143,22
350150000399,NM-017-184,3501500,NM-017,6,8,ZIA MIDDLE,LAS CRUCES PUBLIC SCHOOLS,DoÃƒÂ±a Ana County,505 SOUTH MAIN SUITE 249,LAS CRUCES,NM,88001,,(575)527-9475,22,Suburb: Midsize,No,No,Yes,Yes,730,42.82,17,444,42
350006000125,NM-001-388,3500060,NM-001,KG,5,ZUNI ELEMENTARY,ALBUQUERQUE PUBLIC SCHOOLS,Bernalillo County,6300 CLAREMONT AVE NE,ALBUQUERQUE,NM,87110,,(505)881-8313,11,City: Large,No,Yes,Yes,Yes,345,22.5,15.3,181,34
350280000676,NM-089-190,3502800,NM-089,9,12,ZUNI HIGH,ZUNI PUBLIC SCHOOLS,McKinley County,PO DRAWER A,ZUNI,NM,87327,,(505)782-5511,33,Town: Remote,No,No,Yes,Yes,300,18.12,16.6,300,0
350280000678,NM-089-195,3502800,NM-089,6,8,ZUNI MIDDLE,ZUNI PUBLIC SCHOOLS,McKinley County,PO DRAWER A,ZUNI,NM,87327,,(505)782-5511,33,Town: Remote,No,No,Yes,Yes,271,16.94,16,271,0
