NCES School ID,State School ID,NCES District ID,State District ID,Low Grade*,High Grade*,School Name,District,County Name*,Street Address,City,State,ZIP,ZIP 4-digit,Phone,Locale Code*,Locale*,Charter,Magnet*,Title I School*,Title 1 School Wide*,Students*,Teachers*,Student Teacher Ratio*,Free Lunch*,Reduced Lunch*
500043100079,VT-U096-PS001,5000431,VT-U096,PK,6,Academy School,Windham Southeast Unified Union School District #96,†,860 Western Avenue,Brattleboro,VT,5301,2663,(802)254-3743,†,N,†,†,†,†,†,†,†,†,†
500039800001,VT-U054-PS002,5000398,VT-U054,PK,6,Addison Central School,Addison Northwest Unified School District,Addison County,121 VT Route 17 West,Addison,VT,5491,9511,(802)759-2131,42,Rural: Distant,†,No,Yes,Yes,79,7.6,10.4,15,16
500043600420,VT-U093-PS007,5000436,VT-U093,PK,8,Albany Community School,Lake Region Union Elementary Middle School District,†,351 Main Street,Albany,VT,5820,7902,(802)755-6168,†,N,†,†,†,†,†,†,†,†,†
500044200371,VT-U086-PS008,5000442,VT-U086,PK,6,Albert Bridge School (West Windsor),Mount Ascutney School District #86,†,P.O. Box 88,Brownsville,VT,5037,,(802)484-3344,†,N,†,†,†,†,†,†,†,†,†
500039500115,VT-U051-PS009,5000395,VT-U051,6,8,Albert D. Lawton School,Essex-Westford Educational Community Unified School District,Chittenden County,104 Maple Street,Essex Junction,VT,5452,3795,(802)878-1388,22,Suburb: Midsize,†,No,Yes,No,357,33.4,10.7,66,25
500177000004,VT-T003-PS010,5001770,VT-T003,PK,8,Alburg Community Education Center,Alburg School District,Grand Isle County,14 North Main Street,Alburg,VT,5440,9634,(802)796-3573,42,Rural: Distant,†,No,Yes,Yes,222,19.4,11.4,75,0
500183000005,VT-T005-PS011,5001830,VT-T005,6,12,Arlington Memorial,Arlington School District,Bennington County,529 East Arlington Road,Arlington,VT,5250,,(802)375-2589,42,Rural: Distant,†,No,Yes,Yes,200,18,11.1,64,26
500044100009,VT-U085-PS015,5000441,VT-U085,PK,8,Bakersfield School,Northern Mountain Valley Unified Union School District #85,†,P.O. Box 17,Bakersfield,VT,5441,17,(802)827-6611,†,N,†,†,†,†,†,†,†,†,†
500195000011,VT-T009-PS017,5001950,VT-T009,PK,6,Barnard Academy,Barnard School District,Windsor County,P.O. Box 157,Barnard,VT,5031,,(802)234-9763,43,Rural: Remote,†,No,Yes,No,82,7,11.7,13,0
500041200421,VT-U078-PS018,5000412,VT-U078,PK,8,Barnet Elementary School,Caledonia Cooperative Unified School District,Caledonia County,163 Kid Row,Barnet,VT,5821,42,(802)633-4978,42,Rural: Distant,†,No,Yes,Yes,191,23.5,8.1,51,26
500044500055,VT-U097-PS381,5000445,VT-U097,PK,8,Barre City Elementary/Middle School,Barre Unified Union School District #97,†,50 Parkside Terrace,Barre,VT,5641,4846,(802)476-6541,†,N,†,†,†,†,†,†,†,†,†
500044500024,VT-U097-PS020,5000445,VT-U097,PK,8,Barre Town Elementary School,Barre Unified Union School District #97,†,70 Websterville Road,Barre,VT,5641,9029,(802)476-6617,†,N,†,†,†,†,†,†,†,†,†
500039009274,VT-U049-PS021,5000390,VT-U049,PK,8,Barstow Memorial School,Barstow Unified School District,Rutland County,223 Chittenden Road,Chittenden,VT,5737,,(802)773-6926,42,Rural: Distant,†,No,–,–,210,16.5,12.7,44,11
500043600025,VT-U093-PS022,5000436,VT-U093,PK,8,Barton Graded School,Lake Region Union Elementary Middle School District,†,P.O. Box 588,Barton,VT,5822,588,(802)525-3636,†,N,†,†,†,†,†,†,†,†,†
500042500211,VT-U061-PS023,5000425,VT-U061,PK,6,Beeman Elementary School,Mt. Abraham Unified School District,Addison County,50 North Street,New Haven,VT,5472,9701,(802)453-2331,42,Rural: Distant,†,No,Yes,Yes,93,5.7,16.3,22,8
500693000262,VT-T169-PS024,5006930,VT-T169,5,8,Bellows Falls Middle School,Rockingham School District,Windham County,15 School Street,Bellows Falls,VT,5101,1596,(802)463-4366,32,Town: Distant,†,No,Yes,Yes,243,28.13,8.6,103,19
500824600346,VT-U027-PS025,5008246,VT-U027,9,12,Bellows Falls UHSD #27,Bellows Falls UHSD #27,Windham County,P.O. Box 429,Bellows Falls,VT,5101,9802,(802)463-3944,41,Rural: Fringe,†,No,Yes,Yes,332,36.34,9.1,106,29
500039900205,VT-U057-PS406,5000399,VT-U057,9,12,Bellows Free Academy UHSD #48,Maple Run Unified School District,Franklin County,71 South Main Street,Saint Albans,VT,5478,2297,(802)527-6555,32,Town: Distant,†,No,–,–,837,78,10.7,159,49
500043400028,VT-U087-PS029,5000434,VT-U087,PK,5,Bennington Elementary School,Southwest Vermont Union Elementary School District #87,†,128 Park Street,Bennington,VT,5201,2518,(802)442-5256,†,N,†,†,†,†,†,†,†,†,†
500044000033,VT-U062-PS031,5000440,VT-U062,PK,8,Benson Village School,Slate Valley Unified Union School District #62,†,32 School Street,Benson,VT,5743,,(802)537-2491,†,N,†,†,†,†,†,†,†,†,†
500044100034,VT-U085-PS032,5000441,VT-U085,PK,8,Berkshire Elementary School,Northern Mountain Valley Unified Union School District #85,†,4850 Water Tower Road,Richford,VT,5476,9712,(802)933-2290,†,N,†,†,†,†,†,†,†,†,†
500043900035,VT-U092-PS033,5000439,VT-U092,PK,6,Berlin Elementary School,Washington Central Unified Union School District #92,†,372 Paine Turnpike North,Berlin,VT,5602,8926,(802)223-2796,†,N,†,†,†,†,†,†,†,†,†
500042600036,VT-U079-PS034,5000426,VT-U079,PK,5,Bethel Elementary School,White River Unified School District,Windsor County,273 Pleasant Street,Bethel,VT,5032,9700,(802)234-6607,43,Rural: Remote,†,No,Yes,Yes,153,21,7.3,49,16
500393000206,VT-T071-PS027,5003930,VT-T071,PK,6,BFA Elementary School ? Fairfax,Fairfax School District,Franklin County,75 Hunt Street,Fairfax,VT,5454,68,(802)849-6711,42,Rural: Distant,†,No,–,–,532,44.43,12,60,12
500393000204,VT-T071-PS405,5003930,VT-T071,7,12,BFA Middle/High School ? Fairfax,Fairfax School District,Franklin County,75 Hunt Street,Fairfax,VT,5454,68,(802)849-6711,42,Rural: Distant,†,No,Yes,No,437,23.92,18.3,78,16
500040200095,VT-U055-PS076,5000402,VT-U055,PK,6,Bingham Memorial School,Addison Central Unified School District,Addison County,112 School Road,Cornwall,VT,5753,8504,(802)462-2463,41,Rural: Fringe,†,No,–,–,88,6.75,13,13,5
500042200342,VT-U083-PS035,5000422,VT-U083,7,12,Black River High School,Ludlow Mt. Holly Unified Union School District,Windsor County,43 Main Street,Ludlow,VT,5149,1105,(802)228-4721,42,Rural: Distant,†,No,Yes,Yes,129,14.5,8.9,39,15
500822400334,VT-U021-PS036,5008224,VT-U021,PK,12,Blue Mountain USD #21,Blue Mountain USD #21,Orange County,2420 Route 302,Wells River,VT,5081,9604,(802)757-2711,43,Rural: Remote,†,No,Yes,Yes,405,46.5,8.7,170,55
500043700039,VT-U091-PS037,5000437,VT-U091,PK,6,Bradford Elementary School,Oxbow Unified Union School District #91,†,143 Fairground Road,Bradford,VT,5033,328,(802)222-4077,†,N,†,†,†,†,†,†,†,†,†
500040000422,VT-U059-PS038,5000400,VT-U059,PK,6,Braintree School,Orange Southwest Unified School District,Orange County,66 Bent Hill Road,Braintree,VT,5060,9411,(802)728-9373,43,Rural: Remote,†,No,Yes,Yes,103,7.5,13.7,37,14
500043100485,VT-U096-PS367,5000431,VT-U096,7,8,Brattleboro Area Middle School,Windham Southeast Unified Union School District #96,†,109 Sunny Acres Road,Brattleboro,VT,5301,3614,(802)451-3500,†,N,†,†,†,†,†,†,†,†,†
500043100051,VT-U096-PS040,5000431,VT-U096,9,12,Brattleboro Union High School,Windham Southeast Unified Union School District #96,†,131 Fairground Road,Brattleboro,VT,5301,3698,(802)451-3400,†,N,†,†,†,†,†,†,†,†,†
500044300160,VT-U401-PS041,5000443,VT-U401,PK,4,Brewster Pierce School,Mount Mansfield Unified Union School District #401,†,120 School Street,Huntington,VT,5462,9712,(802)434-2074,†,N,†,†,†,†,†,†,†,†,†
500040200052,VT-U055-PS043,5000402,VT-U055,PK,6,Bridport Central School,Addison Central Unified School District,Addison County,3442 VT Route 22A,Bridport,VT,5734,35,(802)758-2331,42,Rural: Distant,†,No,Yes,Yes,81,6.9,11.7,32,11
500261000054,VT-T030-PS044,5002610,VT-T030,PK,8,Brighton Elementary School,Brighton School District,Essex County,P.O. Box 419,Island Pond,VT,5846,419,(802)723-4373,43,Rural: Remote,†,No,Yes,Yes,101,11.2,9,30,11
500042500423,VT-U061-PS045,5000425,VT-U061,PK,6,Bristol Elementary School,Mt. Abraham Unified School District,Addison County,57 Mountain Street,Bristol,VT,5443,1113,(802)453-3227,42,Rural: Distant,†,No,Yes,Yes,308,16.1,19.1,67,26
500040000057,VT-U059-PS047,5000400,VT-U059,PK,6,Brookfield School,Orange Southwest Unified School District,Orange County,1728 Ridge Road,Brookfield,VT,5036,9707,(802)276-3153,42,Rural: Distant,†,No,Yes,Yes,68,5,13.6,14,6
500044300398,VT-U401-PS050,5000443,VT-U401,5,8,Brown River Middle School,Mount Mansfield Unified Union School District #401,†,20 River Road,Jericho,VT,5465,9801,(802)899-3711,†,N,†,†,†,†,†,†,†,†,†
500043600059,VT-U093-PS049,5000436,VT-U093,PK,8,Brownington Central School,Lake Region Union Elementary Middle School District,†,103 Chase Road,Brownington,VT,5860,9765,(802)754-8467,†,N,†,†,†,†,†,†,†,†,†
500042100424,VT-U064-PS051,5000421,VT-U064,PK,8,Burke Town School,Kingdom East Unified Union School District,Caledonia County,3293 Burke Hollow Road,West Burke,VT,5871,8913,(802)467-3385,42,Rural: Distant,†,No,Yes,Yes,232,25.2,9.2,86,0
500282000063,VT-T037-PS052,5002820,VT-T037,9,12,Burlington Senior High School,Burlington School District,Chittenden County,52 Institute Road,Burlington,VT,5408,2721,(802)864-8411,13,City: Small,†,No,Yes,Yes,945,75.14,12.6,317,97
500282000080,VT-T037-VC004,5002820,VT-T037,9,12,Burlington Technical Center,Burlington School District,Chittenden County,52 Institute Road,Burlington,VT,5401,2721,(802)864-8426,13,City: Small,†,No,†,†,0,17.8,†,0,0
500282000064,VT-T037-PS080,5002820,VT-T037,PK,5,C. P. Smith School,Burlington School District,Chittenden County,332 Ethan Allen Parkway,Burlington,VT,5401,2525,(802)864-8479,13,City: Small,†,No,Yes,Yes,280,25,11.2,96,29
500285000074,VT-T038-PS055,5002850,VT-T038,PK,12,Cabot School,Cabot School District,Washington County,P.O. Box 98,Cabot,VT,5647,98,(802)563-2289,43,Rural: Remote,†,No,Yes,Yes,163,18,9.1,69,14
500043900076,VT-U092-PS056,5000439,VT-U092,PK,6,Calais Elementary School,Washington Central Unified Union School District #92,†,321 Lightening Ridge Road,Plainfield,VT,5667,9802,(802)454-7777,†,N,†,†,†,†,†,†,†,†,†
500291000077,VT-T040-PS057,5002910,VT-T040,PK,6,Cambridge Elementary School,Cambridge School District,Lamoille County,P.O. Box 160,Jeffersonville,VT,5464,160,(802)644-8821,42,Rural: Distant,†,No,Yes,Yes,333,32.3,10.3,76,33
500044300399,VT-U401-PS058,5000443,VT-U401,5,8,Camels Hump Middle School,Mount Mansfield Unified Union School District #401,†,173 School Street,Richmond,VT,5477,,(802)434-2188,†,N,†,†,†,†,†,†,†,†,†
500294000426,VT-T041-PS059,5002940,VT-T041,PK,12,Canaan Schools,Canaan School District,Essex County,99 School Street,Canaan,VT,5903,4401,(802)266-8910,43,Rural: Remote,†,No,Yes,Yes,197,20.58,9.6,70,0
500043100056,VT-U096-PS383,5000431,VT-U096,PK,6,Canal Street/Oak Grove Schools,Windham Southeast Unified Union School District #96,†,15 Moreland Avenue,Brattleboro,VT,5301,3526,(802)254-3740,†,N,†,†,†,†,†,†,†,†,†
500044000542,VT-U062-PS413,5000440,VT-U062,PK,5,Castleton Elementary School,Slate Valley Unified Union School District #62,†,P.O. Box 68,Castleton,VT,5735,68,(802)468-5624,†,N,†,†,†,†,†,†,†,†,†
500044000546,VT-U062-PS414,5000440,VT-U062,6,8,Castleton Village School,Slate Valley Unified Union School District #62,†,P.O. Box 68,Castleton,VT,5735,68,(802)468-2203,†,N,†,†,†,†,†,†,†,†,†
500042700081,VT-U077-PS063,5000427,VT-U077,PK,6,Cavendish Town Elementary School,Green Mountain Unified School District,Windsor County,P.O. Box 236,Proctorsville,VT,5153,236,(802)226-7758,42,Rural: Distant,†,No,Yes,Yes,104,8.2,12.7,45,8
500693000263,VT-T169-PS249,5006930,VT-T169,PK,4,Central Elementary School,Rockingham School District,Windham County,50 School Street Extension,Bellows Falls,VT,5101,1497,(802)463-4346,32,Town: Distant,†,No,Yes,Yes,231,19.7,11.7,105,19
500044500119,VT-U097-VC002,5000445,VT-U097,9,12,Central Vermont Career Center,Barre Unified Union School District #97,†,50 Crimson Tide Way,Barre,VT,5641,4349,(802)476-6237,†,N,†,†,†,†,†,†,†,†,†
500747000291,VT-T191-PS064,5007470,VT-T191,PK,5,Chamberlin School,South Burlington School District,Chittenden County,262 White Street,South Burlington,VT,5403,5940,(802)652-7400,13,City: Small,†,No,Yes,Yes,329,24.1,13.7,77,25
500282000065,VT-T037-PS065,5002820,VT-T037,PK,5,Champlain School,Burlington School District,Chittenden County,800 Pine Street,Burlington,VT,5401,4923,(802)864-8477,13,City: Small,†,No,Yes,Yes,675,22.35,30.2,179,55
500039600082,VT-U056-PS066,5000396,VT-U056,9,12,Champlain Valley Union High School,Champlain Valley Unified School District,Chittenden County,396 CVU Road,Hinesburg,VT,5461,9502,(802)482-7100,42,Rural: Distant,†,No,–,–,1291,89.99,14.3,109,32
500306000083,VT-T044-PS067,5003060,VT-T044,PK,8,Charleston Elementary School,Charleston School District,Orleans County,255 Center School Road,West Charleston,VT,5872,9702,(802)895-2915,42,Rural: Distant,†,No,Yes,Yes,102,13.3,7.7,43,15
500039600084,VT-U056-PS068,5000396,VT-U056,PK,8,Charlotte Central School,Champlain Valley Unified School District,Chittenden County,408 Hinesburg Road,Charlotte,VT,5445,9380,(802)425-2771,41,Rural: Fringe,†,No,–,–,412,27.05,15.2,25,7
500042900550,VT-U082-PS069,5000429,VT-U082,PK,8,Chelsea Elementary Middle School,First Branch Unified School District,Orange County,6 School Street,Chelsea,VT,5038,9746,(802)685-4551,42,Rural: Distant,†,No,Yes,Yes,131,15,8.7,41,11
500042700345,VT-U077-PS070,5000427,VT-U077,PK,6,Chester Andover Elementary School,Green Mountain Unified School District,Windsor County,72 Main Street,Chester,VT,5143,,(802)875-2108,42,Rural: Distant,†,No,Yes,Yes,292,17.3,16.9,89,27
500039300086,VT-U052-PS071,5000393,VT-U052,PK,6,Clarendon Elementary School,Mill River Unified School District,Rutland County,P.O. Box 7,North Clarendon,VT,5759,7,(802)775-5379,32,Town: Distant,†,No,Yes,Yes,169,13.65,12.4,48,22
500324000087,VT-T050-PS072,5003240,VT-T050,9,12,Colchester High School,Colchester School District,Chittenden County,P.O. Box 900,Colchester,VT,5446,31,(802)264-5700,41,Rural: Fringe,†,No,–,–,632,58.3,10.8,126,36
500324000088,VT-T050-PS073,5003240,VT-T050,6,8,Colchester Middle School,Colchester School District,Chittenden County,P.O. Box 30,Colchester,VT,5446,30,(802)264-5800,22,Suburb: Midsize,†,No,–,–,496,40.3,12.3,114,28
500044400089,VT-U088-VC005,5000444,VT-U088,9,12,Cold Hollow Career Center,Enosburgh-Richford Unified Union School District #88,†,P.O. Box 530,Enosburg Falls,VT,5450,278,(802)933-4003,†,N,†,†,†,†,†,†,†,†,†
500042100427,VT-U064-PS074,5000421,VT-U064,PK,8,Concord Graded/Middle School,Kingdom East Unified Union School District,Essex County,173 School Street,Concord,VT,5824,9801,(802)695-2550,42,Rural: Distant,†,No,Yes,Yes,117,15.8,7.4,58,22
500336000096,VT-T054-PS077,5003360,VT-T054,PK,8,Coventry Village School,Coventry School District,Orleans County,P.O. Box 92,Coventry,VT,5825,92,(802)754-6464,42,Rural: Distant,†,No,Yes,Yes,148,12.35,12,78,21
500339000428,VT-T055-PS078,5003390,VT-T055,PK,12,Craftsbury Schools,Craftsbury School District,Orleans County,P.O. Box 73,Craftsbury Common,VT,5827,,(802)586-2541,43,Rural: Remote,†,No,Yes,Yes,197,20.09,9.8,80,20
500040300146,VT-U060-PS391,5000403,VT-U060,5,8,Crossett Brook Middle School,Harwood Unified School District,Washington County,5672 VT Route 100,Waterbury,VT,5676,,(802)244-6100,41,Rural: Fringe,†,No,Yes,Yes,284,31.5,9,41,16
500041700341,VT-U063-PS079,5000417,VT-U063,PK,5,Currier Memorial Union School,Taconic and Green Regional School District,Rutland County,234 North Main Street,Danby,VT,5739,243,(802)293-5191,43,Rural: Remote,†,No,Yes,Yes,90,9.23,9.8,36,3
500345000451,VT-T057-PS082,5003450,VT-T057,PK,12,Danville School,Danville School District,Caledonia County,143 Peacham Road,Danville,VT,5828,176,(802)684-3651,42,Rural: Distant,†,No,Yes,Yes,375,43.1,8.7,63,52
500348000429,VT-T058-PS084,5003480,VT-T058,PK,6,Derby Elementary School,Derby School District,Orleans County,907 Elm Street,Derby Line,VT,5830,,(802)873-3162,42,Rural: Distant,†,No,Yes,Yes,444,33.5,13.3,182,45
500041700104,VT-U063-PS085,5000417,VT-U063,PK,8,Dorset Elementary School,Taconic and Green Regional School District,Bennington County,130 School Drive,Dorset,VT,5251,9716,(802)362-2606,43,Rural: Remote,†,No,–,–,175,16,10.9,26,19
500459000047,VT-T093-PS378,5004590,VT-T093,PK,5,Dothan Brook School,Hartford School District,Windsor County,2300 Christian Street,White River Junction,VT,5001,2314,(802)295-8647,41,Rural: Fringe,†,No,Yes,No,267,22.53,11.9,51,24
500043900396,VT-U092-PS357,5000439,VT-U092,PK,6,Doty Memorial School,Washington Central Unified Union School District #92,†,P.O. Box 162,Worcester,VT,5682,162,(802)223-5656,†,N,†,†,†,†,†,†,†,†,†
500044700105,VT-U073-PS086,5000447,VT-U073,PK,6,Dover Elementary School,River Valleys Unified School District #73,†,9 Schoolhouse Road,East Dover,VT,5341,7701,(802)464-5386,†,N,†,†,†,†,†,†,†,†,†
500043100430,VT-U096-PS087,5000431,VT-U096,PK,8,Dummerston Schools,Windham Southeast Unified Union School District #96,†,52 Schoolhouse Road,East Dummerston,VT,5346,9669,(802)254-2733,†,N,†,†,†,†,†,†,†,†,†
500043900110,VT-U092-PS091,5000439,VT-U092,PK,6,East Montpelier Elementary School,Washington Central Unified Union School District #92,†,665 Vincent Flats Road,East Montpelier,VT,5651,190,(802)223-7936,†,N,†,†,†,†,†,†,†,†,†
500040100111,VT-U058A-PS093,5000401,VT-U058A,PK,6,Eden Central School,Lamoille North Modified USD #058A,Lamoille County,P.O. Box 29,Eden,VT,5652,29,(802)635-6630,42,Rural: Distant,†,No,Yes,Yes,150,14.8,10.1,61,25
500282000071,VT-T037-PS094,5002820,VT-T037,PK,5,Edmunds Elementary School,Burlington School District,Chittenden County,299 Main Street,Burlington,VT,5401,8323,(802)864-8473,13,City: Small,†,No,Yes,Yes,295,25,11.8,133,20
500282000066,VT-T037-PS095,5002820,VT-T037,6,8,Edmunds Middle School,Burlington School District,Chittenden County,275 Main Street,Burlington,VT,5401,8323,(802)864-8486,13,City: Small,†,No,Yes,Yes,407,37.17,10.9,132,32
500753000299,VT-T193-PS277,5007530,VT-T193,PK,2,Elm Hill School,Springfield School District,Windsor County,10 Hoover Street,Springfield,VT,5156,2425,(802)885-5154,41,Rural: Fringe,†,No,Yes,Yes,360,25,14.4,123,24
500044400113,VT-U088-PS096,5000444,VT-U088,PK,5,Enosburg Falls Elementary School,Enosburgh-Richford Unified Union School District #88,†,P.O. Box 510,Enosburg Falls,VT,5450,158,(802)933-2171,†,N,†,†,†,†,†,†,†,†,†
500044400022,VT-U088-PS098,5000444,VT-U088,6,12,Enosburg Falls Junior/Senior High School,Enosburgh-Richford Unified Union School District #88,†,P.O. Box 417,Enosburg Falls,VT,5450,417,(802)933-7777,†,N,†,†,†,†,†,†,†,†,†
500039500123,VT-U051-PS099,5000395,VT-U051,PK,2,Essex Elementary School,Essex-Westford Educational Community Unified School District,Chittenden County,1 Bixby Hill Road,Essex Junction,VT,5452,2212,(802)878-2584,41,Rural: Fringe,†,No,Yes,No,536,36.6,14.6,77,11
500039500120,VT-U051-PS388,5000395,VT-U051,9,12,Essex High School,Essex-Westford Educational Community Unified School District,Chittenden County,2 Educational Drive,Essex Junction,VT,5452,3167,(802)879-7121,22,Suburb: Midsize,†,No,–,–,1248,101.8,12.3,166,60
500039500121,VT-U051-PS101,5000395,VT-U051,6,8,Essex Middle School,Essex-Westford Educational Community Unified School District,Chittenden County,60 Founders Road,Essex Junction,VT,5452,3366,(802)879-7173,22,Suburb: Midsize,†,No,Yes,No,421,36,11.7,67,14
500044000126,VT-U062-PS103,5000440,VT-U062,PK,8,Fair Haven Grade School,Slate Valley Unified Union School District #62,†,103 North Main Street,Fair Haven,VT,5743,1199,(802)265-3883,†,N,†,†,†,†,†,†,†,†,†
500044000127,VT-U062-PS104,5000440,VT-U062,9,12,Fair Haven Union High School,Slate Valley Unified Union School District #62,†,33 Mechanic Street,Fair Haven,VT,5743,1048,(802)265-4966,†,N,†,†,†,†,†,†,†,†,†
500039900432,VT-U057-PS105,5000399,VT-U057,PK,8,Fairfield Center School,Maple Run Unified School District,Franklin County,57 Park Street,Fairfield,VT,5455,,(802)827-6639,42,Rural: Distant,†,No,Yes,Yes,260,23,11.3,42,28
500040300132,VT-U060-PS107,5000403,VT-U060,PK,6,Fayston Elementary School,Harwood Unified School District,Washington County,782 German Flats Road,Fayston,VT,5673,9606,(802)496-3636,42,Rural: Distant,†,No,–,–,96,9.35,10.3,9,3
500039800133,VT-U054-PS108,5000398,VT-U054,PK,6,Ferrisburgh Central School,Addison Northwest Unified School District,Addison County,56 Little Chicago Road,Ferrisburgh,VT,5456,,(802)877-3463,41,Rural: Fringe,†,No,Yes,No,157,15.7,10,26,11
500183000006,VT-T005-PS109,5001830,VT-T005,PK,5,Fisher School,Arlington School District,Bennington County,504 East Arlington Road,Arlington,VT,5250,,(802)375-6409,42,Rural: Distant,†,No,Yes,Yes,201,17.5,11.5,71,21
500408000134,VT-T077-PS110,5004080,VT-T077,PK,6,Fletcher Elementary School,Fletcher School District,Franklin County,340 School Road,Cambridge,VT,5444,9506,(802)849-6251,42,Rural: Distant,†,No,Yes,Yes,119,10,11.9,11,15
500041700337,VT-U063-PS111,5000417,VT-U063,PK,8,Flood Brook School,Taconic and Green Regional School District,Windham County,91 VT Route 11,Londonderry,VT,5148,547,(802)824-6811,43,Rural: Remote,†,No,–,–,325,28.93,11.2,62,21
500750000296,VT-T192-PS112,5007500,VT-T192,PK,8,Folsum Education & Community Center,South Hero School District,Grand Isle County,75 South Street,South Hero,VT,5486,4913,(802)372-6600,42,Rural: Distant,†,No,Yes,Yes,129,15.8,8.2,40,0
500039500403,VT-U051-PS113,5000395,VT-U051,3,5,Founders Memorial School,Essex-Westford Educational Community Unified School District,Chittenden County,33 Founders Road,Essex Junction,VT,5452,3390,(802)879-6326,22,Suburb: Midsize,†,No,Yes,No,419,34.7,12.1,77,18
500043300135,VT-U089-PS115,5000433,VT-U089,PK,6,Franklin Central School,Missisquoi Valley School District #89,†,P.O. Box 146,Franklin,VT,5457,146,(802)285-2100,†,N,†,†,†,†,†,†,†,†,†
500747000295,VT-T191-PS273,5007470,VT-T191,6,8,Frederick H. Tuttle Middle School,South Burlington School District,Chittenden County,550 Dorset Street,South Burlington,VT,5403,6233,(802)652-7100,13,City: Small,†,No,Yes,Yes,569,47.65,11.9,98,29
500414000136,VT-T079-PS117,5004140,VT-T079,PK,8,Georgia Elementary & Middle School,Georgia School District,Franklin County,4416 Ethan Allen Highway,Saint Albans,VT,5478,,(802)524-6358,41,Rural: Fringe,†,No,–,–,682,52.5,13,75,62
500043600137,VT-U093-PS118,5000436,VT-U093,PK,8,Glover Village School,Lake Region Union Elementary Middle School District,†,100 School Street,Glover,VT,5839,,(802)525-6958,†,N,†,†,†,†,†,†,†,†,†
500044600138,VT-U095-PS120,5000446,VT-U095,PK,6,Grafton Elementary School,Windham Northeast Union Elementary School District #95,†,P.O. Box 226,Grafton,VT,5146,,(802)843-2495,†,N,†,†,†,†,†,†,†,†,†
500043500140,VT-U066-PS122,5000435,VT-U066,PK,6,Grand Isle Elementary School,Champlain Islands Unified Union School District #66,†,224 U.S. Route 2,Grand Isle,VT,5458,2300,(802)372-6913,†,N,†,†,†,†,†,†,†,†,†
500039700106,VT-U058B-VC008,5000397,VT-U058B,9,12,Green Mountain Technology and Career Center,Lamoille North Modified USD #058B,Lamoille County,736 VT Route 15 West,Hyde Park,VT,5655,304,(802)888-4447,42,Rural: Distant,†,No,†,†,0,17,†,0,0
500042700348,VT-U077-PS124,5000427,VT-U077,7,12,Green Mountain Union High School,Green Mountain Unified School District,Windsor County,716 VT Route 103 South,Chester,VT,5143,9118,(802)875-2146,42,Rural: Distant,†,No,Yes,No,318,27.26,11.7,102,18
500043100061,VT-U096-PS385,5000431,VT-U096,PK,6,Green Street School,Windham Southeast Unified Union School District #96,†,164 Green Street,Brattleboro,VT,5301,3053,(802)254-3737,†,N,†,†,†,†,†,†,†,†,†
500043100144,VT-U096-PS128,5000431,VT-U096,PK,6,Guilford Central School,Windham Southeast Unified Union School District #96,†,374 School Road,Guilford,VT,5301,9803,(802)254-2271,†,N,†,†,†,†,†,†,†,†,†
500042000145,VT-U074-PS129,5000420,VT-U074,PK,8,Halifax West School,Southern Valley Unified School District,Windham County,246 Branch Road,West Halifax,VT,5358,,(802)368-2888,42,Rural: Distant,†,No,Yes,Yes,68,5.6,12.1,18,12
500043800147,VT-U094-PS131,5000438,VT-U094,PK,6,Hardwick Elementary School,Orleans Southwest Union Elementary School District #94,†,P.O. Box 515,Hardwick,VT,5843,,(802)472-5411,†,N,†,†,†,†,†,†,†,†,†
500459000093,VT-T093-VC007,5004590,VT-T093,9,12,Hartford Area Career & Technology Center,Hartford School District,Windsor County,1 Gifford Road,White River Junction,VT,5001,,(802)295-8630,33,Town: Remote,†,No,†,†,0,18.9,†,0,0
500459000151,VT-T093-PS134,5004590,VT-T093,9,12,Hartford High School,Hartford School District,Windsor County,37 Highland Avenue,White River Junction,VT,5001,1715,(802)295-8610,33,Town: Remote,†,No,–,–,477,52.06,9.2,117,26
500459000150,VT-T093-PS135,5004590,VT-T093,6,8,Hartford Memorial Middle School,Hartford School District,Windsor County,245 Highland Avenue,White River Junction,VT,5001,1715,(802)295-8640,33,Town: Remote,†,No,–,–,315,32,9.8,96,16
500462000155,VT-T094-PS137,5004620,VT-T094,PK,8,Hartland Elementary School,Hartland School District,Windsor County,97 Martinsville Road,Hartland,VT,5048,,(802)436-2255,42,Rural: Distant,†,No,Yes,Yes,285,23.05,12.4,82,45
500040300148,VT-U060-PS138,5000403,VT-U060,7,12,Harwood Union Middle/High School,Harwood Unified School District,Washington County,458 VT Route 100,Moretown,VT,5660,9404,(802)244-5186,42,Rural: Distant,†,No,Yes,Yes,472,53.94,8.8,76,30
500824300343,VT-U026-PS139,5008243,VT-U026,7,12,Hazen UHSD # 26,Hazen UHSD #26,Caledonia County,P.O. Box 368,Hardwick,VT,5843,,(802)472-6511,43,Rural: Remote,†,No,Yes,Yes,283,31.3,9,125,43
500039500117,VT-U051-PS141,5000395,VT-U051,PK,3,Hiawatha School,Essex-Westford Educational Community Unified School District,Chittenden County,34 Hiawatha Avenue,Essex Junction,VT,5452,4600,(802)878-1384,22,Suburb: Midsize,†,No,Yes,No,207,18.8,11,35,8
500043300434,VT-U089-PS142,5000433,VT-U089,PK,6,Highgate School,Missisquoi Valley School District #89,†,P.O. Box 163,Highgate Center,VT,5459,,(802)868-4170,†,N,†,†,†,†,†,†,†,†,†
500039600158,VT-U056-PS143,5000396,VT-U056,PK,8,Hinesburg Elementary School,Champlain Valley Unified School District,Chittenden County,10888 Route 116,Hinesburg,VT,5461,9725,(802)482-2106,42,Rural: Distant,†,No,Yes,No,593,33.7,17.6,73,19
500040100161,VT-U058A-PS145,5000401,VT-U058A,PK,6,Hyde Park Elementary School,Lamoille North Modified USD #058A,Lamoille County,50 East Main Street,Hyde Park,VT,5655,9767,(802)888-2237,42,Rural: Distant,†,No,Yes,Yes,237,24.5,9.7,79,23
500282000073,VT-T037-PS337,5002820,VT-T037,PK,5,Integrated Arts Academy at H. O. Wheeler,Burlington School District,Chittenden County,6 Archibald Street,Burlington,VT,5401,4220,(802)864-8475,13,City: Small,†,Yes,Yes,Yes,291,28.5,10.2,140,29
500043600163,VT-U093-PS147,5000436,VT-U093,PK,8,Irasburg Village School,Lake Region Union Elementary Middle School District,†,292 Route 58 East,Irasburg,VT,5845,70,(802)754-8810,†,N,†,†,†,†,†,†,†,†,†
500043500164,VT-U066-PS148,5000435,VT-U066,PK,6,Isle La Motte Elementary School,Champlain Islands Unified Union School District #66,†,534 School Street,Isle La Motte,VT,5463,,(802)928-3231,†,N,†,†,†,†,†,†,†,†,†
500936000388,VT-T249-PS154,5009360,VT-T249,PK,5,J. F. Kennedy Elementary School,Winooski School District,Chittenden County,70 Normand Street,Winooski,VT,5404,1393,(802)655-0411,22,Suburb: Midsize,†,No,Yes,Yes,486,42.86,11.3,233,6
500282000068,VT-T037-PS155,5002820,VT-T037,PK,5,J. J. Flynn School,Burlington School District,Chittenden County,1645 North Avenue,Burlington,VT,5401,1307,(802)864-8478,13,City: Small,†,No,Yes,Yes,340,28.1,12.1,137,53
500044900165,VT-U072A-PS149,5000449,VT-U072A,PK,5,Jamaica Village School,West River Valley Modified Union Education District #72A,†,P.O. Box 488,Jamaica,VT,5343,488,(802)874-4822,†,N,†,†,†,†,†,†,†,†,†
500496000015,VT-J105-PS374,5004960,VT-J105,PK,6,Jay/Westfield Joint Elementary School,Jay/Westfield Joint Elementary School District,Orleans County,257 Revoir Flats Road,Jay,VT,5859,9604,(802)988-4042,42,Rural: Distant,†,No,Yes,Yes,85,7.5,11.3,35,2
500044300167,VT-U401-PS152,5000443,VT-U401,PK,4,Jericho Elementary School,Mount Mansfield Unified Union School District #401,†,90 VT Route 15,Jericho,VT,5465,9423,(802)899-2272,†,N,†,†,†,†,†,†,†,†,†
500040100168,VT-U058A-PS153,5000401,VT-U058A,PK,6,Johnson Elementary School,Lamoille North Modified USD #058A,Lamoille County,57 College Hill,Johnson,VT,5656,9407,(802)635-2211,42,Rural: Distant,†,No,Yes,Yes,264,23,11.5,91,50
500042800287,VT-U076A-PS267,5000428,VT-U076A,PK,6,Killington Elementary School,Windsor Central Modified Unified Union School District #76A,Rutland County,686 Schoolhouse Road,Killington,VT,5751,9801,(802)422-3366,42,Rural: Distant,†,No,Yes,Yes,98,8.44,11.6,16,9
500044800112,VT-U090-PS156,5000448,VT-U090,1,3,Lake Elmore School,Lamoille South Unified Union School District #90,†,P.O. Box 122,Lake Elmore,VT,5657,,(802)888-2966,†,N,†,†,†,†,†,†,†,†,†
500505000170,VT-U024-PS157,5005050,VT-U024,9,12,Lake Region UHSD #24,Lake Region UHSD #24,Orleans County,317 Lake Region Road,Orleans,VT,5860,9604,(802)754-6521,42,Rural: Distant,†,No,Yes,Yes,364,32.5,11.2,146,47
500043800461,VT-U094-PS126,5000438,VT-U094,PK,6,Lakeview USD #43,Orleans Southwest Union Elementary School District #94,†,189 Lauredon Avenue,Greensboro,VT,5841,,(802)533-7066,†,N,†,†,†,†,†,†,†,†,†
500039700171,VT-U058B-PS158,5000397,VT-U058B,9,12,Lamoille Union High School,Lamoille North Modified USD #058B,Lamoille County,736 VT Route 15 West,Hyde Park,VT,5655,304,(802)888-4261,42,Rural: Distant,†,No,Yes,Yes,481,46.2,10.4,179,68
500039700198,VT-U058B-PS404,5000397,VT-U058B,7,8,Lamoille Union Middle School,Lamoille North Modified USD #058B,Lamoille County,736 VT Route 15 West,Hyde Park,VT,5655,304,(802)851-1300,42,Rural: Distant,†,No,Yes,Yes,257,28.6,9,97,35
500043200173,VT-U072B-PS161,5000432,VT-U072B,6,12,Leland & Gray Union Middle & High School,West River Valley Modified Union Education District #72B,†,P.O. Box 128,Townshend,VT,5353,128,(802)365-7355,†,N,†,†,†,†,†,†,†,†,†
500042500174,VT-U061-PS162,5000425,VT-U061,PK,6,Lincoln Community School,Mt. Abraham Unified School District,Addison County,795 East River Road,Lincoln,VT,5443,,(802)453-2119,42,Rural: Distant,†,No,–,–,130,8,16.3,16,14
500039200239,VT-U053-PS165,5000392,VT-U053,PK,6,Lothrop School,Otter Valley Unified Union School District #53,Rutland County,3447 U.S. Route 7,Pittsford,VT,5763,9721,(802)483-2242,42,Rural: Distant,†,No,Yes,Yes,204,15.93,12.8,60,15
500522000175,VT-T114-PS166,5005220,VT-T114,PK,8,Lowell Village School,Lowell School District,Orleans County,52 Gelo Park Road,Lowell,VT,5847,9714,(802)744-6641,43,Rural: Remote,†,No,Yes,Yes,109,8.95,12.2,53,16
500042200176,VT-U083-PS167,5000422,VT-U083,PK,6,Ludlow Elementary School,Ludlow Mt. Holly Unified Union School District,Windsor County,45 Main Street,Ludlow,VT,5149,1105,(802)228-5151,42,Rural: Distant,†,No,Yes,Yes,109,10.5,10.4,40,9
500042100435,VT-U064-PS168,5000421,VT-U064,PK,8,Lunenburg & Gilman Schools,Kingdom East Unified Union School District,Essex County,P.O. Box 97,Gilman,VT,5904,97,(802)892-5969,42,Rural: Distant,†,No,Yes,Yes,144,12.75,11.3,128,3
500282000070,VT-T037-PS169,5002820,VT-T037,6,8,Lyman C. Hunt Middle School,Burlington School District,Chittenden County,1364 North Avenue,Burlington,VT,5401,2420,(802)864-8469,13,City: Small,†,No,Yes,Yes,409,38.12,10.7,149,53
500042100436,VT-U064-PS170,5000421,VT-U064,PK,8,Lyndon Town School,Kingdom East Unified Union School District,Caledonia County,2591 Lily Pond Road,Lyndonville,VT,5851,9728,(802)626-3209,41,Rural: Fringe,†,No,Yes,Yes,534,57.3,9.3,246,0
500041000200,VT-U071-PS173,5000410,VT-U071,5,8,Main Street School,Montpelier Roxbury Unified Union School District,Washington County,170 Main Street,Montpelier,VT,5602,2429,(802)223-3404,32,Town: Distant,†,No,Yes,No,366,30.75,11.9,38,21
500324000090,VT-T050-PS174,5003240,VT-T050,3,5,Malletts Bay School,Colchester School District,Chittenden County,P.O. Box 28,Colchester,VT,5446,28,(802)264-5900,22,Suburb: Midsize,†,No,Yes,No,483,33.4,14.5,123,36
500041700185,VT-U063-PS175,5000417,VT-U063,PK,8,Manchester Elementary/Middle School,Taconic and Green Regional School District,Bennington County,P.O. Box 1526,Manchester Center,VT,5255,1526,(802)362-1597,43,Rural: Remote,†,No,Yes,Yes,420,34.7,12.1,136,37
500618000230,VT-T145-PS176,5006180,VT-T145,PK,6,Marion W. Cross School,Norwich School District,Windsor County,22 Church Street,Norwich,VT,5055,,(802)649-1703,41,Rural: Fringe,†,No,Yes,No,318,26.3,12.1,13,0
500540000186,VT-T120-PS177,5005400,VT-T120,PK,8,Marlboro Elementary School,Marlboro School District,Windham County,P.O. Box D,Marlboro,VT,5344,,(802)254-2668,42,Rural: Distant,†,No,Yes,Yes,97,8.78,11,24,15
500041900177,VT-U084-PS392,5000419,VT-U084,PK,6,Mettawee Community School,Mettawee School District,Rutland County,5788 VT Route 153,West Pawlet,VT,5775,,(802)645-9009,41,Rural: Fringe,†,No,Yes,Yes,189,15.4,12.3,67,9
500040200187,VT-U055-PS179,5000402,VT-U055,PK,6,Middlebury ID #4 School,Addison Central Unified School District,Addison County,201 Mary Hogan Drive,Middlebury,VT,5753,1454,(802)388-4421,32,Town: Distant,†,No,Yes,Yes,538,37.2,14.5,150,36
500040200189,VT-U055-PS180,5000402,VT-U055,9,12,Middlebury Union High School,Addison Central Unified School District,Addison County,73 Charles Avenue,Middlebury,VT,5753,,(802)382-1500,32,Town: Distant,†,No,–,–,524,41.1,12.7,69,33
500040200469,VT-U055-PS366,5000402,VT-U055,7,8,Middlebury Union Middle School,Addison Central Unified School District,Addison County,48 Deerfield Lane,Middlebury,VT,5753,,(802)382-1600,41,Rural: Fringe,†,No,–,–,271,24.3,11.2,70,20
500040900191,VT-U069-PS182,5000409,VT-U069,PK,6,Middletown Springs Elementary School,Wells Spring Unified Union School District,Rutland County,P.O. Box 1267,Middletown Springs,VT,5757,,(802)235-2365,42,Rural: Distant,†,No,Yes,Yes,66,7.8,8.5,22,12
500039300344,VT-U052-PS183,5000393,VT-U052,7,12,Mill River Union High School,Mill River Unified School District,Rutland County,P.O. Box 6,North Clarendon,VT,5759,6,(802)775-1925,41,Rural: Fringe,†,No,Yes,No,429,29.17,14.7,120,30
500042100336,VT-U064-PS184,5000421,VT-U064,PK,8,Millers Run Union High School,Kingdom East Unified Union School District,Caledonia County,3249 VT Route 122,Sheffield,VT,5866,,(802)626-9755,42,Rural: Distant,†,No,Yes,Yes,121,12.8,9.5,69,0
500561000437,VT-T126-PS140,5005610,VT-T126,PK,5,Milton Elementary School,Milton Incorporated School District,Chittenden County,42 Herrick Avenue,Milton,VT,5468,3037,(802)893-5400,31,Town: Fringe,†,No,Yes,Yes,833,64.8,12.9,232,53
500561000193,VT-T126-PS185,5005610,VT-T126,6,8,Milton Middle School,Milton Incorporated School District,Chittenden County,17 Rebecca Lander Drive,Milton,VT,5468,3037,(802)893-5400,31,Town: Fringe,†,No,Yes,Yes,341,34.7,9.8,84,34
500561000125,VT-T126-PS186,5005610,VT-T126,9,12,Milton Senior High School,Milton Incorporated School District,Chittenden County,17 Rebecca Lander Drive,Milton,VT,5468,3037,(802)893-5400,31,Town: Fringe,†,No,Yes,Yes,474,44.5,10.7,95,55
500043300195,VT-U089-PS187,5000433,VT-U089,7,12,Missisquoi Valley Union High School,Missisquoi Valley School District #89,†,100 Thunder Bird Drive,Swanton,VT,5488,9705,(802)868-7311,†,N,†,†,†,†,†,†,†,†,†
500043400031,VT-U087-PS188,5000434,VT-U087,PK,5,Molly Stark School,Southwest Vermont Union Elementary School District #87,†,181 Orchard Street,Bennington,VT,5201,1799,(802)442-2692,†,N,†,†,†,†,†,†,†,†,†
500042500196,VT-U061-PS189,5000425,VT-U061,PK,6,Monkton Central School,Mt. Abraham Unified School District,Addison County,P.O. Box 40,Monkton,VT,5469,40,(802)453-2314,42,Rural: Distant,†,No,–,–,167,9,18.6,22,14
500044100197,VT-U085-PS190,5000441,VT-U085,PK,8,Montgomery Center School,Northern Mountain Valley Unified Union School District #85,†,249 School Drive,Montgomery Center,VT,5471,9722,(802)326-4618,†,N,†,†,†,†,†,†,†,†,†
500041000199,VT-U071-PS191,5000410,VT-U071,9,12,Montpelier High School,Montpelier Roxbury Unified Union School District,Washington County,5 High School Drive,Montpelier,VT,5602,3344,(802)225-8000,32,Town: Distant,†,No,Yes,No,315,32.55,9.7,37,15
500043400032,VT-U087-PS192,5000434,VT-U087,PK,5,Monument School,Southwest Vermont Union Elementary School District #87,†,66 Main Street,Bennington,VT,5201,2193,(802)447-7979,†,N,†,†,†,†,†,†,†,†,†
500040300202,VT-U060-PS193,5000403,VT-U060,PK,6,Moretown Elementary School,Harwood Unified School District,Washington County,940 Route 100B,Moretown,VT,5660,9722,(802)496-3742,42,Rural: Distant,†,No,–,–,162,12.5,13,25,12
500044800438,VT-U090-PS194,5000448,VT-U090,PK,4,Morristown Elementary School,Lamoille South Unified Union School District #90,†,548 Park Street,Morrisville,VT,5661,9768,(802)888-3101,†,N,†,†,†,†,†,†,†,†,†
500044300210,VT-U401-PS199,5000443,VT-U401,9,12,Mt Mansfield Union High School,Mount Mansfield Unified Union School District #401,†,211 Browns Trace Road,Jericho,VT,5465,9498,(802)899-4690,†,N,†,†,†,†,†,†,†,†,†
500042500338,VT-U061-PS195,5000425,VT-U061,7,12,Mt. Abraham Union High School #61,Mt. Abraham Unified School District,Addison County,220 Airport Drive,Bristol,VT,5443,1201,(802)453-2333,42,Rural: Distant,†,No,Yes,No,627,55.62,11.3,115,73
500581000208,VT-U014-PS196,5005810,VT-U014,9,12,Mt. Anthony Senior UHSD #14,Mount Anthony UHSD #14,Bennington County,301 Park Street Extension,Bennington,VT,5201,2570,(802)447-7511,32,Town: Distant,†,No,Yes,Yes,860,69.97,12.3,580,26
500581000463,VT-U014-PS197,5005810,VT-U014,6,8,Mt. Anthony Union Middle School,Mount Anthony UHSD #14,Bennington County,747 East Road,Bennington,VT,5201,2140,(802)447-7541,41,Rural: Fringe,†,No,Yes,Yes,595,39,15.3,380,20
500042200209,VT-U083-PS198,5000422,VT-U083,PK,6,Mt. Holly School,Ludlow Mt. Holly Unified Union School District,Rutland County,P.O. Box 45,Mount Holly,VT,5758,45,(802)259-2392,42,Rural: Distant,†,No,Yes,Yes,111,9,12.3,36,12
500039200411,VT-U053-PS200,5000392,VT-U053,PK,6,Neshobe School,Otter Valley Unified Union School District #53,Rutland County,17 Neshobe Circle,Brandon,VT,5733,9312,(802)247-3721,43,Rural: Remote,†,No,Yes,Yes,415,26.75,15.5,140,52
500042100212,VT-U064-PS201,5000421,VT-U064,PK,8,Newark School,Kingdom East Unified Union School District,Caledonia County,1448 Newark Street,Newark,VT,5871,,(802)467-3401,42,Rural: Distant,†,No,Yes,Yes,59,8.4,7,31,0
500044900537,VT-U072A-PS408,5000449,VT-U072A,PK,5,Newbrook Elementary School,West River Valley Modified Union Education District #72A,†,14 School Road,Newfane,VT,5345,9700,(802)365-7536,†,N,†,†,†,†,†,†,†,†,†
500043700213,VT-U091-PS202,5000437,VT-U091,PK,6,Newbury Elementary School,Oxbow Unified Union School District #91,†,P.O. Box 68,Newbury,VT,5051,68,(802)866-5621,†,N,†,†,†,†,†,†,†,†,†
500600000439,VT-T139-PS204,5006000,VT-T139,PK,6,Newport City Elementary School,Newport City School District,Orleans County,166 Sias Avenue,Newport,VT,5855,1699,(802)334-2455,33,Town: Remote,†,No,Yes,Yes,367,29.3,12.5,234,44
500603000218,VT-T140-PS205,5006030,VT-T140,PK,6,Newport Town School,Newport Town School District,Orleans County,4212 VT Route 105,Newport Center,VT,5857,,(802)334-5201,42,Rural: Distant,†,No,Yes,Yes,98,10.2,9.6,46,16
500783000320,VT-T199-PS206,5007830,VT-T199,PK,8,Newton Elementary School,Strafford School District,Orange County,P.O. Box 239,South Strafford,VT,5070,,(802)765-4351,42,Rural: Distant,†,No,Yes,Yes,105,9.3,11.3,25,6
500960000107,VT-U022B-VC010,5009600,VT-U022B,9,12,North Country Career Center,North Country Senior UHSD #22,Orleans County,209 Veterans Avenue,Newport,VT,5855,,(802)334-5469,33,Town: Remote,†,No,†,†,0,18.5,†,0,0
500957000470,VT-U022A-PS364,5009570,VT-U022A,7,8,North Country Junior UHSD #22,North Country Junior UHSD #22,Orleans County,57 Junior High Drive,Derby,VT,5829,9709,(802)766-2276,42,Rural: Distant,†,No,Yes,Yes,253,23.8,10.6,118,22
500960000220,VT-U022B-PS208,5009600,VT-U022B,9,12,North Country Senior UHSD #22,North Country Senior UHSD #22,Orleans County,P.O. Box 725,Newport,VT,5855,,(802)334-7921,33,Town: Remote,†,No,Yes,Yes,680,47.5,14.3,255,60
500043500221,VT-U066-PS209,5000435,VT-U066,PK,6,North Hero Elementary School,Champlain Islands Unified Union School District #66,†,6441 U.S. Route 2,North Hero,VT,5474,9412,(802)372-8866,†,N,†,†,†,†,†,†,†,†,†
500040800440,VT-U068-PS210,5000408,VT-U068,PK,5,Northfield Elementary School,Paine Mountain School District,Washington County,10 Cross Street,Northfield,VT,5663,1397,(802)485-6161,32,Town: Distant,†,No,Yes,Yes,307,18,17.1,88,0
500040800227,VT-U068-PS211,5000408,VT-U068,6,12,Northfield Middle/High School,Paine Mountain School District,Washington County,37 Cross Street Unit 2+3,Northfield,VT,5663,1317,(802)485-4500,32,Town: Distant,†,No,–,–,285,24,11.9,83,0
500039900215,VT-U057-VC003,5000399,VT-U057,9,12,Northwest Technical Center,Maple Run Unified School District,Franklin County,71 South Main Street,Saint Albans,VT,5478,,(802)527-6517,32,Town: Distant,†,No,†,†,0,16,†,0,0
500043000551,VT-U067-PS215,5000430,VT-U067,5,8,Orange Center School,Echo Valley Community School District,Orange County,357 U.S. Route 302,East Barre,VT,5649,7802,(802)476-3278,41,Rural: Fringe,†,No,Yes,Yes,79,6.9,11.4,39,0
500747000292,VT-T191-PS216,5007470,VT-T191,PK,5,Orchard School,South Burlington School District,Chittenden County,2 Baldwin Avenue,South Burlington,VT,5403,7316,(802)652-7300,13,City: Small,†,No,Yes,Yes,483,34.6,14,58,23
500043600232,VT-U093-PS217,5000436,VT-U093,PK,8,Orleans Elementary School,Lake Region Union Elementary Middle School District,†,53 School Street,Orleans,VT,5860,1222,(802)754-6650,†,N,†,†,†,†,†,†,†,†,†
500044000233,VT-U062-PS218,5000440,VT-U062,PK,8,Orwell Village School,Slate Valley Unified Union School District #62,†,494 Main Street,Orwell,VT,5760,,(802)948-2871,†,N,†,†,†,†,†,†,†,†,†
500459000062,VT-T093-PS380,5004590,VT-T093,PK,5,Ottauquechee School,Hartford School District,Windsor County,P.O. Box 353,Quechee,VT,5059,353,(802)295-8654,41,Rural: Fringe,†,No,Yes,No,228,21.19,10.8,60,5
500039200544,VT-U053-PS418,5000392,VT-U053,PK,6,Otter Creek Academy at Leicester Sudbury and Whiting,Otter Valley Unified Union School District #53,Addison County,87 South Main Street,Whiting,VT,5778,4019,(802)623-7991,42,Rural: Distant,†,No,Yes,Yes,110,8.3,13.3,46,17
500039200234,VT-U053-PS219,5000392,VT-U053,7,12,Otter Valley Union High School,Otter Valley Unified Union School District #53,Rutland County,2997 Franklin Street,Brandon,VT,5733,9713,(802)247-6833,42,Rural: Distant,†,No,Yes,No,552,38.75,14.2,170,37
500043709272,VT-U091-PS220,5000437,VT-U091,7,12,Oxbow Union High School,Oxbow Unified Union School District #91,†,36 Oxbow Drive,Bradford,VT,5033,9731,(802)222-5214,†,N,†,†,†,†,†,†,†,†,†
500002100099,VT-TE001-VC001,5000021,VT-TE001,9,12,Patricia A. Hannaford Career Center,Patricia Hannaford Career Center School District,Addison County,51 Charles Avenue,Middlebury,VT,5753,,(802)382-1012,32,Town: Distant,†,No,†,†,0,17.68,†,0,0
500639000237,VT-T151-PS223,5006390,VT-T151,PK,6,Peacham Elementary School,Peacham School District,Caledonia County,P.O. Box 271,Peacham,VT,5862,271,(802)592-3513,42,Rural: Distant,†,No,Yes,Yes,66,8.93,7.4,6,4
500044800207,VT-U090-PS224,5000448,VT-U090,9,12,Peoples Academy,Lamoille South Unified Union School District #90,†,202 Copley Avenue,Morrisville,VT,5661,9205,(802)888-4600,†,N,†,†,†,†,†,†,†,†,†
500044800157,VT-U090-PS394,5000448,VT-U090,5,8,Peoples Academy Middle School,Lamoille South Unified Union School District #90,†,202 Copley Avenue,Morrisville,VT,5661,,(802)888-1401,†,N,†,†,†,†,†,†,†,†,†
500324000091,VT-T050-PS227,5003240,VT-T050,PK,2,Porters Point School,Colchester School District,Chittenden County,P.O. Box 32,Colchester,VT,5446,32,(802)264-5920,22,Suburb: Midsize,†,No,Yes,No,492,19.55,25.2,86,17
500041100244,VT-U070-PS229,5000411,VT-U070,PK,6,Poultney Elementary School,Quarry Valley Unified Union School District #70,Rutland County,96 School Circle,Poultney,VT,5764,,(802)287-5212,42,Rural: Distant,†,No,Yes,Yes,256,17.6,14.5,88,9
500041100245,VT-U070-PS230,5000411,VT-U070,7,12,Poultney High School,Quarry Valley Unified Union School District #70,Rutland County,154 East Main Street,Poultney,VT,5764,1198,(802)287-5861,42,Rural: Distant,†,No,Yes,Yes,195,22.5,8.7,56,19
500043400246,VT-U087-PS231,5000434,VT-U087,PK,6,Pownal Elementary School,Southwest Vermont Union Elementary School District #87,†,94 Schoolhouse Road,Pownal,VT,5261,9716,(802)823-7333,†,N,†,†,†,†,†,†,†,†,†
500041100247,VT-U070-PS232,5000411,VT-U070,PK,6,Proctor Elementary School,Quarry Valley Unified Union School District #70,Rutland County,14 School Street,Proctor,VT,5765,1180,(802)459-2225,42,Rural: Distant,†,No,Yes,Yes,164,18.45,8.9,53,17
500041100248,VT-U070-PS233,5000411,VT-U070,7,12,Proctor Junior/Senior High School,Quarry Valley Unified Union School District #70,Rutland County,4 Park Street,Proctor,VT,5765,1396,(802)459-3353,41,Rural: Fringe,†,No,Yes,Yes,111,15.5,7.2,32,9
500042800538,VT-U076A-PS409,5000428,VT-U076A,PK,6,Prosper Valley School,Windsor Central Modified Unified Union School District #76A,Windsor County,P.O. Box 130,South Pomfret,VT,5067,130,(802)457-2067,42,Rural: Distant,†,No,Yes,No,77,8.7,8.9,10,8
500043100249,VT-U096-PS234,5000431,VT-U096,PK,8,Putney Central School,Windham Southeast Unified Union School District #96,†,182 Westminster Road,Putney,VT,5346,9331,(802)387-5521,†,N,†,†,†,†,†,†,†,†,†
500040000443,VT-U059-PS359,5000400,VT-U059,PK,6,Randolph Elementary School,Orange Southwest Unified School District,Orange County,40 Ayers Brook Road,Randolph,VT,5060,1106,(802)728-9555,43,Rural: Remote,†,No,Yes,Yes,346,23.95,14.4,112,47
500040000098,VT-U059-VC012,5000400,VT-U059,9,12,Randolph Technical Career Center,Orange Southwest Unified School District,Orange County,17 Forest Street,Randolph,VT,5060,1006,(802)728-9595,43,Rural: Remote,†,No,†,†,0,15,†,0,0
500040000042,VT-U059-PS237,5000400,VT-U059,7,12,Randolph Union High School,Orange Southwest Unified School District,Orange County,15 Forest Street,Randolph,VT,5060,1006,(802)728-3397,43,Rural: Remote,†,No,Yes,Yes,393,31.43,12.5,96,44
500042800253,VT-U076A-PS239,5000428,VT-U076A,PK,3,Reading Elementary School,Windsor Central Modified Unified Union School District #76A,Windsor County,P.O. Box 176,Reading,VT,5062,,(802)484-7230,42,Rural: Distant,†,No,Yes,Yes,53,4.7,11.3,7,2
500042000254,VT-U074-PS240,5000420,VT-U074,PK,8,Readsboro Elementary School,Southern Valley Unified School District,Bennington County,P.O. Box 248,Readsboro,VT,5350,9708,(802)423-7786,42,Rural: Distant,†,No,Yes,Yes,45,6.6,6.8,41,0
500044400255,VT-U088-PS241,5000444,VT-U088,PK,5,Richford Elementary School,Enosburgh-Richford Unified Union School District #88,†,1 Elementary School Road,Richford,VT,5476,9606,(802)848-7453,†,N,†,†,†,†,†,†,†,†,†
500044400256,VT-U088-PS242,5000444,VT-U088,6,12,Richford Junior/Senior High School,Enosburgh-Richford Unified Union School District #88,†,1 Corliss Heights,Richford,VT,5476,901,(802)848-7416,†,N,†,†,†,†,†,†,†,†,†
500044300258,VT-U401-PS243,5000443,VT-U401,PK,4,Richmond Elementary School,Mount Mansfield Unified Union School District #401,†,125 School Street,Richmond,VT,5477,9700,(802)434-2461,†,N,†,†,†,†,†,†,†,†,†
500747000293,VT-T191-PS271,5007470,VT-T191,PK,5,Rick Marcotte Central School,South Burlington School District,Chittenden County,10 Market Street,South Burlington,VT,5403,5779,(802)652-7200,13,City: Small,†,No,–,–,428,31,13.8,28,20
500040200259,VT-U055-PS244,5000402,VT-U055,PK,6,Ripton Elementary School,Addison Central Unified School District,Addison County,753 Lincoln Road,Ripton,VT,5766,,(802)388-2208,42,Rural: Distant,†,No,Yes,No,55,4.6,12,10,4
500002400180,VT-U146-PI004,5000024,VT-U146,7,12,Rivendell Academy,Rivendell Interstate School District,Grafton County,2972 Route 25A,Orford,NH,3777,,(603)353-4321,43,Rural: Remote,†,No,–,–,201,21.81,9.2,56,19
500043700118,VT-U091-VC011,5000437,VT-U091,9,12,River Bend Career & Technical Center,Oxbow Unified Union School District #91,†,36 Oxbow Drive,Bradford,VT,5033,618,(802)222-5212,†,N,†,†,†,†,†,†,†,†,†
500037100097,VT-TE003-VC016,5000371,VT-TE003,9,12,River Valley Technical Center,River Valley Technical Center,Windsor County,307 South Street,Springfield,VT,5156,3226,(802)885-8300,33,Town: Remote,†,No,†,†,0,14.65,†,0,0
500753000298,VT-T193-PS245,5007530,VT-T193,6,8,Riverside School,Springfield School District,Windsor County,13 Fairground Road,Springfield,VT,5156,2198,(802)885-8490,33,Town: Remote,†,No,Yes,Yes,257,27,9.5,97,13
500042500317,VT-U061-PS246,5000425,VT-U061,PK,6,Robinson School,Mt. Abraham Unified School District,Addison County,P.O. Box 10,Starksboro,VT,5487,10,(802)453-2949,42,Rural: Distant,†,No,Yes,Yes,154,9.5,16.2,36,20
500042300549,VT-U081-PS247,5000423,VT-U081,PK,6,Rochester School,Rochester Stockbridge Unified School District,Windsor County,222 South Main Street,Rochester,VT,5767,9679,(802)767-3161,43,Rural: Remote,†,No,Yes,Yes,93,8.47,11,57,8
500041000265,VT-U071-PS250,5000410,VT-U071,PK,4,Roxbury Village School,Montpelier Roxbury Unified Union School District,Washington County,1559 Roxbury Road,Roxbury,VT,5669,,(802)485-7768,42,Rural: Distant,†,No,Yes,No,43,5.4,8,8,0
500043900190,VT-U092-PS181,5000439,VT-U092,PK,6,Rumney School (Middlesex),Washington Central Unified Union School District #92,†,433 Shady Rill Road,Middlesex,VT,5602,8808,(802)223-5429,†,N,†,†,†,†,†,†,†,†,†
500705000075,VT-T173-PS382,5007050,VT-T173,3,6,Rutland Intermediate School,Rutland City School District,Rutland County,63-65 Library Avenue,Rutland,VT,5701,,(802)773-1932,32,Town: Distant,†,No,Yes,Yes,508,53.7,9.5,208,7
500705000468,VT-T173-PS365,5007050,VT-T173,7,8,Rutland Middle School,Rutland City School District,Rutland County,67 Library Avenue,Rutland,VT,5701,,(802)773-1960,32,Town: Distant,†,No,Yes,Yes,273,27.1,10.1,107,7
500705000274,VT-T173-PS255,5007050,VT-T173,PK,2,Rutland Northeast Primary School,Rutland City School District,Rutland County,117 Temple Street,Rutland,VT,5701,3530,(802)773-1940,32,Town: Distant,†,No,Yes,Yes,271,20,13.6,81,0
500705000275,VT-T173-PS256,5007050,VT-T173,PK,2,Rutland Northwest School,Rutland City School District,Rutland County,80 Pierpoint Avenue,Rutland,VT,5701,,(802)773-1946,32,Town: Distant,†,No,Yes,Yes,264,23,11.5,120,3
500705000271,VT-T173-PS253,5007050,VT-T173,9,12,Rutland Senior High School,Rutland City School District,Rutland County,22 Stratton Road,Rutland,VT,5701,3775,(802)773-1955,32,Town: Distant,†,No,Yes,No,814,68.03,12,247,51
500708000279,VT-T174-PS258,5007080,VT-T174,PK,8,Rutland Town Elementary School,Rutland Town School District,Rutland County,1612 Post Road,Rutland Town,VT,5701,9803,(802)775-0566,41,Rural: Fringe,†,No,Yes,Yes,355,33.8,10.5,62,12
500040200445,VT-U055-PS259,5000402,VT-U055,PK,6,Salisbury Community School,Addison Central Unified School District,Addison County,286 Kelly Cross Road,Salisbury,VT,5769,,(802)352-4291,42,Rural: Distant,†,No,Yes,No,106,9.15,11.6,40,10
500002400131,VT-U146-PS106,5000024,VT-U146,PK,6,Samuel Morey Elementary School,Rivendell Interstate School District,Orange County,P.O. Box 66,Fairlee,VT,5045,66,(802)333-9755,43,Rural: Remote,†,No,Yes,No,168,16.25,10.3,47,19
500693000264,VT-T169-PS260,5006930,VT-T169,PK,4,Saxton River Elementary School,Rockingham School District,Windham County,P.O Box 308,Saxtons River,VT,5154,,(802)869-2637,32,Town: Distant,†,No,Yes,Yes,91,10.8,8.4,31,13
500043400282,VT-U087-PS262,5000434,VT-U087,PK,6,Shaftsbury Elementary School,Southwest Vermont Union Elementary School District #87,†,150 Buck Hill Road,Shaftsbury,VT,5262,,(802)442-4373,†,N,†,†,†,†,†,†,†,†,†
500726000283,VT-T184-PS263,5007260,VT-T184,PK,6,Sharon Elementary School,Sharon School District,Windsor County,75 VT Route 132,Sharon,VT,5065,7700,(802)763-7425,42,Rural: Distant,†,No,Yes,Yes,162,10.77,15,58,13
500039600284,VT-U056-PS264,5000396,VT-U056,PK,8,Shelburne Community School,Champlain Valley Unified School District,Chittenden County,345 Harbor Road,Shelburne,VT,5482,,(802)985-3331,22,Suburb: Midsize,†,No,Yes,No,857,51.85,16.5,87,5
500044100286,VT-U085-PS266,5000441,VT-U085,PK,8,Sheldon Elementary School,Northern Mountain Valley Unified Union School District #85,†,78 Poor Farm Road,Sheldon,VT,5483,9710,(802)933-4909,†,N,†,†,†,†,†,†,†,†,†
500040200288,VT-U055-PS268,5000402,VT-U055,PK,6,Shoreham Elementary School,Addison Central Unified School District,Addison County,130 School Road,Shoreham,VT,5770,,(802)897-7181,42,Rural: Distant,†,No,Yes,Yes,102,7,14.6,23,16
500039300446,VT-U052-PS269,5000393,VT-U052,PK,6,Shrewsbury Mountain School,Mill River Unified School District,Rutland County,300 Mountain School Road,Cuttingsville,VT,5738,,(802)492-3435,42,Rural: Distant,†,No,–,–,70,5.85,12,8,4
500044300038,VT-U401-PS270,5000443,VT-U401,PK,4,Smilie Memorial Elementary School,Mount Mansfield Unified Union School District #401,†,2712 Theodore Roosevelt Highwa,Bolton,VT,5676,9801,(802)434-2757,†,N,†,†,†,†,†,†,†,†,†
500747000294,VT-T191-PS272,5007470,VT-T191,9,12,South Burlington High School,South Burlington School District,Chittenden County,550 Dorset Street,South Burlington,VT,5403,6296,(802)652-7000,13,City: Small,†,No,Yes,Yes,913,77.32,11.8,104,35
500042600547,VT-U079-PS274,5000426,VT-U079,PK,5,South Royalton Elementary School,White River Unified School District,Windsor County,223 South Windsor Street,South Royalton,VT,5068,,(802)763-8844,43,Rural: Remote,†,No,Yes,Yes,182,13,14,68,8
500002200103,VT-TE002-VC009,5000022,VT-TE002,9,12,Southwest Vermont Career Development Center,Southwest Vermont Career Development Center,Bennington County,321 Park Street,Bennington,VT,5201,2570,(802)447-0220,32,Town: Distant,†,No,†,†,0,14,†,0,0
500044500419,VT-U097-PS276,5000445,VT-U097,9,12,Spaulding Union High School,Barre Unified Union School District #97,†,155 Ayers Street,Barre,VT,5641,4349,(802)476-4811,†,N,†,†,†,†,†,†,†,†,†
500753000300,VT-T193-PS278,5007530,VT-T193,9,12,Springfield High School,Springfield School District,Windsor County,303 South Street,Springfield,VT,5156,3226,(802)885-7900,33,Town: Remote,†,No,Yes,Yes,362,37,9.8,116,32
500039900304,VT-U057-PS288,5000399,VT-U057,PK,8,St. Albans City Elementary School,Maple Run Unified School District,Franklin County,29 Bellows Street,Saint Albans,VT,5478,1903,(802)527-0565,32,Town: Distant,†,No,Yes,Yes,831,77.5,10.7,453,69
500039900306,VT-U057-PS289,5000399,VT-U057,PK,8,St. Albans Town Educational Center,Maple Run Unified School District,Franklin County,169 South Main Street,Saint Albans,VT,5478,1898,(802)527-7191,32,Town: Distant,†,No,–,–,813,68,12,166,46
500765000181,VT-T179-PS400,5007650,VT-T179,PK,8,St. Johnsbury School,Saint Johnsbury School District,Caledonia County,257 Western Avenue Suite 1,Saint Johnsbury,VT,5819,,(802)748-8912,33,Town: Remote,†,No,Yes,Yes,675,75,9,458,31
500705000094,VT-T173-VC013,5007050,VT-T173,9,12,Stafford Technical Center,Rutland City School District,Rutland County,8 Stratton Road,Rutland,VT,5701,3775,(802)770-1033,32,Town: Distant,†,No,†,†,0,21.87,†,0,0
500768000316,VT-T194-PS284,5007680,VT-T194,PK,8,Stamford Elementary School,Stamford School District,Bennington County,986 Main Road,Stramford,VT,5352,,(802)694-1379,41,Rural: Fringe,†,No,Yes,Yes,96,7.4,13,16,4
500042300408,VT-U081-PS285,5000423,VT-U081,PK,6,Stockbridge Central School,Rochester Stockbridge Unified School District,Windsor County,2933 VT Route 107,Stockbridge,VT,5772,,(802)234-9248,43,Rural: Remote,†,No,Yes,Yes,50,6.57,7.6,12,12
500044800318,VT-U090-PS286,5000448,VT-U090,PK,5,Stowe Elementary School,Lamoille South Unified Union School District #90,†,P.O. Box 760,Stowe,VT,5672,,(802)253-4154,†,N,†,†,†,†,†,†,†,†,†
500044800319,VT-U090-PS287,5000448,VT-U090,6,12,Stowe Middle/High School,Lamoille South Unified Union School District #90,†,413 Barrows Road,Stowe,VT,5672,1314,(802)253-7229,†,N,†,†,†,†,†,†,†,†,†
500039500452,VT-U051-PS292,5000395,VT-U051,PK,3,Summit Street School,Essex-Westford Educational Community Unified School District,Chittenden County,17 Summit Street,Essex Junction,VT,5452,3640,(802)878-1377,22,Suburb: Midsize,†,No,Yes,No,332,19.3,17.2,42,14
500041700321,VT-U063-PS293,5000417,VT-U063,PK,6,Sunderland Elementary School,Taconic and Green Regional School District,Bennington County,98 Bear Ridge Road,Arlington,VT,5250,9802,(802)375-6100,42,Rural: Distant,†,No,–,–,94,9.8,9.6,18,13
500282000069,VT-T037-PS159,5002820,VT-T037,PK,5,Sustainability Academy at Lawrence Barnes,Burlington School District,Chittenden County,123 North Street,Burlington,VT,5401,5126,(802)864-8480,13,City: Small,†,Yes,Yes,Yes,192,19,10.1,98,32
500042100322,VT-U064-PS294,5000421,VT-U064,PK,8,Sutton Village School,Kingdom East Unified Union School District,Caledonia County,95 Underpass Road,Sutton,VT,5867,9739,(802)467-3492,42,Rural: Distant,†,No,Yes,Yes,93,13.38,7,56,0
500043300049,VT-U089-PS295,5000433,VT-U089,PK,6,Swanton Schools,Missisquoi Valley School District #89,†,24 Fourth Street,Swanton,VT,5488,,(802)868-5346,†,N,†,†,†,†,†,†,†,†,†
500040300130,VT-U060-PS390,5000403,VT-U060,PK,4,Thatcher Brook Primary School,Harwood Unified School District,Washington County,47 Stowe Street,Waterbury,VT,5676,,(802)244-7195,32,Town: Distant,†,No,Yes,Yes,439,36,12.2,70,25
500039500122,VT-U051-VC006,5000395,VT-U051,9,12,The Center for Technology - Essex,Essex-Westford Educational Community Unified School District,Chittenden County,3 Educational Drive,Essex Junction,VT,5452,3172,(802)879-5558,22,Suburb: Midsize,†,No,†,†,0,47.4,†,0,0
500801000325,VT-T205-PS298,5008010,VT-T205,PK,6,Thetford Elementary School,Thetford School District,Orange County,P.O. Box 182,Thetford,VT,5074,152,(802)785-2426,42,Rural: Distant,†,No,–,–,249,16.5,15.1,37,9
500039500453,VT-U051-PS299,5000395,VT-U051,4,5,Thomas Fleming School,Essex-Westford Educational Community Unified School District,Chittenden County,9 Prospect Street,Essex Junction,VT,5452,,(802)878-1381,22,Suburb: Midsize,†,No,Yes,No,236,17.9,13.2,41,18
500039300326,VT-U052-PS300,5000393,VT-U052,PK,6,Tinmouth Elementary School,Mill River Unified School District,Rutland County,573 Route 140,Tinmouth,VT,5773,,(802)446-2458,42,Rural: Distant,†,No,Yes,Yes,63,5.59,11.3,31,0
500044900327,VT-U072A-PS301,5000449,VT-U072A,PK,5,Townshend Village School,West River Valley Modified Union Education District #72A,†,P.O. Box 236,Townshend,VT,5353,,(802)365-7506,†,N,†,†,†,†,†,†,†,†,†
500813000328,VT-T209-PS302,5008130,VT-T209,PK,8,Troy School,Troy School District,Orleans County,P.O. Box 110,North Troy,VT,5859,,(802)988-2565,42,Rural: Distant,†,No,Yes,Yes,177,15,11.8,59,26
500042900330,VT-U082-PS303,5000429,VT-U082,PK,8,Tunbridge Central School,First Branch Unified School District,Orange County,P.O. Box 8,Tunbridge,VT,5077,,(802)889-3310,43,Rural: Remote,†,No,Yes,Yes,117,11.04,10.6,36,11
500041800382,VT-U075-PS083,5000418,VT-U075,PK,5,Twin Valley Elementary School,Twin Valley Unified School District,Windham County,360 Route 100 North,Wilmington,VT,5363,9634,(802)464-5177,42,Rural: Distant,†,No,Yes,Yes,222,17.7,12.5,86,44
500041800540,VT-U075-PS411,5000418,VT-U075,6,12,Twin Valley Middle High School,Twin Valley Unified School District,Windham County,4299 VT Route 100,Whitingham,VT,5361,,(802)368-2880,42,Rural: Distant,†,No,Yes,Yes,204,23.1,8.8,68,41
500822500335,VT-U033-PS304,5008225,VT-U033,PK,12,Twinfield USD #33,Twinfield USD #33,Washington County,106 Nasmith Brook Road,Plainfield,VT,5667,9732,(802)426-3213,42,Rural: Distant,†,No,Yes,Yes,340,33,10.3,107,29
500043900339,VT-U092-PS305,5000439,VT-U092,7,12,U-32 Middle & High School,Washington Central Unified Union School District #92,†,930 Gallison Hill Road,Montpelier,VT,5602,,(802)229-0321,†,N,†,†,†,†,†,†,†,†,†
500044300333,VT-U401-PS306,5000443,VT-U401,PK,4,Underhill Central School,Mount Mansfield Unified Union School District #401,†,6 Irish Settlement Road,Underhill Center,VT,5490,9998,(802)899-4676,†,N,†,†,†,†,†,†,†,†,†
500041000201,VT-U071-PS308,5000410,VT-U071,PK,4,Union Elementary School,Montpelier Roxbury Unified Union School District,Washington County,1 Park Avenue,Montpelier,VT,5602,,(802)223-6343,32,Town: Distant,†,No,Yes,No,534,39,13.7,77,18
500324000092,VT-T050-PS309,5003240,VT-T050,PK,2,Union Memorial School,Colchester School District,Chittenden County,P.O. Box 48,Colchester,VT,5446,160,(802)264-5959,22,Suburb: Midsize,†,No,Yes,No,250,18.45,13.6,67,18
500753000303,VT-T193-PS280,5007530,VT-T193,3,5,Union School,Springfield School District,Windsor County,43 Union Street,Springfield,VT,5156,3133,(802)885-5155,41,Rural: Fringe,†,No,Yes,Yes,234,22,10.6,110,14
500039800349,VT-U054-PS311,5000398,VT-U054,PK,6,Vergennes Union Elementary School,Addison Northwest Unified School District,Addison County,43 East Street,Vergennes,VT,5491,1306,(802)877-3761,32,Town: Distant,†,No,Yes,Yes,264,27,9.8,66,18
500039800350,VT-U054-PS312,5000398,VT-U054,7,12,Vergennes Union High School,Addison Northwest Unified School District,Addison County,50 Monkton Road,Vergennes,VT,5491,1337,(802)877-2938,32,Town: Distant,†,No,Yes,No,470,48.15,9.8,112,43
500831000351,VT-T214-PS313,5008310,VT-T214,PK,6,Vernon Elementary School,Vernon School District,Windham County,381 Governor Hunt Road,Vernon,VT,5354,,(802)254-5373,42,Rural: Distant,†,No,–,–,194,13.8,14.1,32,14
500824200340,VT-U036-PS310,5008242,VT-U036,PK,8,Waits River Valley USD #36,Waits River Valley USD #36,Orange County,6 Waits River Valley Road,East Corinth,VT,5040,,(802)439-5534,43,Rural: Remote,†,No,Yes,Yes,246,23,10.7,95,25
500040300353,VT-U060-PS315,5000403,VT-U060,PK,6,Waitsfield Elementary School,Harwood Unified School District,Washington County,3951 Main Street,Waitsfield,VT,5673,9730,(802)496-3643,42,Rural: Distant,†,No,–,–,146,12.15,12,25,5
500041200448,VT-U078-PS316,5000412,VT-U078,PK,8,Walden School,Caledonia Cooperative Unified School District,Caledonia County,135 Cahoon Farm Road,West Danville,VT,5873,9605,(802)563-3000,42,Rural: Distant,†,No,Yes,Yes,77,11.4,6.8,20,13
500039300358,VT-U052-PS317,5000393,VT-U052,PK,6,Wallingford Village School,Mill River Unified School District,Rutland County,126 School Street,Wallingford,VT,5773,,(802)446-2141,42,Rural: Distant,†,No,Yes,Yes,159,10.35,15.4,52,23
500044700359,VT-U073-PS319,5000447,VT-U073,PK,6,Wardsboro Central School,River Valleys Unified School District #73,†,P.O. Box 107,Wardsboro,VT,5355,107,(802)896-6210,†,N,†,†,†,†,†,†,†,†,†
500040300360,VT-U060-PS320,5000403,VT-U060,PK,6,Warren Elementary School,Harwood Unified School District,Washington County,293 School Road,Warren,VT,5674,9614,(802)496-2487,42,Rural: Distant,†,No,Yes,Yes,155,14.05,11,35,9
500043000548,VT-U067-PS322,5000430,VT-U067,PK,4,Washington Village School,Echo Valley Community School District,Orange County,Main Street,Washington,VT,5675,,(802)883-2312,42,Rural: Distant,†,No,Yes,Yes,111,7.5,14.8,53,0
500041200363,VT-U078-PS324,5000412,VT-U078,PK,8,Waterford Elementary School,Caledonia Cooperative Unified School District,Caledonia County,276 Duck Pond Road,Waterford,VT,5819,9111,(802)748-9393,42,Rural: Distant,†,No,Yes,Yes,155,16.05,9.7,28,21
500040100364,VT-U058A-PS325,5000401,VT-U058A,PK,6,Waterville Elementary School,Lamoille North Modified USD #058A,Lamoille County,3414 VT Route 109,Waterville,VT,5492,9708,(802)644-2224,42,Rural: Distant,†,No,Yes,Yes,92,9.9,9.3,23,6
500870000536,VT-T227-PS407,5008700,VT-T227,PK,8,Weathersfield School,Weathersfield School District,Windsor County,P.O. Box 279,Ascutney,VT,5030,,(802)674-5400,33,Town: Remote,†,No,Yes,Yes,226,18,12.6,32,35
500040900367,VT-U069-PS328,5000409,VT-U069,PK,6,Wells Village School,Wells Spring Unified Union School District,Rutland County,135 VT Route 30,Wells,VT,5774,,(802)645-0386,41,Rural: Fringe,†,No,Yes,Yes,90,9.6,9.4,44,4
500041100370,VT-U070-PS331,5000411,VT-U070,PK,12,West Rutland School,Quarry Valley Unified Union School District #70,Rutland County,713 Main Street,West Rutland,VT,5777,9520,(802)438-2288,32,Town: Distant,†,No,Yes,Yes,345,37.95,9.1,133,28
500039500373,VT-U051-PS333,5000395,VT-U051,PK,8,Westford Elementary School,Essex-Westford Educational Community Unified School District,Chittenden County,146 Brookside Road,Westford,VT,5494,,(802)878-5932,42,Rural: Distant,†,No,–,–,198,16.3,12.1,26,4
500044600460,VT-U095-PS334,5000446,VT-U095,PK,6,Westminster Schools,Windham Northeast Union Elementary School District #95,†,301 School Street,Westminster,VT,5158,,(802)722-3241,†,N,†,†,†,†,†,†,†,†,†
500002400250,VT-U146-PS399,5000024,VT-U146,PK,4,Westshire Elementary School,Rivendell Interstate School District,Orange County,744 VT Route 113,West Fairlee,VT,5083,,(802)333-4668,43,Rural: Remote,†,No,Yes,Yes,105,10.45,10,56,14
500040200376,VT-U055-PS336,5000402,VT-U055,PK,6,Weybridge Elementary School,Addison Central Unified School District,Addison County,210 Quaker Village Road,Middlebury,VT,5753,9801,(802)545-2113,41,Rural: Fringe,†,No,–,–,62,5,12.4,7,1
500459000153,VT-T093-PS339,5004590,VT-T093,PK,5,White River School,Hartford School District,Windsor County,102 Pine Street,White River Junction,VT,5001,1698,(802)295-8650,33,Town: Remote,†,No,Yes,No,235,22.18,10.6,81,21
500042600543,VT-U079-PS417,5000426,VT-U079,9,12,White River Valley High School,White River Unified School District,Windsor County,223 South Windsor Street,South Royalton,VT,5068,,(802)763-7740,43,Rural: Remote,†,No,Yes,Yes,180,30.15,6,48,10
500042600545,VT-U079-PS416,5000426,VT-U079,6,8,White River Valley Middle School,White River Unified School District,Windsor County,273 Pleasant Street,Bethel,VT,5032,9700,(802)234-6607,43,Rural: Remote,†,No,Yes,Yes,119,30.15,3.9,31,13
500040800379,VT-U068-PS343,5000408,VT-U068,PK,5,Williamstown Elementary School,Paine Mountain School District,Orange County,100 Brush Hill Road,Williamstown,VT,5679,,(802)433-6653,32,Town: Distant,†,No,Yes,Yes,234,17,13.8,117,0
500040800380,VT-U068-PS344,5000408,VT-U068,6,12,Williamstown Middle/High School,Paine Mountain School District,Orange County,120 Hebert Road,Williamstown,VT,5679,507,(802)433-5350,41,Rural: Fringe,†,No,Yes,Yes,267,20,13.4,101,0
500039600243,VT-U056-PS398,5000396,VT-U056,PK,8,Williston Schools,Champlain Valley Unified School District,Chittenden County,195 Central School Drive,Williston,VT,5495,,(802)878-2762,22,Suburb: Midsize,†,No,Yes,No,1091,71.55,15.2,98,21
500927000384,VT-T246-PS347,5009270,VT-T246,PK,6,Windham Elementary School,Windham School District,Windham County,5940 Windham Hill Road,Windham,VT,5359,9507,(802)874-4159,43,Rural: Remote,†,No,Yes,Yes,23,2.2,10.5,3,0
500043100102,VT-U096-VC014,5000431,VT-U096,9,12,Windham Regional Career Center,Windham Southeast Unified Union School District #96,†,45 Career Circle,Brattleboro,VT,5301,3698,(802)257-7335,†,N,†,†,†,†,†,†,†,†,†
500044200539,VT-U086-PS410,5000442,VT-U086,PK,12,Windsor School,Mount Ascutney School District #86,†,127 State Street,Windsor,VT,5089,1214,(802)674-2310,†,N,†,†,†,†,†,†,†,†,†
500936000389,VT-T249-PS351,5009360,VT-T249,9,12,Winooski High School,Winooski School District,Chittenden County,80 Normand Street,Winooski,VT,5404,1392,(802)655-3530,22,Suburb: Midsize,†,No,Yes,Yes,211,29.27,7.2,127,0
500936000183,VT-T249-PS401,5009360,VT-T249,6,8,Winooski Middle School,Winooski School District,Chittenden County,80 Normand Street,Winooski,VT,5404,1392,(802)655-3530,22,Suburb: Midsize,†,No,Yes,Yes,168,23.22,7.2,99,0
500939000391,VT-T250-PS352,5009390,VT-T250,PK,6,Wolcott Elementary School,Wolcott School District,Lamoille County,P.O. Box 179,Wolcott,VT,5680,,(802)472-6551,42,Rural: Distant,†,No,Yes,Yes,143,13.6,10.5,68,11
500043800392,VT-U094-PS353,5000438,VT-U094,PK,6,Woodbury Elementary School,Orleans Southwest Union Elementary School District #94,†,P.O. Box 328,Woodbury,VT,5681,,(802)472-5715,†,N,†,†,†,†,†,†,†,†,†
500043400393,VT-U087-PS354,5000434,VT-U087,PK,6,Woodford Hollow School,Southwest Vermont Union Elementary School District #87,†,995 VT Route 9,Bennington,VT,5201,7706,(802)442-4071,†,N,†,†,†,†,†,†,†,†,†
500000500251,VT-SC001-SC001,5000005,VT-SC001,7,12,Woodside Juvenile Rehabilitation Center,Woodside Juvenile Rehabilitation Center,Chittenden County,26 Woodside Drive,Colchester,VT,5446,1315,(802)655-4990,22,Suburb: Midsize,†,No,–,–,9,–,†,–,–
500042800394,VT-U076A-PS355,5000428,VT-U076A,PK,6,Woodstock Elementary School,Windsor Central Modified Unified Union School District #76A,Windsor County,15 South Street,Woodstock,VT,5091,1211,(802)457-2522,42,Rural: Distant,†,No,Yes,No,233,17.3,13.5,46,8
500041600395,VT-U076B-PS356,5000416,VT-U076B,7,12,Woodstock Union Middle/High School,Windsor Central Modified Unified Union School District #76B,Windsor County,496-1 Woodstock Road,Woodstock,VT,5091,9801,(802)457-1317,42,Rural: Distant,†,No,Yes,No,501,43.8,11.4,85,37
