NCES School ID,State School ID,NCES District ID,State District ID,Low Grade*,High Grade*,School Name,District,County Name*,Street Address,City,State,ZIP,ZIP 4-digit,Phone,Locale Code*,Locale*,Charter,Magnet*,Title I School*,Title 1 School Wide*,Students*,Teachers*,Student Teacher Ratio*,Free Lunch*,Reduced Lunch*
720003000010,PR-01-35295,7200030,PR-01,6,8,20 DE SEPTIEMBRE DE 1988,PUERTO RICO DEPARTMENT OF EDUCATION,Vieques Municipio,PO BOX 1554,VIEQUES,PR,765,,(787)741-3091,32,Town: Distant,No,†,Yes,Yes,210,17,12.4,175,16
720003002076,PR-01-74864,7200030,PR-01,6,8,ABELARDO DIAZ ALFARO (INT. PINAS),PUERTO RICO DEPARTMENT OF EDUCATION,Toa Alta Municipio,RR 3 BOX 10190,TOA ALTA,PR,953,,(787)797-0315,21,Suburb: Large,No,†,Yes,Yes,484,37,13.1,403,36
720003000291,PR-01-20578,7200030,PR-01,KG,5,ABELARDO DIAZ MORALES,PUERTO RICO DEPARTMENT OF EDUCATION,Caguas Municipio,CALL BOX 4952 SUITE 353,CAGUAS,PR,726,,(787)743-9056,13,City: Small,No,†,Yes,Yes,425,36,11.8,354,32
720003001879,PR-01-15784,7200030,PR-01,9,12,ABELARDO MARTINEZ OTERO,PUERTO RICO DEPARTMENT OF EDUCATION,Arecibo Municipio,PO BOX 9059,ARECIBO,PR,614,,(787)879-2614,13,City: Small,No,†,Yes,Yes,432,35,12.3,360,32
720003001038,PR-01-52357,7200030,PR-01,KG,5,ABRAHAM LINCOLN,PUERTO RICO DEPARTMENT OF EDUCATION,Ponce Municipio,46 CAMPECHE,PONCE,PR,731,,(787)842-0117,12,City: Midsize,No,†,Yes,Yes,266,19,14,222,20
720003001278,PR-01-61598,7200030,PR-01,PK,5,ABRAHAM LINCOLN,PUERTO RICO DEPARTMENT OF EDUCATION,San Juan Municipio,PO BOX 9023347,SAN JUAN,PR,901,,(787)722-1561,11,City: Large,No,†,Yes,Yes,134,15,8.9,112,10
720003000522,PR-01-27714,7200030,PR-01,PK,5,ADALBERTO SANCHEZ MORALES (ELEM. BO. ANCONES),PUERTO RICO DEPARTMENT OF EDUCATION,Arroyo Municipio,PO BOX 164,ARROYO,PR,714,,(787)271-2973,23,Suburb: Small,No,†,Yes,Yes,341,28,12.2,284,26
720003001976,PR-01-26336,7200030,PR-01,6,12,ADELA BRENES TEXIDOR,PUERTO RICO DEPARTMENT OF EDUCATION,Guayama Municipio,PO BOX 2188,GUAYAMA,PR,785,,(787)864-7700,23,Suburb: Small,No,†,Yes,Yes,349,28,12.5,291,26
720003000370,PR-01-78931,7200030,PR-01,9,12,ADELA ROLON FUENTES,PUERTO RICO DEPARTMENT OF EDUCATION,Toa Alta Municipio,PO BOX 391,TOA ALTA,PR,954,,(787)279-8282,21,Suburb: Large,No,†,Yes,Yes,510,33,15.5,425,38
720003001230,PR-01-71514,7200030,PR-01,9,12,ADOLFINA IRIZARRY DE PUIG,PUERTO RICO DEPARTMENT OF EDUCATION,Toa Baja Municipio,PO BOX 2019,TOA BAJA,PR,951,,(787)794-2018,21,Suburb: Large,No,†,Yes,Yes,430,35,12.3,358,32
720003001882,PR-01-58594,7200030,PR-01,PK,8,ADRIAN TORRES TORRES,PUERTO RICO DEPARTMENT OF EDUCATION,Jayuya Municipio,CARR 141-R KM 2 HM 1,JAYUYA,PR,664,,(787)828-3445,31,Town: Fringe,No,†,Yes,Yes,386,34,11.4,321,29
720003000343,PR-01-32375,7200030,PR-01,2,12,ADRIANNE SERRANO,PUERTO RICO DEPARTMENT OF EDUCATION,Vieques Municipio,HC 02 BOX 1406,VIEQUES,PR,765,9712,(787)741-8692,41,Rural: Fringe,No,†,Yes,Yes,116,7,16.6,97,8
720003002026,PR-01-74807,7200030,PR-01,KG,5,AGAPITO ROSARIO ROSARIO,PUERTO RICO DEPARTMENT OF EDUCATION,Vega Baja Municipio,PO BOX 7004,VEGA BAJA,PR,693,,(787)858-2988,21,Suburb: Large,No,†,Yes,Yes,565,45,12.6,471,42
720003001155,PR-01-50740,7200030,PR-01,6,8,AGRIPINA SEDA,PUERTO RICO DEPARTMENT OF EDUCATION,GuÃƒÂ¡nica Municipio,PO BOX 690,GUANICA,PR,653,,(787)821-2310,23,Suburb: Small,No,†,Yes,Yes,226,20,11.3,188,17
720003001475,PR-01-66019,7200030,PR-01,6,8,AGUSTIN CABRERA,PUERTO RICO DEPARTMENT OF EDUCATION,Carolina Municipio,PO BOX 8828 PLAZA CAR STA,CAROLINA,PR,985,,(787)768-4044,12,City: Midsize,No,†,Yes,Yes,340,29,11.7,284,25
720003001267,PR-01-62984,7200030,PR-01,9,12,ALBERT EINSTEIN,PUERTO RICO DEPARTMENT OF EDUCATION,San Juan Municipio,PO BOX 14185,SAN JUAN,PR,915,,(787)727-5525,11,City: Large,No,†,Yes,Yes,448,32,14,374,33
720003001657,PR-01-14340,7200030,PR-01,9,12,ALBERTO MELENDEZ TORRES,PUERTO RICO DEPARTMENT OF EDUCATION,Orocovis Municipio,PO BOX 644,OROCOVIS,PR,720,,(787)867-3353,21,Suburb: Large,No,†,Yes,Yes,383,28,13.7,319,29
720003002078,PR-01-71449,7200030,PR-01,KG,5,ALEJANDRO JR CRUZ (GALATEO PARCELAS),PUERTO RICO DEPARTMENT OF EDUCATION,Toa Alta Municipio,PO BOX 899,TOA ALTA,PR,954,,(787)870-1665,21,Suburb: Large,No,†,Yes,Yes,157,23,6.8,131,12
720003001258,PR-01-63172,7200030,PR-01,KG,5,ALEJANDRO TAPIA Y RIVERA,PUERTO RICO DEPARTMENT OF EDUCATION,San Juan Municipio,VILLA PALMERAS,SAN JUAN,PR,915,,(787)726-0100,11,City: Large,No,†,Yes,Yes,300,27,11.1,250,22
720003000626,PR-01-31542,7200030,PR-01,9,12,ALFONSO CASTA MARTINEZ,PUERTO RICO DEPARTMENT OF EDUCATION,Maunabo Municipio,PO BOX 38,MAUNABO,PR,707,,(787)861-2300,31,Town: Fringe,No,†,Yes,Yes,320,24,13.3,267,24
720003000462,PR-01-32979,7200030,PR-01,6,8,ALFONSO DIAZ LEBRON,PUERTO RICO DEPARTMENT OF EDUCATION,Juncos Municipio,PO BOX 1614,JUNCOS,PR,777,,(787)734-6806,21,Suburb: Large,No,†,Yes,Yes,374,24,15.6,312,28
720003000213,PR-01-20065,7200030,PR-01,KG,5,ALFONSO LOPEZ O'NEILL,PUERTO RICO DEPARTMENT OF EDUCATION,Aguas Buenas Municipio,PO BOX 407,AGUAS BUENAS,PR,703,,(787)747-5895,21,Suburb: Large,No,†,Yes,Yes,153,16,9.6,128,11
720003001232,PR-01-71530,7200030,PR-01,KG,8,ALTINENCIA VALLE,PUERTO RICO DEPARTMENT OF EDUCATION,Toa Baja Municipio,PO BOX 731,TOA BAJA,PR,951,,(787)794-1460,21,Suburb: Large,No,†,Yes,Yes,616,45,13.7,514,45
720003000375,PR-01-17467,7200030,PR-01,KG,5,AMALIA LOPEZ DE AVILA,PUERTO RICO DEPARTMENT OF EDUCATION,Camuy Municipio,PO BOX 403,CAMUY,PR,627,,(787)898-4830,22,Suburb: Midsize,No,†,Yes,Yes,348,31,11.2,290,26
720003001309,PR-01-62661,7200030,PR-01,KG,8,AMALIA MARIN,PUERTO RICO DEPARTMENT OF EDUCATION,San Juan Municipio,URB PARADISE HILLS,SAN JUAN,PR,924,,(787)763-5218,11,City: Large,No,†,Yes,Yes,340,40,8.5,284,25
720003001336,PR-01-62679,7200030,PR-01,KG,5,AMALIA MARIN,PUERTO RICO DEPARTMENT OF EDUCATION,San Juan Municipio,BO VENEZUELA,SAN JUAN,PR,926,,(787)764-0093,11,City: Large,No,†,Yes,Yes,106,14,7.6,88,8
720003000471,PR-01-35766,7200030,PR-01,9,12,ANA DELIA FLORES SANTANA VOC,PUERTO RICO DEPARTMENT OF EDUCATION,Fajardo Municipio,PO BOX 1007,FAJARDO,PR,738,,(787)863-0424,23,Suburb: Small,No,†,Yes,Yes,939,62,15.1,783,70
720003001901,PR-01-26013,7200030,PR-01,9,12,ANA J. CANDELAS,PUERTO RICO DEPARTMENT OF EDUCATION,Cidra Municipio,PO BOX 650,CIDRA,PR,739,,(787)739-8070,21,Suburb: Large,No,†,Yes,Yes,382,31,12.3,319,28
720003000744,PR-01-40493,7200030,PR-01,KG,5,ANA M. JAVARIZ,PUERTO RICO DEPARTMENT OF EDUCATION,Aguadilla Municipio,PO BOX 5254,AGUADILLA,PR,605,,(787)891-2260,13,City: Small,No,†,Yes,Yes,311,26,12,259,23
720003000479,PR-01-30270,7200030,PR-01,9,12,ANA ROQUE DE DUPREY,PUERTO RICO DEPARTMENT OF EDUCATION,Humacao Municipio,PO BOX 86,HUMACAO,PR,791,,(787)852-1115,21,Suburb: Large,No,†,Yes,Yes,526,34,15.5,439,39
720003001013,PR-01-52985,7200030,PR-01,KG,5,ANA VALLDEJULY (JAUCA),PUERTO RICO DEPARTMENT OF EDUCATION,Santa Isabel Municipio,PO BOX 1440,SANTA ISABEL,PR,757,,(787)845-6147,31,Town: Fringe,No,†,Yes,Yes,179,22,8.1,149,14
720003001510,PR-01-70672,7200030,PR-01,KG,8,ANDRES C. GONZALEZ,PUERTO RICO DEPARTMENT OF EDUCATION,BayamÃƒÂ³n Municipio,RR 8 BOX 1995 MSC 223,BAYAMON,PR,957,,(787)797-6580,21,Suburb: Large,No,†,Yes,Yes,139,13,10.7,116,10
720003001043,PR-01-54940,7200030,PR-01,KG,5,ANDRES GRILLASCA SALAS,PUERTO RICO DEPARTMENT OF EDUCATION,Ponce Municipio,PO BOX 119,PONCE,PR,731,,(787)842-6414,12,City: Midsize,No,†,Yes,Yes,235,21,11.2,196,17
720003001588,PR-01-69039,7200030,PR-01,6,8,ANDRES VALCARCEL,PUERTO RICO DEPARTMENT OF EDUCATION,Trujillo Alto Municipio,PO BOX 1203,TRUJILLO ALTO,PR,976,,(787)761-1060,21,Suburb: Large,No,†,Yes,Yes,437,37,11.8,364,33
720003000131,PR-01-17186,7200030,PR-01,6,8,ANGEL G QUINTERO ALFARO,PUERTO RICO DEPARTMENT OF EDUCATION,Morovis Municipio,PO BOX 1571,MOROVIS,PR,687,,(787)862-1716,21,Suburb: Large,No,†,Yes,Yes,349,25,14,291,26
720003002073,PR-01-61853,7200030,PR-01,6,12,ANGEL P. MILLAN ROHENA,PUERTO RICO DEPARTMENT OF EDUCATION,Carolina Municipio,PO BOX 7759,CAROLINA,PR,986,,(787)750-4480,12,City: Midsize,No,†,Yes,Yes,626,43,14.6,522,46
720003001675,PR-01-12740,7200030,PR-01,KG,8,ANGEL RAFAEL DIAZ COLON,PUERTO RICO DEPARTMENT OF EDUCATION,Orocovis Municipio,PO BOX 1575,OROCOVIS,PR,720,,(787)867-4686,41,Rural: Fringe,No,†,Yes,Yes,243,26,9.3,203,18
720003001799,PR-01-71886,7200030,PR-01,6,8,ANGEL SANDIN MARTINEZ,PUERTO RICO DEPARTMENT OF EDUCATION,Vega Baja Municipio,PO BOX 7004,VEGA BAJA,PR,693,,(787)858-2120,21,Suburb: Large,No,†,Yes,Yes,466,33,14.1,389,34
720003001042,PR-01-55483,7200030,PR-01,PK,5,ANGELA CORDERO BERNARD,PUERTO RICO DEPARTMENT OF EDUCATION,Ponce Municipio,PO BOX 7496,PONCE,PR,731,,(787)844-4020,12,City: Midsize,No,†,Yes,Yes,608,43,14.1,507,45
720003001339,PR-01-64410,7200030,PR-01,KG,5,ANGELES PASTOR (SAN MARTIN),PUERTO RICO DEPARTMENT OF EDUCATION,San Juan Municipio,PO BOX 29730,SAN JUAN,PR,926,,(787)768-3016,11,City: Large,No,†,Yes,Yes,257,23,11.2,214,19
720003000048,PR-01-10637,7200030,PR-01,KG,8,ANGELICA GOMEZ DE BETANCOURT,PUERTO RICO DEPARTMENT OF EDUCATION,Arecibo Municipio,PO BOX 116,ARECIBO,PR,614,,(787)878-1675,13,City: Small,No,†,Yes,Yes,182,22,8.3,152,13
720003001167,PR-01-51342,7200030,PR-01,KG,5,ANGELICA TORO (NUEVA),PUERTO RICO DEPARTMENT OF EDUCATION,Jayuya Municipio,PO BOX 1549,JAYUYA,PR,664,,(787)828-0330,31,Town: Fringe,No,†,Yes,Yes,285,24,11.9,238,21
720003000671,PR-01-36012,7200030,PR-01,6,12,ANITA OTERO HERNANDEZ (ESC. ESP BELLAS ARTES HUMACAO),PUERTO RICO DEPARTMENT OF EDUCATION,Humacao Municipio,PO BOX 8992,HUMACAO,PR,792,,(787)285-5575,21,Suburb: Large,No,†,–,–,502,40,12.6,419,37
720003000765,PR-01-40139,7200030,PR-01,PK,5,ANSELMO VILLARRUBIA,PUERTO RICO DEPARTMENT OF EDUCATION,Aguada Municipio,PO BOX 1726,AGUADA,PR,602,,(787)868-8735,21,Suburb: Large,No,†,Yes,Yes,262,20,13.1,219,19
720003000345,PR-01-33647,7200030,PR-01,PK,5,ANTERA ROSADO FUENTES,PUERTO RICO DEPARTMENT OF EDUCATION,RÃƒÂ­o Grande Municipio,PO BOX 1481,RIO GRANDE,PR,745,,(787)887-2051,21,Suburb: Large,No,†,Yes,Yes,383,34,11.3,319,29
720003001251,PR-01-61580,7200030,PR-01,KG,5,ANTONIA B. CAIMARY,PUERTO RICO DEPARTMENT OF EDUCATION,San Juan Municipio,PO BOX 7218,SAN JUAN,PR,915,,(787)726-6783,11,City: Large,No,†,Yes,Yes,331,21,15.8,276,25
720003001986,PR-01-46672,7200030,PR-01,KG,8,ANTONIO BADILLO HERNANDEZ,PUERTO RICO DEPARTMENT OF EDUCATION,Aguadilla Municipio,PO BOX 797,AGUADILLA,PR,605,,(787)890-3350,21,Suburb: Large,No,†,Yes,Yes,526,47,11.2,439,39
720003002000,PR-01-26492,7200030,PR-01,6,12,ANTONIO DOMINGUEZ NIEVES,PUERTO RICO DEPARTMENT OF EDUCATION,Caguas Municipio,PO BOX 9718,CAGUAS,PR,727,,(787)747-2026,21,Suburb: Large,No,†,Yes,Yes,350,37,9.5,292,26
720003001862,PR-01-28522,7200030,PR-01,9,12,ANTONIO FERNOS ISERN,PUERTO RICO DEPARTMENT OF EDUCATION,San Lorenzo Municipio,PO BOX 1281,SAN LORENZO,PR,754,,(787)736-8330,21,Suburb: Large,No,†,Yes,Yes,700,44,15.9,584,52
720003000722,PR-01-15438,7200030,PR-01,KG,5,ANTONIO GEIGEL PAREDES,PUERTO RICO DEPARTMENT OF EDUCATION,Isabela Municipio,PO BOX 545,ISABELA,PR,662,,(787)872-1942,21,Suburb: Large,No,†,Yes,Yes,303,25,12.1,253,22
720003000779,PR-01-40527,7200030,PR-01,KG,5,ANTONIO GONZALEZ SUAREZ (ESPECIALIZADA),PUERTO RICO DEPARTMENT OF EDUCATION,AÃƒÂ±asco Municipio,P O BOX 790,ANASCO,PR,610,,(787)826-3625,21,Suburb: Large,No,†,Yes,Yes,325,19,17.1,271,24
720003000053,PR-01-55871,7200030,PR-01,6,8,ANTONIO PAOLI,PUERTO RICO DEPARTMENT OF EDUCATION,Ponce Municipio,PO BOX 6960,PONCE,PR,731,,(787)844-0615,12,City: Midsize,No,†,Yes,Yes,127,15,8.5,106,9
720003001784,PR-01-71738,7200030,PR-01,PK,5,ANTONIO PAOLI,PUERTO RICO DEPARTMENT OF EDUCATION,Vega Alta Municipio,PO BOX 1749,VEGA ALTA,PR,692,,(787)883-4945,21,Suburb: Large,No,†,Yes,Yes,284,25,11.4,237,21
720003000525,PR-01-31054,7200030,PR-01,KG,8,ANTONIO R. BARCELO,PUERTO RICO DEPARTMENT OF EDUCATION,CanÃƒÂ³vanas Municipio,PO BOX 999,CANOVANAS,PR,729,,(787)876-4055,21,Suburb: Large,No,†,Yes,Yes,525,36,14.6,438,39
720003001750,PR-01-11023,7200030,PR-01,6,8,ANTONIO REYES,PUERTO RICO DEPARTMENT OF EDUCATION,Camuy Municipio,PO BOX 385,CAMUY,PR,627,,(787)820-1472,22,Suburb: Midsize,No,†,Yes,Yes,397,34,11.7,331,29
720003000482,PR-01-35774,7200030,PR-01,PK,5,ANTONIO ROSA GUZMAN (BO. MARIANA),PUERTO RICO DEPARTMENT OF EDUCATION,Humacao Municipio,PO BOX 487,HUMACAO,PR,792,,(787)852-3650,21,Suburb: Large,No,†,Yes,Yes,322,25,12.9,268,24
720003002043,PR-01-23440,7200030,PR-01,–,–,ANTONIO S PAOLI (MUSICA),PUERTO RICO DEPARTMENT OF EDUCATION,Caguas Municipio,PMB 524 PO BOX 4956,CAGUAS,PR,725,,(787)746-6644,13,City: Small,No,†,–,–,†,37,†,†,†
720003000232,PR-01-20776,7200030,PR-01,6,8,ANTONIO S PEDREIRA (PRE-TEC),PUERTO RICO DEPARTMENT OF EDUCATION,Caguas Municipio,URB VILLA CARMEN 300,CAGUAS,PR,725,,(787)743-4868,13,City: Small,No,†,Yes,Yes,403,31,13,336,30
720003001332,PR-01-62422,7200030,PR-01,KG,8,ANTONIO SARRIERA EGOZCUE,PUERTO RICO DEPARTMENT OF EDUCATION,San Juan Municipio,65TH INFANTERIA STATION,SAN JUAN,PR,924,,(787)769-7415,11,City: Large,No,†,Yes,Yes,416,33,12.6,347,31
720003001778,PR-01-13342,7200030,PR-01,KG,8,ANTONIO TULLA TORRES,PUERTO RICO DEPARTMENT OF EDUCATION,Utuado Municipio,APARTADO 1807,UTUADO,PR,641,,(787)894-0229,41,Rural: Fringe,No,†,Yes,Yes,127,17,7.5,106,9
720003000509,PR-01-30148,7200030,PR-01,6,8,ANTONIO VALERO BERNABE,PUERTO RICO DEPARTMENT OF EDUCATION,Fajardo Municipio,PO BOX 953,FAJARDO,PR,738,,(787)863-0024,23,Suburb: Small,No,†,Yes,Yes,332,21,15.8,277,24
720003000266,PR-01-20537,7200030,PR-01,KG,8,ANTONIO VAZQUEZ RAMOS (SU LA LOMA),PUERTO RICO DEPARTMENT OF EDUCATION,Barranquitas Municipio,PMB 333 PO BOX 1999,BARRANQUITAS,PR,794,,(787)857-3611,21,Suburb: Large,No,†,Yes,Yes,182,23,7.9,152,13
720003001654,PR-01-12187,7200030,PR-01,PK,5,ANTONIO VELEZ ALVARADO,PUERTO RICO DEPARTMENT OF EDUCATION,ManatÃƒÂ­ Municipio,PO BOX 30160 SUITE 282,MANATI,PR,674,,(787)854-4160,21,Suburb: Large,No,†,Yes,Yes,235,23,10.2,196,17
720003001787,PR-01-71761,7200030,PR-01,6,8,APOLO SAN ANTONIO,PUERTO RICO DEPARTMENT OF EDUCATION,Vega Alta Municipio,CARR 676,VEGA ALTA,PR,692,,(787)883-3130,21,Suburb: Large,No,†,Yes,Yes,577,53,10.9,481,43
720003000767,PR-01-40147,7200030,PR-01,PK,8,AQUILINO CABAN,PUERTO RICO DEPARTMENT OF EDUCATION,Aguada Municipio,PO BOX 9000 SUITE 673,AGUADA,PR,602,,(787)252-4699,21,Suburb: Large,No,†,Yes,Yes,526,41,12.8,439,39
720003001186,PR-01-51185,7200030,PR-01,KG,8,ARISTIDES CALES QUIROS,PUERTO RICO DEPARTMENT OF EDUCATION,Guayanilla Municipio,PO BOX 560357,GUAYANILLA,PR,656,,(787)835-7451,23,Suburb: Small,No,†,Yes,Yes,412,40,10.3,344,30
720003000884,PR-01-53363,7200030,PR-01,KG,5,ARTURO LLUBERAS,PUERTO RICO DEPARTMENT OF EDUCATION,Yauco Municipio,PO BOX 3049,YAUCO,PR,698,,(787)267-4984,23,Suburb: Small,No,†,Yes,Yes,251,22,11.4,209,19
720003002064,PR-01-57125,7200030,PR-01,9,12,ASUNCION RODRIGUEZ DE SALA,PUERTO RICO DEPARTMENT OF EDUCATION,Guayanilla Municipio,PO BOX 560459,GUAYANILLA,PR,656,,(787)835-0401,41,Rural: Fringe,No,†,Yes,Yes,590,48,12.3,492,44
720003000059,PR-01-57620,7200030,PR-01,9,12,AUREA E. QUILES CLAUDIO,PUERTO RICO DEPARTMENT OF EDUCATION,GuÃƒÂ¡nica Municipio,PO BOX 494,GUANICA,PR,653,,(787)835-2770,23,Suburb: Small,No,†,Yes,Yes,405,36,11.3,338,30
720003002010,PR-01-57018,7200030,PR-01,KG,5,AUREA E. RIVERA COLLAZO,PUERTO RICO DEPARTMENT OF EDUCATION,Ponce Municipio,PO BOX 8643,PONCE,PR,731,,(787)841-0328,12,City: Midsize,No,†,Yes,Yes,360,27,13.3,300,27
720003000854,PR-01-43505,7200030,PR-01,KG,5,AUREA FUENTES MENDEZ (CALABAZAS INFANTES),PUERTO RICO DEPARTMENT OF EDUCATION,San SebastiÃƒÂ¡n Municipio,PO BOX 5220,SAN SEBASTIAN,PR,685,,(787)896-4100,21,Suburb: Large,No,†,Yes,Yes,187,16,11.7,156,14
720003000690,PR-01-48025,7200030,PR-01,KG,5,AURORA MENDEZ CHARNECO,PUERTO RICO DEPARTMENT OF EDUCATION,San SebastiÃƒÂ¡n Municipio,PO BOX 1220,SAN SEBASTIAN,PR,685,,(787)896-1072,21,Suburb: Large,No,†,Yes,Yes,410,34,12.1,342,30
720003000419,PR-01-35626,7200030,PR-01,UG,UG,AVELINO PENA REYES,PUERTO RICO DEPARTMENT OF EDUCATION,Humacao Municipio,PO BOX 487,HUMACAO,PR,792,,(787)285-6542,21,Suburb: Large,No,†,Yes,Yes,52,9,5.8,43,4
720003000544,PR-01-43273,7200030,PR-01,PK,6,BARTOLOME DE LAS CASAS,PUERTO RICO DEPARTMENT OF EDUCATION,San GermÃƒÂ¡n Municipio,PO BOX 5000257,SAN GERMAN,PR,683,,(787)892-7403,22,Suburb: Midsize,No,†,Yes,Yes,204,13,15.7,170,15
720003001835,PR-01-71654,7200030,PR-01,6,8,BASILIO MILAN HERNANDEZ,PUERTO RICO DEPARTMENT OF EDUCATION,Toa Baja Municipio,PO BOX 50758,TOA BAJA,PR,950,,(787)795-6570,21,Suburb: Large,No,†,Yes,Yes,528,44,12,440,39
720003000435,PR-01-31120,7200030,PR-01,6,12,BELEN BLANCO DE ZEQUEIRA,PUERTO RICO DEPARTMENT OF EDUCATION,LoÃƒÂ­za Municipio,PO BOX 1980 SUITE 341,LOIZA,PR,772,,(787)256-3060,21,Suburb: Large,No,†,Yes,Yes,136,20,6.8,113,10
720003000167,PR-01-57638,7200030,PR-01,–,–,BELLAS ARTES DE PONCE (ESPECIALIZADA),PUERTO RICO DEPARTMENT OF EDUCATION,Ponce Municipio,20 CALLE TIZOL,PONCE,PR,731,,(787)259-7373,12,City: Midsize,No,†,–,–,†,9,†,†,†
720003000909,PR-01-53744,7200030,PR-01,KG,5,BENICIA VELEZ,PUERTO RICO DEPARTMENT OF EDUCATION,Yauco Municipio,PO BOX 48,YAUCO,PR,698,,(787)856-0100,23,Suburb: Small,No,†,Yes,Yes,131,12,10.9,109,10
720003000172,PR-01-21097,7200030,PR-01,KG,5,BENIGNO CARRION,PUERTO RICO DEPARTMENT OF EDUCATION,Cayey Municipio,PO BOX 373275,CAYEY,PR,736,,(787)738-3087,21,Suburb: Large,No,†,Yes,Yes,390,32,12.2,325,29
720003000176,PR-01-21089,7200030,PR-01,6,8,BENIGNO FERNANDEZ GARCIA,PUERTO RICO DEPARTMENT OF EDUCATION,Cayey Municipio,PO BOX 373274,CAYEY,PR,736,,(787)738-2626,21,Suburb: Large,No,†,Yes,Yes,468,39,12,390,35
720003000288,PR-01-20685,7200030,PR-01,KG,5,BENITA GONZALEZ QUINONES,PUERTO RICO DEPARTMENT OF EDUCATION,Caguas Municipio,PO BOX 9177,CAGUAS,PR,725,,(787)743-4467,13,City: Small,No,†,Yes,Yes,225,23,9.8,187,17
720003001984,PR-01-46656,7200030,PR-01,9,12,BENITO CEREZO MARQUEZ,PUERTO RICO DEPARTMENT OF EDUCATION,Aguadilla Municipio,PO BOX 250434,AGUADILLA,PR,603,,(787)891-5000,13,City: Small,No,†,Yes,Yes,478,29,16.5,399,35
720003000924,PR-01-50492,7200030,PR-01,6,8,BENJAMIN FRANKLIN,PUERTO RICO DEPARTMENT OF EDUCATION,Coamo Municipio,PO BOX 358,COAMO,PR,769,,(787)825-1284,31,Town: Fringe,No,†,Yes,Yes,247,23,10.7,206,18
720003000178,PR-01-21105,7200030,PR-01,9,12,BENJAMIN HARRISON,PUERTO RICO DEPARTMENT OF EDUCATION,Cayey Municipio,PO BOX 3246,CAYEY,PR,736,,(787)738-1309,21,Suburb: Large,No,†,Yes,Yes,695,53,13.1,580,51
720003000104,PR-01-71290,7200030,PR-01,PK,5,BERNARDA ROBLES DE HEVIA,PUERTO RICO DEPARTMENT OF EDUCATION,Naranjito Municipio,PO BOX 5822,NARANJITO,PR,719,,(787)869-1433,21,Suburb: Large,No,†,Yes,Yes,131,11,11.9,109,10
720003001102,PR-01-52696,7200030,PR-01,9,12,BERNARDINO CORDERO BERNARD,PUERTO RICO DEPARTMENT OF EDUCATION,Ponce Municipio,PO BOX 10478,PONCE,PR,731,,(787)842-7091,12,City: Midsize,No,†,Yes,Yes,1340,81,16.5,1118,99
720003001758,PR-01-13391,7200030,PR-01,KG,8,BERNARDO GONZALEZ COLON,PUERTO RICO DEPARTMENT OF EDUCATION,Utuado Municipio,PO BOX 1447,UTUADO,PR,641,,(787)894-2524,21,Suburb: Large,No,†,Yes,Yes,340,28,12.1,284,25
720003001516,PR-01-70409,7200030,PR-01,PK,6,BERNARDO HUYKE,PUERTO RICO DEPARTMENT OF EDUCATION,BayamÃƒÂ³n Municipio,PO BOX 2831,BAYAMON,PR,956,,(787)786-5275,21,Suburb: Large,No,†,Yes,Yes,373,25,14.9,311,28
720003000506,PR-01-33274,7200030,PR-01,KG,5,BERTA ZALDUONDO,PUERTO RICO DEPARTMENT OF EDUCATION,Fajardo Municipio,PO BOX 481,FAJARDO,PR,738,,(787)863-3959,23,Suburb: Small,No,†,Yes,Yes,360,26,13.8,300,27
720003001328,PR-01-67785,7200030,PR-01,KG,5,BERWIND ELEMENTAL,PUERTO RICO DEPARTMENT OF EDUCATION,San Juan Municipio,RES JARDINES DE BERWIND,SAN JUAN,PR,924,,(787)768-2570,11,City: Large,No,†,Yes,Yes,297,23,12.9,248,22
720003001330,PR-01-67934,7200030,PR-01,6,8,BERWIND INTERMEDIA,PUERTO RICO DEPARTMENT OF EDUCATION,San Juan Municipio,RES JARDINES DE BERWIND,SAN JUAN,PR,924,,(787)752-0055,11,City: Large,No,†,Yes,Yes,377,28,13.5,314,28
720003001333,PR-01-67942,7200030,PR-01,9,12,BERWIND SUPERIOR,PUERTO RICO DEPARTMENT OF EDUCATION,San Juan Municipio,URB COUNTRY CLUB,SAN JUAN,PR,924,,(787)752-9720,11,City: Large,No,†,Yes,Yes,317,26,12.2,264,24
720003001849,PR-01-56069,7200030,PR-01,9,12,BETHZAIDA VELAZQUEZ SUPERIOR,PUERTO RICO DEPARTMENT OF EDUCATION,Ponce Municipio,PO BOX 7636,PONCE,PR,731,,(787)284-1080,12,City: Midsize,No,†,Yes,Yes,323,27,12,269,24
720003001405,PR-01-75630,7200030,PR-01,KG,5,BETTY ROSADO DE VEGA,PUERTO RICO DEPARTMENT OF EDUCATION,Guaynabo Municipio,HC-01 BOX 29030 PMB 470,GUAYNABO,PR,970,,(787)720-6178,13,City: Small,No,†,Yes,Yes,230,23,10,192,17
720003000562,PR-01-45393,7200030,PR-01,KG,8,BLANCA MALARET,PUERTO RICO DEPARTMENT OF EDUCATION,Sabana Grande Municipio,PO BOX 876,SABANA GRANDE,PR,637,,(787)892-5759,22,Suburb: Midsize,No,†,Yes,Yes,719,54,13.3,600,53
720003000160,PR-01-27565,7200030,PR-01,9,12,BONIFACIO SANCHEZ JIMENEZ (GANDARA),PUERTO RICO DEPARTMENT OF EDUCATION,Aibonito Municipio,PO BOX 538,AIBONITO,PR,705,,(787)735-4631,21,Suburb: Large,No,†,Yes,Yes,380,31,12.3,317,28
720003000480,PR-01-30429,7200030,PR-01,KG,5,BRAULIO AYALA PEREZ (MAMBICHE BLANCO),PUERTO RICO DEPARTMENT OF EDUCATION,Humacao Municipio,HC-03 BOX 6596,HUMACAO,PR,791,,(787)852-6452,21,Suburb: Large,No,†,Yes,Yes,161,12,13.4,134,12
720003000606,PR-01-41632,7200030,PR-01,KG,6,BRYAN,PUERTO RICO DEPARTMENT OF EDUCATION,Las MarÃƒÂ­as Municipio,HC 2 BOX 11018,LAS MARIAS,PR,670,,(787)827-3066,41,Rural: Fringe,No,†,Yes,Yes,84,12,7,70,6
720003001564,PR-01-70078,7200030,PR-01,6,12,CACIQUE AGUEYBANA,PUERTO RICO DEPARTMENT OF EDUCATION,BayamÃƒÂ³n Municipio,PO BOX 607061,BAYAMON,PR,960,,(787)780-9906,21,Suburb: Large,No,†,Yes,Yes,560,38,14.7,467,41
720003001913,PR-01-33936,7200030,PR-01,KG,5,CAMILO VALLES MATIENZO,PUERTO RICO DEPARTMENT OF EDUCATION,Luquillo Municipio,PO BOX 1502,LUQUILLO,PR,773,,(787)889-1045,23,Suburb: Small,No,†,Yes,Yes,433,32,13.5,361,32
720003000487,PR-01-30304,7200030,PR-01,KG,5,CANDIDO BERRIOS,PUERTO RICO DEPARTMENT OF EDUCATION,Humacao Municipio,PO BOX 98,HUMACAO,PR,791,,(787)850-1165,21,Suburb: Large,No,†,Yes,Yes,265,22,12,221,20
720003001050,PR-01-52183,7200030,PR-01,KG,5,CAPITANEJO,PUERTO RICO DEPARTMENT OF EDUCATION,Juana DÃƒÂ­az Municipio,PO BOX 566,PONCE,PR,780,,(787)837-6302,23,Suburb: Small,No,†,Yes,Yes,160,14,11.4,133,12
720003001483,PR-01-66506,7200030,PR-01,–,–,CARLOS F DANIELS (VOC. DE AREA),PUERTO RICO DEPARTMENT OF EDUCATION,Carolina Municipio,PO BOX 7889,CAROLINA,PR,986,,(787)768-3735,12,City: Midsize,No,†,–,–,†,35,†,†,†
720003001520,PR-01-70433,7200030,PR-01,PK,5,CARLOS ORAMA PADILLA,PUERTO RICO DEPARTMENT OF EDUCATION,BayamÃƒÂ³n Municipio,PO BOX 1468,BAYAMON,PR,956,,(787)785-5630,21,Suburb: Large,No,†,Yes,Yes,345,33,10.5,287,26
720003000478,PR-01-33662,7200030,PR-01,6,8,CARLOS RIVERA UFRET,PUERTO RICO DEPARTMENT OF EDUCATION,Humacao Municipio,PO BOX 487,HUMACAO,PR,791,,(787)285-0052,21,Suburb: Large,No,†,Yes,Yes,330,28,11.8,275,25
720003000468,PR-01-30791,7200030,PR-01,KG,5,CARMEN ARZUAGA DE RIVERA,PUERTO RICO DEPARTMENT OF EDUCATION,Juncos Municipio,PO BOX 1823,JUNCOS,PR,777,,(787)734-8151,21,Suburb: Large,No,†,Yes,Yes,288,21,13.7,240,22
720003001222,PR-01-71662,7200030,PR-01,KG,5,CARMEN BARROSO MORALES,PUERTO RICO DEPARTMENT OF EDUCATION,Toa Baja Municipio,PO BOX 52032,TOA BAJA,PR,949,,(787)795-8885,21,Suburb: Large,No,†,Yes,Yes,298,22,13.5,249,22
720003001826,PR-01-56119,7200030,PR-01,9,12,CARMEN BELEN VEIGA,PUERTO RICO DEPARTMENT OF EDUCATION,Juana DÃƒÂ­az Municipio,PO BOX 982,JUANA DIAZ,PR,795,,(787)837-2435,23,Suburb: Small,No,†,Yes,Yes,392,31,12.6,327,29
720003000443,PR-01-30841,7200030,PR-01,KG,5,CARMEN BENITEZ,PUERTO RICO DEPARTMENT OF EDUCATION,Las Piedras Municipio,PO BOX 98,LAS PIEDRAS,PR,771,,(787)733-2660,21,Suburb: Large,No,†,Yes,Yes,377,37,10.2,314,28
720003001946,PR-01-24687,7200030,PR-01,PK,8,CARMEN BOZELLO DE HUYKE,PUERTO RICO DEPARTMENT OF EDUCATION,Arroyo Municipio,PO BOX 267,ARROYO,PR,794,,(787)839-2655,23,Suburb: Small,No,†,Yes,Yes,385,26,14.8,321,29
720003000308,PR-01-47613,7200030,PR-01,KG,5,CARMEN CASASUS MARTI (ELEM URBANA),PUERTO RICO DEPARTMENT OF EDUCATION,AÃƒÂ±asco Municipio,PO BOX 1576,ANASCO,PR,610,,(787)826-5355,21,Suburb: Large,No,†,Yes,Yes,410,35,11.7,342,30
720003000225,PR-01-20180,7200030,PR-01,KG,8,CARMEN D ORTIZ ORTIZ (SU SUMIDERO),PUERTO RICO DEPARTMENT OF EDUCATION,Aguas Buenas Municipio,PO BOX 1137,AGUAS BUENAS,PR,703,,(787)732-4040,21,Suburb: Large,No,†,Yes,Yes,513,44,11.7,428,38
720003000715,PR-01-35964,7200030,PR-01,6,8,CARMEN FELICIANO CARRERA (INTERMEDIA BO PALMER),PUERTO RICO DEPARTMENT OF EDUCATION,RÃƒÂ­o Grande Municipio,PO BOX 848,RIO GRANDE,PR,745,,(787)809-0052,21,Suburb: Large,No,†,Yes,Yes,336,24,14,280,25
720003001344,PR-01-66225,7200030,PR-01,KG,5,CARMEN GOMEZ TEJERA,PUERTO RICO DEPARTMENT OF EDUCATION,San Juan Municipio,URB MONTE CARLO,SAN JUAN,PR,924,,(787)762-7437,11,City: Large,No,†,Yes,Yes,241,28,8.6,201,18
720003001498,PR-01-70540,7200030,PR-01,KG,5,CARMEN GOMEZ TEJERA,PUERTO RICO DEPARTMENT OF EDUCATION,BayamÃƒÂ³n Municipio,PO BOX 9466,BAYAMON,PR,956,,(787)785-1364,21,Suburb: Large,No,†,Yes,Yes,361,37,9.8,301,27
720003000087,PR-01-11411,7200030,PR-01,PK,5,CARMEN NOELIA PERAZA TOLEDO,PUERTO RICO DEPARTMENT OF EDUCATION,Hatillo Municipio,P. O. BOX 7,HATILLO,PR,659,,(787)898-0001,22,Suburb: Midsize,No,†,Yes,Yes,353,29,12.2,294,27
720003000475,PR-01-30502,7200030,PR-01,PK,6,CARMEN PILAR SANTOS,PUERTO RICO DEPARTMENT OF EDUCATION,Humacao Municipio,#50 CALLE PROGRESO,HUMACAO,PR,791,,(787)852-2065,21,Suburb: Large,No,†,Yes,Yes,220,18,12.2,183,17
720003002022,PR-01-57182,7200030,PR-01,KG,5,CARMEN SOLA DE PEDREIRA,PUERTO RICO DEPARTMENT OF EDUCATION,Ponce Municipio,PO BOX 10685,PONCE,PR,731,,(787)841-6411,12,City: Midsize,No,†,Yes,Yes,331,30,11,276,25
720003000363,PR-01-32250,7200030,PR-01,6,12,CASIANO CEPEDA (INTERMEDIA),PUERTO RICO DEPARTMENT OF EDUCATION,RÃƒÂ­o Grande Municipio,PO BOX 3002 SUITE 484,RIO GRANDE,PR,745,,(787)887-4410,21,Suburb: Large,No,†,Yes,Yes,546,34,16.1,455,41
720003000313,PR-01-35543,7200030,PR-01,UG,UG,CASIANO CEPEDA PRE-VOCACIONAL,PUERTO RICO DEPARTMENT OF EDUCATION,RÃƒÂ­o Grande Municipio,PO BOX 2312,RIO GRANDE,PR,745,,(787)887-5200,21,Suburb: Large,No,†,Yes,Yes,55,12,4.6,46,4
720003000368,PR-01-25049,7200030,PR-01,KG,5,CECILIO LEBRON RAMOS,PUERTO RICO DEPARTMENT OF EDUCATION,Patillas Municipio,PO BOX 1123,PATILLAS,PR,723,,(787)839-3550,23,Suburb: Small,No,†,Yes,Yes,329,34,9.7,274,25
720003002002,PR-01-34793,7200030,PR-01,KG,5,CELSO GONZALEZ VAILLANT,PUERTO RICO DEPARTMENT OF EDUCATION,LoÃƒÂ­za Municipio,PO BOX 1980 PMB 269,LOIZA,PR,772,,(787)876-8260,21,Suburb: Large,No,†,Yes,Yes,386,26,14.8,322,28
720003001286,PR-01-61572,7200030,PR-01,6,12,CENTRAL ARTES VISUALES (ESPECIALIZADA),PUERTO RICO DEPARTMENT OF EDUCATION,San Juan Municipio,PO BOX 41215,SAN JUAN,PR,907,,(787)723-8911,11,City: Large,No,†,–,–,650,58,11.2,542,48
720003000204,PR-01-23887,7200030,PR-01,UG,UG,CENTRO ADIEST. VOC. GABRIEL BIBILONI,PUERTO RICO DEPARTMENT OF EDUCATION,Cayey Municipio,PO BOX 2345,CAYEY,PR,737,,(787)263-1480,21,Suburb: Large,No,†,Yes,Yes,119,15,7.9,99,9
720003000249,PR-01-73494,7200030,PR-01,UG,UG,CENTRO DE ADIESTRAMIENTO,PUERTO RICO DEPARTMENT OF EDUCATION,Vega Baja Municipio,PO BOX 4483,VEGA BAJA,PR,693,,(787)855-1360,21,Suburb: Large,No,†,Yes,Yes,115,13,8.8,96,8
720003000426,PR-01-47589,7200030,PR-01,–,–,CENTRO DE ADIESTRAMIENTO Y BELLAS ARTES,PUERTO RICO DEPARTMENT OF EDUCATION,Aguadilla Municipio,PO BOX 250041,AGUADILLA,PR,604,,(787)890-2008,21,Suburb: Large,No,†,–,–,†,14,†,†,†
720003001941,PR-01-61366,7200030,PR-01,UG,UG,CENTRO EUGENIO MARIA DE HOSTOS,PUERTO RICO DEPARTMENT OF EDUCATION,San Juan Municipio,URB PUERTO NUEVO CALLE CONSTITUCION ESQ CAMPECHE,SAN JUAN,PR,921,,(787)792-0111,11,City: Large,No,†,Yes,Yes,133,18,7.4,111,10
720003001939,PR-01-54862,7200030,PR-01,9,12,CENTRO RES DE OPORTUNIDADES EDUCATIVAS DE VILLALBA (CROEV),PUERTO RICO DEPARTMENT OF EDUCATION,Villalba Municipio,CARR 149 KM 57.3,VILLALBA,PR,766,,(787)847-7440,23,Suburb: Small,No,†,–,–,226,22,10.3,188,17
720003001940,PR-01-30167,7200030,PR-01,9,12,CENTRO RESIDENCIAL DE OPORTUNIDADES EDUCATIVAS DE CEIBA,PUERTO RICO DEPARTMENT OF EDUCATION,Ceiba Municipio,CALLE F.D. ROOSEVELT ROADS,CEIBA,PR,735,,(787)865-1000,41,Rural: Fringe,No,†,–,–,208,14,14.9,173,16
720003000689,PR-01-44560,7200030,PR-01,9,12,CENTRO RESIDENCIAL DE OPORTUNIDADES EDUCATIVAS DE MAYAGUEZ,PUERTO RICO DEPARTMENT OF EDUCATION,MayagÃƒÂ¼ez Municipio,PO BOX 1550,MAYAGUEZ,PR,682,,(787)832-3720,41,Rural: Fringe,No,†,–,–,237,22,10.8,198,17
720003000776,PR-01-45310,7200030,PR-01,UG,UG,CENTRO VOCACIONAL ESPECIAL,PUERTO RICO DEPARTMENT OF EDUCATION,Aguada Municipio,PO BOX 1653,AGUADA,PR,602,,(787)868-3245,21,Suburb: Large,No,†,Yes,Yes,128,17,7.5,107,9
720003000637,PR-01-42572,7200030,PR-01,PK,5,CERRO GORDO MEDINA,PUERTO RICO DEPARTMENT OF EDUCATION,Moca Municipio,PO BOX 2360,MOCA,PR,676,,(787)877-5850,21,Suburb: Large,No,†,Yes,Yes,173,17,10.2,144,13
720003000228,PR-01-23259,7200030,PR-01,KG,5,CHARLES E. MINER,PUERTO RICO DEPARTMENT OF EDUCATION,Caguas Municipio,URB VILLA NUEVA CALLE 25,CAGUAS,PR,727,,(787)744-7779,13,City: Small,No,†,Yes,Yes,233,19,12.3,194,18
720003000240,PR-01-20727,7200030,PR-01,KG,5,CIPRIANO MANRIQUE,PUERTO RICO DEPARTMENT OF EDUCATION,Caguas Municipio,PO BOX 5591,CAGUAS,PR,725,,(787)747-3600,21,Suburb: Large,No,†,Yes,Yes,195,18,10.8,163,14
720003000618,PR-01-28100,7200030,PR-01,KG,5,CLAUDIO FERRER COTTO,PUERTO RICO DEPARTMENT OF EDUCATION,ComerÃƒÂ­o Municipio,PO BOX 1123,COMERIO,PR,782,,(787)875-3265,21,Suburb: Large,No,†,Yes,Yes,181,21,8.6,151,13
720003000151,PR-01-21493,7200030,PR-01,KG,8,CLEMENCIA MELENDEZ,PUERTO RICO DEPARTMENT OF EDUCATION,Cidra Municipio,PO BOX 650,CIDRA,PR,739,,(787)739-8913,21,Suburb: Large,No,†,Yes,Yes,389,34,11.4,324,29
720003001962,PR-01-74237,7200030,PR-01,KG,8,COLEEN VAZQUEZ URRUTIA,PUERTO RICO DEPARTMENT OF EDUCATION,Naranjito Municipio,PO BOX 916,NARANJITO,PR,719,,(787)869-1309,21,Suburb: Large,No,†,Yes,Yes,376,33,11.4,313,28
720003000276,PR-01-23143,7200030,PR-01,KG,5,CONCEPCION MENDEZ CANO,PUERTO RICO DEPARTMENT OF EDUCATION,Caguas Municipio,PO BOX 9808,CAGUAS,PR,725,,(787)744-1735,13,City: Small,No,†,Yes,Yes,193,23,8.4,161,14
720003000587,PR-01-42911,7200030,PR-01,KG,6,CONRADO RODRIGUEZ,PUERTO RICO DEPARTMENT OF EDUCATION,RincÃƒÂ³n Municipio,PO BOX 681,RINCON,PR,677,,(787)823-0005,21,Suburb: Large,No,†,Yes,Yes,197,20,9.9,164,15
720003001007,PR-01-52886,7200030,PR-01,KG,5,COQUI INTERMEDIA,PUERTO RICO DEPARTMENT OF EDUCATION,Salinas Municipio,PO BOX 2,SALINAS,PR,751,,(787)853-4800,41,Rural: Fringe,No,†,Yes,Yes,233,21,11.1,194,18
720003001684,PR-01-10173,7200030,PR-01,UG,UG,COTTO ANEXO,PUERTO RICO DEPARTMENT OF EDUCATION,Arecibo Municipio,PO BOX 9582,ARECIBO,PR,612,,(787)878-8160,13,City: Small,No,†,Yes,Yes,22,9,2.4,18,1
720003000750,PR-01-58503,7200030,PR-01,9,12,CRISTINA (AMADA) MARTINEZ MARTINEZ,PUERTO RICO DEPARTMENT OF EDUCATION,Villalba Municipio,PO BOX 1504,VILLALBA,PR,766,,(787)847-5940,23,Suburb: Small,No,†,Yes,Yes,328,28,11.7,274,24
720003001518,PR-01-70425,7200030,PR-01,KG,5,CRISTOBAL COLON,PUERTO RICO DEPARTMENT OF EDUCATION,BayamÃƒÂ³n Municipio,PO BOX 8712 SANTA JUANITA MAIL STATION SANTA JUANITA,BAYAMON,PR,956,,(787)785-1190,21,Suburb: Large,No,†,Yes,Yes,179,19,9.4,149,14
720003000323,PR-01-32714,7200030,PR-01,KG,5,CRISTOBAL DEL CAMPO,PUERTO RICO DEPARTMENT OF EDUCATION,Yabucoa Municipio,PO BOX 622,YABUCOA,PR,767,,(787)893-3332,21,Suburb: Large,No,†,Yes,Yes,270,28,9.6,225,20
720003000717,PR-01-76562,7200030,PR-01,KG,8,CRISTOBAL SANTANA MELECIO (NUEVA),PUERTO RICO DEPARTMENT OF EDUCATION,Dorado Municipio,BOX 628,DORADO,PR,646,,(787)870-3416,21,Suburb: Large,No,†,Yes,Yes,232,28,8.3,193,18
720003000640,PR-01-42812,7200030,PR-01,PK,5,CUCHILLAS,PUERTO RICO DEPARTMENT OF EDUCATION,Moca Municipio,PO BOX 1672,MOCA,PR,676,,(787)877-3150,21,Suburb: Large,No,†,Yes,Yes,249,21,11.9,208,18
720003001185,PR-01-51334,7200030,PR-01,KG,3,DALILA TORRES,PUERTO RICO DEPARTMENT OF EDUCATION,Guayanilla Municipio,PO BOX 560490,GUAYANILLA,PR,656,,(787)835-2030,23,Suburb: Small,No,†,Yes,Yes,169,21,8,140,13
720003000602,PR-01-58263,7200030,PR-01,PK,5,DANIEL SERRANO RIVERA,PUERTO RICO DEPARTMENT OF EDUCATION,Villalba Municipio,PO BOX 1509,VILLALBA,PR,766,,(787)851-5027,23,Suburb: Small,No,†,Yes,Yes,373,26,14.3,311,28
720003001219,PR-01-71639,7200030,PR-01,PK,6,DELIA DAVILA DE CABAN,PUERTO RICO DEPARTMENT OF EDUCATION,Toa Baja Municipio,5TA CALLE LAGO LAS CURIAS,TOA BAJA,PR,949,,(787)261-1340,21,Suburb: Large,No,†,Yes,Yes,260,16,16.3,217,19
720003000274,PR-01-20735,7200030,PR-01,KG,8,DIEGO VAZQUEZ,PUERTO RICO DEPARTMENT OF EDUCATION,Caguas Municipio,PO BOX 4956 SUITE 1271,CAGUAS,PR,725,,(787)743-3695,13,City: Small,No,†,Yes,Yes,161,19,8.5,134,12
720003001964,PR-01-26153,7200030,PR-01,KG,5,DOLORES GONZALEZ,PUERTO RICO DEPARTMENT OF EDUCATION,Arroyo Municipio,PO BOX 357,ARROYO,PR,714,,(787)839-5177,23,Suburb: Small,No,†,Yes,Yes,115,14,8.2,95,9
720003001611,PR-01-11643,7200030,PR-01,9,12,DOMINGO APONTE COLLAZO,PUERTO RICO DEPARTMENT OF EDUCATION,Lares Municipio,PO BOX 820,LARES,PR,669,,(787)897-2408,21,Suburb: Large,No,†,Yes,Yes,950,67,14.2,792,71
720003001145,PR-01-50252,7200030,PR-01,KG,5,DOMINGO MASSOL,PUERTO RICO DEPARTMENT OF EDUCATION,Adjuntas Municipio,PO BOX 1029,ADJUNTAS,PR,601,,(787)829-2494,41,Rural: Fringe,No,†,Yes,Yes,105,12,8.8,87,8
720003000507,PR-01-58081,7200030,PR-01,KG,5,DOMINGO PIETRI RUIZ,PUERTO RICO DEPARTMENT OF EDUCATION,Adjuntas Municipio,PO BOX 1029,ADJUNTAS,PR,601,,(787)829-3510,41,Rural: Fringe,No,†,Yes,Yes,446,31,14.4,372,33
720003000582,PR-01-35907,7200030,PR-01,KG,5,DON LUIS MUNOZ MARIN (ELEMENTAL URBANA NUEVA),PUERTO RICO DEPARTMENT OF EDUCATION,Ceiba Municipio,APARTADO 235,CEIBA,PR,742,,(787)787-2565,23,Suburb: Small,No,†,Yes,Yes,435,37,11.8,363,32
720003000887,PR-01-53330,7200030,PR-01,KG,5,DORIS MARTINEZ (ALMACIGO ALTO 2),PUERTO RICO DEPARTMENT OF EDUCATION,Yauco Municipio,HC 2 BOX 11623,YAUCO,PR,698,,(787)856-9028,23,Suburb: Small,No,†,Yes,Yes,101,13,7.8,84,8
720003001886,PR-01-54866,7200030,PR-01,KG,8,DR ALFREDO M AGUAYO,PUERTO RICO DEPARTMENT OF EDUCATION,Ponce Municipio,137 AVENIDA HOSTOS,PONCE,PR,731,,(787)843-1305,12,City: Midsize,No,†,Yes,Yes,284,23,12.3,237,21
720003000567,PR-01-17707,7200030,PR-01,PK,5,DR EFRAIN GONZALEZ TEJERA,PUERTO RICO DEPARTMENT OF EDUCATION,Utuado Municipio,PO BOX 490,UTUADO,PR,641,,(787)894-7245,41,Rural: Fringe,No,†,Yes,Yes,149,16,9.3,124,11
720003001923,PR-01-46003,7200030,PR-01,6,8,DR EFRAIN SANCHEZ HIDALGO,PUERTO RICO DEPARTMENT OF EDUCATION,Moca Municipio,PO BOX 736,MOCA,PR,676,,(787)818-0941,21,Suburb: Large,No,†,Yes,Yes,536,44,12.2,447,40
720003002035,PR-01-57299,7200030,PR-01,9,12,DR PEDRO ALBIZU CAMPOS,PUERTO RICO DEPARTMENT OF EDUCATION,Ponce Municipio,PO BOX 7393,PONCE,PR,731,,(787)841-2548,12,City: Midsize,No,†,Yes,Yes,124,17,7.3,103,10
720003001820,PR-01-55889,7200030,PR-01,KG,5,DR PEDRO ALBIZU CAMPOS,PUERTO RICO DEPARTMENT OF EDUCATION,Juana DÃƒÂ­az Municipio,PO BOX 1412,JUANA DIAZ,PR,795,,(787)260-0406,23,Suburb: Small,No,†,Yes,Yes,299,26,11.5,249,22
720003000530,PR-01-31286,7200030,PR-01,KG,5,DR PEDRO ALBIZU CAMPOS,PUERTO RICO DEPARTMENT OF EDUCATION,CanÃƒÂ³vanas Municipio,PO BOX 1636,CANOVANAS,PR,745,,(787)876-4610,21,Suburb: Large,No,†,Yes,Yes,354,23,15.4,295,26
720003001223,PR-01-71670,7200030,PR-01,9,12,DR PEDRO ALBIZU CAMPOS,PUERTO RICO DEPARTMENT OF EDUCATION,Toa Baja Municipio,PO BOX 51901,TOA BAJA,PR,949,,(787)784-4605,21,Suburb: Large,No,†,Yes,Yes,744,45,16.5,620,56
720003000662,PR-01-42077,7200030,PR-01,9,12,DR PEDRO PEREA FAJARDO,PUERTO RICO DEPARTMENT OF EDUCATION,MayagÃƒÂ¼ez Municipio,PO BOX 1330,MAYAGUEZ,PR,680,,(787)833-0865,13,City: Small,No,†,Yes,Yes,922,67,13.8,769,68
720003001074,PR-01-24810,7200030,PR-01,6,12,DR RAFAEL LOPEZ LANDRON,PUERTO RICO DEPARTMENT OF EDUCATION,Guayama Municipio,PO BOX 90,GUAYAMA,PR,784,,(787)864-4366,13,City: Small,No,†,Yes,Yes,528,38,13.9,440,39
720003000611,PR-01-41699,7200030,PR-01,KG,5,DR SILVERIO MEDINA GAUD (CONSUMO),PUERTO RICO DEPARTMENT OF EDUCATION,Las MarÃƒÂ­as Municipio,PO BOX 233,LAS MARIAS,PR,670,,(787)831-0818,41,Rural: Fringe,No,†,Yes,Yes,96,10,9.6,80,7
720003001528,PR-01-70516,7200030,PR-01,9,12,DR. AGUSTIN STAHL,PUERTO RICO DEPARTMENT OF EDUCATION,BayamÃƒÂ³n Municipio,CALLE PARQUE ESQ BETANCES BOX 425,BAYAMON,PR,956,,(787)785-1279,21,Suburb: Large,No,†,Yes,Yes,446,36,12.4,372,33
720003001370,PR-01-61333,7200030,PR-01,KG,5,DR. ANTONIO S. PEDREIRA (ESPECIALIZADA),PUERTO RICO DEPARTMENT OF EDUCATION,San Juan Municipio,URB PUERTO NUEVO CALLE ANGEL ESQ ANDORRA,SAN JUAN,PR,928,,(787)782-1030,11,City: Large,No,†,Yes,Yes,287,23,12.5,239,22
720003000753,PR-01-40022,7200030,PR-01,10,12,DR. CARLOS GONZALEZ,PUERTO RICO DEPARTMENT OF EDUCATION,Aguada Municipio,PO BOX 1516,AGUADA,PR,602,,(787)868-3280,21,Suburb: Large,No,†,Yes,Yes,901,48,18.8,751,67
720003001719,PR-01-10439,7200030,PR-01,KG,8,DR. CAYETANO COLL Y TOSTE,PUERTO RICO DEPARTMENT OF EDUCATION,Arecibo Municipio,PO BOX 992,ARECIBO,PR,612,,(787)881-5429,23,Suburb: Small,No,†,Yes,Yes,599,59,10.2,500,44
720003001220,PR-01-71647,7200030,PR-01,KG,5,DR. EFRAIN SANCHEZ HIDALGO,PUERTO RICO DEPARTMENT OF EDUCATION,Toa Baja Municipio,PO BOX 2477,TOA BAJA,PR,950,,(787)784-5570,21,Suburb: Large,No,†,Yes,Yes,415,34,12.2,346,31
720003001266,PR-01-61655,7200030,PR-01,6,12,DR. FACUNDO BUESO,PUERTO RICO DEPARTMENT OF EDUCATION,San Juan Municipio,PO BOX 7278,SAN JUAN,PR,915,,(787)727-4578,11,City: Large,No,†,Yes,Yes,495,37,13.4,413,36
720003001273,PR-01-61622,7200030,PR-01,KG,6,DR. FRANCISCO HERNANDEZ Y GAETAN,PUERTO RICO DEPARTMENT OF EDUCATION,San Juan Municipio,CALLE LABRA PDA 18,SAN JUAN,PR,901,,(787)722-4676,11,City: Large,No,†,Yes,Yes,241,25,9.6,201,18
720003001874,PR-01-15792,7200030,PR-01,9,12,DR. HERIBERTO DOMENECH,PUERTO RICO DEPARTMENT OF EDUCATION,Isabela Municipio,PO BOX 540,ISABELA,PR,662,,(787)830-2915,21,Suburb: Large,No,†,Yes,Yes,766,56,13.7,639,57
720003001547,PR-01-70136,7200030,PR-01,PK,5,DR. HIRAM GONZALEZ,PUERTO RICO DEPARTMENT OF EDUCATION,BayamÃƒÂ³n Municipio,PO BOX 265,BAYAMON,PR,957,,(787)785-2536,21,Suburb: Large,No,†,Yes,Yes,349,39,8.9,291,26
720003001500,PR-01-70565,7200030,PR-01,UG,UG,DR. JOSE A. PADIN,PUERTO RICO DEPARTMENT OF EDUCATION,BayamÃƒÂ³n Municipio,URB LOMAS VERDES,BAYAMON,PR,956,,(787)785-0010,21,Suburb: Large,No,†,Yes,Yes,93,15,6.2,78,6
720003001526,PR-01-70490,7200030,PR-01,6,8,DR. JOSE ANTONIO DAVILA,PUERTO RICO DEPARTMENT OF EDUCATION,BayamÃƒÂ³n Municipio,PO BOX 132,BAYAMON,PR,956,,(787)785-2292,21,Suburb: Large,No,†,Yes,Yes,417,37,11.3,348,31
720003001287,PR-01-61663,7200030,PR-01,6,12,DR. JOSE CELSO BARBOSA,PUERTO RICO DEPARTMENT OF EDUCATION,San Juan Municipio,PO BOX 9066246,SAN JUAN,PR,901,,(787)721-9014,11,City: Large,No,†,Yes,Yes,276,22,12.5,230,21
720003001020,PR-01-52084,7200030,PR-01,KG,5,DR. JOSE CELSO BARBOSA,PUERTO RICO DEPARTMENT OF EDUCATION,Ponce Municipio,PO BOX 4081,PONCE,PR,731,,(787)842-8671,12,City: Midsize,No,†,Yes,Yes,160,15,10.7,133,12
720003001469,PR-01-65003,7200030,PR-01,9,12,DR. JOSE M. LAZARO,PUERTO RICO DEPARTMENT OF EDUCATION,Carolina Municipio,PO BOX 3629 VA HEIGHS,CAROLINA,PR,979,,(787)769-3638,12,City: Midsize,No,†,Yes,Yes,574,45,12.8,479,42
720003001570,PR-01-20362,7200030,PR-01,9,12,DR. JOSE N. GANDARA,PUERTO RICO DEPARTMENT OF EDUCATION,Aibonito Municipio,PO BOX 1269,AIBONITO,PR,705,,(787)735-7290,21,Suburb: Large,No,†,Yes,Yes,529,39,13.6,441,39
720003001449,PR-01-71043,7200030,PR-01,KG,12,DR. JOSE PADIN,PUERTO RICO DEPARTMENT OF EDUCATION,Corozal Municipio,PO BOX 1700,COROZAL,PR,783,,(787)859-0304,41,Rural: Fringe,No,†,Yes,Yes,479,52,9.2,399,36
720003000253,PR-01-20818,7200030,PR-01,9,12,DR. JUAN JOSE OSUNA,PUERTO RICO DEPARTMENT OF EDUCATION,Caguas Municipio,PO BOX 9173,CAGUAS,PR,725,,(787)747-8629,13,City: Small,No,†,Yes,Yes,336,38,8.8,280,25
720003001256,PR-01-63073,7200030,PR-01,KG,5,DR. JULIO J. HENNA,PUERTO RICO DEPARTMENT OF EDUCATION,San Juan Municipio,CALLE 11 VILLA PALMERAS,SAN JUAN,PR,925,,(787)726-4803,11,City: Large,No,†,Yes,Yes,301,21,14.3,251,22
720003000359,PR-01-57877,7200030,PR-01,6,12,DR. MAXIMO DONOSO SANCHEZ,PUERTO RICO DEPARTMENT OF EDUCATION,Juana DÃƒÂ­az Municipio,PO BOX 1407,JUANA DIAZ,PR,795,,(787)260-4694,23,Suburb: Small,No,†,Yes,Yes,466,36,12.9,389,34
720003001473,PR-01-66001,7200030,PR-01,KG,5,DR. MODESTO RIVERA RIVERA,PUERTO RICO DEPARTMENT OF EDUCATION,Carolina Municipio,PO BOX 209,CAROLINA,PR,985,,(787)762-7505,12,City: Midsize,No,†,Yes,Yes,367,34,10.8,306,27
720003000159,PR-01-27540,7200030,PR-01,6,8,DR. PEDRO ALBIZU CAMPOS,PUERTO RICO DEPARTMENT OF EDUCATION,Aguas Buenas Municipio,PO BOX 786,AGUAS BUENAS,PR,703,,(787)732-1040,21,Suburb: Large,No,†,Yes,Yes,284,29,9.8,237,21
720003000101,PR-01-12872,7200030,PR-01,6,8,DR. PEDRO ALBIZU CAMPOS,PUERTO RICO DEPARTMENT OF EDUCATION,Quebradillas Municipio,PO BOX 1008,QUEBRADILLAS,PR,678,,(787)895-2780,22,Suburb: Midsize,No,†,Yes,Yes,180,24,7.5,150,13
720003001030,PR-01-52688,7200030,PR-01,9,12,DR. PILA,PUERTO RICO DEPARTMENT OF EDUCATION,Ponce Municipio,PO BOX 238,PONCE,PR,732,,(787)840-4800,12,City: Midsize,No,†,Yes,Yes,403,34,11.9,336,30
720003001111,PR-01-52522,7200030,PR-01,6,8,DR. RAFAEL PUJALS,PUERTO RICO DEPARTMENT OF EDUCATION,Ponce Municipio,PO BOX 330726,PONCE,PR,731,,(787)840-4600,12,City: Midsize,No,†,Yes,Yes,282,21,13.4,235,21
720003001898,PR-01-25627,7200030,PR-01,6,8,DR. RAMON EMETERIO BETANCES,PUERTO RICO DEPARTMENT OF EDUCATION,Cayey Municipio,PO BOX 371119,CAYEY,PR,737,,(787)738-3745,21,Suburb: Large,No,†,Yes,Yes,469,39,12,391,35
720003001906,PR-01-30247,7200030,PR-01,9,12,DR. SANTIAGO VEVE CALZADA,PUERTO RICO DEPARTMENT OF EDUCATION,Fajardo Municipio,PO BOX 1027,FAJARDO,PR,738,,(787)863-0125,23,Suburb: Small,No,†,Yes,Yes,280,24,11.7,233,21
720003000571,PR-01-28076,7200030,PR-01,KG,8,DRA. CARMEN DELIA COLON MARTINEZ,PUERTO RICO DEPARTMENT OF EDUCATION,Aibonito Municipio,PO BOX 970,AIBONITO,PR,705,,(787)991-0040,21,Suburb: Large,No,†,Yes,Yes,400,34,11.8,334,29
720003002048,PR-01-26773,7200030,PR-01,9,12,DRA. CONCHITA CUEVAS,PUERTO RICO DEPARTMENT OF EDUCATION,Gurabo Municipio,PO BOX 1293,GURABO,PR,778,,(787)737-2700,21,Suburb: Large,No,†,Yes,Yes,523,40,13.1,436,39
720003000745,PR-01-18192,7200030,PR-01,9,12,DRA. MARIA CADILLA DE MARTINEZ,PUERTO RICO DEPARTMENT OF EDUCATION,Arecibo Municipio,PO BOX 1118,ARECIBO,PR,614,,(787)878-1068,13,City: Small,No,†,Yes,Yes,481,46,10.5,401,36
720003001828,PR-01-28563,7200030,PR-01,9,12,DRA. MARIA SOCORRO LACOT,PUERTO RICO DEPARTMENT OF EDUCATION,Guayama Municipio,PO BOX 150,GUAYAMA,PR,784,,(787)864-0685,13,City: Small,No,†,Yes,Yes,1094,74,14.8,912,81
720003000311,PR-01-27607,7200030,PR-01,KG,8,DRA. MARIA T DELGADO DE MARCANO,PUERTO RICO DEPARTMENT OF EDUCATION,San Lorenzo Municipio,PO BOX 9929,SAN LORENZO,PR,754,,(787)736-0470,21,Suburb: Large,No,†,Yes,Yes,578,39,14.8,482,43
720003000732,PR-01-37507,7200030,PR-01,KG,12,ECOLOGICA DE CULEBRA,PUERTO RICO DEPARTMENT OF EDUCATION,Culebra Municipio,PO BOX 848,CULEBRA,PR,775,,(787)742-0730,42,Rural: Distant,No,†,Yes,Yes,146,19,7.7,122,11
720003001822,PR-01-34314,7200030,PR-01,KG,5,EDMUNDO DEL VALLE CRUZ,PUERTO RICO DEPARTMENT OF EDUCATION,RÃƒÂ­o Grande Municipio,PO BOX 848,RIO GRANDE,PR,745,,(787)887-8950,21,Suburb: Large,No,†,Yes,Yes,425,30,14.2,354,32
720003002029,PR-01-34926,7200030,PR-01,9,12,EDUARDO GARCIA CARRILLO,PUERTO RICO DEPARTMENT OF EDUCATION,CanÃƒÂ³vanas Municipio,PO BOX 1636,CANOVANAS,PR,745,,(787)886-2200,21,Suburb: Large,No,†,Yes,Yes,256,21,12.2,213,19
720003001467,PR-01-60301,7200030,PR-01,7,12,EDUARDO J. SALDANA,PUERTO RICO DEPARTMENT OF EDUCATION,Carolina Municipio,PO BOX 3122,CAROLINA,PR,983,,(787)769-3753,12,City: Midsize,No,†,Yes,Yes,169,16,10.6,140,13
720003001029,PR-01-52118,7200030,PR-01,KG,8,EDUARDO NEUMANN GANDIA,PUERTO RICO DEPARTMENT OF EDUCATION,Ponce Municipio,PO BOX 7025,PONCE,PR,731,,(787)840-0112,12,City: Midsize,No,†,Yes,Yes,404,32,12.6,337,30
720003000149,PR-01-21576,7200030,PR-01,KG,12,EDUCACION BILINGUE LUIS MUNOZ IGLESIAS,PUERTO RICO DEPARTMENT OF EDUCATION,Cidra Municipio,PO BOX 650,CIDRA,PR,739,,(787)739-2535,21,Suburb: Large,No,†,–,–,393,26,15.1,328,29
720003001830,PR-01-60095,7200030,PR-01,KG,6,EL CONQUISTADOR,PUERTO RICO DEPARTMENT OF EDUCATION,Trujillo Alto Municipio,PO BOX 631,TRUJILLO ALTO,PR,976,,(787)760-2865,21,Suburb: Large,No,†,Yes,Yes,294,26,11.3,245,22
720003000260,PR-01-20412,7200030,PR-01,KG,5,EL FARALLON,PUERTO RICO DEPARTMENT OF EDUCATION,Barranquitas Municipio,PO BOX 69,BARRANQUITAS,PR,794,,(787)857-2435,21,Suburb: Large,No,†,Yes,Yes,161,16,10.1,134,12
720003001307,PR-01-66076,7200030,PR-01,KG,5,EL SENORIAL,PUERTO RICO DEPARTMENT OF EDUCATION,San Juan Municipio,URB EL SENORIAL,SAN JUAN,PR,924,,(787)761-5920,11,City: Large,No,†,Yes,Yes,324,27,12,270,24
720003001869,PR-01-46086,7200030,PR-01,9,12,ELADIO TIRADO LOPEZ,PUERTO RICO DEPARTMENT OF EDUCATION,Aguada Municipio,BOX 9000SUITE 671,AGUADA,PR,602,,(787)868-2161,21,Suburb: Large,No,†,Yes,Yes,337,47,7.2,281,25
720003001708,PR-01-15024,7200030,PR-01,KG,5,ELBA LUGO CARRION (ESPECIALIZADA),PUERTO RICO DEPARTMENT OF EDUCATION,Arecibo Municipio,PO BOX 9941,ARECIBO,PR,614,,(787)879-4825,13,City: Small,No,†,Yes,Yes,399,35,11.4,333,29
720003000619,PR-01-35923,7200030,PR-01,KG,8,ELEMENTAL BARRIO LAS 400,PUERTO RICO DEPARTMENT OF EDUCATION,CanÃƒÂ³vanas Municipio,APTO. 1636,CANOVANAS,PR,745,,(787)876-7280,21,Suburb: Large,No,†,Yes,Yes,160,11,14.5,133,12
720003001889,PR-01-18259,7200030,PR-01,KG,8,ELEMENTAL BO HIGUILLAR (ECOLOGICA),PUERTO RICO DEPARTMENT OF EDUCATION,Dorado Municipio,CARR 695 KM1 HM16 BO HIGUILLAR,DORADO,PR,646,,(787)898-2795,21,Suburb: Large,No,†,Yes,Yes,547,41,13.3,456,41
720003000450,PR-01-17657,7200030,PR-01,PK,5,ELEMENTAL CEFERINA CORDERO,PUERTO RICO DEPARTMENT OF EDUCATION,Isabela Municipio,P O BOX 951,ISABELA,PR,662,,(787)872-0464,13,City: Small,No,†,Yes,Yes,354,34,10.4,295,26
720003000451,PR-01-17673,7200030,PR-01,PK,5,ELEMENTAL DANIEL VELEZ SOTO,PUERTO RICO DEPARTMENT OF EDUCATION,Lares Municipio,PO BOX 387,LARES,PR,669,,(787)897-3060,21,Suburb: Large,No,†,Yes,Yes,425,36,11.8,354,32
720003000609,PR-01-77289,7200030,PR-01,KG,8,ELEMENTAL NUEVA,PUERTO RICO DEPARTMENT OF EDUCATION,San Juan Municipio,AVE RAMON B LOPEZ SABANA LLANA,SAN JUAN,PR,923,,(787)274-8255,11,City: Large,No,†,Yes,Yes,239,22,10.9,199,18
720003000591,PR-01-48017,7200030,PR-01,PK,5,ELEMENTAL NUEVA,PUERTO RICO DEPARTMENT OF EDUCATION,Hormigueros Municipio,APTO 10,HORMIGUEROS,PR,660,,(787)849-2610,22,Suburb: Midsize,No,†,Yes,Yes,347,31,11.2,289,26
720003000607,PR-01-17780,7200030,PR-01,KG,5,ELEMENTAL NUEVA (FACTOR V),PUERTO RICO DEPARTMENT OF EDUCATION,Arecibo Municipio,PO BOX 907 GARROCHALES,ARECIBO,PR,614,,(787)881-3090,23,Suburb: Small,No,†,Yes,Yes,393,37,10.6,328,29
720003001783,PR-01-71720,7200030,PR-01,KG,5,ELEMENTAL URBANA,PUERTO RICO DEPARTMENT OF EDUCATION,Vega Alta Municipio,PO BOX 2197,VEGA ALTA,PR,692,,(787)883-2770,21,Suburb: Large,No,†,Yes,Yes,201,23,8.7,168,15
720003000608,PR-01-50120,7200030,PR-01,PK,8,ELEMENTAL URBANA NUEVA,PUERTO RICO DEPARTMENT OF EDUCATION,Lajas Municipio,PO BOX 1693,LAJAS,PR,667,,(787)838-2245,41,Rural: Fringe,No,†,Yes,Yes,533,38,14,445,39
720003001364,PR-01-61358,7200030,PR-01,KG,5,ELEONOR ROOSEVELT,PUERTO RICO DEPARTMENT OF EDUCATION,San Juan Municipio,CALLE ANTOLIN ESQ SANTIAGO CASTILLO,SAN JUAN,PR,928,,(787)763-4518,11,City: Large,No,†,Yes,Yes,278,20,13.9,231,21
720003001722,PR-01-18176,7200030,PR-01,PK,5,ELI RAMOS ROSARIO,PUERTO RICO DEPARTMENT OF EDUCATION,Barceloneta Municipio,APARTADO 668,BARCELONETA,PR,617,,(787)846-3165,23,Suburb: Small,No,†,Yes,Yes,352,40,8.8,294,26
720003001790,PR-01-71795,7200030,PR-01,KG,5,ELISA DAVILA VAZQUEZ (ESPINOSA ADENTRO),PUERTO RICO DEPARTMENT OF EDUCATION,Vega Alta Municipio,PO BOX 1626,VEGA ALTA,PR,692,,(787)883-1165,21,Suburb: Large,No,†,Yes,Yes,190,17,11.2,158,15
720003001871,PR-01-25601,7200030,PR-01,9,12,ELOISA PASCUAL,PUERTO RICO DEPARTMENT OF EDUCATION,Caguas Municipio,PMB 2133 PO BOX 4953,CAGUAS,PR,725,,(787)746-5506,13,City: Small,No,†,Yes,Yes,385,28,13.8,321,29
720003001863,PR-01-45955,7200030,PR-01,KG,8,ELPIDIO H. RIVERA,PUERTO RICO DEPARTMENT OF EDUCATION,MayagÃƒÂ¼ez Municipio,PO BOX 3050,MAYAGUEZ,PR,682,,(787)833-5560,13,City: Small,No,†,Yes,Yes,674,44,15.3,562,50
720003001164,PR-01-50690,7200030,PR-01,PK,5,ELSA E COUTO ANNONI,PUERTO RICO DEPARTMENT OF EDUCATION,GuÃƒÂ¡nica Municipio,PO BOX 1037,GUANICA,PR,653,,(787)821-7308,23,Suburb: Small,No,†,Yes,Yes,165,13,12.7,138,12
720003000182,PR-01-57703,7200030,PR-01,9,12,ELVIRA M. COLON NEGRON,PUERTO RICO DEPARTMENT OF EDUCATION,Santa Isabel Municipio,PO BOX 847,SANTA ISABEL,PR,757,,(787)845-2751,31,Town: Fringe,No,†,Yes,Yes,398,37,10.8,332,29
720003000166,PR-01-47571,7200030,PR-01,PK,8,ELVIRA RUPERTO QUILES (RIO CANAS ABAJO),PUERTO RICO DEPARTMENT OF EDUCATION,MayagÃƒÂ¼ez Municipio,PO BOX 3050 / APT 6575,MAYAGUEZ,PR,682,,(787)831-0050,22,Suburb: Midsize,No,†,Yes,Yes,293,24,12.2,244,22
720003000902,PR-01-53603,7200030,PR-01,6,8,ELVIRA VICENTE,PUERTO RICO DEPARTMENT OF EDUCATION,Yauco Municipio,PO BOX 48,YAUCO,PR,698,,(787)856-7043,23,Suburb: Small,No,†,Yes,Yes,292,16,18.3,243,22
720003000174,PR-01-21188,7200030,PR-01,PK,6,EMERITA LEON ELEMENTAL,PUERTO RICO DEPARTMENT OF EDUCATION,Cayey Municipio,PO BOX 372966,CAYEY,PR,736,,(787)738-2410,21,Suburb: Large,No,†,Yes,Yes,453,39,11.6,377,34
720003001362,PR-01-62513,7200030,PR-01,KG,5,EMILIO DEL TORO CUEVAS,PUERTO RICO DEPARTMENT OF EDUCATION,San Juan Municipio,PO BOX 190299,SAN JUAN,PR,928,,(787)753-0384,11,City: Large,No,†,Yes,Yes,167,17,9.8,139,13
720003001438,PR-01-70888,7200030,PR-01,9,12,EMILIO R. DELGADO,PUERTO RICO DEPARTMENT OF EDUCATION,Corozal Municipio,PO BOX 1807,COROZAL,PR,783,,(787)859-2037,21,Suburb: Large,No,†,Yes,Yes,763,56,13.6,636,57
720003001927,PR-01-46201,7200030,PR-01,KG,8,EMILIO SCHARON RODRIGUEZ,PUERTO RICO DEPARTMENT OF EDUCATION,San SebastiÃƒÂ¡n Municipio,PO BOX 4691,SAN SEBASTIAN,PR,685,,(787)896-4142,21,Suburb: Large,No,†,Yes,Yes,377,37,10.2,314,28
720003000719,PR-01-15404,7200030,PR-01,PK,5,EPIFANIO ESTRADA,PUERTO RICO DEPARTMENT OF EDUCATION,Isabela Municipio,PO BOX 545,ISABELA,PR,662,,(787)872-4650,21,Suburb: Large,No,†,Yes,Yes,217,19,11.4,181,16
720003001548,PR-01-70144,7200030,PR-01,KG,5,EPIFANIO FERNANDEZ VANGA,PUERTO RICO DEPARTMENT OF EDUCATION,BayamÃƒÂ³n Municipio,PO BOX 8774,BAYAMON,PR,960,,(787)785-8373,21,Suburb: Large,No,†,Yes,Yes,379,30,12.6,316,28
720003001236,PR-01-71571,7200030,PR-01,PK,6,ERNESTINA BRACERO,PUERTO RICO DEPARTMENT OF EDUCATION,Toa Baja Municipio,PO BOX 2500 PMB 233,TOA BAJA,PR,951,,(787)784-5540,21,Suburb: Large,No,†,Yes,Yes,165,16,10.3,138,12
720003002017,PR-01-46805,7200030,PR-01,6,8,ERNESTINA MENDEZ,PUERTO RICO DEPARTMENT OF EDUCATION,San SebastiÃƒÂ¡n Municipio,SUITE 138,SAN SEBASTIAN,PR,685,,(787)896-1745,21,Suburb: Large,No,†,Yes,Yes,537,34,15.8,448,40
720003002007,PR-01-53470,7200030,PR-01,6,12,ERNESTO RAMOS ANTONINI,PUERTO RICO DEPARTMENT OF EDUCATION,Yauco Municipio,APARTADO 5137,YAUCO,PR,698,,(787)856-1370,23,Suburb: Small,No,†,Yes,Yes,437,38,11.5,364,33
720003001265,PR-01-63131,7200030,PR-01,6,8,ERNESTO RAMOS ANTONINI,PUERTO RICO DEPARTMENT OF EDUCATION,San Juan Municipio,PO BOX 14134,SAN JUAN,PR,924,,(787)726-4480,11,City: Large,No,†,Yes,Yes,327,20,16.4,273,24
720003001057,PR-01-54288,7200030,PR-01,KG,8,ERNESTO RAMOS ANTONINI,PUERTO RICO DEPARTMENT OF EDUCATION,Ponce Municipio,PO BOX 7856,PONCE,PR,731,,(787)843-2336,12,City: Midsize,No,†,Yes,Yes,338,34,9.9,282,25
720003001378,PR-01-64402,7200030,PR-01,6,12,ERNESTO RAMOS ANTONINI (MUSICA),PUERTO RICO DEPARTMENT OF EDUCATION,San Juan Municipio,PO BOX 192157,SAN JUAN,PR,919,,(787)754-1335,11,City: Large,No,†,–,–,483,70,6.9,403,36
720003001845,PR-01-28555,7200030,PR-01,KG,6,ERNESTO VICENTE CARATTINI (ELEMENTAL BO CEIBA),PUERTO RICO DEPARTMENT OF EDUCATION,Cidra Municipio,CARR 782 KM 6 HM 2 BO CEIBA,CIDRA,PR,739,,(787)739-0155,21,Suburb: Large,No,†,Yes,Yes,177,19,9.3,148,13
720003000357,PR-01-35550,7200030,PR-01,–,–,ESC. LIBRE DE MUSICA HUMACAO (ESPECIALIZADA),PUERTO RICO DEPARTMENT OF EDUCATION,Humacao Municipio,PO BOX 487,HUMACAO,PR,792,,(787)285-7901,21,Suburb: Large,No,†,–,–,†,26,†,†,†
720003000314,PR-01-17343,7200030,PR-01,–,–,ESCUELA DE BELLAS ARTES (ESPECIALIZADA),PUERTO RICO DEPARTMENT OF EDUCATION,Arecibo Municipio,PO BOX 524,ARECIBO,PR,614,,(787)881-2882,23,Suburb: Small,No,†,–,–,†,11,†,†,†
720003000781,PR-01-40519,7200030,PR-01,6,12,ESCUELA ESPECIALIZADA BILINGUE ALCIDES FIGUEROA,PUERTO RICO DEPARTMENT OF EDUCATION,AÃƒÂ±asco Municipio,PO BOX 1788,ANASCO,PR,610,,(787)826-2195,21,Suburb: Large,No,†,Yes,Yes,337,22,15.3,281,25
720003000137,PR-01-21832,7200030,PR-01,9,12,ESCUELA ESPECIALIZADA EN BEISBOL-MANUEL CRUZ MACEIRA,PUERTO RICO DEPARTMENT OF EDUCATION,ComerÃƒÂ­o Municipio,PO BOX 1123,COMERIO,PR,782,,(787)875-5806,21,Suburb: Large,No,†,Yes,Yes,84,12,7,70,6
720003001883,PR-01-14316,7200030,PR-01,–,–,ESCUELA LIBRE DE MUSICA (ESPECIALIZADA),PUERTO RICO DEPARTMENT OF EDUCATION,Arecibo Municipio,PO BOX 2794,ARECIBO,PR,614,,(787)879-3567,13,City: Small,No,†,–,–,†,18,†,†,†
720003001945,PR-01-06372,7200030,PR-01,KG,2,ESCUELA PUBLICA ALIANZA VIMENTI SCHOOL,PUERTO RICO DEPARTMENT OF EDUCATION,San Juan Municipio,PO BOX 79526,CAROLINA,PR,984,9526,(787)772-4729,11,City: Large,Yes,†,Yes,Yes,58,4,14.5,48,5
720003001921,PR-01-22772,7200030,PR-01,7,12,ESPECIALIZADA DE BELLAS ARTES,PUERTO RICO DEPARTMENT OF EDUCATION,Cayey Municipio,PO BOX 650,CAYEY,PR,737,,(787)739-4230,21,Suburb: Large,No,†,Yes,Yes,243,28,8.7,202,18
720003000035,PR-01-12260,7200030,PR-01,PK,5,ESPERANZA GONZALEZ,PUERTO RICO DEPARTMENT OF EDUCATION,Morovis Municipio,HC 1 BOX 2386,MOROVIS,PR,687,,(787)862-2792,41,Rural: Fringe,No,†,Yes,Yes,261,23,11.3,218,19
720003000795,PR-01-40626,7200030,PR-01,PK,5,ESPINO,PUERTO RICO DEPARTMENT OF EDUCATION,AÃƒÂ±asco Municipio,PO BOX 1818,ANASCO,PR,610,,(787)826-3380,21,Suburb: Large,No,†,Yes,Yes,246,23,10.7,205,18
720003000142,PR-01-47084,7200030,PR-01,KG,8,ESTEBAN ROSADO BAEZ,PUERTO RICO DEPARTMENT OF EDUCATION,MayagÃƒÂ¼ez Municipio,SUITE 294,MAYAGUEZ,PR,682,,(787)831-6199,13,City: Small,No,†,Yes,Yes,395,33,12,329,30
720003001985,PR-01-46664,7200030,PR-01,6,8,ESTER FELICIANO MENDOZA,PUERTO RICO DEPARTMENT OF EDUCATION,Aguadilla Municipio,PO BOX 250299,AGUADILLA,PR,603,,(787)890-2418,21,Suburb: Large,No,†,Yes,Yes,395,33,12,329,30
720003000390,PR-01-31617,7200030,PR-01,KG,5,EUGENIO BRAC,PUERTO RICO DEPARTMENT OF EDUCATION,Naguabo Municipio,PO BOX 508,NAGUABO,PR,718,,(787)874-3295,23,Suburb: Small,No,†,Yes,Yes,251,31,8.1,209,19
720003002066,PR-01-57281,7200030,PR-01,7,12,EUGENIO GUERRA CRUZ,PUERTO RICO DEPARTMENT OF EDUCATION,Salinas Municipio,PO BOX 2004,SALINAS,PR,751,,(787)824-1534,41,Rural: Fringe,No,†,Yes,Yes,315,46,6.8,263,23
720003001938,PR-01-56440,7200030,PR-01,6,8,EUGENIO LE COMPTE BENITEZ,PUERTO RICO DEPARTMENT OF EDUCATION,Ponce Municipio,PO BOX 7091,PONCE,PR,731,,(787)844-4552,12,City: Midsize,No,†,Yes,Yes,387,30,12.9,322,29
720003000090,PR-01-11403,7200030,PR-01,KG,5,EUGENIO MARIA DE HOSTOS,PUERTO RICO DEPARTMENT OF EDUCATION,Hatillo Municipio,PO BOX 7,HATILLO,PR,659,,(787)898-1586,22,Suburb: Midsize,No,†,Yes,Yes,282,31,9.1,235,21
720003000592,PR-01-47977,7200030,PR-01,KG,8,EUGENIO MARIA DE HOSTOS (INTERMEDIA),PUERTO RICO DEPARTMENT OF EDUCATION,Las MarÃƒÂ­as Municipio,#5 CALLE PALMER SUITE 1,LAS MARIAS,PR,670,,(787)827-2100,21,Suburb: Large,No,†,Yes,Yes,532,45,11.8,444,39
720003001884,PR-01-48298,7200030,PR-01,9,12,EUGENIO MARIA DE HOSTOS (SUPERIOR),PUERTO RICO DEPARTMENT OF EDUCATION,MayagÃƒÂ¼ez Municipio,CALLE NENADICH ESQ VAZQUEZ,MAYAGUEZ,PR,680,,(787)832-2062,13,City: Small,No,†,Yes,Yes,823,57,14.4,686,61
720003001928,PR-01-46219,7200030,PR-01,9,12,EVA Y PATRIA CUSTODIO,PUERTO RICO DEPARTMENT OF EDUCATION,Las MarÃƒÂ­as Municipio,163 CALLE MATIAS BRUGMAN,LAS MARIAS,PR,670,,(787)827-4115,21,Suburb: Large,No,†,Yes,Yes,306,27,11.3,255,23
720003001649,PR-01-12138,7200030,PR-01,KG,5,EVARISTO CAMACHO,PUERTO RICO DEPARTMENT OF EDUCATION,ManatÃƒÂ­ Municipio,PO BOX 506,MANATI,PR,674,,(787)854-6315,21,Suburb: Large,No,†,Yes,Yes,121,11,11,101,9
720003001293,PR-01-61556,7200030,PR-01,KG,8,EVARISTO RIVERA CHEVREMONT,PUERTO RICO DEPARTMENT OF EDUCATION,San Juan Municipio,RES VISTA HERMOSA,SAN JUAN,PR,928,,(787)792-0255,11,City: Large,No,†,Yes,Yes,292,27,10.8,244,21
720003001587,PR-01-69021,7200030,PR-01,PK,6,FAIR VIEW,PUERTO RICO DEPARTMENT OF EDUCATION,Trujillo Alto Municipio,PO BOX 1236,TRUJILLO ALTO,PR,976,,(787)761-3280,21,Suburb: Large,No,†,Yes,Yes,290,25,11.6,242,21
720003001503,PR-01-70599,7200030,PR-01,KG,6,FAUSTINO SANTIAGO MONTALVO,PUERTO RICO DEPARTMENT OF EDUCATION,BayamÃƒÂ³n Municipio,URB JARDINES DE CAPARRA,BAYAMON,PR,959,,(787)787-3251,21,Suburb: Large,No,†,Yes,Yes,215,17,12.6,179,16
720003000061,PR-01-63032,7200030,PR-01,6,10,FEDERICO ASENJO (PRE-TECNICA),PUERTO RICO DEPARTMENT OF EDUCATION,San Juan Municipio,PO BOX 14426,SAN JUAN,PR,915,,(787)268-0770,11,City: Large,No,†,Yes,Yes,381,26,14.7,318,28
720003000268,PR-01-20552,7200030,PR-01,KG,8,FEDERICO DEGETAU (SU PALO HINCADO),PUERTO RICO DEPARTMENT OF EDUCATION,Barranquitas Municipio,PO BOX 956,BARRANQUITAS,PR,794,,(787)857-0646,21,Suburb: Large,No,†,Yes,Yes,484,44,11,403,36
720003000207,PR-01-27599,7200030,PR-01,KG,5,FEDERICO DEGETAU II,PUERTO RICO DEPARTMENT OF EDUCATION,Aibonito Municipio,PO BOX 2139,AIBONITO,PR,705,,(787)735-7628,21,Suburb: Large,No,†,Yes,Yes,314,33,9.5,262,23
720003000026,PR-01-51631,7200030,PR-01,6,8,FELIPE COLON DIAZ,PUERTO RICO DEPARTMENT OF EDUCATION,Juana DÃƒÂ­az Municipio,PO BOX 3500 SUITE 155,JUANA DIAZ,PR,795,,(787)837-2365,23,Suburb: Small,No,†,Yes,Yes,510,39,13.1,425,38
720003001323,PR-01-62521,7200030,PR-01,KG,5,FELIPE GUTIERREZ,PUERTO RICO DEPARTMENT OF EDUCATION,San Juan Municipio,ESQ ANA OTERO,SAN JUAN,PR,924,,(787)767-5395,11,City: Large,No,†,Yes,Yes,305,26,11.7,254,23
720003001867,PR-01-25619,7200030,PR-01,6,8,FELIPE RIVERA CENTENO,PUERTO RICO DEPARTMENT OF EDUCATION,Caguas Municipio,PO BOX 1177,CAGUAS,PR,727,,(787)746-5660,13,City: Small,No,†,Yes,Yes,347,24,14.5,289,26
720003001651,PR-01-12070,7200030,PR-01,KG,5,FELIX CORDOVA DAVILA,PUERTO RICO DEPARTMENT OF EDUCATION,ManatÃƒÂ­ Municipio,PO BOX 30160 SUITE 173,MANATI,PR,674,,(787)854-4255,21,Suburb: Large,No,†,Yes,Yes,342,30,11.4,285,26
720003000998,PR-01-52795,7200030,PR-01,KG,5,FELIX GARAY ORTIZ,PUERTO RICO DEPARTMENT OF EDUCATION,Salinas Municipio,PO BOX 6001 SUITE 057,SALINAS,PR,751,,(787)824-4265,31,Town: Fringe,No,†,Yes,Yes,179,18,9.9,149,14
720003000354,PR-01-35535,7200030,PR-01,KG,5,FELIX SANCHEZ CRUZ,PUERTO RICO DEPARTMENT OF EDUCATION,RÃƒÂ­o Grande Municipio,CALL BOX 3001 PO BOX 575,RIO GRANDE,PR,745,,(787)888-7699,21,Suburb: Large,No,†,Yes,Yes,310,28,11.1,258,23
720003001885,PR-01-36350,7200030,PR-01,PK,9,FERMIN DELGADO DIAZ (SU BO PENA POBRE),PUERTO RICO DEPARTMENT OF EDUCATION,Naguabo Municipio,CARR 31 INT 850 BO PENA POBRE,NAGUABO,PR,718,,(787)874-6445,21,Suburb: Large,No,†,Yes,Yes,320,25,12.8,267,24
720003001643,PR-01-12088,7200030,PR-01,9,12,FERNANDO CALLEJO,PUERTO RICO DEPARTMENT OF EDUCATION,ManatÃƒÂ­ Municipio,PO BOX 3355,MANATI,PR,674,,(787)854-2629,21,Suburb: Large,No,†,Yes,Yes,526,35,15,439,39
720003001104,PR-01-52050,7200030,PR-01,KG,8,FERNANDO LUIS MALAVE OLIVERA,PUERTO RICO DEPARTMENT OF EDUCATION,Ponce Municipio,PO BOX 7851,PONCE,PR,731,,(787)843-2048,12,City: Midsize,No,†,Yes,Yes,517,43,12,431,38
720003001724,PR-01-10702,7200030,PR-01,9,12,FERNANDO SURIA CHAVEZ,PUERTO RICO DEPARTMENT OF EDUCATION,Barceloneta Municipio,PO BOX 2066,BARCELONETA,PR,617,,(787)846-6750,23,Suburb: Small,No,†,Yes,Yes,707,52,13.6,590,52
720003001439,PR-01-70904,7200030,PR-01,KG,5,FIDEL LOPEZ COLON,PUERTO RICO DEPARTMENT OF EDUCATION,Corozal Municipio,PO BOX 623,COROZAL,PR,783,,(787)859-4592,21,Suburb: Large,No,†,Yes,Yes,437,36,12.1,364,33
720003000392,PR-01-33225,7200030,PR-01,6,8,FIDELINA MELENDEZ MONSANTO,PUERTO RICO DEPARTMENT OF EDUCATION,Naguabo Municipio,PO BOX 638,NAGUABO,PR,718,,(787)874-3315,23,Suburb: Small,No,†,Yes,Yes,274,20,13.7,229,20
720003000381,PR-01-35592,7200030,PR-01,9,12,FLORENCIA GARCIA,PUERTO RICO DEPARTMENT OF EDUCATION,Las Piedras Municipio,PO BOX 1221,LAS PIEDRAS,PR,771,,(787)716-0044,21,Suburb: Large,No,†,Yes,Yes,466,34,13.7,389,34
720003000925,PR-01-55350,7200030,PR-01,6,8,FLORENCIO SANTIAGO,PUERTO RICO DEPARTMENT OF EDUCATION,Coamo Municipio,PO BOX 1912,COAMO,PR,769,,(787)825-1575,31,Town: Fringe,No,†,Yes,Yes,344,24,14.3,287,25
720003001226,PR-01-71704,7200030,PR-01,KG,8,FRANCISCA DAVILA SEMPRIT,PUERTO RICO DEPARTMENT OF EDUCATION,Toa Baja Municipio,PO BOX 2477,TOA BAJA,PR,949,,(787)784-3455,21,Suburb: Large,No,†,Yes,Yes,396,33,12,330,30
720003002013,PR-01-62182,7200030,PR-01,KG,5,FRANCISCO (PRISCO) FUENTES,PUERTO RICO DEPARTMENT OF EDUCATION,Carolina Municipio,SUITE 143,CANOVANAS,PR,979,,(787)750-4060,12,City: Midsize,No,†,Yes,Yes,536,40,13.4,447,40
720003000531,PR-01-76349,7200030,PR-01,KG,8,FRANCISCO FELICIE MARTINEZ (SU BRENAS),PUERTO RICO DEPARTMENT OF EDUCATION,Vega Alta Municipio,PO BOX 1507,VEGA ALTA,PR,692,,(787)883-4535,21,Suburb: Large,No,†,Yes,Yes,639,43,14.9,533,47
720003001692,PR-01-14787,7200030,PR-01,KG,5,FRANCISCO G. PACHIN MARIN,PUERTO RICO DEPARTMENT OF EDUCATION,Arecibo Municipio,URB VISTA AZUL CALLE 17,ARECIBO,PR,612,,(787)878-2019,13,City: Small,No,†,Yes,Yes,393,30,13.1,328,29
720003000055,PR-01-27318,7200030,PR-01,KG,8,FRANCISCO GARCIA BOYRIE,PUERTO RICO DEPARTMENT OF EDUCATION,Guayama Municipio,APRTADO 2370,GUAYAMA,PR,785,,(787)864-3879,13,City: Small,No,†,Yes,Yes,370,37,10,309,27
720003000364,PR-01-78733,7200030,PR-01,9,12,FRANCISCO GAZTAMBIDE VEGA,PUERTO RICO DEPARTMENT OF EDUCATION,BayamÃƒÂ³n Municipio,RR 5 BOX 7943,BAYAMON,PR,959,,(787)799-0563,21,Suburb: Large,No,†,Yes,Yes,464,32,14.5,387,34
720003001776,PR-01-13326,7200030,PR-01,KG,8,FRANCISCO JORDAN,PUERTO RICO DEPARTMENT OF EDUCATION,Utuado Municipio,PO BOX 1956,UTUADO,PR,641,,(787)894-7705,41,Rural: Fringe,No,†,Yes,Yes,208,19,10.9,173,16
720003000706,PR-01-78956,7200030,PR-01,KG,5,FRANCISCO LOPEZ CRUZ,PUERTO RICO DEPARTMENT OF EDUCATION,Naranjito Municipio,PO BOX 926,NARANJITO,PR,719,,(787)869-3230,21,Suburb: Large,No,†,Yes,Yes,413,36,11.5,344,31
720003001534,PR-01-70284,7200030,PR-01,6,12,FRANCISCO MANRIQUE CABRERA,PUERTO RICO DEPARTMENT OF EDUCATION,BayamÃƒÂ³n Municipio,URB REXVILLE CALLE 41 FINAL,BAYAMON,PR,957,,(787)797-1850,21,Suburb: Large,No,†,Yes,Yes,744,58,12.8,620,56
720003001472,PR-01-65987,7200030,PR-01,PK,6,FRANCISCO MATIAS LUGO,PUERTO RICO DEPARTMENT OF EDUCATION,Carolina Municipio,PO BOX 3474,CAROLINA,PR,983,,(787)757-0410,12,City: Midsize,No,†,Yes,Yes,591,47,12.6,493,44
720003000703,PR-01-15248,7200030,PR-01,9,12,FRANCISCO MENDOZA,PUERTO RICO DEPARTMENT OF EDUCATION,Isabela Municipio,PO BOX 1776,ISABELA,PR,662,,(787)872-2275,13,City: Small,No,†,Yes,Yes,760,50,15.2,634,56
720003001650,PR-01-12062,7200030,PR-01,KG,5,FRANCISCO MENENDEZ BALBANE,PUERTO RICO DEPARTMENT OF EDUCATION,ManatÃƒÂ­ Municipio,PMB 106,MANATI,PR,674,,(787)854-3063,23,Suburb: Small,No,†,Yes,Yes,76,9,8.4,63,6
720003000097,PR-01-71225,7200030,PR-01,9,12,FRANCISCO MORALES,PUERTO RICO DEPARTMENT OF EDUCATION,Naranjito Municipio,PO BOX 25,NARANJITO,PR,719,,(787)869-5277,21,Suburb: Large,No,†,Yes,Yes,400,27,14.8,333,30
720003001432,PR-01-70813,7200030,PR-01,9,12,FRANCISCO OLLER,PUERTO RICO DEPARTMENT OF EDUCATION,CataÃƒÂ±o Municipio,PO BOX 51914 LEVITTOWN,TOA BAJA,PR,962,,(787)788-1696,21,Suburb: Large,No,†,Yes,Yes,599,40,15,500,44
720003000623,PR-01-58255,7200030,PR-01,KG,8,FRANCISCO PRADO PICART,PUERTO RICO DEPARTMENT OF EDUCATION,Juana DÃƒÂ­az Municipio,HC 01 BOX 4470,JUANA DIAZ,PR,795,,(787)787-8048,23,Suburb: Small,No,†,Yes,Yes,261,24,10.9,218,19
720003001761,PR-01-13151,7200030,PR-01,6,8,FRANCISCO RAMOS SANCHEZ,PUERTO RICO DEPARTMENT OF EDUCATION,Utuado Municipio,PO BOX 950 APARTADO 1389,UTUADO,PR,641,,(787)894-2470,21,Suburb: Large,No,†,Yes,Yes,345,24,14.4,287,26
720003000032,PR-01-12245,7200030,PR-01,6,8,FRANCISCO RIVERA CLAUDIO,PUERTO RICO DEPARTMENT OF EDUCATION,Morovis Municipio,PO BOX 388,MOROVIS,PR,687,,(787)862-4985,21,Suburb: Large,No,†,Yes,Yes,358,26,13.8,299,26
720003000542,PR-01-76356,7200030,PR-01,PK,5,FRANCISCO ROQUE MUNOZ,PUERTO RICO DEPARTMENT OF EDUCATION,Naranjito Municipio,PO BOX 790,NARANJITO,PR,719,,(787)869-3121,21,Suburb: Large,No,†,Yes,Yes,170,19,8.9,141,13
720003000301,PR-01-21006,7200030,PR-01,KG,5,FRANCISCO VALDES ROLA,PUERTO RICO DEPARTMENT OF EDUCATION,Caguas Municipio,PMB 1224 PO BOX 4956,CAGUAS,PR,725,,(787)747-9464,21,Suburb: Large,No,†,Yes,Yes,160,17,9.4,133,12
720003000646,PR-01-53256,7200030,PR-01,6,8,FRANCISCO ZAYAS SANTANA,PUERTO RICO DEPARTMENT OF EDUCATION,Villalba Municipio,PO BOX 1549,VILLALBA,PR,766,,(787)847-2275,23,Suburb: Small,No,†,Yes,Yes,458,32,14.3,382,34
720003001262,PR-01-66167,7200030,PR-01,KG,5,FRAY BARTOLOME DE LAS CASAS,PUERTO RICO DEPARTMENT OF EDUCATION,San Juan Municipio,PO BOX 7368,SAN JUAN,PR,915,,(787)726-5169,11,City: Large,No,†,Yes,Yes,271,20,13.6,226,20
720003000503,PR-01-30197,7200030,PR-01,KG,5,GABINO SOTO,PUERTO RICO DEPARTMENT OF EDUCATION,Fajardo Municipio,PO BOX 759,FAJARDO,PR,738,,(787)863-8482,23,Suburb: Small,No,†,Yes,Yes,233,17,13.7,194,18
720003001374,PR-01-61382,7200030,PR-01,9,12,GABRIELA MISTRAL,PUERTO RICO DEPARTMENT OF EDUCATION,San Juan Municipio,901 AVE DE DIEGO,SAN JUAN,PR,928,,(787)782-4208,11,City: Large,No,†,Yes,Yes,561,47,11.9,468,41
720003001637,PR-01-11593,7200030,PR-01,7,12,GABRIELA MISTRAL,PUERTO RICO DEPARTMENT OF EDUCATION,Lares Municipio,PO BOX 561 CASTANER,LARES,PR,669,,(787)829-1198,41,Rural: Fringe,No,†,Yes,Yes,140,16,8.8,117,10
720003001944,PR-01-62562,7200030,PR-01,KG,5,GASPAR VILA MAYANS,PUERTO RICO DEPARTMENT OF EDUCATION,San Juan Municipio,1015 CALLE GENERAL VALERO,SAN JUAN,PR,928,,(787)767-1402,11,City: Large,No,†,Yes,Yes,223,22,10.1,185,17
720003001440,PR-01-70912,7200030,PR-01,KG,5,GENARO BOU,PUERTO RICO DEPARTMENT OF EDUCATION,Corozal Municipio,PO BOX 709,COROZAL,PR,783,,(787)859-1566,21,Suburb: Large,No,†,Yes,Yes,144,20,7.2,120,11
720003001999,PR-01-24786,7200030,PR-01,6,12,GENARO CAUTINO,PUERTO RICO DEPARTMENT OF EDUCATION,Guayama Municipio,PO BOX 90,GUAYAMA,PR,784,,(787)864-0668,13,City: Small,No,†,Yes,Yes,374,31,12.1,312,28
720003000005,PR-01-23309,7200030,PR-01,6,8,GENEROSO MORALES MUNOZ,PUERTO RICO DEPARTMENT OF EDUCATION,San Lorenzo Municipio,PO BOX 1281,SAN LORENZO,PR,754,,(787)736-6658,21,Suburb: Large,No,†,Yes,Yes,325,21,15.5,271,24
720003001615,PR-01-12005,7200030,PR-01,KG,5,GEORGE WASHINGTON,PUERTO RICO DEPARTMENT OF EDUCATION,Lares Municipio,PO BOX 1357,LARES,PR,669,,(787)897-4095,21,Suburb: Large,No,†,Yes,Yes,166,16,10.4,138,13
720003000550,PR-01-43257,7200030,PR-01,PK,5,GEORGINA ALVARADO,PUERTO RICO DEPARTMENT OF EDUCATION,San GermÃƒÂ¡n Municipio,PO BOX 65,SAN GERMAN,PR,683,,(787)892-5756,22,Suburb: Midsize,No,†,Yes,Yes,188,17,11.1,157,14
720003002032,PR-01-35048,7200030,PR-01,KG,12,GEORGINA BAQUERO,PUERTO RICO DEPARTMENT OF EDUCATION,CanÃƒÂ³vanas Municipio,CALL BOX 35000 SUITE 20126,CANOVANAS,PR,745,,(787)876-7807,21,Suburb: Large,No,†,Yes,Yes,385,29,13.3,321,29
720003000279,PR-01-23598,7200030,PR-01,6,12,GERARDO SELLES SOLA,PUERTO RICO DEPARTMENT OF EDUCATION,Caguas Municipio,PO BOX 669,CAGUAS,PR,725,,(787)743-3276,13,City: Small,No,†,Yes,Yes,372,29,12.8,310,28
720003000335,PR-01-33043,7200030,PR-01,9,12,GERMAN RIECKEHOFF,PUERTO RICO DEPARTMENT OF EDUCATION,Vieques Municipio,PO BOX 857,VIEQUES,PR,765,,(787)741-8340,32,Town: Distant,No,†,Yes,Yes,239,20,12,199,18
720003001878,PR-01-69930,7200030,PR-01,9,12,GILBERTO CONCEPCION DE GRACIA,PUERTO RICO DEPARTMENT OF EDUCATION,Carolina Municipio,PO BOX 3458,CAROLINA,PR,984,,(787)768-2216,12,City: Midsize,No,†,Yes,Yes,860,52,16.5,717,64
720003000595,PR-01-58164,7200030,PR-01,KG,8,GLORIA MARIA BORRERO OLIVERAS (SEGUNDA UNIDAD BO. MACANA),PUERTO RICO DEPARTMENT OF EDUCATION,Guayanilla Municipio,PO BOX 560510,GUAYANILLA,PR,656,,(787)899-1096,23,Suburb: Small,No,†,Yes,Yes,654,46,14.2,545,49
720003001881,PR-01-34272,7200030,PR-01,KG,8,GUILLERMINA ROSADO DE AYALA,PUERTO RICO DEPARTMENT OF EDUCATION,LoÃƒÂ­za Municipio,APARTADO 507,LOIZA,PR,772,,(787)256-2050,21,Suburb: Large,No,†,Yes,Yes,513,35,14.7,428,38
720003000384,PR-01-25197,7200030,PR-01,PK,6,GUILLERMO RIEFKHOL,PUERTO RICO DEPARTMENT OF EDUCATION,Patillas Municipio,PO BOX 607,PATILLAS,PR,723,,(787)839-8231,23,Suburb: Small,No,†,Yes,Yes,148,10,14.8,123,11
720003001356,PR-01-64527,7200030,PR-01,KG,5,GUSTAVO A. BECQUER,PUERTO RICO DEPARTMENT OF EDUCATION,San Juan Municipio,PO BOX 9300469,SAN JUAN,PR,917,,(787)764-4260,11,City: Large,No,†,Yes,Yes,180,18,10,150,13
720003000071,PR-01-11239,7200030,PR-01,KG,5,HATO VIEJO CUMBRE,PUERTO RICO DEPARTMENT OF EDUCATION,Ciales Municipio,PO BOX 1391,CIALES,PR,638,,(787)871-3616,21,Suburb: Large,No,†,Yes,Yes,107,10,10.7,89,8
720003000233,PR-01-23119,7200030,PR-01,6,8,HAYDEE CABALLERO,PUERTO RICO DEPARTMENT OF EDUCATION,Caguas Municipio,PO BOX 7285,CAGUAS,PR,727,,(787)744-4575,13,City: Small,No,†,Yes,Yes,364,43,8.5,304,27
720003001802,PR-01-18226,7200030,PR-01,KG,5,HECTOR HERNANDEZ ARANA (INTERMEDIA BO PILETAS),PUERTO RICO DEPARTMENT OF EDUCATION,Lares Municipio,PO BOX 342,LARES,PR,669,,(787)897-2350,21,Suburb: Large,No,†,Yes,Yes,373,31,12,311,28
720003001151,PR-01-50229,7200030,PR-01,KG,8,HECTOR I. RIVERA,PUERTO RICO DEPARTMENT OF EDUCATION,Adjuntas Municipio,PO BOX 1102,ADJUNTAS,PR,601,,(787)829-3030,41,Rural: Fringe,No,†,Yes,Yes,384,30,12.8,320,29
720003001100,PR-01-52142,7200030,PR-01,6,8,HEMETERIO COLON,PUERTO RICO DEPARTMENT OF EDUCATION,Ponce Municipio,21 CALLE CONCORDIA 8139,PONCE,PR,731,,(787)840-3500,12,City: Midsize,No,†,Yes,Yes,300,18,16.7,250,22
720003000538,PR-01-43323,7200030,PR-01,PK,5,HENRY W. LONGFELLOW,PUERTO RICO DEPARTMENT OF EDUCATION,San GermÃƒÂ¡n Municipio,PO BOX 65,SAN GERMAN,PR,683,,(787)892-7110,13,City: Small,No,†,Yes,Yes,364,28,13,304,27
720003001599,PR-01-69138,7200030,PR-01,PK,6,HERMINA DIAZ APONTE (LAGO ALTO),PUERTO RICO DEPARTMENT OF EDUCATION,Trujillo Alto Municipio,1167 CALLE PATILLAS,TRUJILLO ALTO,PR,976,,(787)761-1425,21,Suburb: Large,No,†,Yes,Yes,228,14,16.3,190,17
720003000552,PR-01-43307,7200030,PR-01,PK,5,HERMINIA C. RAMIREZ,PUERTO RICO DEPARTMENT OF EDUCATION,San GermÃƒÂ¡n Municipio,PO BOX 65,SAN GERMAN,PR,683,,(787)892-1320,22,Suburb: Midsize,No,†,Yes,Yes,226,19,11.9,188,17
720003001109,PR-01-54635,7200030,PR-01,KG,5,HERMINIA GARCIA,PUERTO RICO DEPARTMENT OF EDUCATION,Ponce Municipio,9 CALLE E,PONCE,PR,733,,(787)840-6455,12,City: Midsize,No,†,Yes,Yes,589,38,15.5,491,44
720003001509,PR-01-70664,7200030,PR-01,KG,8,HERMINIA RIVERA FERNANDEZ (GUARAGUAO CARRETERA),PUERTO RICO DEPARTMENT OF EDUCATION,BayamÃƒÂ³n Municipio,DISTRITO ESCOLAR DE BAYAMON C/BETANCES,BAYAMON,PR,956,,(787)787-9774,21,Suburb: Large,No,†,Yes,Yes,368,32,11.5,307,27
720003001193,PR-01-51292,7200030,PR-01,PK,5,HERMINIO ARZOLA EMMANUELLI (QUEBRADAS),PUERTO RICO DEPARTMENT OF EDUCATION,Guayanilla Municipio,PO BOX 560250,GUAYANILLA,PR,656,,(787)835-2145,23,Suburb: Small,No,†,Yes,Yes,242,17,14.2,202,18
720003000237,PR-01-57828,7200030,PR-01,6,8,HERMINIO W SANTAELLA,PUERTO RICO DEPARTMENT OF EDUCATION,Coamo Municipio,PO BOX 3000 SUITE 227,COAMO,PR,769,,(787)825-5559,31,Town: Fringe,No,†,Yes,Yes,277,17,16.3,231,21
720003001196,PR-01-51177,7200030,PR-01,KG,8,HIPOLITO GARCIA BORRERO,PUERTO RICO DEPARTMENT OF EDUCATION,Guayanilla Municipio,PO BOX 560546,GUAYANILLA,PR,656,,(787)835-2985,23,Suburb: Small,No,†,Yes,Yes,301,27,11.1,251,22
720003000741,PR-01-40295,7200030,PR-01,KG,5,HOMERO RIVERA SOLA,PUERTO RICO DEPARTMENT OF EDUCATION,Aguadilla Municipio,PO BOX 4022,AGUADILLA,PR,603,,(787)891-8064,21,Suburb: Large,No,†,Yes,Yes,305,23,13.3,254,23
720003001786,PR-01-71753,7200030,PR-01,KG,5,IGNACIO MIRANDA,PUERTO RICO DEPARTMENT OF EDUCATION,Vega Alta Municipio,PO BOX 1447,VEGA ALTA,PR,692,,(787)883-2775,21,Suburb: Large,No,†,Yes,Yes,347,23,15.1,289,26
720003000410,PR-01-79038,7200030,PR-01,9,12,ILEANA DE GRACIA (SUPERIOR NUEVA),PUERTO RICO DEPARTMENT OF EDUCATION,Vega Alta Municipio,APARTADO 198,VEGA ALTA,PR,692,,(787)270-3355,21,Suburb: Large,No,†,Yes,Yes,466,35,13.3,389,34
720003001729,PR-01-10744,7200030,PR-01,KG,5,IMBERY,PUERTO RICO DEPARTMENT OF EDUCATION,Barceloneta Municipio,PO BOX 2052,BARCELONETA,PR,617,,(787)846-0361,23,Suburb: Small,No,†,Yes,Yes,359,26,13.8,299,27
720003000647,PR-01-41913,7200030,PR-01,KG,5,INDIERA FRIA,PUERTO RICO DEPARTMENT OF EDUCATION,Maricao Municipio,PO BOX 6393,MARICAO,PR,606,,(787)838-2150,41,Rural: Fringe,No,†,Yes,Yes,61,11,5.5,51,4
720003000513,PR-01-30189,7200030,PR-01,KG,5,INES ENCARNACION,PUERTO RICO DEPARTMENT OF EDUCATION,Fajardo Municipio,PO BOX 1091,FAJARDO,PR,738,,(787)863-7570,23,Suburb: Small,No,†,Yes,Yes,174,16,10.9,145,13
720003001318,PR-01-62901,7200030,PR-01,PK,12,INES M MENDOZA VDA DE MUNOZ MARIN,PUERTO RICO DEPARTMENT OF EDUCATION,San Juan Municipio,497 URB LAS CUMBRES SUITE 568,SAN JUAN,PR,928,,(787)720-2853,21,Suburb: Large,No,†,Yes,Yes,930,63,14.8,776,68
720003000007,PR-01-23655,7200030,PR-01,PK,6,INES M. MENDOZA DE MUNOZ MARIN,PUERTO RICO DEPARTMENT OF EDUCATION,ComerÃƒÂ­o Municipio,PO BOX 1123,COMERIO,PR,782,,(787)875-2084,21,Suburb: Large,No,†,Yes,Yes,225,19,11.8,187,17
720003002051,PR-01-27078,7200030,PR-01,KG,5,INES MARIA MENDOZA,PUERTO RICO DEPARTMENT OF EDUCATION,Caguas Municipio,BOX 4952-PMB 260,CAGUAS,PR,727,,(787)744-6447,13,City: Small,No,†,Yes,Yes,212,21,10.1,176,16
720003002068,PR-01-57331,7200030,PR-01,KG,5,INES MARIA MENDOZA,PUERTO RICO DEPARTMENT OF EDUCATION,Yauco Municipio,PO BOX 5005 PMB 064,YAUCO,PR,698,,(787)267-0030,23,Suburb: Small,No,†,Yes,Yes,287,23,12.5,239,22
720003002019,PR-01-46821,7200030,PR-01,9,12,INES MARIA MENDOZA DE MUNOZ MARIN,PUERTO RICO DEPARTMENT OF EDUCATION,Cabo Rojo Municipio,PO BOX 610,CABO ROJO,PR,623,,(787)254-2288,22,Suburb: Midsize,No,†,Yes,Yes,483,35,13.8,403,36
720003001522,PR-01-70458,7200030,PR-01,KG,5,INES MARIA MENDOZA DE MUNOZ MARIN,PUERTO RICO DEPARTMENT OF EDUCATION,BayamÃƒÂ³n Municipio,PO BOX 916,BAYAMON,PR,961,,(787)780-8232,21,Suburb: Large,No,†,Yes,Yes,365,34,10.7,304,27
720003001781,PR-01-13359,7200030,PR-01,KG,8,INOCENCIO A. MONTERO,PUERTO RICO DEPARTMENT OF EDUCATION,Utuado Municipio,P O BOX 1853,UTUADO,PR,641,,(787)894-1448,41,Rural: Fringe,No,†,Yes,Yes,282,31,9.1,235,21
720003000259,PR-01-20479,7200030,PR-01,PK,6,INOCENCIO CINTRON ZAYAS,PUERTO RICO DEPARTMENT OF EDUCATION,Barranquitas Municipio,PO BOX 69,BARRANQUITAS,PR,794,,(787)857-3581,21,Suburb: Large,No,†,Yes,Yes,151,11,13.7,126,11
720003000242,PR-01-64279,7200030,PR-01,KG,8,INSTITUTO LOAIZA CORDERO,PUERTO RICO DEPARTMENT OF EDUCATION,San Juan Municipio,PO BOX 8622,SAN JUAN,PR,910,,(787)724-0893,11,City: Large,No,†,Yes,Yes,249,36,6.9,208,18
720003001907,PR-01-77461,7200030,PR-01,KG,8,INT BO QUEBRADA ARENAS,PUERTO RICO DEPARTMENT OF EDUCATION,Toa Alta Municipio,CARR 159 KM 19.0 BO QUEBRADA A,TOA BAJA,PR,949,,(787)870-2500,21,Suburb: Large,No,†,Yes,Yes,777,48,16.2,648,58
720003001909,PR-01-28456,7200030,PR-01,KG,8,INTERMEDIA BO QUEBRADILLAS,PUERTO RICO DEPARTMENT OF EDUCATION,Barranquitas Municipio,CARR 152 KM 7.5 BO QUEBRADILLAS,BARRANQUITAS,PR,794,,(787)857-7795,21,Suburb: Large,No,†,Yes,Yes,494,40,12.4,412,37
720003002082,PR-01-57562,7200030,PR-01,6,8,INTERMEDIA JUAN SERRALLES,PUERTO RICO DEPARTMENT OF EDUCATION,Ponce Municipio,PO BOX 1073,PONCE,PR,731,,(787)848-2005,23,Suburb: Small,No,†,Yes,Yes,354,26,13.6,295,26
720003001892,PR-01-15750,7200030,PR-01,6,8,IRMA DELIZ DE MUNOZ,PUERTO RICO DEPARTMENT OF EDUCATION,Isabela Municipio,PO BOX 560,ISABELA,PR,662,,(787)872-4070,13,City: Small,No,†,Yes,Yes,432,31,13.9,360,32
720003001979,PR-01-34462,7200030,PR-01,6,8,IRMA PEDRAZA RUIZ (INTERMEDIA NUEVA),PUERTO RICO DEPARTMENT OF EDUCATION,Ceiba Municipio,PO BOX 1070,CEIBA,PR,742,,(787)885-3170,23,Suburb: Small,No,†,Yes,Yes,309,21,14.7,258,23
720003001426,PR-01-70755,7200030,PR-01,PK,5,ISAAC DEL ROSARIO,PUERTO RICO DEPARTMENT OF EDUCATION,CataÃƒÂ±o Municipio,PO BOX 086,CATANO,PR,962,,(787)788-7210,21,Suburb: Large,No,†,Yes,Yes,590,43,13.7,492,44
720003001932,PR-01-54452,7200030,PR-01,KG,8,ISABEL ALVARADO ALVARADO,PUERTO RICO DEPARTMENT OF EDUCATION,Villalba Municipio,CARR 151 KM 2.2 BO HATO PUERCO,VILLALBA,PR,766,,(787)773-4075,23,Suburb: Small,No,†,Yes,Yes,429,33,13,358,32
720003001916,PR-01-34363,7200030,PR-01,9,12,ISABEL FLORES,PUERTO RICO DEPARTMENT OF EDUCATION,Juncos Municipio,PO BOX 2107,JUNCOS,PR,777,,(787)734-6816,21,Suburb: Large,No,†,Yes,Yes,443,32,13.8,369,33
720003000780,PR-01-40667,7200030,PR-01,6,8,ISABEL SUAREZ,PUERTO RICO DEPARTMENT OF EDUCATION,AÃƒÂ±asco Municipio,PO BOX 1874,ANASCO,PR,610,,(787)826-2575,21,Suburb: Large,No,†,Yes,Yes,412,32,12.9,344,30
720003001044,PR-01-52621,7200030,PR-01,KG,8,ISMAEL MALDONADO LUGARO,PUERTO RICO DEPARTMENT OF EDUCATION,Ponce Municipio,PO BOX 263,PONCE,PR,731,,(787)843-2135,12,City: Midsize,No,†,Yes,Yes,297,27,11,248,22
720003001409,PR-01-71076,7200030,PR-01,KG,5,JACINTO LOPEZ MARTINEZ,PUERTO RICO DEPARTMENT OF EDUCATION,Dorado Municipio,PO BOX 2474,TOA BAJA,PR,646,,(787)796-1255,21,Suburb: Large,No,†,Yes,Yes,460,47,9.8,384,34
720003000033,PR-01-12377,7200030,PR-01,9,12,JAIME A. COLLAZO DEL RIO,PUERTO RICO DEPARTMENT OF EDUCATION,Morovis Municipio,PO BOX 370,MOROVIS,PR,687,,(787)862-2300,21,Suburb: Large,No,†,Yes,Yes,636,48,13.3,530,47
720003000320,PR-01-32763,7200030,PR-01,PK,6,JAIME C. RODRIGUEZ,PUERTO RICO DEPARTMENT OF EDUCATION,Yabucoa Municipio,PO BOX 6,YABUCOA,PR,767,,(787)893-2010,21,Suburb: Large,No,†,Yes,Yes,175,15,11.7,146,13
720003000712,PR-01-17889,7200030,PR-01,PK,8,JAIME COIRA ORTIZ (SU POZAS),PUERTO RICO DEPARTMENT OF EDUCATION,Ciales Municipio,PO BOX 1412,CIALES,PR,638,,(787)871-4692,41,Rural: Fringe,No,†,Yes,Yes,200,21,9.5,167,15
720003001022,PR-01-52225,7200030,PR-01,KG,5,JAIME L. DREW,PUERTO RICO DEPARTMENT OF EDUCATION,Ponce Municipio,PO BOX 7025,PONCE,PR,731,,(787)842-7343,12,City: Midsize,No,†,Yes,Yes,301,25,12,251,22
720003000805,PR-01-40915,7200030,PR-01,KG,5,JAMES GARFIELD,PUERTO RICO DEPARTMENT OF EDUCATION,Cabo Rojo Municipio,PO BOX 770,CABO ROJO,PR,623,,(787)851-1825,22,Suburb: Midsize,No,†,Yes,Yes,275,27,10.2,229,21
720003001936,PR-01-56424,7200030,PR-01,6,8,JARDINES DE PONCE,PUERTO RICO DEPARTMENT OF EDUCATION,Ponce Municipio,LA RAMBLA SUITE 394,PONCE,PR,731,,(787)844-3400,12,City: Midsize,No,†,Yes,Yes,359,28,12.8,299,27
720003001490,PR-01-60228,7200030,PR-01,KG,6,JESUS MANUEL SUAREZ,PUERTO RICO DEPARTMENT OF EDUCATION,Carolina Municipio,VALLE ARRIBA HEIGHTS STATION,CAROLINA,PR,985,,(787)750-6211,21,Suburb: Large,No,†,Yes,Yes,198,18,11,165,15
720003001471,PR-01-65078,7200030,PR-01,KG,5,JESUS MARIA SANROMA,PUERTO RICO DEPARTMENT OF EDUCATION,Carolina Municipio,PO BOX 7738,CAROLINA,PR,983,,(787)769-8451,12,City: Midsize,No,†,Yes,Yes,375,30,12.5,313,28
720003001527,PR-01-70508,7200030,PR-01,6,8,JESUS SANCHEZ ERAZO,PUERTO RICO DEPARTMENT OF EDUCATION,BayamÃƒÂ³n Municipio,URB SANTA JUANITA CALLE MARTIZ SECC 9,BAYAMON,PR,956,,(787)787-4831,21,Suburb: Large,No,†,Yes,Yes,573,32,17.9,478,42
720003001597,PR-01-69112,7200030,PR-01,KG,6,JESUS SILVA,PUERTO RICO DEPARTMENT OF EDUCATION,Trujillo Alto Municipio,PO BOX 1189,TRUJILLO ALTO,PR,976,,(787)761-0565,21,Suburb: Large,No,†,Yes,Yes,338,32,10.6,282,25
720003001641,PR-01-12096,7200030,PR-01,6,8,JESUS T. PINERO,PUERTO RICO DEPARTMENT OF EDUCATION,ManatÃƒÂ­ Municipio,PO BOX 3158,MANATI,PR,674,,(787)854-2259,21,Suburb: Large,No,†,Yes,Yes,266,22,12.1,222,20
720003001494,PR-01-60335,7200030,PR-01,KG,8,JESUS T. PINERO,PUERTO RICO DEPARTMENT OF EDUCATION,Carolina Municipio,PO BOX 4099,CAROLINA,PR,985,,(787)769-3280,21,Suburb: Large,No,†,Yes,Yes,356,32,11.1,297,26
720003000302,PR-01-20784,7200030,PR-01,PK,5,JESUS T. PINERO,PUERTO RICO DEPARTMENT OF EDUCATION,Caguas Municipio,PO BOX 1542,CAGUAS,PR,725,,(787)747-1992,21,Suburb: Large,No,†,Yes,Yes,120,12,10,100,9
720003000148,PR-01-21550,7200030,PR-01,6,12,JESUS T. PINERO,PUERTO RICO DEPARTMENT OF EDUCATION,Cidra Municipio,PO BOX 650,CIDRA,PR,739,,(787)739-2481,21,Suburb: Large,No,†,Yes,Yes,456,46,9.9,380,34
720003000437,PR-01-31252,7200030,PR-01,PK,5,JOBOS,PUERTO RICO DEPARTMENT OF EDUCATION,LoÃƒÂ­za Municipio,PO BOX 507,LOIZA,PR,772,,(787)256-4500,21,Suburb: Large,No,†,Yes,Yes,269,20,13.5,224,20
720003001683,PR-01-10355,7200030,PR-01,PK,5,JOHN W. HARRIS,PUERTO RICO DEPARTMENT OF EDUCATION,Arecibo Municipio,PO BOX 9773,ARECIBO,PR,612,,(787)878-1514,13,City: Small,No,†,Yes,Yes,265,32,8.3,221,20
720003000031,PR-01-12369,7200030,PR-01,KG,5,JORGE L MARRERO PADILLA (ELEMENTAL URBANA),PUERTO RICO DEPARTMENT OF EDUCATION,Morovis Municipio,PO BOX 687,MOROVIS,PR,687,,(787)862-2570,21,Suburb: Large,No,†,Yes,Yes,335,36,9.3,279,25
720003000621,PR-01-35972,7200030,PR-01,KG,12,JORGE ROSARIO DEL VALLE,PUERTO RICO DEPARTMENT OF EDUCATION,San Lorenzo Municipio,PO BOX 1281,SAN LORENZO,PR,754,,(787)736-5830,21,Suburb: Large,No,†,Yes,Yes,523,42,12.5,436,39
720003001981,PR-01-34777,7200030,PR-01,PK,5,JOSE A. LOPEZ CASTRO,PUERTO RICO DEPARTMENT OF EDUCATION,Juncos Municipio,PO BOX 31541,JUNCOS,PR,777,,(787)734-4544,21,Suburb: Large,No,†,Yes,Yes,267,24,11.1,222,20
720003000723,PR-01-15446,7200030,PR-01,KG,8,JOSE C. ROSARIO,PUERTO RICO DEPARTMENT OF EDUCATION,Isabela Municipio,PMB 106 PO BOX 8000,ISABELA,PR,662,,(787)830-2025,21,Suburb: Large,No,†,Yes,Yes,787,53,14.8,656,59
720003000536,PR-01-31070,7200030,PR-01,PK,8,JOSE CALZADA FERRER,PUERTO RICO DEPARTMENT OF EDUCATION,CanÃƒÂ³vanas Municipio,PO BOX 10000 SUITE 272,CANOVANAS,PR,729,,(787)876-4359,21,Suburb: Large,No,†,Yes,Yes,303,33,9.2,253,22
720003000006,PR-01-22582,7200030,PR-01,9,12,JOSE CAMPECHE,PUERTO RICO DEPARTMENT OF EDUCATION,San Lorenzo Municipio,CALLE EMILIO BUITRAGO,SAN LORENZO,PR,754,,(787)736-2701,21,Suburb: Large,No,†,Yes,Yes,554,36,15.4,462,41
720003001525,PR-01-70482,7200030,PR-01,KG,5,JOSE CAMPECHE,PUERTO RICO DEPARTMENT OF EDUCATION,BayamÃƒÂ³n Municipio,URB SANTA JUANITA CALLE ROBLE SECC 11,BAYAMON,PR,956,,(787)786-1580,21,Suburb: Large,No,†,Yes,Yes,298,25,11.9,249,22
720003001982,PR-01-34785,7200030,PR-01,9,12,JOSE COLLAZO COLON,PUERTO RICO DEPARTMENT OF EDUCATION,Juncos Municipio,PO BOX 1268,JUNCOS,PR,777,,(787)734-4345,21,Suburb: Large,No,†,Yes,Yes,582,35,16.6,485,43
720003000263,PR-01-20396,7200030,PR-01,KG,7,JOSE COLON GONZALEZ,PUERTO RICO DEPARTMENT OF EDUCATION,Barranquitas Municipio,PO BOX 62,BARRANQUITAS,PR,794,,(787)857-3686,21,Suburb: Large,No,†,Yes,Yes,434,38,11.4,362,32
720003000449,PR-01-30874,7200030,PR-01,PK,5,JOSE DE DIEGO,PUERTO RICO DEPARTMENT OF EDUCATION,Las Piedras Municipio,PO BOX 1296,LAS PIEDRAS,PR,771,,(787)733-8777,21,Suburb: Large,No,†,Yes,Yes,236,21,11.2,197,17
720003000730,PR-01-40378,7200030,PR-01,KG,8,JOSE DE DIEGO,PUERTO RICO DEPARTMENT OF EDUCATION,Aguadilla Municipio,PO BOX 1945,AGUADILLA,PR,603,,(787)891-2220,13,City: Small,No,†,Yes,Yes,327,32,10.2,273,24
720003001133,PR-01-50294,7200030,PR-01,9,12,JOSE EMILIO LUGO,PUERTO RICO DEPARTMENT OF EDUCATION,Adjuntas Municipio,PO BOX 1029,ADJUNTAS,PR,631,,(787)829-0408,31,Town: Fringe,No,†,Yes,Yes,566,39,14.5,472,42
720003000303,PR-01-32573,7200030,PR-01,KG,5,JOSE F. CINTRON Y ANEXO,PUERTO RICO DEPARTMENT OF EDUCATION,Yabucoa Municipio,PO BOX 699,YABUCOA,PR,767,,(787)266-2333,21,Suburb: Large,No,†,Yes,Yes,190,15,12.7,158,15
720003001591,PR-01-69054,7200030,PR-01,KG,8,JOSE F. DIAZ,PUERTO RICO DEPARTMENT OF EDUCATION,Trujillo Alto Municipio,VILLAS DE CARRAIZO,SAN JUAN,PR,926,,(787)760-4255,21,Suburb: Large,No,†,Yes,Yes,485,40,12.1,404,36
720003001842,PR-01-56226,7200030,PR-01,9,12,JOSE FELIPE ZAYAS,PUERTO RICO DEPARTMENT OF EDUCATION,Coamo Municipio,SUITE 183,COAMO,PR,769,,(787)825-5911,31,Town: Fringe,No,†,Yes,Yes,624,48,13,520,47
720003000280,PR-01-20800,7200030,PR-01,9,12,JOSE GAUTIER BENITEZ,PUERTO RICO DEPARTMENT OF EDUCATION,Caguas Municipio,PO BOX 5536,CAGUAS,PR,725,,(787)743-4211,13,City: Small,No,†,Yes,Yes,453,41,11,377,34
720003000660,PR-01-42176,7200030,PR-01,KG,8,JOSE GAUTIER BENITEZ,PUERTO RICO DEPARTMENT OF EDUCATION,MayagÃƒÂ¼ez Municipio,PMB 72 PO BOX 7997,MAYAGUEZ,PR,680,,(787)834-0900,13,City: Small,No,†,Yes,Yes,399,30,13.3,333,29
720003000762,PR-01-40121,7200030,PR-01,KG,5,JOSE GONZALEZ RUIZ,PUERTO RICO DEPARTMENT OF EDUCATION,Aguada Municipio,PO BOX 7000 SUITE 4,AGUADA,PR,602,,(787)868-5740,21,Suburb: Large,No,†,Yes,Yes,104,12,8.7,87,7
720003001214,PR-01-24752,7200030,PR-01,6,8,JOSE HORACIO CORA,PUERTO RICO DEPARTMENT OF EDUCATION,Arroyo Municipio,PO BOX 847,ARROYO,PR,714,,(787)839-4030,23,Suburb: Small,No,†,Yes,Yes,224,22,10.2,187,16
720003001283,PR-01-61671,7200030,PR-01,6,12,JOSE JULIAN ACOSTA (TEATRO),PUERTO RICO DEPARTMENT OF EDUCATION,San Juan Municipio,PO BOX 9023487,SAN JUAN,PR,901,,(787)722-1253,11,City: Large,No,†,Yes,Yes,193,22,8.8,161,14
720003000553,PR-01-58131,7200030,PR-01,KG,5,JOSE M ESPADA ZAYAS,PUERTO RICO DEPARTMENT OF EDUCATION,Coamo Municipio,PO BOX 358,COAMO,PR,769,,(787)825-1435,31,Town: Fringe,No,†,Yes,Yes,244,25,9.8,203,19
720003001205,PR-01-24661,7200030,PR-01,KG,8,JOSE M. MASSARI,PUERTO RICO DEPARTMENT OF EDUCATION,Arroyo Municipio,PO BOX 240,ARROYO,PR,714,,(787)839-3140,23,Suburb: Small,No,†,Yes,Yes,248,24,10.3,207,18
720003001511,PR-01-70680,7200030,PR-01,KG,8,JOSE M. TORRES,PUERTO RICO DEPARTMENT OF EDUCATION,BayamÃƒÂ³n Municipio,PO BOX 1995 MSC 156,BAYAMON,PR,956,,(787)730-0090,21,Suburb: Large,No,†,Yes,Yes,163,18,9.1,136,12
720003001241,PR-01-71399,7200030,PR-01,KG,5,JOSE MARIA DEL VALLE,PUERTO RICO DEPARTMENT OF EDUCATION,Toa Alta Municipio,PO BOX 1311,TOA ALTA,PR,953,,(787)797-5375,21,Suburb: Large,No,†,Yes,Yes,332,24,13.8,276,25
720003000243,PR-01-20719,7200030,PR-01,KG,8,JOSE MERCADO (ESPECIALIZADA),PUERTO RICO DEPARTMENT OF EDUCATION,Caguas Municipio,PO BOX 9951 MARIOLGA,CAGUAS,PR,725,,(787)746-7858,13,City: Small,No,†,Yes,Yes,215,15,14.3,179,16
720003001233,PR-01-71548,7200030,PR-01,PK,5,JOSE NEVAREZ LOPEZ,PUERTO RICO DEPARTMENT OF EDUCATION,Toa Baja Municipio,PO BOX 2345,TOA BAJA,PR,951,,(787)870-5246,21,Suburb: Large,No,†,Yes,Yes,151,14,10.8,126,11
720003002009,PR-01-57000,7200030,PR-01,6,8,JOSE ONOFRE TORRES FERMOSO,PUERTO RICO DEPARTMENT OF EDUCATION,Yauco Municipio,PO BOX 48,YAUCO,PR,698,,(787)856-7338,23,Suburb: Small,No,†,Yes,Yes,421,29,14.5,351,31
720003001239,PR-01-71373,7200030,PR-01,6,8,JOSE PABLO MORALES,PUERTO RICO DEPARTMENT OF EDUCATION,Toa Alta Municipio,PO BOX 1318,TOA ALTA,PR,953,,(787)870-2135,21,Suburb: Large,No,†,Yes,Yes,291,24,12.1,242,22
720003001006,PR-01-52894,7200030,PR-01,KG,5,JOSE PADIN,PUERTO RICO DEPARTMENT OF EDUCATION,Salinas Municipio,PO BOX 1156,SALINAS,PR,751,,(787)824-7955,41,Rural: Fringe,No,†,Yes,Yes,202,19,10.6,168,15
720003001890,PR-01-18267,7200030,PR-01,KG,8,JOSE PAGAN DE JESUS (ELEMENTAL BO SABANA HOYOS),PUERTO RICO DEPARTMENT OF EDUCATION,Vega Alta Municipio,PO BOX 1046,VEGA ALTA,PR,692,,(787)898-2795,21,Suburb: Large,No,†,Yes,Yes,589,42,14,491,44
720003000559,PR-01-43018,7200030,PR-01,PK,5,JOSE R. GAZTAMBIDE,PUERTO RICO DEPARTMENT OF EDUCATION,Sabana Grande Municipio,PO BOX 846,SABANA GRANDE,PR,637,,(787)873-3120,22,Suburb: Midsize,No,†,Yes,Yes,278,29,9.6,231,21
720003000921,PR-01-50500,7200030,PR-01,KG,5,JOSE RAMON RODRIGUEZ,PUERTO RICO DEPARTMENT OF EDUCATION,Coamo Municipio,PO BOX 3001 SUITE 180,COAMO,PR,769,,(787)825-1127,31,Town: Fringe,No,†,Yes,Yes,411,31,13.3,343,30
720003001231,PR-01-71522,7200030,PR-01,PK,5,JOSE ROBLES OTERO,PUERTO RICO DEPARTMENT OF EDUCATION,Toa Baja Municipio,PO BOX 2477,TOA BAJA,PR,949,,(787)794-3470,21,Suburb: Large,No,†,Yes,Yes,157,16,9.8,131,12
720003001154,PR-01-50757,7200030,PR-01,KG,8,JOSE RODRIGUEZ DE SOTO,PUERTO RICO DEPARTMENT OF EDUCATION,GuÃƒÂ¡nica Municipio,PO BOX 691,LAJAS,PR,667,,(787)821-3160,23,Suburb: Small,No,†,Yes,Yes,450,42,10.7,375,34
720003001658,PR-01-14357,7200030,PR-01,9,12,JOSE ROJAS CORTES,PUERTO RICO DEPARTMENT OF EDUCATION,Orocovis Municipio,PO BOX 2112,OROCOVIS,PR,720,,(787)867-2630,21,Suburb: Large,No,†,Yes,Yes,449,31,14.5,374,34
720003001411,PR-01-71092,7200030,PR-01,9,12,JOSE SANTOS ALEGRIA,PUERTO RICO DEPARTMENT OF EDUCATION,Dorado Municipio,PO BOX 729,DORADO,PR,646,,(787)796-1520,21,Suburb: Large,No,†,Yes,Yes,846,58,14.6,705,63
720003001833,PR-01-34207,7200030,PR-01,6,8,JOSE SANTOS QUINONEZ,PUERTO RICO DEPARTMENT OF EDUCATION,CanÃƒÂ³vanas Municipio,PO BOX 10000 SUITE 477,CANOVANAS,PR,745,,(787)876-4493,21,Suburb: Large,No,†,Yes,Yes,245,18,13.6,204,18
720003001481,PR-01-60343,7200030,PR-01,KG,8,JOSE SEVERO QUINONES,PUERTO RICO DEPARTMENT OF EDUCATION,Carolina Municipio,PO BOX 7819,CAROLINA,PR,985,,(787)769-3260,12,City: Midsize,No,†,Yes,Yes,647,45,14.4,539,48
720003001782,PR-01-13318,7200030,PR-01,6,12,JOSE VIZCARRONDO (SU ANGELES),PUERTO RICO DEPARTMENT OF EDUCATION,Utuado Municipio,PO BOX 416,UTUADO,PR,641,,(787)894-7702,41,Rural: Fringe,No,†,Yes,Yes,146,17,8.6,122,11
720003001844,PR-01-18242,7200030,PR-01,9,12,JOSEFA DEL RIO GUERRERO,PUERTO RICO DEPARTMENT OF EDUCATION,Morovis Municipio,CARR 155 KM 1.6 BO PUEBLO,MOROVIS,PR,687,,(787)862-2480,41,Rural: Fringe,No,†,Yes,Yes,434,30,14.5,362,32
720003000402,PR-01-57919,7200030,PR-01,9,12,JOSEFA VELEZ BAUZA (SUPERIOR URBANA),PUERTO RICO DEPARTMENT OF EDUCATION,PeÃƒÂ±uelas Municipio,PO BOX 1278,PENUELAS,PR,624,,(787)836-1665,23,Suburb: Small,No,†,Yes,Yes,743,56,13.3,620,55
720003001853,PR-01-75812,7200030,PR-01,9,12,JOSEFINA BARCELO,PUERTO RICO DEPARTMENT OF EDUCATION,Guaynabo Municipio,PO BOX 3974,GUAYNABO,PR,969,,(787)720-6482,13,City: Small,No,†,Yes,Yes,365,22,16.6,304,27
720003001041,PR-01-54502,7200030,PR-01,KG,5,JOSEFINA BOYA LEON,PUERTO RICO DEPARTMENT OF EDUCATION,Ponce Municipio,PO BOX 464,PONCE,PR,715,,(787)840-3770,12,City: Midsize,No,†,Yes,Yes,264,24,11,220,20
720003001914,PR-01-34348,7200030,PR-01,6,8,JOSEFINA FERRERO,PUERTO RICO DEPARTMENT OF EDUCATION,Fajardo Municipio,PO BOX 1106,FAJARDO,PR,738,,(787)863-6770,23,Suburb: Small,No,†,Yes,Yes,344,27,12.7,287,25
720003001169,PR-01-54619,7200030,PR-01,9,12,JOSEFINA LEON ZAYAS,PUERTO RICO DEPARTMENT OF EDUCATION,Jayuya Municipio,PO BOX 793,JAYUYA,PR,664,,(787)828-5700,31,Town: Fringe,No,†,Yes,Yes,712,47,15.1,593,53
720003000367,PR-01-25031,7200030,PR-01,6,8,JOSEFINA MUNOZ DE BERNIER,PUERTO RICO DEPARTMENT OF EDUCATION,Patillas Municipio,PO BOX 386,PATILLAS,PR,723,,(787)839-3630,23,Suburb: Small,No,†,Yes,Yes,295,29,10.2,246,22
720003001497,PR-01-70532,7200030,PR-01,KG,5,JOSEFITA MONSERRATE DE SELLES,PUERTO RICO DEPARTMENT OF EDUCATION,BayamÃƒÂ³n Municipio,PMB 263 UU-1 C/39,BAYAMON,PR,956,,(787)785-2238,21,Suburb: Large,No,†,Yes,Yes,251,20,12.6,209,19
720003000463,PR-01-30734,7200030,PR-01,PK,8,JUAN A SANCHEZ,PUERTO RICO DEPARTMENT OF EDUCATION,Juncos Municipio,PO BOX 1297,JUNCOS,PR,777,,(787)734-4347,21,Suburb: Large,No,†,Yes,Yes,262,19,13.8,219,19
720003001640,PR-01-14779,7200030,PR-01,KG,5,JUAN A. SANCHEZ DAVILA,PUERTO RICO DEPARTMENT OF EDUCATION,ManatÃƒÂ­ Municipio,PO BOX 1397,MANATI,PR,674,,(787)854-7747,21,Suburb: Large,No,†,Yes,Yes,256,28,9.1,214,18
720003001695,PR-01-12930,7200030,PR-01,9,12,JUAN ALEJO ARIZMENDI,PUERTO RICO DEPARTMENT OF EDUCATION,Quebradillas Municipio,PO BOX 1555,QUEBRADILLAS,PR,678,,(787)895-2180,22,Suburb: Midsize,No,†,Yes,Yes,363,33,11,303,27
720003000193,PR-01-17319,7200030,PR-01,9,12,JUAN ANTONIO CORRETJER,PUERTO RICO DEPARTMENT OF EDUCATION,Ciales Municipio,PO BOX 1419,CIALES,PR,638,,(787)871-5405,21,Suburb: Large,No,†,Yes,Yes,579,44,13.2,483,43
720003001319,PR-01-62893,7200030,PR-01,KG,12,JUAN ANTONIO CORRETJER,PUERTO RICO DEPARTMENT OF EDUCATION,San Juan Municipio,PO BOX 21372,SAN JUAN,PR,924,,(787)761-1560,11,City: Large,No,†,Yes,Yes,343,36,9.5,286,25
720003001298,PR-01-61408,7200030,PR-01,KG,8,JUAN B. HUYKE,PUERTO RICO DEPARTMENT OF EDUCATION,San Juan Municipio,8177 SUITE 26 PMB 104,GUAYNABO,PR,928,,(787)782-3924,11,City: Large,No,†,Yes,Yes,339,25,13.6,283,25
720003001843,PR-01-52258,7200030,PR-01,KG,5,JUAN CUEVAS ABOY,PUERTO RICO DEPARTMENT OF EDUCATION,Ponce Municipio,PO BOX 7571,PONCE,PR,731,,(787)843-3895,12,City: Midsize,No,†,Yes,Yes,360,23,15.7,300,27
720003000641,PR-01-42804,7200030,PR-01,KG,5,JUAN DE DIOS QUINONES,PUERTO RICO DEPARTMENT OF EDUCATION,Moca Municipio,PO BOX 2173,MOCA,PR,676,,(787)877-5108,21,Suburb: Large,No,†,Yes,Yes,257,21,12.2,214,19
720003001852,PR-01-75804,7200030,PR-01,6,8,JUAN E. MIRANDA,PUERTO RICO DEPARTMENT OF EDUCATION,Guaynabo Municipio,PO BOX 1899,GUAYNABO,PR,970,,(787)790-8198,13,City: Small,No,†,Yes,Yes,433,27,16,361,32
720003000393,PR-01-35881,7200030,PR-01,9,12,JUAN JOSE MAUNEZ,PUERTO RICO DEPARTMENT OF EDUCATION,Naguabo Municipio,PO BOX 85,NAGUABO,PR,718,,(787)874-0416,23,Suburb: Small,No,†,Yes,Yes,423,22,19.2,353,31
720003001377,PR-01-61390,7200030,PR-01,9,12,JUAN JOSE OSUNA (ESPSECIALIZADA),PUERTO RICO DEPARTMENT OF EDUCATION,San Juan Municipio,PO BOX 191766,SAN JUAN,PR,928,,(787)282-0950,11,City: Large,No,†,Yes,Yes,201,22,9.1,168,15
720003000773,PR-01-40204,7200030,PR-01,PK,6,JUAN LINO SANTIAGO,PUERTO RICO DEPARTMENT OF EDUCATION,Aguada Municipio,PO BOX 9000 SUITE 660,AGUADA,PR,602,,(787)868-5600,21,Suburb: Large,No,†,Yes,Yes,562,41,13.7,469,41
720003001551,PR-01-70177,7200030,PR-01,KG,5,JUAN MORELL CAMPOS,PUERTO RICO DEPARTMENT OF EDUCATION,BayamÃƒÂ³n Municipio,URB VILLA RICA CALLE 4 ESQ 5,BAYAMON,PR,959,,(787)786-5520,21,Suburb: Large,No,†,Yes,Yes,390,24,16.3,325,29
720003001930,PR-01-52159,7200030,PR-01,–,–,JUAN MORELL CAMPOS (MUSICA ),PUERTO RICO DEPARTMENT OF EDUCATION,Ponce Municipio,PO BOX 4087,PONCE,PR,731,,(787)842-3974,12,City: Midsize,No,†,–,–,†,28,†,†,†
720003001361,PR-01-62547,7200030,PR-01,9,12,JUAN PONCE DE LEON,PUERTO RICO DEPARTMENT OF EDUCATION,San Juan Municipio,PO BOX 9300220,SAN JUAN,PR,928,,(787)764-4630,11,City: Large,No,†,Yes,Yes,399,39,10.2,333,29
720003000076,PR-01-75879,7200030,PR-01,PK,12,JUAN PONCE DE LEON (ESPECIALIZADA),PUERTO RICO DEPARTMENT OF EDUCATION,Guaynabo Municipio,BO JUAN DOMINGO,GUAYNABO,PR,970,,(787)792-3550,13,City: Small,No,†,Yes,Yes,395,47,8.4,329,30
720003002028,PR-01-33704,7200030,PR-01,6,11,JUAN PONCE DE LEON (ESPECIALIZADA),PUERTO RICO DEPARTMENT OF EDUCATION,Humacao Municipio,PO BOX 9252,HUMACAO,PR,792,,(787)852-1242,21,Suburb: Large,No,†,Yes,Yes,367,21,17.5,306,27
720003001753,PR-01-10827,7200030,PR-01,9,12,JUAN PONCE DE LEON II,PUERTO RICO DEPARTMENT OF EDUCATION,Florida Municipio,PO BOX 366,FLORIDA,PR,650,,(787)822-2050,23,Suburb: Small,No,†,Yes,Yes,577,49,11.8,481,43
720003002085,PR-01-75267,7200030,PR-01,9,12,JUAN QUIRINDONGO MORELL (SUPERIOR),PUERTO RICO DEPARTMENT OF EDUCATION,Vega Baja Municipio,PO BOX 1618,VEGA BAJA,PR,693,,(787)858-0859,21,Suburb: Large,No,†,Yes,Yes,652,38,17.2,544,48
720003001563,PR-01-70060,7200030,PR-01,6,8,JUAN RAMON JIMENEZ,PUERTO RICO DEPARTMENT OF EDUCATION,BayamÃƒÂ³n Municipio,DISTRITO ESCOLAR BAYAMON I,BAYAMON,PR,956,,(787)798-5428,21,Suburb: Large,No,†,Yes,Yes,314,33,9.5,262,23
720003001359,PR-01-62554,7200030,PR-01,6,8,JUAN RAMON JIMENEZ,PUERTO RICO DEPARTMENT OF EDUCATION,San Juan Municipio,RES MANUEL A PEREZ,SAN JUAN,PR,923,,(787)767-9463,11,City: Large,No,†,Yes,Yes,307,22,14,256,23
720003000964,PR-01-55731,7200030,PR-01,KG,5,JUAN SERAPIO MANGUAL,PUERTO RICO DEPARTMENT OF EDUCATION,Juana DÃƒÂ­az Municipio,PO BOX 3501 SUITE 276,JUANA DIAZ,PR,795,,(787)837-8515,41,Rural: Fringe,No,†,Yes,Yes,221,21,10.5,184,17
720003000396,PR-01-47647,7200030,PR-01,9,12,JUAN SUAREZ PELEGRINA (NUEVA),PUERTO RICO DEPARTMENT OF EDUCATION,Aguadilla Municipio,PO BOX 98,AGUADILLA,PR,605,,(787)890-2320,21,Suburb: Large,No,†,Yes,Yes,616,42,14.7,514,45
720003002025,PR-01-68510,7200030,PR-01,KG,5,JUANA A MENDEZ (METROPOLIS),PUERTO RICO DEPARTMENT OF EDUCATION,Carolina Municipio,PO BOX 7709,CAROLINA,PR,987,,(787)750-8954,12,City: Midsize,No,†,Yes,Yes,393,37,10.6,328,29
720003000126,PR-01-21758,7200030,PR-01,9,12,JUANA COLON,PUERTO RICO DEPARTMENT OF EDUCATION,ComerÃƒÂ­o Municipio,PO BOX 1123,COMERIO,PR,782,,(787)875-2130,21,Suburb: Large,No,†,Yes,Yes,397,38,10.4,331,29
720003000039,PR-01-12278,7200030,PR-01,KG,5,JUANA G AVILES (FRANQUEZ),PUERTO RICO DEPARTMENT OF EDUCATION,Morovis Municipio,PO BOX 479,MOROVIS,PR,687,,(787)862-2440,21,Suburb: Large,No,†,Yes,Yes,318,25,12.7,265,24
720003000524,PR-01-33563,7200030,PR-01,PK,6,JUANA RODRIGUEZ MUNDO,PUERTO RICO DEPARTMENT OF EDUCATION,CanÃƒÂ³vanas Municipio,PO BOX 1636,CANOVANAS,PR,745,,(787)876-4828,21,Suburb: Large,No,†,Yes,Yes,348,23,15.1,290,26
720003001351,PR-01-62539,7200030,PR-01,KG,5,JUANITA GARCIA PERAZA,PUERTO RICO DEPARTMENT OF EDUCATION,San Juan Municipio,URB FLORAL PARK,SAN JUAN,PR,928,,(787)763-8272,11,City: Large,No,†,Yes,Yes,247,22,11.2,206,18
720003001752,PR-01-10710,7200030,PR-01,KG,5,JUANITA RAMIREZ GONZALEZ,PUERTO RICO DEPARTMENT OF EDUCATION,Florida Municipio,PO BX 1167,FLORIDA,PR,650,,(787)822-2190,41,Rural: Fringe,No,†,Yes,Yes,380,33,11.5,317,28
720003000337,PR-01-32300,7200030,PR-01,PK,3,JUANITA RIVERA ALBERT,PUERTO RICO DEPARTMENT OF EDUCATION,Vieques Municipio,HC 02 BOX 14607,VIEQUES,PR,765,,(787)741-3060,32,Town: Distant,No,†,Yes,Yes,79,4,19.8,66,6
720003001971,PR-01-16220,7200030,PR-01,KG,5,JUDITH A VIVAS,PUERTO RICO DEPARTMENT OF EDUCATION,Utuado Municipio,PO BOX 81,UTUADO,PR,641,,(787)894-3446,21,Suburb: Large,No,†,Yes,Yes,334,28,11.9,278,25
720003001991,PR-01-60038,7200030,PR-01,5,12,JULIAN E BLANCO (BALLET),PUERTO RICO DEPARTMENT OF EDUCATION,San Juan Municipio,ESQ ESTRELLA PDA 22,SAN JUAN,PR,907,,(787)721-9021,11,City: Large,No,†,Yes,Yes,106,19,5.6,88,8
720003001028,PR-01-55475,7200030,PR-01,KG,5,JULIO ALVARADO TRICOCHE,PUERTO RICO DEPARTMENT OF EDUCATION,Ponce Municipio,PO BOX 10091,PONCE,PR,731,,(787)844-7048,12,City: Midsize,No,†,Yes,Yes,349,26,13.4,291,26
720003001062,PR-01-52704,7200030,PR-01,KG,5,JULIO COLLAZO SILVA,PUERTO RICO DEPARTMENT OF EDUCATION,Ponce Municipio,PO BOX 2000 SUITE 18,PONCE,PR,731,,(787)843-7939,12,City: Midsize,No,†,Yes,Yes,198,17,11.6,165,15
720003001631,PR-01-11908,7200030,PR-01,PK,6,JULIO LEBRON SOTO,PUERTO RICO DEPARTMENT OF EDUCATION,Lares Municipio,PO BOX 1040 CASTANER,LARES,PR,669,,(787)829-3916,41,Rural: Fringe,No,†,Yes,Yes,200,17,11.8,167,15
720003001535,PR-01-70292,7200030,PR-01,KG,5,JULIO RESSY,PUERTO RICO DEPARTMENT OF EDUCATION,BayamÃƒÂ³n Municipio,RR 5 BOX 8418 SUITE 67,BAYAMON,PR,956,,(787)799-4950,21,Suburb: Large,No,†,Yes,Yes,297,23,12.9,248,22
720003001685,PR-01-10314,7200030,PR-01,PK,5,JULIO SEIJO,PUERTO RICO DEPARTMENT OF EDUCATION,Arecibo Municipio,HC-5 BOX 93680,ARECIBO,PR,612,,(787)878-2062,13,City: Small,No,†,Yes,Yes,192,22,8.7,160,14
720003001300,PR-01-61416,7200030,PR-01,KG,5,JULIO SELLES SOLA,PUERTO RICO DEPARTMENT OF EDUCATION,San Juan Municipio,URB VILLA NEVAREZ CALLE 19 ESQ 20,SAN JUAN,PR,927,,(787)767-1333,11,City: Large,No,†,Yes,Yes,633,45,14.1,528,47
720003000539,PR-01-43224,7200030,PR-01,KG,8,JULIO VICTOR GUZMAN,PUERTO RICO DEPARTMENT OF EDUCATION,San GermÃƒÂ¡n Municipio,PO BOX 65,SAN GERMAN,PR,683,,(787)264-2018,13,City: Small,No,†,Yes,Yes,653,53,12.3,545,48
720003000230,PR-01-23515,7200030,PR-01,KG,5,JUSTINA VAZQUEZ MENDOZA,PUERTO RICO DEPARTMENT OF EDUCATION,Caguas Municipio,PO BOX 7714,CAGUAS,PR,725,,(787)743-6069,13,City: Small,No,†,Yes,Yes,204,25,8.2,170,15
720003001847,PR-01-45641,7200030,PR-01,KG,5,LA CARMEN,PUERTO RICO DEPARTMENT OF EDUCATION,Maricao Municipio,PO BOX 18350,MARICAO,PR,606,,(787)838-3025,31,Town: Fringe,No,†,Yes,Yes,92,11,8.4,77,7
720003002023,PR-01-61424,7200030,PR-01,UG,UG,LA ESPERANZA (LUIS PALES MATOS),PUERTO RICO DEPARTMENT OF EDUCATION,San Juan Municipio,PO BOX 11754 S,SAN JUAN,PR,921,,(787)782-0295,11,City: Large,No,†,Yes,Yes,196,49,4,163,15
720003000458,PR-01-30916,7200030,PR-01,KG,5,LA FERMINA,PUERTO RICO DEPARTMENT OF EDUCATION,Humacao Municipio,PO BOX 728,LAS PIEDRAS,PR,771,,(787)852-9766,21,Suburb: Large,No,†,Yes,Yes,274,25,11,229,20
720003001788,PR-01-71779,7200030,PR-01,9,12,LADISLAO MARTINEZ,PUERTO RICO DEPARTMENT OF EDUCATION,Vega Alta Municipio,PO BOX 1778,VEGA ALTA,PR,692,,(787)883-5105,21,Suburb: Large,No,†,Yes,Yes,620,43,14.4,517,46
720003001373,PR-01-61432,7200030,PR-01,KG,8,LAS AMERICAS,PUERTO RICO DEPARTMENT OF EDUCATION,San Juan Municipio,PO BOX 270097,SAN JUAN,PR,928,,(787)782-0070,11,City: Large,No,†,Yes,Yes,306,26,11.8,255,23
720003001001,PR-01-52761,7200030,PR-01,KG,5,LAS MAREAS,PUERTO RICO DEPARTMENT OF EDUCATION,Salinas Municipio,PO BOX 2034,SALINAS,PR,751,,(787)864-4727,41,Rural: Fringe,No,†,Yes,Yes,123,9,13.7,103,9
720003000557,PR-01-43406,7200030,PR-01,6,12,LAURA MERCADO,PUERTO RICO DEPARTMENT OF EDUCATION,San GermÃƒÂ¡n Municipio,PO BOX 307,SAN GERMAN,PR,683,,(787)892-0715,22,Suburb: Midsize,No,†,Yes,Yes,320,31,10.3,267,24
720003000408,PR-01-64998,7200030,PR-01,PK,12,LCDO GUILLERMO ATILES MOREAU,PUERTO RICO DEPARTMENT OF EDUCATION,San Juan Municipio,PO BOX 360325,SAN JUAN,PR,924,,(787)767-6710,11,City: Large,No,†,Yes,Yes,126,27,4.7,105,9
720003000882,PR-01-53660,7200030,PR-01,KG,8,LENA M. FRANCESCH (RUBIAS KM. 25),PUERTO RICO DEPARTMENT OF EDUCATION,Maricao Municipio,HC 1 BOX 6614,YAUCO,PR,698,,(787)856-4020,41,Rural: Fringe,No,†,Yes,Yes,112,17,6.6,93,9
720003000613,PR-01-17764,7200030,PR-01,6,8,LEONARDO VALENTIN TIRADO,PUERTO RICO DEPARTMENT OF EDUCATION,Florida Municipio,PO BOX 1170,FLORIDA,PR,650,,(787)822-2263,23,Suburb: Small,No,†,Yes,Yes,353,26,13.6,294,27
720003000161,PR-01-35493,7200030,PR-01,6,8,LEONCIO MELENDEZ,PUERTO RICO DEPARTMENT OF EDUCATION,Las Piedras Municipio,PO BOX 1033,LAS PIEDRAS,PR,771,,(787)733-2520,21,Suburb: Large,No,†,Yes,Yes,278,23,12.1,231,21
720003001855,PR-01-45682,7200030,PR-01,9,12,LEONIDES MORALES RODRIGUEZ,PUERTO RICO DEPARTMENT OF EDUCATION,Lajas Municipio,PO BOX 932,LAJAS,PR,667,,(787)899-3010,22,Suburb: Midsize,No,†,Yes,Yes,770,53,14.5,642,57
720003000347,PR-01-32227,7200030,PR-01,6,8,LIBERATA IRALDO (NUEVA),PUERTO RICO DEPARTMENT OF EDUCATION,RÃƒÂ­o Grande Municipio,PO BOX 40032 SUITE 491,RIO GRANDE,PR,745,,(787)888-3534,21,Suburb: Large,No,†,Yes,Yes,422,31,13.6,352,31
720003001027,PR-01-54247,7200030,PR-01,PK,5,LIBRADO NET,PUERTO RICO DEPARTMENT OF EDUCATION,Ponce Municipio,URB SAN ANTONIO 50 CALLE 9,PONCE,PR,728,,(787)842-6395,12,City: Midsize,No,†,Yes,Yes,224,20,11.2,186,17
720003001897,PR-01-48330,7200030,PR-01,–,–,LIBRE DE MUSICA Y BELLAS ARTES ERNESTO RAMOS ANTONINI,PUERTO RICO DEPARTMENT OF EDUCATION,MayagÃƒÂ¼ez Municipio,BVD EDUARDO BAEZ BUENA VISTA,MAYAGUEZ,PR,680,,(787)832-2062,13,City: Small,No,†,–,–,†,35,†,†,†
720003000140,PR-01-35360,7200030,PR-01,KG,5,LIDIA FIOL SCARANO,PUERTO RICO DEPARTMENT OF EDUCATION,Humacao Municipio,CALLE 6 PO BOX 0250,HUMACAO,PR,792,,(787)850-7080,21,Suburb: Large,No,†,Yes,Yes,340,28,12.1,284,25
720003001101,PR-01-58511,7200030,PR-01,9,12,LILA MARIA MERCEDES MAYORAL,PUERTO RICO DEPARTMENT OF EDUCATION,Ponce Municipio,PO BOX 7336,PONCE,PR,780,,(787)843-1305,12,City: Midsize,No,†,Yes,Yes,207,18,11.5,173,15
720003001800,PR-01-71894,7200030,PR-01,9,12,LINO PADRO RIVERA,PUERTO RICO DEPARTMENT OF EDUCATION,Vega Baja Municipio,PO BOX 4096,VEGA BAJA,PR,693,,(787)858-2110,21,Suburb: Large,No,†,Yes,Yes,740,50,14.8,617,55
720003001850,PR-01-56093,7200030,PR-01,KG,5,LLANOS DEL SUR,PUERTO RICO DEPARTMENT OF EDUCATION,Ponce Municipio,PO BOX 839,PONCE,PR,780,,(787)848-1105,23,Suburb: Small,No,†,Yes,Yes,527,37,14.2,440,39
720003000697,PR-01-58305,7200030,PR-01,9,12,LOAIZA CORDERO DEL ROSARIO,PUERTO RICO DEPARTMENT OF EDUCATION,Yauco Municipio,APARTADO 48,YAUCO,PR,698,,(787)750-2774,23,Suburb: Small,No,†,Yes,Yes,386,34,11.4,321,29
720003000540,PR-01-43315,7200030,PR-01,9,12,LOLA RODRIGUEZ DE TIO,PUERTO RICO DEPARTMENT OF EDUCATION,San GermÃƒÂ¡n Municipio,PO BOX 206,SAN GERMAN,PR,683,,(787)892-1358,13,City: Small,No,†,Yes,Yes,655,49,13.4,546,49
720003000084,PR-01-11528,7200030,PR-01,6,12,LORENZO COBALLES GANDIA,PUERTO RICO DEPARTMENT OF EDUCATION,Hatillo Municipio,PO BOX 1357,HATILLO,PR,659,,(787)898-4300,22,Suburb: Midsize,No,†,Yes,Yes,417,41,10.2,348,31
720003002069,PR-01-60905,7200030,PR-01,9,12,LORENZO VIZCARRONDO,PUERTO RICO DEPARTMENT OF EDUCATION,Carolina Municipio,PO BOX 9180,CAROLINA,PR,988,,(787)276-0120,12,City: Midsize,No,†,Yes,Yes,649,34,19.1,541,48
720003001095,PR-01-52365,7200030,PR-01,KG,5,LUCY GRILLASCA,PUERTO RICO DEPARTMENT OF EDUCATION,Ponce Municipio,1615 AVE EDUARDO RUBERTE,PONCE,PR,733,,(787)842-4010,12,City: Midsize,No,†,Yes,Yes,274,27,10.1,229,20
720003001566,PR-01-70094,7200030,PR-01,UG,UG,LUDOVICO COSTOSO,PUERTO RICO DEPARTMENT OF EDUCATION,BayamÃƒÂ³n Municipio,MSC 4172135 CARR 2 STE 15 DRIVE IN PLAZA HATO TEJAS,BAYAMON,PR,960,,(787)787-9792,21,Suburb: Large,No,†,Yes,Yes,87,16,5.4,73,6
720003000908,PR-01-53579,7200030,PR-01,KG,5,LUIS A. FERRE AGUAYO,PUERTO RICO DEPARTMENT OF EDUCATION,Yauco Municipio,PO BOX 2208,YAUCO,PR,698,,(787)856-1003,23,Suburb: Small,No,†,Yes,Yes,146,16,9.1,122,11
720003001983,PR-01-42473,7200030,PR-01,KG,5,LUIS COLON (ADOLFO BABILONIA),PUERTO RICO DEPARTMENT OF EDUCATION,Moca Municipio,PO BOX 163,MOCA,PR,676,,(787)877-3170,21,Suburb: Large,No,†,Yes,Yes,435,38,11.4,363,32
720003000340,PR-01-17384,7200030,PR-01,9,12,LUIS F. CRESPO (SUP. NUEVA),PUERTO RICO DEPARTMENT OF EDUCATION,Camuy Municipio,PMB 335 PO BOX 3500,CAMUY,PR,627,,(787)262-8421,22,Suburb: Midsize,No,†,Yes,Yes,747,60,12.5,623,55
720003000668,PR-01-11756,7200030,PR-01,KG,8,LUIS FELIPE RODRIGUEZ GARCIA,PUERTO RICO DEPARTMENT OF EDUCATION,Camuy Municipio,APARTADO 811,ARECIBO,PR,614,,(787)787-1240,22,Suburb: Midsize,No,†,Yes,Yes,580,49,11.8,484,43
720003000526,PR-01-33340,7200030,PR-01,9,12,LUIS HERNAIZ VERONNE,PUERTO RICO DEPARTMENT OF EDUCATION,CanÃƒÂ³vanas Municipio,PO BOX 10000 PMB 478,CANOVANAS,PR,729,,(787)876-2395,21,Suburb: Large,No,†,Yes,Yes,384,27,14.2,320,29
720003000627,PR-01-51698,7200030,PR-01,9,12,LUIS LLORENS TORRES,PUERTO RICO DEPARTMENT OF EDUCATION,Juana DÃƒÂ­az Municipio,CALLE LA CRUZ,JUANA DIAZ,PR,795,,(787)837-9117,23,Suburb: Small,No,†,Yes,Yes,569,40,14.2,475,42
720003001274,PR-01-63081,7200030,PR-01,PK,6,LUIS LLORENS TORRES,PUERTO RICO DEPARTMENT OF EDUCATION,San Juan Municipio,CALLE MARISABEL,SAN JUAN,PR,913,,(787)726-1195,11,City: Large,No,†,Yes,Yes,349,24,14.5,291,26
720003001228,PR-01-71498,7200030,PR-01,KG,8,LUIS M. SANTIAGO,PUERTO RICO DEPARTMENT OF EDUCATION,Toa Baja Municipio,PO BOX 2322,TOA BAJA,PR,949,,(787)794-1445,21,Suburb: Large,No,†,Yes,Yes,286,33,8.7,239,21
720003000094,PR-01-11387,7200030,PR-01,KG,8,LUIS MELENDEZ RODRIGUEZ,PUERTO RICO DEPARTMENT OF EDUCATION,Hatillo Municipio,PO BOX 69001 SUITE 207,HATILLO,PR,659,,(787)898-9497,22,Suburb: Midsize,No,†,Yes,Yes,556,52,10.7,464,41
720003001290,PR-01-61457,7200030,PR-01,KG,5,LUIS MUNIZ SOUFFRONT,PUERTO RICO DEPARTMENT OF EDUCATION,San Juan Municipio,PO BOX 36367,SAN JUAN,PR,921,,(787)782-0715,11,City: Large,No,†,Yes,Yes,200,17,11.8,167,15
720003000970,PR-01-51763,7200030,PR-01,6,12,LUIS MUNOZ MARIN,PUERTO RICO DEPARTMENT OF EDUCATION,Juana DÃƒÂ­az Municipio,PO BOX 3501 SUITE 274,JUANA DIAZ,PR,795,,(787)837-8151,23,Suburb: Small,No,†,Yes,Yes,225,20,11.3,187,17
720003002060,PR-01-46995,7200030,PR-01,9,12,LUIS MUNOZ MARIN,PUERTO RICO DEPARTMENT OF EDUCATION,AÃƒÂ±asco Municipio,PO BOX 1722,ANASCO,PR,610,,(787)826-1476,21,Suburb: Large,No,†,Yes,Yes,440,35,12.6,367,33
720003001854,PR-01-25783,7200030,PR-01,PK,5,LUIS MUNOZ MARIN,PUERTO RICO DEPARTMENT OF EDUCATION,Aguas Buenas Municipio,PO BOX 1298,AGUAS BUENAS,PR,703,,(787)732-3521,21,Suburb: Large,No,†,Yes,Yes,348,35,9.9,290,26
720003001873,PR-01-34264,7200030,PR-01,6,12,LUIS MUNOZ MARIN,PUERTO RICO DEPARTMENT OF EDUCATION,Yabucoa Municipio,PO BOX 6,YABUCOA,PR,767,,(787)893-2880,21,Suburb: Large,No,†,Yes,Yes,182,17,10.7,152,13
720003001900,PR-01-26005,7200030,PR-01,6,8,LUIS MUNOZ MARIN,PUERTO RICO DEPARTMENT OF EDUCATION,ComerÃƒÂ­o Municipio,PO BOX 1123,COMERIO,PR,782,,(787)875-3390,21,Suburb: Large,No,†,Yes,Yes,241,20,12.1,201,18
720003001902,PR-01-26021,7200030,PR-01,9,12,LUIS MUNOZ MARIN,PUERTO RICO DEPARTMENT OF EDUCATION,Barranquitas Municipio,PO BOX 399,BARRANQUITAS,PR,794,,(787)857-3714,21,Suburb: Large,No,†,Yes,Yes,514,34,15.1,429,38
720003002039,PR-01-17111,7200030,PR-01,KG,8,LUIS MUNOZ MARIN,PUERTO RICO DEPARTMENT OF EDUCATION,Arecibo Municipio,PO BOX 1116,ARECIBO,PR,614,,(787)880-0757,13,City: Small,No,†,Yes,Yes,420,41,10.2,350,31
720003001762,PR-01-13425,7200030,PR-01,9,12,LUIS MUNOZ RIVERA,PUERTO RICO DEPARTMENT OF EDUCATION,Utuado Municipio,SUITE 206,UTUADO,PR,641,,(787)894-2666,41,Rural: Fringe,No,†,Yes,Yes,646,49,13.2,539,48
720003001158,PR-01-50773,7200030,PR-01,PK,5,LUIS MUNOZ RIVERA,PUERTO RICO DEPARTMENT OF EDUCATION,GuÃƒÂ¡nica Municipio,PO BOX 327,GUANICA,PR,653,,(787)821-7000,23,Suburb: Small,No,†,Yes,Yes,166,14,11.9,138,13
720003000676,PR-01-42242,7200030,PR-01,KG,5,LUIS MUNOZ RIVERA,PUERTO RICO DEPARTMENT OF EDUCATION,MayagÃƒÂ¼ez Municipio,PO BOX 3050,MAYAGUEZ,PR,680,,(787)834-7700,13,City: Small,No,†,Yes,Yes,273,21,13,228,20
720003000747,PR-01-40477,7200030,PR-01,KG,5,LUIS MUNOZ RIVERA,PUERTO RICO DEPARTMENT OF EDUCATION,Aguadilla Municipio,PO BOX 250399,AGUADILLA,PR,603,,(787)891-0862,21,Suburb: Large,No,†,Yes,Yes,311,26,12,259,23
720003000897,PR-01-53512,7200030,PR-01,KG,5,LUIS MUNOZ RIVERA,PUERTO RICO DEPARTMENT OF EDUCATION,Yauco Municipio,PO BOX 48,YAUCO,PR,698,,(787)856-3635,23,Suburb: Small,No,†,Yes,Yes,235,25,9.4,196,17
720003001275,PR-01-61689,7200030,PR-01,PK,6,LUIS MUNOZ RIVERA,PUERTO RICO DEPARTMENT OF EDUCATION,San Juan Municipio,PO BOX 7095,SAN JUAN,PR,909,,(787)727-6755,11,City: Large,No,†,Yes,Yes,374,26,14.4,312,28
720003001337,PR-01-62810,7200030,PR-01,PK,5,LUIS MUNOZ RIVERA,PUERTO RICO DEPARTMENT OF EDUCATION,San Juan Municipio,PO BOX 21407,SAN JUAN,PR,928,,(787)751-2214,11,City: Large,No,†,Yes,Yes,227,18,12.6,189,17
720003000088,PR-01-11395,7200030,PR-01,KG,5,LUIS MUNOZ RIVERA,PUERTO RICO DEPARTMENT OF EDUCATION,Hatillo Municipio,PO BOX 7,HATILLO,PR,659,,(787)898-1830,22,Suburb: Midsize,No,†,Yes,Yes,379,25,15.2,316,28
720003000004,PR-01-22327,7200030,PR-01,KG,5,LUIS MUNOZ RIVERA,PUERTO RICO DEPARTMENT OF EDUCATION,San Lorenzo Municipio,PO BOX 1283,SAN LORENZO,PR,754,,(787)736-5856,21,Suburb: Large,No,†,Yes,Yes,563,51,11,470,41
720003000271,PR-01-20834,7200030,PR-01,KG,5,LUIS MUNOZ RIVERA,PUERTO RICO DEPARTMENT OF EDUCATION,Caguas Municipio,PO BOX 4961 SUITE 314,CAGUAS,PR,725,,(787)743-2303,13,City: Small,No,†,Yes,Yes,350,30,11.7,292,26
720003000576,PR-01-41541,7200030,PR-01,6,8,LUIS MUNOZ RIVERA,PUERTO RICO DEPARTMENT OF EDUCATION,Lajas Municipio,PO BOX 1497,LAJAS,PR,667,,(787)899-2015,22,Suburb: Midsize,No,†,Yes,Yes,443,35,12.7,369,33
720003000454,PR-01-30924,7200030,PR-01,KG,5,LUIS MUNOZ RIVERA,PUERTO RICO DEPARTMENT OF EDUCATION,Las Piedras Municipio,PO BOX 98,LAS PIEDRAS,PR,771,,(787)733-1441,21,Suburb: Large,No,†,Yes,Yes,214,19,11.3,178,16
720003001381,PR-01-75820,7200030,PR-01,PK,5,LUIS MUNOZ RIVERA II,PUERTO RICO DEPARTMENT OF EDUCATION,Guaynabo Municipio,BO AMELIA,GUAYNABO,PR,970,,(787)783-5290,13,City: Small,No,†,Yes,Yes,259,21,12.3,216,19
720003000734,PR-01-48264,7200030,PR-01,9,12,LUIS NEGRON LOPEZ,PUERTO RICO DEPARTMENT OF EDUCATION,Sabana Grande Municipio,POBOX 368 BO MACHUCHAL KM 1,SABANA GRANDE,PR,637,,(787)804-2036,22,Suburb: Midsize,No,†,Yes,Yes,690,51,13.5,575,52
720003001502,PR-01-70581,7200030,PR-01,6,12,LUIS PALES MATOS,PUERTO RICO DEPARTMENT OF EDUCATION,BayamÃƒÂ³n Municipio,MAIN 31-47 PMB249,BAYAMON,PR,959,,(787)786-4275,21,Suburb: Large,No,†,Yes,Yes,438,28,15.6,365,33
720003000278,PR-01-20909,7200030,PR-01,6,8,LUIS RAMOS GONZALEZ,PUERTO RICO DEPARTMENT OF EDUCATION,Caguas Municipio,URB MARIOLGA S-1 SUITE 139,CAGUAS,PR,725,,(787)743-9194,13,City: Small,No,†,Yes,Yes,329,28,11.8,274,25
720003001277,PR-01-63099,7200030,PR-01,KG,5,LUIS RODRIGUEZ CABRERO,PUERTO RICO DEPARTMENT OF EDUCATION,San Juan Municipio,RES LUIS LLORENS TORRES CALLE CORONA,SAN JUAN,PR,921,,(787)727-6095,11,City: Large,No,†,Yes,Yes,214,22,9.7,178,16
720003001415,PR-01-71134,7200030,PR-01,KG,5,LUISA M. VALDERRAMA (SAN ANTONIO),PUERTO RICO DEPARTMENT OF EDUCATION,Dorado Municipio,PO BOX 728,DORADO,PR,646,,(787)796-4410,21,Suburb: Large,No,†,Yes,Yes,251,29,8.7,209,19
720003000398,PR-01-31583,7200030,PR-01,PK,8,LUTGARDA RIVERA REYES (FLORIDA),PUERTO RICO DEPARTMENT OF EDUCATION,Naguabo Municipio,HC 01 BOX 4405-B2300,NAGUABO,PR,718,,(787)874-0010,23,Suburb: Small,No,†,Yes,Yes,242,17,14.2,202,18
720003002053,PR-01-35071,7200030,PR-01,KG,5,LUZ A CRUZ DE SANTANA,PUERTO RICO DEPARTMENT OF EDUCATION,Humacao Municipio,PO BOX 10033,HUMACAO,PR,792,,(787)850-6460,21,Suburb: Large,No,†,Yes,Yes,366,26,14.1,305,27
720003001477,PR-01-66209,7200030,PR-01,9,12,LUZ AMERICA CALDERON,PUERTO RICO DEPARTMENT OF EDUCATION,Carolina Municipio,PO BOX 3467,CAROLINA,PR,985,,(787)768-4044,12,City: Midsize,No,†,Yes,Yes,510,33,15.5,425,38
720003001305,PR-01-66233,7200030,PR-01,KG,5,LUZ ENEIDA COLON (LA CUMBRE),PUERTO RICO DEPARTMENT OF EDUCATION,San Juan Municipio,CALLE EMILIANO POLL SUITE 153,SAN JUAN,PR,926,,(787)720-1382,11,City: Large,No,†,Yes,Yes,316,25,12.6,264,23
720003002018,PR-01-46813,7200030,PR-01,KG,5,LYDIA MELENDEZ,PUERTO RICO DEPARTMENT OF EDUCATION,Aguada Municipio,PO BOX 519,AGUADA,PR,602,,(787)868-3850,21,Suburb: Large,No,†,Yes,Yes,241,29,8.3,201,18
720003000594,PR-01-58180,7200030,PR-01,9,12,LYSANDER BORRERO TERRY,PUERTO RICO DEPARTMENT OF EDUCATION,Villalba Municipio,PO BOX 1549,VILLALBA,PR,766,,(787)847-1606,23,Suburb: Small,No,†,Yes,Yes,709,46,15.4,591,53
720003001165,PR-01-50781,7200030,PR-01,PK,5,MAGUEYES II,PUERTO RICO DEPARTMENT OF EDUCATION,GuÃƒÂ¡nica Municipio,PO BOX 1010,GUANICA,PR,653,,(787)821-2490,23,Suburb: Small,No,†,Yes,Yes,154,18,8.6,128,12
720003000659,PR-01-42267,7200030,PR-01,KG,8,MANUEL A. BARRETO,PUERTO RICO DEPARTMENT OF EDUCATION,MayagÃƒÂ¼ez Municipio,PO BOX 1260,MAYAGUEZ,PR,680,,(787)832-3046,13,City: Small,No,†,Yes,Yes,546,47,11.6,455,41
720003001352,PR-01-62604,7200030,PR-01,PK,5,MANUEL A. PEREZ,PUERTO RICO DEPARTMENT OF EDUCATION,San Juan Municipio,PO BOX 9300629,SAN JUAN,PR,919,,(787)751-2420,11,City: Large,No,†,Yes,Yes,412,31,13.3,344,30
720003001253,PR-01-63107,7200030,PR-01,KG,5,MANUEL BOADA,PUERTO RICO DEPARTMENT OF EDUCATION,San Juan Municipio,PO BOX 14335,SAN JUAN,PR,915,,(787)726-0989,11,City: Large,No,†,Yes,Yes,356,27,13.2,297,26
720003001437,PR-01-70870,7200030,PR-01,KG,8,MANUEL BOU GALI,PUERTO RICO DEPARTMENT OF EDUCATION,Corozal Municipio,PO BOX 1179,COROZAL,PR,783,,(787)859-4656,21,Suburb: Large,No,†,Yes,Yes,583,42,13.9,486,43
720003001268,PR-01-63024,7200030,PR-01,PK,6,MANUEL ELZABURU VIZCARRONDO,PUERTO RICO DEPARTMENT OF EDUCATION,San Juan Municipio,PO BOX 14395,SAN JUAN,PR,916,,(787)726-0125,11,City: Large,No,†,Yes,Yes,246,16,15.4,205,18
720003000942,PR-01-51706,7200030,PR-01,PK,4,MANUEL F FERNANDEZ JUNCOS,PUERTO RICO DEPARTMENT OF EDUCATION,Juana DÃƒÂ­az Municipio,PO BOX 846,JUANA DIAZ,PR,795,,(787)837-2249,23,Suburb: Small,No,†,Yes,Yes,319,29,11,266,24
720003001476,PR-01-66498,7200030,PR-01,6,8,MANUEL FEBRES GONZALEZ,PUERTO RICO DEPARTMENT OF EDUCATION,Carolina Municipio,PO BOX 3809,CAROLINA,PR,984,,(787)768-3031,12,City: Midsize,No,†,Yes,Yes,319,22,14.5,266,24
720003000399,PR-01-47662,7200030,PR-01,9,12,MANUEL GARCIA PEREZ (NUEVA),PUERTO RICO DEPARTMENT OF EDUCATION,RincÃƒÂ³n Municipio,PO BOX 1823,RINCON,PR,677,,(787)823-0335,21,Suburb: Large,No,†,Yes,Yes,360,29,12.4,300,27
720003000599,PR-01-42945,7200030,PR-01,KG,8,MANUEL GONZALEZ MELO,PUERTO RICO DEPARTMENT OF EDUCATION,RincÃƒÂ³n Municipio,PO BOX 1806,RINCON,PR,677,,(787)823-1197,21,Suburb: Large,No,†,Yes,Yes,589,50,11.8,491,44
720003001832,PR-01-56101,7200030,PR-01,6,8,MANUEL GONZALEZ PATO,PUERTO RICO DEPARTMENT OF EDUCATION,Ponce Municipio,301C SUITE 395,PONCE,PR,731,,(787)841-7216,12,City: Midsize,No,†,Yes,Yes,356,26,13.7,297,26
720003001011,PR-01-53009,7200030,PR-01,6,8,MANUEL MARTIN MONSERRATE,PUERTO RICO DEPARTMENT OF EDUCATION,Santa Isabel Municipio,PO BOX 847,SANTA ISABEL,PR,757,,(787)845-3160,31,Town: Fringe,No,†,Yes,Yes,298,29,10.3,249,22
720003001818,PR-01-72082,7200030,PR-01,KG,8,MANUEL MARTINEZ DAVILA,PUERTO RICO DEPARTMENT OF EDUCATION,Vega Baja Municipio,PO BOX 1730,VEGA BAJA,PR,693,,(787)858-1152,21,Suburb: Large,No,†,Yes,Yes,596,38,15.7,497,44
720003000501,PR-01-47902,7200030,PR-01,9,12,MANUEL MENDEZ LICIAGA,PUERTO RICO DEPARTMENT OF EDUCATION,San SebastiÃƒÂ¡n Municipio,PO BOX 1277,SAN SEBASTIAN,PR,685,,(787)896-1430,21,Suburb: Large,No,†,Yes,Yes,943,74,12.7,786,70
720003000422,PR-01-31534,7200030,PR-01,KG,5,MANUEL ORTIZ SUYA,PUERTO RICO DEPARTMENT OF EDUCATION,Maunabo Municipio,PO BOX 38,MAUNABO,PR,707,,(787)861-4600,31,Town: Fringe,No,†,Yes,Yes,117,19,6.2,98,8
720003000331,PR-01-17368,7200030,PR-01,9,12,MANUEL RAMOS HERNANDEZ,PUERTO RICO DEPARTMENT OF EDUCATION,Quebradillas Municipio,PO BOX 1564,QUEBRADILLAS,PR,678,,(787)895-7117,22,Suburb: Midsize,No,†,Yes,Yes,504,30,16.8,420,38
720003001249,PR-01-71472,7200030,PR-01,KG,8,MANUEL VELILLA,PUERTO RICO DEPARTMENT OF EDUCATION,Toa Alta Municipio,PO BOX 1311,TOA ALTA,PR,953,,(787)797-3558,21,Suburb: Large,No,†,Yes,Yes,326,25,13,272,24
720003000296,PR-01-21055,7200030,PR-01,9,12,MANUELA TORO MORICE,PUERTO RICO DEPARTMENT OF EDUCATION,Caguas Municipio,PO BOX 5759,CAGUAS,PR,725,,(787)744-2111,13,City: Small,No,†,Yes,Yes,757,54,14,631,56
720003001929,PR-01-46334,7200030,PR-01,6,8,MARCELINO RODRIGUEZ ROMAN,PUERTO RICO DEPARTMENT OF EDUCATION,Moca Municipio,PO BOX 2351,MOCA,PR,676,,(787)877-2324,21,Suburb: Large,No,†,Yes,Yes,260,19,13.7,217,19
720003001392,PR-01-75838,7200030,PR-01,9,12,MARGARITA JANER PALACIOS,PUERTO RICO DEPARTMENT OF EDUCATION,Guaynabo Municipio,PMB - 110 #53,GUAYNABO,PR,970,,(787)720-2217,13,City: Small,No,†,Yes,Yes,735,51,14.4,613,54
720003000113,PR-01-22053,7200030,PR-01,KG,5,MARGARITA RIVERA DE JANER,PUERTO RICO DEPARTMENT OF EDUCATION,Gurabo Municipio,PO BOX 879,GURABO,PR,778,,(787)737-6594,21,Suburb: Large,No,†,Yes,Yes,479,45,10.6,399,36
720003001876,PR-01-73890,7200030,PR-01,PK,5,MARIA C. OSORIO,PUERTO RICO DEPARTMENT OF EDUCATION,Toa Alta Municipio,URB TOA ALTA HEIGHTS,TOA ALTA,PR,953,,(787)799-3562,21,Suburb: Large,No,†,Yes,Yes,474,35,13.5,395,35
720003000366,PR-01-25023,7200030,PR-01,KG,8,MARIA DAVILA SEMIDEY,PUERTO RICO DEPARTMENT OF EDUCATION,Patillas Municipio,PO BOX 607,PATILLAS,PR,723,,(787)839-0844,23,Suburb: Small,No,†,Yes,Yes,302,18,16.8,252,22
720003000687,PR-01-44545,7200030,PR-01,KG,8,MARIA DOLORES FARIA,PUERTO RICO DEPARTMENT OF EDUCATION,MayagÃƒÂ¼ez Municipio,310 CALLE CANDELARIA,MAYAGUEZ,PR,680,,(787)834-9289,13,City: Small,No,†,Yes,Yes,337,34,9.9,281,25
720003001499,PR-01-70557,7200030,PR-01,KG,5,MARIA E. BAS DE VAZQUEZ,PUERTO RICO DEPARTMENT OF EDUCATION,BayamÃƒÂ³n Municipio,PO BOX 1221,BAYAMON,PR,956,,(787)786-5586,21,Suburb: Large,No,†,Yes,Yes,327,27,12.1,273,24
720003000511,PR-01-30221,7200030,PR-01,KG,5,MARIA I. DONES,PUERTO RICO DEPARTMENT OF EDUCATION,Fajardo Municipio,HC 67 BOX 15866,FAJARDO,PR,738,,(787)863-8240,23,Suburb: Small,No,†,Yes,Yes,74,6,12.3,62,5
720003001998,PR-01-74476,7200030,PR-01,KG,5,MARIA J. CORREDOR RIVERA,PUERTO RICO DEPARTMENT OF EDUCATION,Toa Baja Municipio,PO BOX 2477,TOA BAJA,PR,949,,(787)740-2225,21,Suburb: Large,No,†,Yes,Yes,240,22,10.9,200,18
720003001153,PR-01-50799,7200030,PR-01,PK,5,MARIA L MCDOUGALL,PUERTO RICO DEPARTMENT OF EDUCATION,GuÃƒÂ¡nica Municipio,PO BOX 599,GUANICA,PR,653,,(787)821-6066,23,Suburb: Small,No,†,Yes,Yes,207,25,8.3,173,15
720003001760,PR-01-14373,7200030,PR-01,KG,5,MARIA LIBERTAD GOMEZ,PUERTO RICO DEPARTMENT OF EDUCATION,Utuado Municipio,CALLE 12 SUITE 206,UTUADO,PR,641,,(787)894-2188,21,Suburb: Large,No,†,Yes,Yes,241,24,10,201,18
720003000684,PR-01-44842,7200030,PR-01,KG,5,MARIA LUISA ARCELAY,PUERTO RICO DEPARTMENT OF EDUCATION,MayagÃƒÂ¼ez Municipio,PO BOX 1647,MAYAGUEZ,PR,682,,(787)833-8845,13,City: Small,No,†,Yes,Yes,119,8,14.9,99,9
720003000547,PR-01-35840,7200030,PR-01,KG,5,MARIA M SIMMONS DE RIVERA,PUERTO RICO DEPARTMENT OF EDUCATION,Vieques Municipio,PO BOX 1518,VIEQUES,PR,765,,(787)741-0895,32,Town: Distant,No,†,Yes,Yes,207,18,11.5,173,15
720003001875,PR-01-74039,7200030,PR-01,9,12,MARIA TERESA PINEIRO,PUERTO RICO DEPARTMENT OF EDUCATION,Toa Baja Municipio,PO BOX 495,TOA BAJA,PR,949,,(787)784-4140,21,Suburb: Large,No,†,Yes,Yes,352,25,14.1,294,26
720003001470,PR-01-64956,7200030,PR-01,KG,5,MARIA TERESA SERRANO,PUERTO RICO DEPARTMENT OF EDUCATION,Carolina Municipio,PO BOX 81027,CAROLINA,PR,983,,(787)752-2975,12,City: Midsize,No,†,Yes,Yes,381,30,12.7,318,28
720003001543,PR-01-70367,7200030,PR-01,KG,8,MARIA VAZQUEZ DE UMPIERRE,PUERTO RICO DEPARTMENT OF EDUCATION,BayamÃƒÂ³n Municipio,CARR 167 KM 15 HM 3,BAYAMON,PR,957,,(787)797-5360,21,Suburb: Large,No,†,Yes,Yes,461,40,11.5,384,35
720003000545,PR-01-43299,7200030,PR-01,PK,6,MARIANO ABRIL,PUERTO RICO DEPARTMENT OF EDUCATION,San GermÃƒÂ¡n Municipio,PO BOX 5075 PMB 227,SAN GERMAN,PR,683,,(787)892-7105,22,Suburb: Midsize,No,†,Yes,Yes,90,12,7.5,75,7
720003001407,PR-01-75747,7200030,PR-01,KG,5,MARIANO ABRIL ELEMENTAL,PUERTO RICO DEPARTMENT OF EDUCATION,Guaynabo Municipio,PO BOX 29030-441,CAGUAS,PR,970,,(787)720-7870,21,Suburb: Large,No,†,Yes,Yes,260,22,11.8,217,19
720003001501,PR-01-70573,7200030,PR-01,6,8,MARIANO FELIU BALSEIRO,PUERTO RICO DEPARTMENT OF EDUCATION,BayamÃƒÂ³n Municipio,URB LOMAS VERDES CARR 831,BAYAMON,PR,956,,(787)785-9185,21,Suburb: Large,No,†,Yes,Yes,324,27,12,270,24
720003000656,PR-01-42283,7200030,PR-01,KG,5,MARIANO RIERA PALMER,PUERTO RICO DEPARTMENT OF EDUCATION,MayagÃƒÂ¼ez Municipio,257 OESTE,MAYAGUEZ,PR,680,,(787)832-5262,13,City: Small,No,†,Yes,Yes,287,23,12.5,239,22
720003000315,PR-01-32524,7200030,PR-01,PK,5,MARTA SANCHEZ (GUAYABO),PUERTO RICO DEPARTMENT OF EDUCATION,Yabucoa Municipio,PO BOX 2002,YABUCOA,PR,767,,(787)893-3300,21,Suburb: Large,No,†,Yes,Yes,144,14,10.3,120,11
720003001531,PR-01-70250,7200030,PR-01,KG,8,MARTA VELEZ DE FAJARDO (ESPECIALIZADA),PUERTO RICO DEPARTMENT OF EDUCATION,BayamÃƒÂ³n Municipio,URB CANA 100 CALLE 11,BAYAMON,PR,957,,(787)797-1775,21,Suburb: Large,No,†,Yes,Yes,660,45,14.7,550,49
720003001009,PR-01-52944,7200030,PR-01,KG,5,MARTIN G. BRUMBAUGH,PUERTO RICO DEPARTMENT OF EDUCATION,Santa Isabel Municipio,PO BOX 847,SANTA ISABEL,PR,757,,(787)845-3315,31,Town: Fringe,No,†,Yes,Yes,380,37,10.3,317,28
720003000409,PR-01-78832,7200030,PR-01,KG,8,MARTIN GARCIA GIUSTI,PUERTO RICO DEPARTMENT OF EDUCATION,Toa Baja Municipio,PO BOX 2477,TOA BAJA,PR,949,,(787)251-2231,21,Suburb: Large,No,†,Yes,Yes,485,36,13.5,404,36
720003000718,PR-01-15396,7200030,PR-01,KG,5,MATEO HERNANDEZ,PUERTO RICO DEPARTMENT OF EDUCATION,Isabela Municipio,PO BOX 1347,ISABELA,PR,662,,(787)872-5770,21,Suburb: Large,No,†,Yes,Yes,217,21,10.3,181,16
720003000112,PR-01-22012,7200030,PR-01,6,8,MATIAS GONZALEZ GARCIA,PUERTO RICO DEPARTMENT OF EDUCATION,Gurabo Municipio,PO BOX 1346,GURABO,PR,778,,(787)737-2056,21,Suburb: Large,No,†,Yes,Yes,502,40,12.6,419,37
720003001589,PR-01-69047,7200030,PR-01,9,12,MEDARDO CARAZO,PUERTO RICO DEPARTMENT OF EDUCATION,Trujillo Alto Municipio,PO BOX 1867,TRUJILLO ALTO,PR,977,,(787)760-6575,21,Suburb: Large,No,†,Yes,Yes,624,39,16,520,47
720003000440,PR-01-31245,7200030,PR-01,KG,5,MEDIANIA ALTA ELEMENTAL,PUERTO RICO DEPARTMENT OF EDUCATION,LoÃƒÂ­za Municipio,PO BOX 1980 SUITE 201,LOIZA,PR,772,,(787)876-1200,21,Suburb: Large,No,†,Yes,Yes,511,35,14.6,426,38
720003001859,PR-01-73668,7200030,PR-01,6,8,MERCEDES GARCIA DE COLORADO,PUERTO RICO DEPARTMENT OF EDUCATION,CataÃƒÂ±o Municipio,PO BOX 0125,CATANO,PR,962,,(787)788-4025,21,Suburb: Large,No,†,Yes,Yes,248,21,11.8,207,18
720003001995,PR-01-71217,7200030,PR-01,6,8,MERCEDES ROSADO,PUERTO RICO DEPARTMENT OF EDUCATION,Naranjito Municipio,PO BOX 859,NARANJITO,PR,719,,(787)869-3130,21,Suburb: Large,No,†,Yes,Yes,461,37,12.5,384,35
720003001170,PR-01-51375,7200030,PR-01,PK,5,MIGUEL A SASTRE OLIVER,PUERTO RICO DEPARTMENT OF EDUCATION,Jayuya Municipio,PO BOX 578,JAYUYA,PR,664,,(787)828-2008,31,Town: Fringe,No,†,Yes,Yes,206,17,12.1,172,15
720003001505,PR-01-70615,7200030,PR-01,9,12,MIGUEL DE CERVANTES SAAVEDRA,PUERTO RICO DEPARTMENT OF EDUCATION,BayamÃƒÂ³n Municipio,PO BOX 2728,BAYAMON,PR,960,,(787)785-4065,21,Suburb: Large,No,†,Yes,Yes,472,46,10.3,394,35
720003002067,PR-01-57323,7200030,PR-01,KG,5,MIGUEL GONZALEZ BAUZA,PUERTO RICO DEPARTMENT OF EDUCATION,PeÃƒÂ±uelas Municipio,PO BOX 839,PENUELAS,PR,624,,(787)836-0972,23,Suburb: Small,No,†,Yes,Yes,343,27,12.7,286,25
720003001533,PR-01-70276,7200030,PR-01,9,12,MIGUEL MELENDEZ MUNOZ,PUERTO RICO DEPARTMENT OF EDUCATION,BayamÃƒÂ³n Municipio,PO BOX 3169,BAYAMON,PR,957,,(787)799-7300,21,Suburb: Large,No,†,Yes,Yes,605,39,15.5,504,45
720003000179,PR-01-23531,7200030,PR-01,9,12,MIGUEL MELENDEZ MUNOZ,PUERTO RICO DEPARTMENT OF EDUCATION,Cayey Municipio,PO BOX 3160,CAYEY,PR,737,,(787)738-3078,21,Suburb: Large,No,†,Yes,Yes,657,52,12.6,548,49
720003001348,PR-01-62398,7200030,PR-01,9,12,MIGUEL SUCH,PUERTO RICO DEPARTMENT OF EDUCATION,San Juan Municipio,ESQ AVE PINERO,SAN JUAN,PR,928,,(787)751-3780,11,City: Large,No,†,Yes,Yes,895,65,13.8,746,67
720003001856,PR-01-48306,7200030,PR-01,KG,8,MILDRED ARROYO CARDOZA (SEGUNDA UNIDAD BO PUERTO REAL),PUERTO RICO DEPARTMENT OF EDUCATION,Cabo Rojo Municipio,PO BOX 1306,CABO ROJO,PR,623,,(787)851-4720,22,Suburb: Midsize,No,†,Yes,Yes,358,34,10.5,299,26
720003002059,PR-01-46987,7200030,PR-01,9,12,MONSERRATE LEON DE IRIZARRY,PUERTO RICO DEPARTMENT OF EDUCATION,Cabo Rojo Municipio,PO BOX 1235,CABO ROJO,PR,623,,(787)255-2720,41,Rural: Fringe,No,†,Yes,Yes,503,35,14.4,420,37
720003000275,PR-01-23135,7200030,PR-01,KG,5,MYRNA M. FUENTES,PUERTO RICO DEPARTMENT OF EDUCATION,Caguas Municipio,PO BOX 4952 SUITE 77,CAGUAS,PR,725,,(787)744-2231,13,City: Small,No,†,Yes,Yes,287,22,13,239,22
720003000669,PR-01-17871,7200030,PR-01,KG,8,NELIDA MELENDEZ MELENDEZ (ELEM. URBANA),PUERTO RICO DEPARTMENT OF EDUCATION,Orocovis Municipio,PO BOX 1605,OROCOVIS,PR,720,,(787)867-2840,21,Suburb: Large,No,†,Yes,Yes,508,43,11.8,423,38
720003002084,PR-01-65946,7200030,PR-01,KG,5,NEMESIO R. CANALES I,PUERTO RICO DEPARTMENT OF EDUCATION,San Juan Municipio,PO BOX 360132,SAN JUAN,PR,928,,(787)782-6539,11,City: Large,No,†,Yes,Yes,301,27,11.1,251,22
720003000295,PR-01-20594,7200030,PR-01,KG,8,NICOLAS AGUAYO ALDEA,PUERTO RICO DEPARTMENT OF EDUCATION,Caguas Municipio,PO BOX 5759,CAGUAS,PR,725,,(787)743-5065,13,City: Small,No,†,Yes,Yes,397,36,11,331,29
720003001240,PR-01-71381,7200030,PR-01,9,12,NICOLAS SEVILLA,PUERTO RICO DEPARTMENT OF EDUCATION,Toa Alta Municipio,PO BOX 1311,TOA ALTA,PR,953,,(787)870-2570,21,Suburb: Large,No,†,Yes,Yes,553,41,13.5,461,41
720003001834,PR-01-56077,7200030,PR-01,KG,5,NORMA I. TORRES COLON,PUERTO RICO DEPARTMENT OF EDUCATION,Villalba Municipio,PO BOX 1515,VILLALBA,PR,766,,(787)847-2110,23,Suburb: Small,No,†,Yes,Yes,331,30,11,276,25
720003001931,PR-01-13912,7200030,PR-01,KG,12,NUEVA BRIGIDA ALVAREZ RODRIGUEZ,PUERTO RICO DEPARTMENT OF EDUCATION,Vega Baja Municipio,PO BOX 2066,VEGA BAJA,PR,693,,(787)855-6327,21,Suburb: Large,No,†,Yes,Yes,601,55,10.9,501,45
720003001813,PR-01-79087,7200030,PR-01,KG,5,NUEVA ELEM BO QUEBRADA NEGRITO,PUERTO RICO DEPARTMENT OF EDUCATION,Trujillo Alto Municipio,PO BOX 1216 SAINT JUST,TRUJILLO ALTO,PR,976,,(787)760-3665,21,Suburb: Large,No,†,Yes,Yes,417,35,11.9,348,31
720003001925,PR-01-78253,7200030,PR-01,PK,5,NUEVA ELEMENTAL URBANA DE GUAYNABO,PUERTO RICO DEPARTMENT OF EDUCATION,Guaynabo Municipio,PO BOX 1733,GUAYNABO,PR,970,,(787)720-2195,13,City: Small,No,†,Yes,Yes,437,51,8.6,364,33
720003000453,PR-01-76257,7200030,PR-01,KG,8,NUEVA ESCUELA SU ANTONIO RIVERA (NUEVA ESC SU DE BAYAMON),PUERTO RICO DEPARTMENT OF EDUCATION,BayamÃƒÂ³n Municipio,RR 5 BOX 5829 SUITE 6,BAYAMON,PR,956,,(787)730-5613,21,Suburb: Large,No,†,Yes,Yes,164,19,8.6,137,12
720003001912,PR-01-18291,7200030,PR-01,PK,8,NUEVA ESCUELA URBANA DE CIALES,PUERTO RICO DEPARTMENT OF EDUCATION,Ciales Municipio,EXT CORCHADO SALIDA BO PUEBLO,CIALES,PR,638,,(787)781-3165,21,Suburb: Large,No,†,Yes,Yes,733,66,11.1,611,55
720003001723,PR-01-18184,7200030,PR-01,6,8,NUEVA INTERMEDIA,PUERTO RICO DEPARTMENT OF EDUCATION,Barceloneta Municipio,PO BOX 2074,BARCELONETA,PR,617,,(787)846-2460,23,Suburb: Small,No,†,Yes,Yes,365,32,11.4,304,27
720003000371,PR-01-17418,7200030,PR-01,KG,8,NUEVA JUAN S MARCHAND,PUERTO RICO DEPARTMENT OF EDUCATION,ManatÃƒÂ­ Municipio,PO BOX 506,MANATI,PR,674,,(787)854-4541,21,Suburb: Large,No,†,Yes,Yes,567,44,12.9,473,42
720003000693,PR-01-42259,7200030,PR-01,KG,5,OLGA MAS RAMIREZ,PUERTO RICO DEPARTMENT OF EDUCATION,MayagÃƒÂ¼ez Municipio,PO BOX 3050,MAYAGUEZ,PR,680,,(787)833-8283,22,Suburb: Midsize,No,†,Yes,Yes,215,16,13.4,179,16
720003001431,PR-01-70805,7200030,PR-01,6,8,ONOFRE CARBALLEIRA,PUERTO RICO DEPARTMENT OF EDUCATION,CataÃƒÂ±o Municipio,PO BOX 247,CATANO,PR,962,,(787)788-8975,21,Suburb: Large,No,†,Yes,Yes,320,26,12.3,267,24
720003001087,PR-01-24950,7200030,PR-01,KG,5,OSCAR HERNANDEZ GUEVARRA,PUERTO RICO DEPARTMENT OF EDUCATION,Guayama Municipio,PO BOX 90,GUAYAMA,PR,784,,(787)864-8242,13,City: Small,No,†,Yes,Yes,367,34,10.8,306,27
720003000046,PR-01-12435,7200030,PR-01,PK,5,OSCAR RODRIGUEZ RIVERA (BARAHONA),PUERTO RICO DEPARTMENT OF EDUCATION,Morovis Municipio,PO BOX 568,MOROVIS,PR,687,,(787)862-2010,21,Suburb: Large,No,†,Yes,Yes,302,24,12.6,252,22
720003001554,PR-01-70201,7200030,PR-01,6,12,PABLO CASALS,PUERTO RICO DEPARTMENT OF EDUCATION,BayamÃƒÂ³n Municipio,PO BOX 607071 SUITE 12,BAYAMON,PR,956,,(787)797-1215,21,Suburb: Large,No,†,Yes,Yes,464,49,9.5,387,34
720003000257,PR-01-20560,7200030,PR-01,9,12,PABLO COLON BERDECIA,PUERTO RICO DEPARTMENT OF EDUCATION,Barranquitas Municipio,PO BOX 69,BARRANQUITAS,PR,794,,(787)857-2897,21,Suburb: Large,No,†,Yes,Yes,520,45,11.6,434,38
720003001935,PR-01-77669,7200030,PR-01,9,12,PABLO DAVID BURGOS MARRERO (NUEVA SUP CON DEPART VOCACIONAL),PUERTO RICO DEPARTMENT OF EDUCATION,Corozal Municipio,CARR 159 INTERIOR CAMINO,COROZAL,PR,783,,(787)859-2500,21,Suburb: Large,No,†,Yes,Yes,414,29,14.3,345,31
720003001358,PR-01-62463,7200030,PR-01,6,8,PACHIN MARIN,PUERTO RICO DEPARTMENT OF EDUCATION,San Juan Municipio,URB FLORAL PARK,SAN JUAN,PR,925,,(787)753-9304,11,City: Large,No,†,Yes,Yes,333,25,13.3,278,24
720003000628,PR-01-17772,7200030,PR-01,9,12,PADRE ANIBAL REYES BELEN (SUP NUEVA),PUERTO RICO DEPARTMENT OF EDUCATION,Hatillo Municipio,PO BOX 69001 SUITE 275,HATILLO,PR,659,,(787)820-4022,22,Suburb: Midsize,No,†,Yes,Yes,725,57,12.7,605,53
720003001282,PR-01-61747,7200030,PR-01,6,12,PADRE RUFO (BILINGUE),PUERTO RICO DEPARTMENT OF EDUCATION,San Juan Municipio,236 CALLE DEL PARQUE,SAN JUAN,PR,909,,(787)723-4930,11,City: Large,No,†,Yes,Yes,270,26,10.4,225,20
720003000666,PR-01-77552,7200030,PR-01,6,12,PAPA JUAN XXIII,PUERTO RICO DEPARTMENT OF EDUCATION,BayamÃƒÂ³n Municipio,APARTADO 4103 BAYAMON BRANCH,BAYAMON,PR,959,,(787)785-3449,21,Suburb: Large,No,†,Yes,Yes,798,57,14,666,59
720003001459,PR-01-60400,7200030,PR-01,KG,5,PASCASIO P. SANCERRIT,PUERTO RICO DEPARTMENT OF EDUCATION,Carolina Municipio,PO BOX 1984 VALLE ARRIBA,CAROLINA,PR,983,,(787)769-4260,12,City: Midsize,No,†,Yes,Yes,365,27,13.5,304,27
720003002062,PR-01-47126,7200030,PR-01,9,12,PATRIA LATORRE RAMIREZ,PUERTO RICO DEPARTMENT OF EDUCATION,San SebastiÃƒÂ¡n Municipio,PO BOX 5379,SAN SEBASTIAN,PR,685,,(787)896-3970,21,Suburb: Large,No,†,Yes,Yes,912,59,15.5,761,67
720003000272,PR-01-20941,7200030,PR-01,PK,5,PAULA MOJICA,PUERTO RICO DEPARTMENT OF EDUCATION,Caguas Municipio,PMB 428 PO BOX 4952,CAGUAS,PR,725,,(787)743-2498,13,City: Small,No,†,Yes,Yes,138,16,8.6,115,10
720003001736,PR-01-11080,7200030,PR-01,KG,5,PEDRO AMADOR,PUERTO RICO DEPARTMENT OF EDUCATION,Camuy Municipio,PO BOX 926,CAMUY,PR,627,,(787)898-1337,22,Suburb: Midsize,No,†,Yes,Yes,218,19,11.5,182,16
720003000470,PR-01-30643,7200030,PR-01,KG,8,PEDRO BOSCH,PUERTO RICO DEPARTMENT OF EDUCATION,Juncos Municipio,PO BOX 3061,JUNCOS,PR,777,,(787)734-4346,21,Suburb: Large,No,†,Yes,Yes,303,21,14.4,253,22
720003001371,PR-01-66357,7200030,PR-01,UG,UG,PEDRO C. TIMOTHEE ANEXO,PUERTO RICO DEPARTMENT OF EDUCATION,San Juan Municipio,CALLE 16 NO ESQ CALLE 9 NO,SAN JUAN,PR,920,,(787)783-3966,11,City: Large,No,†,Yes,Yes,110,14,7.9,92,8
720003001363,PR-01-61481,7200030,PR-01,KG,5,PEDRO CARLOS TIMOTHEE,PUERTO RICO DEPARTMENT OF EDUCATION,San Juan Municipio,PO BOX 270094,SAN JUAN,PR,928,,(787)782-1280,11,City: Large,No,†,Yes,Yes,167,15,11.1,139,13
720003000566,PR-01-58172,7200030,PR-01,KG,8,PEDRO COLON SANTIAGO,PUERTO RICO DEPARTMENT OF EDUCATION,Juana DÃƒÂ­az Municipio,PO BOX 1401,JUANA DIAZ,PR,795,,(787)837-1016,23,Suburb: Small,No,†,Yes,Yes,327,32,10.2,273,24
720003000348,PR-01-33233,7200030,PR-01,9,12,PEDRO FALU ORELLANO,PUERTO RICO DEPARTMENT OF EDUCATION,RÃƒÂ­o Grande Municipio,PO BOX 940,RIO GRANDE,PR,745,,(787)887-2778,21,Suburb: Large,No,†,Yes,Yes,662,45,14.7,552,49
720003001019,PR-01-53058,7200030,PR-01,KG,8,PEDRO MELENDEZ SANTIAGO,PUERTO RICO DEPARTMENT OF EDUCATION,Santa Isabel Municipio,APARTADO 860,SANTA ISABEL,PR,757,,(787)845-3565,31,Town: Fringe,No,†,Yes,Yes,425,32,13.3,354,32
720003000289,PR-01-20669,7200030,PR-01,KG,5,PEDRO MILLAN RIVERA,PUERTO RICO DEPARTMENT OF EDUCATION,Caguas Municipio,PMB 1111 PO BOX 4956,CAGUAS,PR,725,,(787)744-4777,13,City: Small,No,†,Yes,Yes,279,23,12.1,232,21
720003001457,PR-01-60418,7200030,PR-01,KG,5,PEDRO MOCZO BANIET,PUERTO RICO DEPARTMENT OF EDUCATION,Carolina Municipio,C/ SAN FERNANDO,CAROLINA,PR,983,,(787)769-2612,12,City: Midsize,No,†,Yes,Yes,394,35,11.3,329,29
720003000798,PR-01-40980,7200030,PR-01,6,8,PEDRO NELSON COLBERG,PUERTO RICO DEPARTMENT OF EDUCATION,Cabo Rojo Municipio,PO BOX 1316,CABO ROJO,PR,623,,(787)851-3200,22,Suburb: Midsize,No,†,Yes,Yes,299,25,12,249,22
720003001840,PR-01-73650,7200030,PR-01,7,12,PEDRO P. CASABLANCA,PUERTO RICO DEPARTMENT OF EDUCATION,BayamÃƒÂ³n Municipio,PO BOX 6357,BAYAMON,PR,959,,(787)782-1562,21,Suburb: Large,No,†,Yes,Yes,236,20,11.8,197,17
720003001899,PR-01-25932,7200030,PR-01,KG,5,PEPITA ARENAS,PUERTO RICO DEPARTMENT OF EDUCATION,Caguas Municipio,PO BOX 4961 SUITE 140,CAGUAS,PR,727,,(787)746-4262,13,City: Small,No,†,Yes,Yes,258,28,9.2,215,19
720003000290,PR-01-21063,7200030,PR-01,KG,5,PEPITA GARRIGA,PUERTO RICO DEPARTMENT OF EDUCATION,Caguas Municipio,PO BOX 5759,CAGUAS,PR,725,,(787)743-3633,13,City: Small,No,†,Yes,Yes,258,20,12.9,215,19
720003000304,PR-01-17350,7200030,PR-01,9,12,PETRA CORRETJER DE ONEILL,PUERTO RICO DEPARTMENT OF EDUCATION,ManatÃƒÂ­ Municipio,PO BOX 30160 SUITE 335,MANATI,PR,674,,(787)854-6601,41,Rural: Fringe,No,†,Yes,Yes,615,42,14.6,512,46
720003002003,PR-01-34884,7200030,PR-01,9,12,PETRA MERCADO BOUGART,PUERTO RICO DEPARTMENT OF EDUCATION,Humacao Municipio,PO BOX 9141,HUMACAO,PR,792,,(787)852-7780,21,Suburb: Large,No,†,Yes,Yes,612,34,18,510,46
720003001468,PR-01-66480,7200030,PR-01,6,8,PETRA ROMAN VIGO,PUERTO RICO DEPARTMENT OF EDUCATION,Carolina Municipio,PO BOX 4099,CAROLINA,PR,979,,(787)762-7385,12,City: Midsize,No,†,Yes,Yes,533,40,13.3,445,39
720003002070,PR-01-60913,7200030,PR-01,7,12,PETRA ZENON DE FABERY,PUERTO RICO DEPARTMENT OF EDUCATION,Trujillo Alto Municipio,PO BOX 1337,TRUJILLO ALTO,PR,976,,(787)760-0685,21,Suburb: Large,No,†,Yes,Yes,725,49,14.8,604,54
720003000254,PR-01-20404,7200030,PR-01,PK,8,PETROAMERICA PAGAN,PUERTO RICO DEPARTMENT OF EDUCATION,Barranquitas Municipio,PMB 366 PO BOX 2000,BARRANQUITAS,PR,794,,(787)857-6050,21,Suburb: Large,No,†,Yes,Yes,429,41,10.5,358,32
720003000339,PR-01-32367,7200030,PR-01,PK,5,PLAYA GRANDE,PUERTO RICO DEPARTMENT OF EDUCATION,Vieques Municipio,PO BOX 1528,VIEQUES,PR,765,,(787)741-2766,32,Town: Distant,No,†,Yes,Yes,235,18,13.1,196,17
720003001045,PR-01-52514,7200030,PR-01,9,12,PONCE HIGH SCHOOL,PUERTO RICO DEPARTMENT OF EDUCATION,Ponce Municipio,PO BOX 109,PONCE,PR,733,,(787)842-4156,12,City: Midsize,No,†,Yes,Yes,976,61,16,814,72
720003001633,PR-01-11940,7200030,PR-01,2,12,PROFESOR RAFAEL ALICEA VAZQUEZ (JOSEFINA LINARES),PUERTO RICO DEPARTMENT OF EDUCATION,Lares Municipio,PO BOX 1236,LARES,PR,669,,(787)897-4070,21,Suburb: Large,No,†,Yes,Yes,259,33,7.8,216,19
720003000551,PR-01-47951,7200030,PR-01,PK,9,PROFESORA JUANA ROSARIO CARRERO (ESCUELA INTERMEDIA NUEVA),PUERTO RICO DEPARTMENT OF EDUCATION,Aguada Municipio,APARTADO 547,AGUADA,PR,602,,(787)868-2260,21,Suburb: Large,No,†,Yes,Yes,691,34,20.3,576,51
720003000515,PR-01-58099,7200030,PR-01,PK,8,PROFESORA LUISA MONSEGUR VELEZ,PUERTO RICO DEPARTMENT OF EDUCATION,Yauco Municipio,PO BOX 48,YAUCO,PR,698,,(787)267-6615,23,Suburb: Small,No,†,Yes,Yes,295,27,10.9,246,22
720003000922,PR-01-50542,7200030,PR-01,KG,5,PURIFICACION RODRIGUEZ,PUERTO RICO DEPARTMENT OF EDUCATION,Coamo Municipio,PO BOX 3001 SUITE 184,COAMO,PR,769,,(787)825-1684,31,Town: Fringe,No,†,Yes,Yes,305,27,11.3,254,23
720003000405,PR-01-31609,7200030,PR-01,KG,5,QUEBRADA GRANDE,PUERTO RICO DEPARTMENT OF EDUCATION,Naguabo Municipio,PO BOX 508,NAGUABO,PR,718,,(787)874-0430,23,Suburb: Small,No,†,Yes,Yes,214,17,12.6,178,16
720003001577,PR-01-20305,7200030,PR-01,KG,5,RABANAL,PUERTO RICO DEPARTMENT OF EDUCATION,Aibonito Municipio,PO BOX 1269,AIBONITO,PR,705,,(787)735-8886,21,Suburb: Large,No,†,Yes,Yes,218,20,10.9,182,16
720003001084,PR-01-24927,7200030,PR-01,PK,6,RAFAEL ANTONIO DELGADO MATEO,PUERTO RICO DEPARTMENT OF EDUCATION,Guayama Municipio,PO BOX 1649,GUAYAMA,PR,784,,(787)864-3875,23,Suburb: Small,No,†,Yes,Yes,237,20,11.9,197,18
720003001132,PR-01-54551,7200030,PR-01,6,8,RAFAEL APARICIO JIMENEZ,PUERTO RICO DEPARTMENT OF EDUCATION,Adjuntas Municipio,CALLE RODULFO GONZALEZ FINAL,ADJUNTAS,PR,601,,(787)829-3890,31,Town: Fringe,No,†,Yes,Yes,317,33,9.6,264,24
720003001517,PR-01-70417,7200030,PR-01,KG,8,RAFAEL COLON SALGADO,PUERTO RICO DEPARTMENT OF EDUCATION,BayamÃƒÂ³n Municipio,PO BOX 1244,BAYAMON,PR,956,,(787)799-0333,21,Suburb: Large,No,†,Yes,Yes,519,42,12.4,433,38
720003001427,PR-01-70763,7200030,PR-01,KG,5,RAFAEL CORDERO,PUERTO RICO DEPARTMENT OF EDUCATION,CataÃƒÂ±o Municipio,PO BOX 630217,CATANO,PR,962,,(787)788-1557,21,Suburb: Large,No,†,Yes,Yes,548,50,11,457,41
720003001281,PR-01-61762,7200030,PR-01,9,12,RAFAEL CORDERO,PUERTO RICO DEPARTMENT OF EDUCATION,San Juan Municipio,PO BOX 9161,SAN JUAN,PR,908,,(787)722-6643,11,City: Large,No,†,Yes,Yes,252,18,14,210,19
720003000346,PR-01-32243,7200030,PR-01,KG,5,RAFAEL DE JESUS,PUERTO RICO DEPARTMENT OF EDUCATION,RÃƒÂ­o Grande Municipio,PO BOX 1806,RIO GRANDE,PR,745,,(787)887-2785,21,Suburb: Large,No,†,Yes,Yes,317,29,10.9,264,24
720003001354,PR-01-62612,7200030,PR-01,KG,5,RAFAEL HERNANDEZ,PUERTO RICO DEPARTMENT OF EDUCATION,San Juan Municipio,RES SAN JOSE,SAN JUAN,PR,923,,(787)763-8514,11,City: Large,No,†,Yes,Yes,315,24,13.1,263,23
720003001816,PR-01-72058,7200030,PR-01,KG,5,RAFAEL HERNANDEZ,PUERTO RICO DEPARTMENT OF EDUCATION,Vega Baja Municipio,PO BOX 100,VEGA BAJA,PR,693,,(787)858-1994,21,Suburb: Large,No,†,Yes,Yes,326,23,14.2,272,24
720003001785,PR-01-71746,7200030,PR-01,KG,5,RAFAEL HERNANDEZ,PUERTO RICO DEPARTMENT OF EDUCATION,Vega Alta Municipio,PO BOX 355,VEGA ALTA,PR,692,,(787)883-1025,21,Suburb: Large,No,†,Yes,Yes,277,22,12.6,231,21
720003001294,PR-01-61549,7200030,PR-01,KG,5,RAFAEL HERNANDEZ MARIN,PUERTO RICO DEPARTMENT OF EDUCATION,San Juan Municipio,URB SUMMIT HILLS,SAN JUAN,PR,927,,(787)792-0494,11,City: Large,No,†,Yes,Yes,240,22,10.9,200,18
720003000974,PR-01-51870,7200030,PR-01,6,8,RAFAEL IRIZARRY RIVERA,PUERTO RICO DEPARTMENT OF EDUCATION,PeÃƒÂ±uelas Municipio,PO BOX 1264,PENUELAS,PR,624,,(787)836-1177,41,Rural: Fringe,No,†,Yes,Yes,372,35,10.6,310,28
720003001279,PR-01-61705,7200030,PR-01,7,12,RAFAEL MARIA DE LABRA,PUERTO RICO DEPARTMENT OF EDUCATION,San Juan Municipio,CALLE 11 VILLA PALMERAS,SAN JUAN,PR,909,,(787)724-2700,11,City: Large,No,†,Yes,Yes,289,20,14.5,241,21
720003001388,PR-01-75705,7200030,PR-01,6,8,RAFAEL MARTINEZ NADAL,PUERTO RICO DEPARTMENT OF EDUCATION,Guaynabo Municipio,PO BOX 966,GUAYNABO,PR,970,,(787)720-3356,13,City: Small,No,†,Yes,Yes,314,25,12.6,262,23
720003000678,PR-01-42390,7200030,PR-01,KG,5,RAFAEL MARTINEZ NADAL,PUERTO RICO DEPARTMENT OF EDUCATION,MayagÃƒÂ¼ez Municipio,PO BOX 4427,MAYAGUEZ,PR,680,,(787)832-2002,13,City: Small,No,†,Yes,Yes,260,23,11.3,217,19
720003000424,PR-01-31302,7200030,PR-01,6,8,RAFAEL N. COCA,PUERTO RICO DEPARTMENT OF EDUCATION,Luquillo Municipio,PO BOX 1200,LUQUILLO,PR,773,,(787)889-3243,23,Suburb: Small,No,†,Yes,Yes,385,27,14.3,321,29
720003001569,PR-01-20255,7200030,PR-01,KG,12,RAFAEL PONT FLORES,PUERTO RICO DEPARTMENT OF EDUCATION,Aibonito Municipio,PO BOX 1269,AIBONITO,PR,705,,(787)735-4571,21,Suburb: Large,No,†,Yes,Yes,460,45,10.2,384,34
720003000362,PR-01-32268,7200030,PR-01,KG,5,RAFAEL REXACH DUENO,PUERTO RICO DEPARTMENT OF EDUCATION,RÃƒÂ­o Grande Municipio,PO BOX 472,RIO GRANDE,PR,745,,(787)887-2720,21,Suburb: Large,No,†,Yes,Yes,271,21,12.9,226,20
720003001289,PR-01-61499,7200030,PR-01,KG,5,RAFAEL RIVERA OTERO,PUERTO RICO DEPARTMENT OF EDUCATION,San Juan Municipio,CALLE SANDALIO ALONSO URB. LAS LOMAS,SAN JUAN,PR,921,,(787)782-3180,11,City: Large,No,†,Yes,Yes,267,21,12.7,223,19
720003000490,PR-01-35816,7200030,PR-01,9,12,RAFAELINA E. LEBRON FLORES,PUERTO RICO DEPARTMENT OF EDUCATION,Patillas Municipio,PO BOX 1133,PATILLAS,PR,723,,(787)839-3419,23,Suburb: Small,No,†,Yes,Yes,358,31,11.5,299,26
720003001747,PR-01-10967,7200030,PR-01,KG,5,RALPH W. EMERSON,PUERTO RICO DEPARTMENT OF EDUCATION,Camuy Municipio,PO BOX 831,CAMUY,PR,627,,(787)898-2037,22,Suburb: Midsize,No,†,Yes,Yes,377,35,10.8,314,28
720003001895,PR-01-15917,7200030,PR-01,6,8,RAMON DE JESUS SIERRA,PUERTO RICO DEPARTMENT OF EDUCATION,Lares Municipio,PO BOX 394,LARES,PR,669,,(787)897-2590,21,Suburb: Large,No,†,Yes,Yes,510,39,13.1,425,38
720003001861,PR-01-46052,7200030,PR-01,KG,8,RAMON E. RODRIGUEZ DIAZ,PUERTO RICO DEPARTMENT OF EDUCATION,Hormigueros Municipio,PO BOX 1336,HORMIGUEROS,PR,660,,(787)849-1230,22,Suburb: Midsize,No,†,Yes,Yes,582,39,14.9,485,43
720003001693,PR-01-12799,7200030,PR-01,PK,5,RAMON EMETERIO BETANCES,PUERTO RICO DEPARTMENT OF EDUCATION,Quebradillas Municipio,PO BOX 950,QUEBRADILLAS,PR,678,,(787)895-2575,22,Suburb: Midsize,No,†,Yes,Yes,373,46,8.1,311,28
720003000926,PR-01-50468,7200030,PR-01,9,12,RAMON JOSE DAVILA,PUERTO RICO DEPARTMENT OF EDUCATION,Coamo Municipio,PO BOX 10,COAMO,PR,769,,(787)825-1247,31,Town: Fringe,No,†,Yes,Yes,729,47,15.5,608,54
720003000716,PR-01-58495,7200030,PR-01,KG,5,RAMON LOPEZ BERRIOS (EMILIA BONILLA),PUERTO RICO DEPARTMENT OF EDUCATION,Villalba Municipio,APARTADO 1504,VILLALBA,PR,766,,(787)847-6729,23,Suburb: Small,No,†,Yes,Yes,89,17,5.2,74,7
720003000593,PR-01-43794,7200030,PR-01,KG,5,RAMON MARIA TORRES,PUERTO RICO DEPARTMENT OF EDUCATION,San SebastiÃƒÂ¡n Municipio,AVE EMERITO ESTRADA,SAN SEBASTIAN,PR,685,,(787)896-1135,21,Suburb: Large,No,†,Yes,Yes,388,30,12.9,323,29
720003001046,PR-01-52555,7200030,PR-01,UG,UG,RAMON MARIN,PUERTO RICO DEPARTMENT OF EDUCATION,Ponce Municipio,PO BOX 10788 SUITE 188,PONCE,PR,733,,(787)842-1371,12,City: Midsize,No,†,Yes,Yes,173,31,5.6,144,13
720003001387,PR-01-75713,7200030,PR-01,KG,5,RAMON MARIN SOLA,PUERTO RICO DEPARTMENT OF EDUCATION,Guaynabo Municipio,CALLE AZALEA ESQ. CAMPOBELLO,GUAYNABO,PR,971,,(787)720-3911,13,City: Small,No,†,Yes,Yes,360,34,10.6,300,27
720003001561,PR-01-70045,7200030,PR-01,KG,5,RAMON MORALES PENA,PUERTO RICO DEPARTMENT OF EDUCATION,BayamÃƒÂ³n Municipio,URB RIVERVIEW,BAYAMON,PR,961,,(787)798-3773,21,Suburb: Large,No,†,Yes,Yes,509,37,13.8,424,38
720003000584,PR-01-44529,7200030,PR-01,KG,6,RAMON OLIVARES,PUERTO RICO DEPARTMENT OF EDUCATION,Lajas Municipio,PO BOX 1640,LAJAS,PR,667,,(787)899-1695,22,Suburb: Midsize,No,†,Yes,Yes,196,16,12.3,163,15
720003000990,PR-01-51946,7200030,PR-01,KG,8,RAMON PEREZ PURCELL,PUERTO RICO DEPARTMENT OF EDUCATION,PeÃƒÂ±uelas Municipio,PO BOX 899,PENUELAS,PR,624,,(787)836-3577,23,Suburb: Small,No,†,Yes,Yes,376,32,11.8,313,28
720003001285,PR-01-63123,7200030,PR-01,9,12,RAMON POWER Y GIRALT,PUERTO RICO DEPARTMENT OF EDUCATION,San Juan Municipio,CALLE LOIZA STATION,SAN JUAN,PR,914,,(787)727-4830,11,City: Large,No,†,Yes,Yes,272,22,12.4,227,20
720003000445,PR-01-30973,7200030,PR-01,9,12,RAMON POWER Y GIRALT,PUERTO RICO DEPARTMENT OF EDUCATION,Las Piedras Municipio,PO BOX 1276,LAS PIEDRAS,PR,771,,(787)733-2561,21,Suburb: Large,No,†,Yes,Yes,686,46,14.9,572,51
720003000491,PR-01-35782,7200030,PR-01,9,12,RAMON QUINONES MEDINA,PUERTO RICO DEPARTMENT OF EDUCATION,Yabucoa Municipio,PO BOX 1990,YABUCOA,PR,767,,(787)893-2216,21,Suburb: Large,No,†,Yes,Yes,533,32,16.7,445,39
720003000502,PR-01-30239,7200030,PR-01,KG,5,RAMON QUINONES PACHECO,PUERTO RICO DEPARTMENT OF EDUCATION,Fajardo Municipio,155 CALLE FEDERICO GARCIA,FAJARDO,PR,738,,(787)863-0624,23,Suburb: Small,No,†,Yes,Yes,324,29,11.2,270,24
720003000269,PR-01-20545,7200030,PR-01,KG,8,RAMON T. RIVERA (SU LAJITA),PUERTO RICO DEPARTMENT OF EDUCATION,Barranquitas Municipio,PO BOX 40,BARRANQUITAS,PR,794,,(787)857-5571,21,Suburb: Large,No,†,Yes,Yes,215,23,9.3,179,16
720003000043,PR-01-12336,7200030,PR-01,KG,8,RAMON TORRES RIVERA,PUERTO RICO DEPARTMENT OF EDUCATION,Morovis Municipio,PO BOX 1772,MOROVIS,PR,687,,(787)862-3406,21,Suburb: Large,No,†,Yes,Yes,114,18,6.3,95,9
720003001349,PR-01-62950,7200030,PR-01,6,12,RAMON VILA MAYO,PUERTO RICO DEPARTMENT OF EDUCATION,San Juan Municipio,PO BOX 70158 MSC 218,SAN JUAN,PR,926,,(787)772-9864,11,City: Large,No,†,Yes,Yes,568,43,13.2,474,42
720003000645,PR-01-41921,7200030,PR-01,KG,8,RAUL YBARRA,PUERTO RICO DEPARTMENT OF EDUCATION,Maricao Municipio,CARR 120 AVE LUCHETTI #8,MARICAO,PR,606,,(787)838-3011,41,Rural: Fringe,No,†,Yes,Yes,241,24,10,201,18
720003000713,PR-01-28365,7200030,PR-01,PK,5,REGINO VEGA MARTINEZ (NUEVA ELEMENTAL BO SANTA CLARA),PUERTO RICO DEPARTMENT OF EDUCATION,Cidra Municipio,PO BOX 843,CIDRA,PR,739,,(787)739-6626,21,Suburb: Large,No,†,Yes,Yes,340,29,11.7,284,25
720003001839,PR-01-65995,7200030,PR-01,6,8,RENE MARQUES,PUERTO RICO DEPARTMENT OF EDUCATION,Carolina Municipio,PO BOX 3328,CAROLINA,PR,983,,(787)757-2760,12,City: Midsize,No,†,Yes,Yes,361,23,15.7,301,27
720003001299,PR-01-61515,7200030,PR-01,KG,5,REPUBLICA DE BRAZIL,PUERTO RICO DEPARTMENT OF EDUCATION,San Juan Municipio,CALLE 48 #1258 LA RIVIERA,SAN JUAN,PR,928,,(787)782-7714,11,City: Large,No,†,Yes,Yes,245,19,12.9,204,18
720003001347,PR-01-62877,7200030,PR-01,9,12,REPUBLICA DE COLOMBIA,PUERTO RICO DEPARTMENT OF EDUCATION,San Juan Municipio,URB SAN AGUSTIN,SAN JUAN,PR,928,,(787)764-4910,11,City: Large,No,†,Yes,Yes,291,26,11.2,242,22
720003000281,PR-01-20982,7200030,PR-01,9,12,REPUBLICA DE COSTA RICA,PUERTO RICO DEPARTMENT OF EDUCATION,Caguas Municipio,BOX 880,CAGUAS,PR,725,,(787)746-7565,13,City: Small,No,†,Yes,Yes,729,44,16.6,608,54
720003001280,PR-01-63149,7200030,PR-01,6,10,REPUBLICA DEL PERU,PUERTO RICO DEPARTMENT OF EDUCATION,San Juan Municipio,PO BOX 6416,SAN JUAN,PR,914,,(787)727-2327,11,City: Large,No,†,Yes,Yes,193,18,10.7,161,14
720003001530,PR-01-70243,7200030,PR-01,KG,5,REXVILLE ELEMENTAL,PUERTO RICO DEPARTMENT OF EDUCATION,BayamÃƒÂ³n Municipio,URB REXVILLE,BAYAMON,PR,956,,(787)797-5004,21,Suburb: Large,No,†,Yes,Yes,414,42,9.9,345,31
720003001410,PR-01-71084,7200030,PR-01,6,8,RICARDO ARROYO LARACUENTE,PUERTO RICO DEPARTMENT OF EDUCATION,Dorado Municipio,PO BOX 589,DORADO,PR,646,,(787)796-1222,21,Suburb: Large,No,†,Yes,Yes,354,25,14.2,295,26
720003000374,PR-01-17459,7200030,PR-01,PK,5,RICARDO RODRIGUEZ TORRES,PUERTO RICO DEPARTMENT OF EDUCATION,Florida Municipio,PO BOX 1175,FLORIDA,PR,650,,(787)822-1005,23,Suburb: Small,No,†,Yes,Yes,270,25,10.8,225,20
720003001460,PR-01-64949,7200030,PR-01,KG,5,ROBERTO CLEMENTE,PUERTO RICO DEPARTMENT OF EDUCATION,Carolina Municipio,URB ROLLING HILLS #15,CAROLINA,PR,987,,(787)276-4920,12,City: Midsize,No,†,Yes,Yes,265,26,10.2,221,20
720003001860,PR-01-36327,7200030,PR-01,KG,5,ROBERTO SILVA MORALES,PUERTO RICO DEPARTMENT OF EDUCATION,Juncos Municipio,PO BOX 3401,JUNCOS,PR,777,,(787)734-2241,21,Suburb: Large,No,†,Yes,Yes,371,32,11.6,309,28
720003001107,PR-01-52571,7200030,PR-01,KG,5,RODULFO DEL VALLE,PUERTO RICO DEPARTMENT OF EDUCATION,Ponce Municipio,DRAWER 459,PONCE,PR,731,,(787)844-1265,12,City: Midsize,No,†,Yes,Yes,406,34,11.9,339,30
720003000554,PR-01-50609,7200030,PR-01,KG,8,ROMAN COLON CORREA (RIO JUEYES),PUERTO RICO DEPARTMENT OF EDUCATION,Coamo Municipio,SUITE 177,COAMO,PR,769,,(787)825-5445,31,Town: Fringe,No,†,Yes,Yes,273,32,8.5,228,20
720003000227,PR-01-20990,7200030,PR-01,KG,5,ROSA C. BENITEZ,PUERTO RICO DEPARTMENT OF EDUCATION,Caguas Municipio,URB VILLA DEL REY,CAGUAS,PR,725,,(787)743-8446,13,City: Small,No,†,Yes,Yes,373,37,10.1,311,28
720003001864,PR-01-32532,7200030,PR-01,6,8,ROSA COSTA VALDIVESO,PUERTO RICO DEPARTMENT OF EDUCATION,Yabucoa Municipio,PO BOX 2009,YABUCOA,PR,767,,(787)893-3390,21,Suburb: Large,No,†,Yes,Yes,244,21,11.6,203,19
720003000105,PR-01-71308,7200030,PR-01,KG,5,ROSA LUZ ZAYAS (CEDRO ARRIBA),PUERTO RICO DEPARTMENT OF EDUCATION,Naranjito Municipio,PO BOX 848,NARANJITO,PR,719,,(787)869-3976,21,Suburb: Large,No,†,Yes,Yes,209,18,11.6,174,16
720003001980,PR-01-34769,7200030,PR-01,KG,5,ROSA PASCUAL PARIS,PUERTO RICO DEPARTMENT OF EDUCATION,Fajardo Municipio,URB FAJARDO GARDENS CALLE 23,FAJARDO,PR,738,,(787)863-8520,23,Suburb: Small,No,†,Yes,Yes,226,20,11.3,188,17
720003001391,PR-01-75739,7200030,PR-01,6,12,ROSALINA C. MARTINEZ,PUERTO RICO DEPARTMENT OF EDUCATION,Guaynabo Municipio,PO BOX 3311,CATANO,PR,971,,(787)783-8385,13,City: Small,Yes,†,Yes,Yes,353,32,11,294,27
720003000579,PR-01-41566,7200030,PR-01,KG,5,ROSENDO MATIENZO CINTRON,PUERTO RICO DEPARTMENT OF EDUCATION,Lajas Municipio,PO BOX 932,LAJAS,PR,667,,(787)899-4179,22,Suburb: Midsize,No,†,Yes,Yes,200,19,10.5,167,15
720003000698,PR-01-78857,7200030,PR-01,9,12,RUBEN RODRIGUEZ FIGUEROA,PUERTO RICO DEPARTMENT OF EDUCATION,Naranjito Municipio,CARR 164 KM 4.3 BO NUEVO,NARANJITO,PR,719,,(787)787-3035,21,Suburb: Large,No,†,Yes,Yes,771,44,17.5,643,57
720003000477,PR-01-33308,7200030,PR-01,KG,5,RUFINO VIGO,PUERTO RICO DEPARTMENT OF EDUCATION,Humacao Municipio,PO BOX 9154,HUMACAO,PR,791,,(787)852-3215,21,Suburb: Large,No,†,Yes,Yes,286,23,12.4,238,22
720003000203,PR-01-27557,7200030,PR-01,9,12,RUTH EVELYN CRUZ SANTOS,PUERTO RICO DEPARTMENT OF EDUCATION,Cidra Municipio,PO BOX 1817,CIDRA,PR,739,,(787)739-3011,21,Suburb: Large,No,†,Yes,Yes,678,48,14.1,565,51
720003000036,PR-01-51656,7200030,PR-01,KG,5,RUTHFORD B HAYES,PUERTO RICO DEPARTMENT OF EDUCATION,Juana DÃƒÂ­az Municipio,PO BOX 1404,JUANA DIAZ,PR,795,,(787)837-2336,23,Suburb: Small,No,†,Yes,Yes,447,37,12.1,373,33
720003001992,PR-01-62174,7200030,PR-01,6,8,RVDO FELIX CASTRO RODRIGUEZ,PUERTO RICO DEPARTMENT OF EDUCATION,Carolina Municipio,PO BOX 3629 VALLE ARRIBA HEIGHTS,CAROLINA,PR,985,,(787)750-1330,12,City: Midsize,No,†,Yes,Yes,315,22,14.3,263,23
720003000564,PR-01-58248,7200030,PR-01,KG,8,SABINO RIVERA BERRIOS,PUERTO RICO DEPARTMENT OF EDUCATION,Coamo Municipio,APARTADO 358,COAMO,PR,769,,(787)857-4595,41,Rural: Fringe,No,†,Yes,Yes,181,21,8.6,151,13
720003001495,PR-01-60442,7200030,PR-01,7,12,SALVADOR BRAU,PUERTO RICO DEPARTMENT OF EDUCATION,Carolina Municipio,PO BOX 4099,CAROLINA,PR,985,,(787)750-0011,21,Suburb: Large,No,†,Yes,Yes,290,22,13.2,242,21
720003000617,PR-01-28084,7200030,PR-01,KG,5,SALVADOR BRAU ELEMENTAL,PUERTO RICO DEPARTMENT OF EDUCATION,Cayey Municipio,SUITE 135 PO BOX 1000,CAYEY,PR,737,,(787)738-3190,21,Suburb: Large,No,†,Yes,Yes,345,26,13.3,287,26
720003000731,PR-01-45468,7200030,PR-01,9,12,SALVADOR FUENTES,PUERTO RICO DEPARTMENT OF EDUCATION,Aguadilla Municipio,PO BOX 250296,AGUADILLA,PR,605,,(787)890-5600,21,Suburb: Large,No,†,Yes,Yes,239,20,12,199,18
720003001341,PR-01-62927,7200030,PR-01,KG,5,SAN AGUSTIN,PUERTO RICO DEPARTMENT OF EDUCATION,San Juan Municipio,EXT SAN AGUSTIN,SAN JUAN,PR,924,,(787)765-6946,11,City: Large,No,†,Yes,Yes,284,23,12.3,237,21
720003001171,PR-01-51482,7200030,PR-01,KG,5,SAN PATRICIO,PUERTO RICO DEPARTMENT OF EDUCATION,Jayuya Municipio,PO BOX 1548,JAYUYA,PR,664,,(787)259-0112,41,Rural: Fringe,No,†,Yes,Yes,71,10,7.1,59,5
720003001798,PR-01-71878,7200030,PR-01,KG,5,SAN VICENTE,PUERTO RICO DEPARTMENT OF EDUCATION,Vega Baja Municipio,PO BOX 82,VEGA BAJA,PR,693,,(787)858-3587,21,Suburb: Large,No,†,Yes,Yes,400,26,15.4,333,30
720003001394,PR-01-75770,7200030,PR-01,PK,6,SANTA ROSA III,PUERTO RICO DEPARTMENT OF EDUCATION,Guaynabo Municipio,PO BOX 1899,GUAYNABO,PR,969,,(787)720-2718,13,City: Small,No,†,Yes,Yes,335,26,12.9,279,25
720003002011,PR-01-57026,7200030,PR-01,KG,5,SANTA TERESITA,PUERTO RICO DEPARTMENT OF EDUCATION,Ponce Municipio,CALLE 23 ESQUINA 24,PONCE,PR,731,,(787)841-4949,12,City: Midsize,No,†,Yes,Yes,269,25,10.8,224,20
720003001350,PR-01-62646,7200030,PR-01,KG,8,SANTIAGO IGLESIAS PANTIN,PUERTO RICO DEPARTMENT OF EDUCATION,San Juan Municipio,EMBALSE SAN JOSE,SAN JUAN,PR,923,,(787)767-8721,11,City: Large,No,†,Yes,Yes,296,27,11,247,22
720003001384,PR-01-75788,7200030,PR-01,PK,6,SANTIAGO IGLESIAS PANTIN,PUERTO RICO DEPARTMENT OF EDUCATION,San Juan Municipio,URB SANTIAGO IGLESIAS,SAN JUAN,PR,971,,(787)783-1645,11,City: Large,No,†,Yes,Yes,478,36,13.3,399,35
720003000518,PR-01-30098,7200030,PR-01,9,12,SANTIAGO IGLESIAS PANTIN,PUERTO RICO DEPARTMENT OF EDUCATION,Ceiba Municipio,PO BOX 1404,CEIBA,PR,742,,(787)885-3200,23,Suburb: Small,No,†,Yes,Yes,392,36,10.9,327,29
720003000901,PR-01-53702,7200030,PR-01,KG,5,SANTIAGO NEGRONI,PUERTO RICO DEPARTMENT OF EDUCATION,Yauco Municipio,PO BOX 1860,YAUCO,PR,698,,(787)856-8922,23,Suburb: Small,No,†,Yes,Yes,289,21,13.8,241,21
720003001915,PR-01-34355,7200030,PR-01,6,8,SANTIAGO TORRES,PUERTO RICO DEPARTMENT OF EDUCATION,Las Piedras Municipio,PO BOX 98,LAS PIEDRAS,PR,771,,(787)733-1454,21,Suburb: Large,No,†,Yes,Yes,351,30,11.7,293,26
720003000809,PR-01-44511,7200030,PR-01,KG,5,SEBASTIAN PABON ALVES (COROZO),PUERTO RICO DEPARTMENT OF EDUCATION,Cabo Rojo Municipio,PO BOX 1322,CABO ROJO,PR,623,,(787)255-6705,22,Suburb: Midsize,No,†,Yes,Yes,105,10,10.5,87,8
720003000764,PR-01-41061,7200030,PR-01,9,12,SEGUNDO RUIZ BELVIS,PUERTO RICO DEPARTMENT OF EDUCATION,Hormigueros Municipio,PO BOX 10,HORMIGUEROS,PR,660,,(787)849-2610,22,Suburb: Midsize,No,†,Yes,Yes,721,51,14.1,601,54
720003000681,PR-01-42085,7200030,PR-01,KG,5,SEGUNDO RUIZ BELVIS,PUERTO RICO DEPARTMENT OF EDUCATION,MayagÃƒÂ¼ez Municipio,PO BOX 3205,MAYAGUEZ,PR,680,,(787)832-5078,13,City: Small,No,†,Yes,Yes,197,22,9,164,15
720003002079,PR-01-47357,7200030,PR-01,KG,5,SEVERO E. COLBERG RAMIREZ,PUERTO RICO DEPARTMENT OF EDUCATION,Cabo Rojo Municipio,PO BOX 1150,CABO ROJO,PR,623,,(787)821-7322,22,Suburb: Midsize,No,†,Yes,Yes,495,42,11.8,412,37
720003002077,PR-01-75234,7200030,PR-01,KG,6,SILVESTRE MARTINEZ,PUERTO RICO DEPARTMENT OF EDUCATION,Naranjito Municipio,HC 73 BOX 5548,NARANJITO,PR,719,,(787)869-1266,21,Suburb: Large,No,†,Yes,Yes,354,24,14.8,295,26
720003001870,PR-01-25312,7200030,PR-01,KG,9,SIMON MADERA,PUERTO RICO DEPARTMENT OF EDUCATION,Guayama Municipio,PO BOX 10007 SUITE 108,GUAYAMA,PR,785,,(787)864-0768,13,City: Small,No,†,Yes,Yes,304,22,13.8,254,22
720003001836,PR-01-56085,7200030,PR-01,6,8,SOR ISOLINA FERRE (VILLA DEL CARMEN),PUERTO RICO DEPARTMENT OF EDUCATION,Ponce Municipio,PO BOX 30067,PONCE,PR,731,,(787)840-6075,12,City: Midsize,No,†,Yes,Yes,366,30,12.2,305,27
720003001302,PR-01-66316,7200030,PR-01,6,8,SOTERO FIGUEROA,PUERTO RICO DEPARTMENT OF EDUCATION,San Juan Municipio,URB UNIVERSITY GARDENS,SAN JUAN,PR,928,,(787)765-8132,11,City: Large,No,†,Yes,Yes,335,29,11.6,279,25
720003001990,PR-01-56820,7200030,PR-01,6,12,STELLA MARQUEZ,PUERTO RICO DEPARTMENT OF EDUCATION,Salinas Municipio,PO BOX 1156,SALINAS,PR,751,,(787)824-3357,31,Town: Fringe,No,†,Yes,Yes,689,43,16,575,51
720003000109,PR-01-71340,7200030,PR-01,KG,8,SU ADOLFO GARCIA,PUERTO RICO DEPARTMENT OF EDUCATION,Naranjito Municipio,PO BOX 2765,NARANJITO,PR,719,,(787)869-4008,21,Suburb: Large,No,†,Yes,Yes,316,27,11.7,264,23
720003001865,PR-01-34199,7200030,PR-01,KG,8,SU AGAPITO LOPEZ FLORES,PUERTO RICO DEPARTMENT OF EDUCATION,Humacao Municipio,PO BOX 911,HUMACAO,PR,792,,(787)852-6494,21,Suburb: Large,No,†,Yes,Yes,448,31,14.5,374,33
720003000434,PR-01-31393,7200030,PR-01,KG,5,SU ALEJANDRINA RIOS (SU SABANA),PUERTO RICO DEPARTMENT OF EDUCATION,Luquillo Municipio,PO BOX 485,LUQUILLO,PR,773,,(787)889-3750,23,Suburb: Small,No,†,Yes,Yes,202,21,9.6,168,15
720003000818,PR-01-44891,7200030,PR-01,KG,8,SU ALFREDO DORRINGTON,PUERTO RICO DEPARTMENT OF EDUCATION,Hormigueros Municipio,PO BOX 10,HORMIGUEROS,PR,660,,(787)806-0185,22,Suburb: Midsize,No,†,Yes,Yes,504,41,12.3,420,38
720003001819,PR-01-72090,7200030,PR-01,PK,8,SU ALMIRANTE NORTE,PUERTO RICO DEPARTMENT OF EDUCATION,Vega Baja Municipio,PO BOX 7004,VEGA BAJA,PR,693,,(787)858-5252,21,Suburb: Large,No,†,Yes,Yes,511,45,11.4,426,38
720003001673,PR-01-12724,7200030,PR-01,KG,8,SU ANA JOAQUINA ORTIZ ORTIZ,PUERTO RICO DEPARTMENT OF EDUCATION,Orocovis Municipio,PO BOX 136,OROCOVIS,PR,720,,(787)867-0411,21,Suburb: Large,No,†,Yes,Yes,165,22,7.5,138,12
720003000324,PR-01-32680,7200030,PR-01,KG,8,SU ANDRES SANDIN MARTINEZ,PUERTO RICO DEPARTMENT OF EDUCATION,Yabucoa Municipio,PO BOX 888 SUITE 202,YABUCOA,PR,767,,(787)893-1070,21,Suburb: Large,No,†,Yes,Yes,547,42,13,456,41
720003001635,PR-01-11932,7200030,PR-01,PK,8,SU ANGELICA DELGADO (SU AMERICA),PUERTO RICO DEPARTMENT OF EDUCATION,Lares Municipio,PO BOX 1358,LARES,PR,669,,(787)897-1905,21,Suburb: Large,No,†,Yes,Yes,438,47,9.3,365,33
720003001180,PR-01-51458,7200030,PR-01,PK,8,SU ANTONIA SERRANO GONZALEZ,PUERTO RICO DEPARTMENT OF EDUCATION,Jayuya Municipio,PO BOX 578,JAYUYA,PR,664,,(787)828-1285,41,Rural: Fringe,No,†,Yes,Yes,172,21,8.2,143,13
720003000815,PR-01-41020,7200030,PR-01,KG,8,SU ANTONIO ACARON CORREA,PUERTO RICO DEPARTMENT OF EDUCATION,Cabo Rojo Municipio,PO BOX 1315,CABO ROJO,PR,623,,(787)851-3500,22,Suburb: Midsize,No,†,Yes,Yes,343,26,13.2,286,25
720003001179,PR-01-51441,7200030,PR-01,KG,8,SU ANTONIO ROMERO MUNIZ,PUERTO RICO DEPARTMENT OF EDUCATION,Jayuya Municipio,PO BOX 1547,JAYUYA,PR,664,,(787)828-2144,31,Town: Fringe,No,†,Yes,Yes,248,23,10.8,207,18
720003000329,PR-01-32433,7200030,PR-01,KG,8,SU ASUNCION LUGO,PUERTO RICO DEPARTMENT OF EDUCATION,Yabucoa Municipio,PO BOX 1514,YABUCOA,PR,767,,(787)893-2626,21,Suburb: Large,No,†,Yes,Yes,222,29,7.7,185,17
720003000612,PR-01-17749,7200030,PR-01,KG,8,SU BARRIO SABANA HOYOS (NUEVA),PUERTO RICO DEPARTMENT OF EDUCATION,Arecibo Municipio,PO BOX 717,ARECIBO,PR,614,,(787)815-9087,23,Suburb: Small,No,†,Yes,Yes,675,59,11.4,563,50
720003000224,PR-01-20172,7200030,PR-01,KG,8,SU BAYAMONCITO,PUERTO RICO DEPARTMENT OF EDUCATION,Aguas Buenas Municipio,PO BOX 68,AGUAS BUENAS,PR,703,,(787)732-0440,41,Rural: Fringe,No,†,Yes,Yes,317,30,10.6,264,24
720003000856,PR-01-43729,7200030,PR-01,KG,8,SU BERNALDO MENDEZ JIMENEZ,PUERTO RICO DEPARTMENT OF EDUCATION,San SebastiÃƒÂ¡n Municipio,PO BOX 1676,SAN SEBASTIAN,PR,685,,(787)896-5980,21,Suburb: Large,No,†,Yes,Yes,329,27,12.2,274,25
720003001676,PR-01-12518,7200030,PR-01,KG,8,SU BONIFACIO ALVARADO,PUERTO RICO DEPARTMENT OF EDUCATION,Orocovis Municipio,PO BOX 1202,OROCOVIS,PR,720,,(787)867-4633,41,Rural: Fringe,No,†,Yes,Yes,186,18,10.3,155,14
720003001672,PR-01-12716,7200030,PR-01,KG,8,SU BOTIJAS 1,PUERTO RICO DEPARTMENT OF EDUCATION,Orocovis Municipio,PO BOX 2115,OROCOVIS,PR,720,,(787)867-2260,21,Suburb: Large,No,†,Yes,Yes,179,24,7.5,149,14
720003001540,PR-01-70334,7200030,PR-01,KG,8,SU CACIQUE MAJAGUA,PUERTO RICO DEPARTMENT OF EDUCATION,BayamÃƒÂ³n Municipio,PO BOX 1995,BAYAMON,PR,956,,(787)797-5480,21,Suburb: Large,No,†,Yes,Yes,225,28,8,188,16
720003000030,PR-01-22566,7200030,PR-01,KG,8,SU CARLOS ZAYAS,PUERTO RICO DEPARTMENT OF EDUCATION,San Lorenzo Municipio,PO BOX 1281,SAN LORENZO,PR,754,,(787)736-9633,21,Suburb: Large,No,†,Yes,Yes,280,24,11.7,233,21
720003000859,PR-01-43752,7200030,PR-01,KG,8,SU CARMELO SERRANO CUBANO,PUERTO RICO DEPARTMENT OF EDUCATION,San SebastiÃƒÂ¡n Municipio,PO BOX 1676,SAN SEBASTIAN,PR,685,,(787)896-6810,21,Suburb: Large,No,†,Yes,Yes,395,34,11.6,329,30
720003000814,PR-01-41004,7200030,PR-01,KG,8,SU CARMEN VIGNALS ROSARIO,PUERTO RICO DEPARTMENT OF EDUCATION,Cabo Rojo Municipio,PO BOX 868,CABO ROJO,PR,623,,(787)851-1047,22,Suburb: Midsize,No,†,Yes,Yes,345,26,13.3,287,26
720003001583,PR-01-20339,7200030,PR-01,KG,8,SU CARMEN ZENAIDA VEGA (LA PLATA),PUERTO RICO DEPARTMENT OF EDUCATION,Aibonito Municipio,PO BOX 161,AIBONITO,PR,705,,(787)735-8801,21,Suburb: Large,No,†,Yes,Yes,148,16,9.3,123,11
720003000157,PR-01-21543,7200030,PR-01,KG,8,SU CERTENEJAS II,PUERTO RICO DEPARTMENT OF EDUCATION,Cidra Municipio,PO BOX 1778,CAYEY,PR,739,,(787)739-6195,21,Suburb: Large,No,†,Yes,Yes,480,39,12.3,400,36
720003000473,PR-01-30742,7200030,PR-01,KG,8,SU CLARA M. ARAMBURU,PUERTO RICO DEPARTMENT OF EDUCATION,Juncos Municipio,HC- 01 BOX 6160,JUNCOS,PR,777,,(787)734-7444,21,Suburb: Large,No,†,Yes,Yes,503,41,12.3,420,37
720003000749,PR-01-40469,7200030,PR-01,PK,8,SU CONCHITA IGUARTUA DE SUAREZ (SU ADAMS),PUERTO RICO DEPARTMENT OF EDUCATION,Aguadilla Municipio,AGUADILLA SHOPPING CENTER,AGUADILLA,PR,603,,(787)891-9170,21,Suburb: Large,No,†,Yes,Yes,814,55,14.8,679,60
720003000573,PR-01-42952,7200030,PR-01,KG,8,SU DAVID ANTONGIORGI CORDOVA,PUERTO RICO DEPARTMENT OF EDUCATION,Sabana Grande Municipio,HC 9 BOX 4635,SABANA GRANDE,PR,637,,(787)873-1520,22,Suburb: Midsize,No,†,Yes,Yes,597,43,13.9,498,44
720003001451,PR-01-71068,7200030,PR-01,KG,8,SU DEMETRIO RIVERA,PUERTO RICO DEPARTMENT OF EDUCATION,Corozal Municipio,PO BOX 80124,COROZAL,PR,783,,(787)859-4111,21,Suburb: Large,No,†,Yes,Yes,324,26,12.5,270,24
720003001310,PR-01-62943,7200030,PR-01,KG,9,SU DR ARTURO MORALES CARRION,PUERTO RICO DEPARTMENT OF EDUCATION,San Juan Municipio,BO TORTUGO,SAN JUAN,PR,928,,(787)720-3708,11,City: Large,No,†,Yes,Yes,329,26,12.7,274,25
720003001720,PR-01-10322,7200030,PR-01,KG,8,SU ENRIQUE DE JESUS BORRAS,PUERTO RICO DEPARTMENT OF EDUCATION,Arecibo Municipio,PO BOX 141165,ARECIBO,PR,612,,(787)878-7699,22,Suburb: Midsize,No,†,Yes,Yes,223,28,8,185,17
720003000774,PR-01-40220,7200030,PR-01,PK,8,SU EPIFANIO ESTRADA,PUERTO RICO DEPARTMENT OF EDUCATION,Aguada Municipio,PO BOX 1589,AGUADA,PR,602,,(787)868-2670,21,Suburb: Large,No,†,Yes,Yes,728,52,14,607,54
720003000065,PR-01-10272,7200030,PR-01,PK,8,SU EUGENIO MARIA DE HOSTOS,PUERTO RICO DEPARTMENT OF EDUCATION,Arecibo Municipio,PO BOX 451,ARECIBO,PR,612,,(787)881-3540,23,Suburb: Small,No,†,Yes,Yes,240,24,10,200,18
720003000199,PR-01-21352,7200030,PR-01,KG,8,SU EUGENIO MARIA DE HOSTOS,PUERTO RICO DEPARTMENT OF EDUCATION,Cayey Municipio,PO BOX 372528,CAYEY,PR,736,,(787)738-5866,21,Suburb: Large,No,†,Yes,Yes,161,23,7,134,12
720003000930,PR-01-50443,7200030,PR-01,KG,8,SU EUGENIO NAZARIO SOTO,PUERTO RICO DEPARTMENT OF EDUCATION,Coamo Municipio,PO BOX 1928,COAMO,PR,769,,(787)825-5759,31,Town: Fringe,No,†,Yes,Yes,226,24,9.4,188,17
720003000813,PR-01-41012,7200030,PR-01,KG,8,SU FEDERICO DEGETAU,PUERTO RICO DEPARTMENT OF EDUCATION,Cabo Rojo Municipio,359 CARRETERA BOQUERON,CABO ROJO,PR,623,,(787)851-3383,22,Suburb: Midsize,No,†,Yes,Yes,327,33,9.9,273,24
720003000063,PR-01-10546,7200030,PR-01,KG,8,SU FEDERICO DEGETAU,PUERTO RICO DEPARTMENT OF EDUCATION,Arecibo Municipio,PO BOX 141918,ARECIBO,PR,612,,(787)881-1524,23,Suburb: Small,No,†,Yes,Yes,703,53,13.3,586,52
720003000556,PR-01-43398,7200030,PR-01,KG,8,SU FRANCISCO MARIA QUINONES,PUERTO RICO DEPARTMENT OF EDUCATION,San GermÃƒÂ¡n Municipio,PO BOX 65,SAN GERMAN,PR,683,,(787)832-4155,22,Suburb: Midsize,No,†,Yes,Yes,327,24,13.6,273,24
720003000079,PR-01-11320,7200030,PR-01,PK,8,SU FRANCISCO SERRANO,PUERTO RICO DEPARTMENT OF EDUCATION,Ciales Municipio,PO BOX 1436,CIALES,PR,638,,(787)871-3385,21,Suburb: Large,No,†,Yes,Yes,335,29,11.6,279,25
720003000201,PR-01-21212,7200030,PR-01,KG,8,SU GERARDO SELLES SOLA,PUERTO RICO DEPARTMENT OF EDUCATION,Cayey Municipio,PO BOX 6400 SUITE 455,CAYEY,PR,736,,(787)263-0490,21,Suburb: Large,No,†,Yes,Yes,438,31,14.1,365,33
720003000875,PR-01-53140,7200030,PR-01,KG,8,SU HATILLO,PUERTO RICO DEPARTMENT OF EDUCATION,Villalba Municipio,PO BOX 5690,VILLALBA,PR,766,,(787)847-3774,23,Suburb: Small,No,†,Yes,Yes,489,38,12.9,408,36
720003000420,PR-01-31427,7200030,PR-01,KG,8,SU HIGINIO FIGUEROA VILLEGAS,PUERTO RICO DEPARTMENT OF EDUCATION,Maunabo Municipio,HC 1 BOX 7000,MAUNABO,PR,707,,(787)861-2340,31,Town: Fringe,No,†,Yes,Yes,379,32,11.8,316,28
720003001704,PR-01-12914,7200030,PR-01,KG,8,SU HONORIO HERNANDEZ,PUERTO RICO DEPARTMENT OF EDUCATION,Quebradillas Municipio,PO BOX 707,QUEBRADILLAS,PR,678,,(787)895-2962,22,Suburb: Midsize,No,†,Yes,Yes,339,38,8.9,283,25
720003000016,PR-01-22459,7200030,PR-01,KG,8,SU JAGUAL ADENTRO,PUERTO RICO DEPARTMENT OF EDUCATION,San Lorenzo Municipio,PO BOX 1283,SAN LORENZO,PR,754,,(787)736-7877,21,Suburb: Large,No,†,Yes,Yes,270,20,13.5,225,20
720003000918,PR-01-53686,7200030,PR-01,KG,8,SU JAIME CASTANER,PUERTO RICO DEPARTMENT OF EDUCATION,Yauco Municipio,HC 1 BOX 7639,YAUCO,PR,698,,(787)856-1830,23,Suburb: Small,No,†,Yes,Yes,143,21,6.8,119,11
720003000327,PR-01-32748,7200030,PR-01,PK,8,SU JESUS T SANABRIA CRUZ,PUERTO RICO DEPARTMENT OF EDUCATION,Yabucoa Municipio,PO BOX 429,YABUCOA,PR,767,,(787)893-4860,21,Suburb: Large,No,†,Yes,Yes,300,25,12,250,22
720003000388,PR-01-25239,7200030,PR-01,KG,8,SU JOAQUIN PARRILLA,PUERTO RICO DEPARTMENT OF EDUCATION,Patillas Municipio,PO BOX 607,PATILLAS,PR,723,,(787)839-0357,23,Suburb: Small,No,†,Yes,Yes,278,25,11.1,231,21
720003001751,PR-01-10892,7200030,PR-01,KG,8,SU JOAQUIN VAZQUEZ CRUZ,PUERTO RICO DEPARTMENT OF EDUCATION,Camuy Municipio,APARTADO 1029,CAMUY,PR,627,,(787)820-2909,21,Suburb: Large,No,†,Yes,Yes,289,35,8.3,241,21
720003000989,PR-01-51938,7200030,PR-01,KG,8,SU JORGE LUCAS VALDIVIESO,PUERTO RICO DEPARTMENT OF EDUCATION,PeÃƒÂ±uelas Municipio,PO BOX 659,PENUELAS,PR,624,,(787)836-1105,41,Rural: Fringe,No,†,Yes,Yes,202,26,7.8,168,15
720003000724,PR-01-15453,7200030,PR-01,PK,8,SU JOSE A VARGAS,PUERTO RICO DEPARTMENT OF EDUCATION,Isabela Municipio,PO BOX 545,ISABELA,PR,662,,(787)830-0260,41,Rural: Fringe,No,†,Yes,Yes,362,31,11.7,302,27
720003001582,PR-01-20321,7200030,PR-01,KG,8,SU JOSE CELSO BARBOSA,PUERTO RICO DEPARTMENT OF EDUCATION,Aibonito Municipio,PO BOX 2300 SUITE 34,AIBONITO,PR,705,,(787)735-8892,21,Suburb: Large,No,†,Yes,Yes,407,40,10.2,339,31
720003000045,PR-01-12401,7200030,PR-01,KG,8,SU JOSE R. BARRERAS,PUERTO RICO DEPARTMENT OF EDUCATION,Morovis Municipio,PO BOX 400,MOROVIS,PR,687,,(787)862-2814,21,Suburb: Large,No,†,Yes,Yes,339,29,11.7,283,25
720003002047,PR-01-26765,7200030,PR-01,KG,5,SU JOSEFINA SITIRICHE,PUERTO RICO DEPARTMENT OF EDUCATION,Gurabo Municipio,PO BOX 38,GURABO,PR,778,,(787)737-2626,21,Suburb: Large,No,†,Yes,Yes,338,32,10.6,282,25
720003001092,PR-01-25007,7200030,PR-01,KG,8,SU JUAN ALEMANY SILVA,PUERTO RICO DEPARTMENT OF EDUCATION,Guayama Municipio,APARTADO 2244,GUAYAMA,PR,785,,(787)864-3005,41,Rural: Fringe,No,†,Yes,Yes,201,21,9.6,168,15
720003000775,PR-01-40030,7200030,PR-01,PK,9,SU JUAN B. SOTO,PUERTO RICO DEPARTMENT OF EDUCATION,Aguada Municipio,PO BOX 1097,AGUADA,PR,602,,(787)868-4470,21,Suburb: Large,No,†,Yes,Yes,260,32,8.1,217,19
720003000585,PR-01-41582,7200030,PR-01,KG,8,SU JUAN CANCIO ORTIZ DE LA RENTA,PUERTO RICO DEPARTMENT OF EDUCATION,Lajas Municipio,PO BOX 1413,LAJAS,PR,667,,(787)899-2930,22,Suburb: Midsize,No,†,Yes,Yes,442,38,11.6,369,32
720003000168,PR-01-21659,7200030,PR-01,PK,8,SU JUAN D. STUBBE,PUERTO RICO DEPARTMENT OF EDUCATION,Cidra Municipio,PO BOX 650,CIDRA,PR,739,,(787)739-8545,21,Suburb: Large,No,†,Yes,Yes,529,46,11.5,441,39
720003001448,PR-01-71035,7200030,PR-01,KG,8,SU JULIAN MARRERO,PUERTO RICO DEPARTMENT OF EDUCATION,Corozal Municipio,PO BOX 1041,COROZAL,PR,783,,(787)859-3027,21,Suburb: Large,No,†,Yes,Yes,416,39,10.7,347,31
720003000615,PR-01-41814,7200030,PR-01,KG,8,SU LAURO GONZALEZ HIJO,PUERTO RICO DEPARTMENT OF EDUCATION,Las MarÃƒÂ­as Municipio,PO BOX 233,LAS MARIAS,PR,670,,(787)827-2540,41,Rural: Fringe,No,†,Yes,Yes,224,21,10.7,186,17
720003001703,PR-01-12922,7200030,PR-01,PK,8,SU LUIS MUNOZ RIVERA,PUERTO RICO DEPARTMENT OF EDUCATION,Quebradillas Municipio,PO BOX 1527,QUEBRADILLAS,PR,678,,(787)895-2146,22,Suburb: Midsize,No,†,Yes,Yes,677,57,11.9,565,50
720003000330,PR-01-32540,7200030,PR-01,KG,8,SU MANUEL ORTIZ,PUERTO RICO DEPARTMENT OF EDUCATION,Yabucoa Municipio,PO BOX 1064,YABUCOA,PR,767,,(787)893-5770,21,Suburb: Large,No,†,Yes,Yes,111,16,6.9,93,8
720003001717,PR-01-10512,7200030,PR-01,KG,8,SU MANUEL RUIZ GANDIA,PUERTO RICO DEPARTMENT OF EDUCATION,Arecibo Municipio,PO BOX 9937,ARECIBO,PR,612,,(787)879-0851,13,City: Small,No,†,Yes,Yes,465,39,11.9,388,34
720003000145,PR-01-21881,7200030,PR-01,KG,8,SU MARIA C. SANTIAGO,PUERTO RICO DEPARTMENT OF EDUCATION,ComerÃƒÂ­o Municipio,PO BOX 1123,COMERIO,PR,782,,(787)875-3613,21,Suburb: Large,No,†,Yes,Yes,350,29,12.1,292,26
720003001777,PR-01-13334,7200030,PR-01,KG,8,SU MARTA LAFONTAINE,PUERTO RICO DEPARTMENT OF EDUCATION,Utuado Municipio,P O BOX 779,UTUADO,PR,641,,(787)894-0000,41,Rural: Fringe,No,†,Yes,Yes,75,15,5,62,6
720003001671,PR-01-12666,7200030,PR-01,KG,8,SU MATRULLAS,PUERTO RICO DEPARTMENT OF EDUCATION,Orocovis Municipio,PO BOX 2115,OROCOVIS,PR,720,,(787)867-3966,41,Rural: Fringe,No,†,Yes,Yes,151,18,8.4,126,11
720003000858,PR-01-43745,7200030,PR-01,KG,8,SU MAXIMINO A. SALAS,PUERTO RICO DEPARTMENT OF EDUCATION,San SebastiÃƒÂ¡n Municipio,PO BOX 2855,SAN SEBASTIAN,PR,685,,(787)896-2838,41,Rural: Fringe,No,†,Yes,Yes,288,22,13.1,240,22
720003001181,PR-01-51433,7200030,PR-01,KG,8,SU NEMESIO R. CANALES,PUERTO RICO DEPARTMENT OF EDUCATION,Jayuya Municipio,PO BOX 1552,JAYUYA,PR,664,,(787)828-2007,41,Rural: Fringe,No,†,Yes,Yes,216,21,10.3,180,16
720003001450,PR-01-71050,7200030,PR-01,PK,8,SU NICOLAS RODRIGUEZ,PUERTO RICO DEPARTMENT OF EDUCATION,Corozal Municipio,PO BOX 1808,COROZAL,PR,783,,(787)859-3250,21,Suburb: Large,No,†,Yes,Yes,416,42,9.9,347,31
720003000675,PR-01-36046,7200030,PR-01,6,8,SU NUEVA BO. MEDIANIA,PUERTO RICO DEPARTMENT OF EDUCATION,LoÃƒÂ­za Municipio,PO BOX 507,LOIZA,PR,772,,(787)876-1377,21,Suburb: Large,No,†,Yes,Yes,542,27,20.1,452,40
720003000144,PR-01-21873,7200030,PR-01,KG,8,SU OSCAR PORRATA DORIA,PUERTO RICO DEPARTMENT OF EDUCATION,ComerÃƒÂ­o Municipio,PO BOX 308,COMERIO,PR,782,,(787)875-2850,41,Rural: Fringe,No,†,Yes,Yes,163,14,11.6,136,12
720003001584,PR-01-20214,7200030,PR-01,PK,9,SU PASTO,PUERTO RICO DEPARTMENT OF EDUCATION,Aibonito Municipio,PO BOX 1211,AIBONITO,PR,705,,(787)735-8158,21,Suburb: Large,No,†,Yes,Yes,404,28,14.4,337,30
720003000110,PR-01-71357,7200030,PR-01,KG,8,SU PEDRO FERNANDEZ,PUERTO RICO DEPARTMENT OF EDUCATION,Naranjito Municipio,HC 71 BOX 3788,NARANJITO,PR,719,,(787)869-4787,21,Suburb: Large,No,†,Yes,Yes,329,28,11.8,274,25
720003000472,PR-01-30759,7200030,PR-01,KG,8,SU PEDRO RIVERA MOLINA,PUERTO RICO DEPARTMENT OF EDUCATION,Juncos Municipio,PO BOX 1814,JUNCOS,PR,777,,(787)736-4148,21,Suburb: Large,No,†,Yes,Yes,656,48,13.7,547,49
720003000092,PR-01-11494,7200030,PR-01,KG,8,SU RAFAEL ZAMOT CRUZ,PUERTO RICO DEPARTMENT OF EDUCATION,Hatillo Municipio,PO BOX 59003 SUITE 166,HATILLO,PR,659,,(787)820-0841,22,Suburb: Midsize,No,†,Yes,Yes,250,31,8.1,208,19
720003000143,PR-01-21865,7200030,PR-01,KG,8,SU RAMON ALEJANDRO AYALA,PUERTO RICO DEPARTMENT OF EDUCATION,ComerÃƒÂ­o Municipio,PO BOX 328,COMERIO,PR,782,,(787)875-2929,21,Suburb: Large,No,†,Yes,Yes,454,41,11.1,379,33
720003000328,PR-01-32458,7200030,PR-01,KG,8,SU ROGELIO ROSADO (SU PLAYITA),PUERTO RICO DEPARTMENT OF EDUCATION,Yabucoa Municipio,PO BOX 155,YABUCOA,PR,767,,(787)893-3075,41,Rural: Fringe,No,†,Yes,Yes,219,20,11,183,16
720003000464,PR-01-58123,7200030,PR-01,6,8,SU SABANA LLANA,PUERTO RICO DEPARTMENT OF EDUCATION,Salinas Municipio,PO BOX 1156,SALINAS,PR,751,,(787)824-0896,41,Rural: Fringe,No,†,Yes,Yes,254,22,11.5,212,19
720003001677,PR-01-12765,7200030,PR-01,KG,8,SU SANAMUERTOS,PUERTO RICO DEPARTMENT OF EDUCATION,Orocovis Municipio,PO BOX 2124,OROCOVIS,PR,720,,(787)867-2870,21,Suburb: Large,No,†,Yes,Yes,264,22,12,220,20
720003000252,PR-01-21022,7200030,PR-01,KG,8,SU SANDALIO MARCANO,PUERTO RICO DEPARTMENT OF EDUCATION,Caguas Municipio,PMB 402 PO BOX 4956,CAGUAS,PR,725,,(787)747-3110,21,Suburb: Large,No,†,Yes,Yes,202,22,9.2,168,15
720003001749,PR-01-11031,7200030,PR-01,KG,8,SU SANTIAGO R. PALMER,PUERTO RICO DEPARTMENT OF EDUCATION,Camuy Municipio,HC 4 BOX 17413,CAMUY,PR,627,,(787)898-7976,21,Suburb: Large,No,†,Yes,Yes,323,28,11.5,269,24
720003002031,PR-01-35014,7200030,PR-01,KG,8,SU SILVERIO GARCIA,PUERTO RICO DEPARTMENT OF EDUCATION,Naguabo Municipio,PO BOX 639,NAGUABO,PR,718,,(787)874-6786,41,Rural: Fringe,No,†,Yes,Yes,335,30,11.2,279,25
720003000080,PR-01-11312,7200030,PR-01,KG,8,SU TORIBIO RIVERA,PUERTO RICO DEPARTMENT OF EDUCATION,Ciales Municipio,PO BOX 1361,CIALES,PR,638,,(787)871-4738,41,Rural: Fringe,No,†,Yes,Yes,182,19,9.6,152,13
720003000310,PR-01-57835,7200030,PR-01,KG,5,SU URBANA SALINAS,PUERTO RICO DEPARTMENT OF EDUCATION,Salinas Municipio,PO BOX 871,SALINAS,PR,751,,(787)824-3306,31,Town: Fringe,No,†,Yes,Yes,309,31,10,258,23
720003000121,PR-01-22020,7200030,PR-01,KG,8,SU VIDAL SERRANO,PUERTO RICO DEPARTMENT OF EDUCATION,Gurabo Municipio,PO BOX 1090,GURABO,PR,778,,(787)747-2323,21,Suburb: Large,No,†,Yes,Yes,250,23,10.9,208,19
720003000968,PR-01-51797,7200030,PR-01,KG,8,SU ZOILO GRACIA,PUERTO RICO DEPARTMENT OF EDUCATION,Juana DÃƒÂ­az Municipio,PO BOX 6,JUANA DIAZ,PR,795,,(787)837-0544,41,Rural: Fringe,No,†,Yes,Yes,146,20,7.3,122,11
720003000162,PR-01-35501,7200030,PR-01,9,12,SUP VOC MANUEL MEDIAVILLA,PUERTO RICO DEPARTMENT OF EDUCATION,Humacao Municipio,PO BOX 890,HUMACAO,PR,792,,(787)852-1315,21,Suburb: Large,No,†,Yes,Yes,533,42,12.7,445,39
720003000494,PR-01-47894,7200030,PR-01,9,12,SUPERIOR CATALINA MORALES FLORES,PUERTO RICO DEPARTMENT OF EDUCATION,Moca Municipio,PO BOX 736,MOCA,PR,676,,(787)877-5575,21,Suburb: Large,No,†,Yes,Yes,1022,62,16.5,852,76
720003000418,PR-01-35618,7200030,PR-01,9,12,SUPERIOR ISIDRO A SANCHEZ,PUERTO RICO DEPARTMENT OF EDUCATION,Luquillo Municipio,PO BOX 1588,LUQUILLO,PR,773,,(787)889-4333,23,Suburb: Small,No,†,Yes,Yes,636,41,15.5,530,47
720003001937,PR-01-56432,7200030,PR-01,9,12,SUPERIOR JARDINES DE PONCE,PUERTO RICO DEPARTMENT OF EDUCATION,Ponce Municipio,PO BOX 780,PONCE,PR,731,,(787)840-7785,12,City: Midsize,No,†,Yes,Yes,500,34,14.7,417,37
720003001125,PR-01-52274,7200030,PR-01,9,12,SUPERIOR JUAN SERRALES,PUERTO RICO DEPARTMENT OF EDUCATION,Ponce Municipio,APARTADO 8001136,PONCE,PR,731,,(787)848-5274,23,Suburb: Small,No,†,Yes,Yes,441,25,17.6,367,33
720003000195,PR-01-17327,7200030,PR-01,9,12,SUPERIOR MIGUEL F SANTIAGO ECHEGARAY (SANTIAGO R PALMER SUP),PUERTO RICO DEPARTMENT OF EDUCATION,Camuy Municipio,PO BOX 158,CAMUY,PR,627,,(787)898-9299,21,Suburb: Large,No,†,Yes,Yes,271,27,10,226,20
720003000903,PR-01-55244,7200030,PR-01,9,12,SUPERIOR OCUPACIONAL Y TECNICA DE YAUCO,PUERTO RICO DEPARTMENT OF EDUCATION,Yauco Municipio,PO BOX 5004,YAUCO,PR,698,,(787)856-2144,23,Suburb: Small,No,†,Yes,Yes,1076,73,14.7,897,80
720003000714,PR-01-28373,7200030,PR-01,9,12,SUPERIOR URBANA,PUERTO RICO DEPARTMENT OF EDUCATION,Salinas Municipio,APARTADO 903,SALINAS,PR,751,,(787)835-2986,31,Town: Fringe,No,†,Yes,Yes,364,27,13.5,304,27
720003000394,PR-01-47639,7200030,PR-01,9,12,SUPERIOR URBANA,PUERTO RICO DEPARTMENT OF EDUCATION,Maricao Municipio,HC 1 BOX 8112,MARICAO,PR,606,,(787)873-1521,31,Town: Fringe,No,†,Yes,Yes,194,20,9.7,162,14
720003001891,PR-01-28571,7200030,PR-01,9,12,SUPERIOR URBANA,PUERTO RICO DEPARTMENT OF EDUCATION,Aguas Buenas Municipio,CARR 156 KM 52.5 BO CAGUITAS,AGUAS BUENAS,PR,703,,(787)739-4230,21,Suburb: Large,No,†,Yes,Yes,977,65,15,815,72
720003000685,PR-01-36053,7200030,PR-01,9,12,SUPERIOR URBANA NUEVA,PUERTO RICO DEPARTMENT OF EDUCATION,Arroyo Municipio,PO BOX 1100,ARROYO,PR,714,,(787)839-2655,23,Suburb: Small,No,†,Yes,Yes,490,44,11.1,409,36
720003001803,PR-01-36335,7200030,PR-01,9,12,SUPERIOR VOC ELADIO RIVERA QUINONES (SUPERIOR VOC DE LOIZA),PUERTO RICO DEPARTMENT OF EDUCATION,LoÃƒÂ­za Municipio,CARR 187 KM 5 HM 6,LOIZA,PR,772,,(787)876-2295,21,Suburb: Large,No,†,Yes,Yes,523,29,18,436,39
720003000710,PR-01-17863,7200030,PR-01,9,12,SUPERIOR VOCACIONAL,PUERTO RICO DEPARTMENT OF EDUCATION,Utuado Municipio,PO BOX 900,UTUADO,PR,641,,(787)814-0012,41,Rural: Fringe,No,†,Yes,Yes,546,46,11.9,455,41
720003000414,PR-01-17558,7200030,PR-01,9,12,SUPERIOR VOCACIONAL (ANTONIO LUCHETTI),PUERTO RICO DEPARTMENT OF EDUCATION,Arecibo Municipio,PO BOX 601,ARECIBO,PR,614,,(787)880-6696,23,Suburb: Small,No,†,Yes,Yes,1207,83,14.5,1007,89
720003001817,PR-01-28530,7200030,PR-01,9,12,SUPERIOR VOCACIONAL NUEVA,PUERTO RICO DEPARTMENT OF EDUCATION,ComerÃƒÂ­o Municipio,CALLE GEORGETTI NUM. 53,COMERIO,PR,782,,(787)875-3245,21,Suburb: Large,No,†,Yes,Yes,275,21,13.1,229,21
720003001933,PR-01-54445,7200030,PR-01,KG,5,SUSANA RIVERA-NUEVA (ELEMENTAL BO LLANOS),PUERTO RICO DEPARTMENT OF EDUCATION,Coamo Municipio,BO LOS LLANOS,COAMO,PR,769,,(787)773-4075,31,Town: Fringe,No,†,Yes,Yes,469,35,13.4,391,35
720003000991,PR-01-54429,7200030,PR-01,6,8,TALLABOA ALTA INTERMEDIA,PUERTO RICO DEPARTMENT OF EDUCATION,PeÃƒÂ±uelas Municipio,PO BOX 70,PENUELAS,PR,624,,(787)836-2100,23,Suburb: Small,No,†,Yes,Yes,142,18,7.9,118,11
720003001639,PR-01-12229,7200030,PR-01,KG,5,TEODOMIRO TABOAS,PUERTO RICO DEPARTMENT OF EDUCATION,ManatÃƒÂ­ Municipio,PO BOX 506,MANATI,PR,674,,(787)854-2255,21,Suburb: Large,No,†,Yes,Yes,164,14,11.7,137,12
720003000306,PR-01-32755,7200030,PR-01,9,12,TEODORO AGUILAR MORA,PUERTO RICO DEPARTMENT OF EDUCATION,Yabucoa Municipio,PO BOX 1990,YABUCOA,PR,767,,(787)266-4418,21,Suburb: Large,No,†,Yes,Yes,383,31,12.4,319,29
720003000093,PR-01-11502,7200030,PR-01,6,8,TIMOTEO DELGADO,PUERTO RICO DEPARTMENT OF EDUCATION,Hatillo Municipio,PO BOX 69001 SUITE 182,HATILLO,PR,659,,(787)898-9566,22,Suburb: Midsize,No,†,Yes,Yes,532,43,12.4,444,39
720003001506,PR-01-70623,7200030,PR-01,9,12,TOMAS C. ONGAY,PUERTO RICO DEPARTMENT OF EDUCATION,BayamÃƒÂ³n Municipio,APARTADO 254,BAYAMON,PR,956,,(787)785-3414,21,Suburb: Large,No,†,Yes,Yes,688,56,12.3,574,51
720003000614,PR-01-77651,7200030,PR-01,9,12,TOMAS MASSO RIVERA MORALES,PUERTO RICO DEPARTMENT OF EDUCATION,Toa Alta Municipio,PO BOX 1311,TOA ALTA,PR,954,,(787)799-3020,21,Suburb: Large,No,†,Yes,Yes,611,40,15.3,510,45
720003000631,PR-01-42770,7200030,PR-01,PK,5,TOMAS VERA AYALA,PUERTO RICO DEPARTMENT OF EDUCATION,Moca Municipio,PO BOX 128,MOCA,PR,676,,(787)877-3888,41,Rural: Fringe,No,†,Yes,Yes,176,15,11.7,147,13
720003001379,PR-01-61440,7200030,PR-01,9,12,TRINA PADILLA DE SANZ,PUERTO RICO DEPARTMENT OF EDUCATION,San Juan Municipio,AVE JESUS T PINERO OESTE #950,SAN JUAN,PR,928,,(787)763-1130,11,City: Large,No,†,Yes,Yes,443,39,11.4,369,33
720003001707,PR-01-14241,7200030,PR-01,6,12,TRINA PADILLA DE SANZ,PUERTO RICO DEPARTMENT OF EDUCATION,Arecibo Municipio,PO BOX 142672,ARECIBO,PR,614,,(787)878-1365,13,City: Small,No,†,Yes,Yes,496,35,14.2,414,36
720003001586,PR-01-69013,7200030,PR-01,KG,5,TULIO LARRINAGA,PUERTO RICO DEPARTMENT OF EDUCATION,Trujillo Alto Municipio,PO BOX 987,TRUJILLO ALTO,PR,977,,(787)761-1154,21,Suburb: Large,No,†,Yes,Yes,308,23,13.4,257,23
720003001943,PR-01-61531,7200030,PR-01,9,12,UNIVERSITY GARDENS (ESPECIALIZADA),PUERTO RICO DEPARTMENT OF EDUCATION,San Juan Municipio,URB UNIVERSITY GARDENS,SAN JUAN,PR,928,,(787)764-8635,11,City: Large,No,†,–,–,463,34,13.6,386,34
720003002012,PR-01-62166,7200030,PR-01,9,12,VENUS GARDENS,PUERTO RICO DEPARTMENT OF EDUCATION,San Juan Municipio,PO BOX 1211,TRUJILLO ALTO,PR,926,,(787)755-3120,11,City: Large,No,†,Yes,Yes,423,30,14.1,353,31
720003001838,PR-01-18234,7200030,PR-01,KG,8,VICENTE ACEVEDO BALLESTER,PUERTO RICO DEPARTMENT OF EDUCATION,Barceloneta Municipio,CARR 664 KM 1 HM 0,BARCELONETA,PR,617,,(787)846-3110,23,Suburb: Small,No,†,Yes,Yes,535,44,12.2,446,40
720003001069,PR-01-24760,7200030,PR-01,KG,5,VICENTE PALES ANES,PUERTO RICO DEPARTMENT OF EDUCATION,Guayama Municipio,PO BOX 90,GUAYAMA,PR,784,,(787)864-0866,13,City: Small,No,†,Yes,Yes,119,20,6,99,9
720003001376,PR-01-65953,7200030,PR-01,PK,KG,VICTOR PARES COLLAZO,PUERTO RICO DEPARTMENT OF EDUCATION,San Juan Municipio,URB BALDRICH #260,SAN JUAN,PR,928,,(787)764-2151,11,City: Large,No,†,Yes,Yes,105,27,3.9,88,7
720003002037,PR-01-10611,7200030,PR-01,UG,UG,VICTOR ROJAS 1,PUERTO RICO DEPARTMENT OF EDUCATION,Arecibo Municipio,PO BOX 9666,ARECIBO,PR,612,,(787)880-3551,13,City: Small,No,†,Yes,Yes,55,10,5.5,46,4
720003001326,PR-01-62968,7200030,PR-01,KG,8,VILLA CAPRI,PUERTO RICO DEPARTMENT OF EDUCATION,San Juan Municipio,CALLE VERONA ESQ NIZA URB VILLA CAPRI,SAN JUAN,PR,924,,(787)761-8765,11,City: Large,No,†,Yes,Yes,441,32,13.8,367,33
720003001346,PR-01-65557,7200030,PR-01,KG,8,VILLA GRANADA,PUERTO RICO DEPARTMENT OF EDUCATION,San Juan Municipio,URB VILLA GRANADA,SAN JUAN,PR,928,,(787)751-1016,11,City: Large,No,†,Yes,Yes,411,29,14.2,343,30
720003001880,PR-01-24612,7200030,PR-01,KG,5,VILLA MARINA,PUERTO RICO DEPARTMENT OF EDUCATION,Gurabo Municipio,PO BOX 580,GURABO,PR,778,,(787)737-4344,21,Suburb: Large,No,†,Yes,Yes,267,21,12.7,222,19
720003001238,PR-01-71365,7200030,PR-01,PK,5,VIOLANTA JIMENEZ,PUERTO RICO DEPARTMENT OF EDUCATION,Toa Alta Municipio,PO BOX 1285,TOA ALTA,PR,953,,(787)870-1378,21,Suburb: Large,No,†,Yes,Yes,366,30,12.2,305,27
720003001829,PR-01-28548,7200030,PR-01,PK,8,VIOLETA REYES PEREZ (ELEMENTAL URBANA K-6),PUERTO RICO DEPARTMENT OF EDUCATION,Cidra Municipio,BO RIO ABAJO KM 11 HM 1,CIDRA,PR,739,,(787)739-0155,21,Suburb: Large,No,†,Yes,Yes,621,54,11.5,518,46
720003001558,PR-01-70011,7200030,PR-01,KG,5,VIRGILIO DAVILA,PUERTO RICO DEPARTMENT OF EDUCATION,BayamÃƒÂ³n Municipio,PO BOX 60-7081,BAYAMON,PR,956,,(787)785-2378,21,Suburb: Large,No,†,Yes,Yes,291,24,12.1,242,22
720003000138,PR-01-27383,7200030,PR-01,KG,5,VIRGINIA VAZQUEZ MENDOZA,PUERTO RICO DEPARTMENT OF EDUCATION,Cayey Municipio,PO BOX 2617,CAYEY,PR,737,,(787)263-4635,21,Suburb: Large,No,†,Yes,Yes,449,36,12.5,374,34
720003001659,PR-01-12633,7200030,PR-01,KG,5,VISITACION PAGAN,PUERTO RICO DEPARTMENT OF EDUCATION,Orocovis Municipio,PO BOX 1693,OROCOVIS,PR,720,,(787)867-5383,21,Suburb: Large,No,†,Yes,Yes,220,20,11,183,17
720003001942,PR-01-36384,7200030,PR-01,9,12,VOC WILLIAM RIVERA BETANCOURT (BO SAN ISIDRO VOCACIONAL),PUERTO RICO DEPARTMENT OF EDUCATION,CanÃƒÂ³vanas Municipio,PO BOX 1416,CANOVANAS,PR,729,,(787)256-8700,21,Suburb: Large,No,†,Yes,Yes,437,29,15.1,364,33
720003002001,PR-01-26500,7200030,PR-01,KG,5,WASHINGTON I,PUERTO RICO DEPARTMENT OF EDUCATION,Guayama Municipio,PO BOX 10007 SUITE 121,GUAYAMA,PR,785,,(787)864-0566,13,City: Small,No,†,Yes,Yes,415,33,12.6,346,31
720003000972,PR-01-51862,7200030,PR-01,KG,5,WEBSTER,PUERTO RICO DEPARTMENT OF EDUCATION,PeÃƒÂ±uelas Municipio,PO BOX 549,PENUELAS,PR,624,,(787)836-1216,23,Suburb: Small,No,†,Yes,Yes,407,33,12.3,339,31
720003000590,PR-01-35899,7200030,PR-01,KG,8,WILFREDO LAFUENTE ORTIZ,PUERTO RICO DEPARTMENT OF EDUCATION,Maunabo Municipio,PO BOX 1275,MAUNABO,PR,707,,(787)787-0024,31,Town: Fringe,No,†,Yes,Yes,258,28,9.2,215,19
720003001301,PR-01-61564,7200030,PR-01,6,8,WILLIAM D. BOYCE,PUERTO RICO DEPARTMENT OF EDUCATION,San Juan Municipio,100 LAS LOMAS CALLE 20 S.Q.,SAN JUAN,PR,928,,(787)792-4931,11,City: Large,No,†,Yes,Yes,456,26,17.5,380,34
