NCES School ID,State School ID,NCES District ID,State District ID,Low Grade*,High Grade*,School Name,District,County Name*,Street Address,City,State,ZIP,ZIP 4-digit,Phone,Locale Code*,Locale*,Charter,Magnet*,Title I School*,Title 1 School Wide*,Students*,Teachers*,Student Teacher Ratio*,Free Lunch*,Reduced Lunch*
380176000003,ND-27002-03151,3801760,ND-27002,PK,6,ALEXANDER ELEMENTARY SCHOOL,ALEXANDER 2,McKenzie County,PO Box 66,Alexander,ND,58831,66,(701)828-3334,43,Rural: Remote,†,†,Yes,No,172,10.68,16.1,20,10
380176000004,ND-27002-03153,3801760,ND-27002,7,12,ALEXANDER HIGH SCHOOL,ALEXANDER 2,McKenzie County,PO Box 66,Alexander,ND,58831,66,(701)828-3334,43,Rural: Remote,†,†,–,–,96,8.27,11.6,11,6
380195000007,ND-25014-03891,3801950,ND-25014,PK,6,ANAMOOSE ELEMENTARY SCHOOL,ANAMOOSE 14,McHenry County,706 3rd St W,Anamoose,ND,58710,4109,(701)465-3258,43,Rural: Remote,†,†,Yes,Yes,85,8.75,9.7,27,5
380201400012,ND-08039-04861,3802014,ND-08039,PK,6,APPLE CREEK ELEMENTARY SCHOOL,APPLE CREEK 39,Burleigh County,2000 93rd St SE,Bismarck,ND,58504,3907,(701)223-7349,41,Rural: Fringe,†,†,–,–,52,6.34,8.2,0,0
380217000013,ND-26009-05391,3802170,ND-26009,PK,6,ASHLEY ELEMENTARY SCHOOL,ASHLEY 9,McIntosh County,703 W Main St,Ashley,ND,58413,7130,(701)288-3456,43,Rural: Remote,†,†,Yes,No,73,9.36,7.8,19,8
380217000014,ND-26009-05393,3802170,ND-26009,7,12,ASHLEY HIGH SCHOOL,ASHLEY 9,McIntosh County,703 W Main St,Ashley,ND,58413,7130,(701)288-3456,43,Rural: Remote,†,†,–,–,70,6.83,10.2,19,8
381941000830,ND-09006-05451,3819410,ND-09006,KG,5,AURORA ELEMENTARY SCHOOL,WEST FARGO 6,Cass County,3420 9th St W,West Fargo,ND,58078,7761,(701)356-2130,22,Suburb: Midsize,†,†,–,–,510,35.93,14.2,47,12
381988000882,ND-53001-07691,3819880,ND-53001,5,6,BAKKEN ELEMENTARY SCHOOL,WILLISTON 1,Williams County,PO Box 1407,Williston,ND,58802,1407,(701)713-7300,33,Town: Remote,†,†,–,–,717,47,15.3,129,48
380224000016,ND-15010-07721,3802240,ND-15010,KG,8,BAKKER ELEMENTARY SCHOOL,BAKKER 10,Emmons County,880 96th St SE,Hague,ND,58542,9327,(701)336-7284,43,Rural: Remote,†,†,–,–,11,1,11,2,3
380006000701,ND-02007-94631,3800060,ND-02007,PK,8,BARNES COUNTY NORTH ELEMENTARY SCHOOL,BARNES COUNTY NORTH 7,Barnes County,2192 101st Ave SE,Wimbledon,ND,58492,9353,(701)646-6202,43,Rural: Remote,†,†,Yes,Yes,179,17,10.5,46,23
380006000702,ND-02007-94633,3800060,ND-02007,9,12,BARNES COUNTY NORTH HIGH SCHOOL,BARNES COUNTY NORTH 7,Barnes County,2192 101st Ave SE,Wimbledon,ND,58492,9353,(701)646-6202,43,Rural: Remote,†,†,–,–,82,10,8.2,21,10
380238000023,ND-17003-08503,3802380,ND-17003,7,12,BEACH HIGH SCHOOL,BEACH 3,Golden Valley County,PO Box 368,Beach,ND,58621,368,(701)872-4161,43,Rural: Remote,†,†,Yes,Yes,143,17.87,8,49,12
380001400044,ND-08001-91601,3800014,ND-08001,PK,KG,BECEP CENTER,BISMARCK 1,Burleigh County,720 N 14th St,Bismarck,ND,58501,4324,(701)323-4400,13,City: Small,†,†,–,–,249,12.5,19.9,0,0
381303000432,ND-51001-08691,3813030,ND-51001,KG,5,BEL AIR ELEMENTARY SCHOOL,MINOT 1,Ward County,501 25th St NW,Minot,ND,58703,1899,(701)857-4590,33,Town: Remote,†,†,–,–,275,17.9,15.4,23,15
380621000180,ND-45013-08841,3806210,ND-45013,PK,6,BELFIELD ELEMENTARY SCHOOL,BELFIELD 13,Stark County,PO Box 97,Belfield,ND,58622,97,(701)575-4275,43,Rural: Remote,†,†,Yes,No,150,14.04,10.7,21,8
380621000181,ND-45013-08843,3806210,ND-45013,7,12,BELFIELD HIGH SCHOOL,BELFIELD 13,Stark County,PO Box 97,Belfield,ND,58622,97,(701)575-4275,43,Rural: Remote,†,†,–,–,106,7.87,13.5,15,6
381303000028,ND-51001-08861,3813030,ND-51001,KG,5,BELL ELEMENTARY SCHOOL,MINOT 1,Ward County,5901 Hwy 52 S,Minot,ND,58701,2315,(701)420-1880,41,Rural: Fringe,†,†,Yes,No,90,8.82,10.2,19,11
380813000252,ND-18001-08961,3808130,ND-18001,PK,5,BEN FRANKLIN ELEMENTARY SCHOOL,GRAND FORKS 1,Grand Forks County,1016 S 20th St,Grand Forks,ND,58201,4185,(701)746-2250,13,City: Small,†,†,Yes,Yes,349,26.2,13.3,89,40
380678000193,ND-09001-07132,3806780,ND-09001,6,8,BEN FRANKLIN MIDDLE SCHOOL,FARGO 1,Cass County,1420 8th St N,Fargo,ND,58102,2613,(701)446-3600,12,City: Midsize,†,†,–,–,830,59.71,13.9,198,66
380678000160,ND-09001-08981,3806780,ND-09001,KG,5,BENNETT ELEMENTARY SCHOOL,FARGO 1,Cass County,2000 S 58th Ave,Fargo,ND,58104,7261,(701)446-4000,12,City: Midsize,†,†,–,–,479,25.8,18.6,49,35
380005800029,ND-51161-09161,3800058,ND-51161,PK,6,BERTHOLD ELEMENTARY SCHOOL,LEWIS AND CLARK 161,Ward County,PO Box 185,Berthold,ND,58718,185,(701)453-3484,43,Rural: Remote,†,†,Yes,No,117,10.04,11.7,10,4
380005800030,ND-51161-09163,3800058,ND-51161,7,12,BERTHOLD HIGH SCHOOL,LEWIS AND CLARK 161,Ward County,PO Box 185,Berthold,ND,58718,185,(701)453-3484,43,Rural: Remote,†,†,–,–,117,13.28,8.8,10,3
380003200031,ND-29027-09281,3800032,ND-29027,PK,4,BEULAH ELEMENTARY SCHOOL,BEULAH 27,Mercer County,204 5th St NW,Beulah,ND,58523,6543,(701)873-2298,33,Town: Remote,†,†,Yes,No,297,20.5,14.5,33,18
380003200032,ND-29027-09243,3800032,ND-29027,9,12,BEULAH HIGH SCHOOL,BEULAH 27,Mercer County,204 5th St NW,Beulah,ND,58523,6543,(701)873-2261,33,Town: Remote,†,†,–,–,218,17.28,12.6,24,15
380003200738,ND-29027-09262,3800032,ND-29027,5,8,BEULAH MIDDLE SCHOOL,BEULAH 27,Mercer County,204 5th St NW,Beulah,ND,58523,6543,(701)873-4325,33,Town: Remote,†,†,–,–,222,15.14,14.7,36,21
380001400045,ND-08001-09703,3800014,ND-08001,9,12,BISMARCK HIGH SCHOOL,BISMARCK 1,Burleigh County,800 N 8th St,Bismarck,ND,58501,3997,(701)323-4800,13,City: Small,†,†,–,–,1191,69.77,17.1,267,76
380889000287,ND-52038-34781,3808890,ND-52038,PK,6,BM HANSON ELEMENTARY SCHOOL,HARVEY 38,Wells County,811 Burke Ave,Harvey,ND,58341,1644,(701)324-2265,43,Rural: Remote,†,†,Yes,No,216,19.25,11.2,62,24
380759000233,ND-28051-09901,3807590,ND-28051,PK,6,BOB CALLIES ELEMENTARY SCHOOL,GARRISON 51,McLean County,PO Box 369,Garrison,ND,58540,369,(701)463-2213,43,Rural: Remote,†,†,Yes,Yes,225,19.14,11.8,56,24
380306000067,ND-05001-10351,3803060,ND-05001,PK,6,BOTTINEAU ELEMENTARY SCHOOL,BOTTINEAU 1,Bottineau County,301 Brander St,Bottineau,ND,58318,1144,(701)228-3718,43,Rural: Remote,†,†,Yes,Yes,379,28.6,13.3,97,17
380306000068,ND-05001-10333,3803060,ND-05001,7,12,BOTTINEAU JUNIOR-SENIOR HIGH SCHOOL,BOTTINEAU 1,Bottineau County,301 Brander St,Bottineau,ND,58318,1144,(701)228-2266,43,Rural: Remote,†,†,Yes,Yes,279,30,9.3,81,35
380309000069,ND-07014-10371,3803090,ND-07014,PK,6,BOWBELLS ELEMENTARY SCHOOL,BOWBELLS 14,Burke County,PO Box 279,Bowbells,ND,58721,279,(701)377-2396,43,Rural: Remote,†,†,Yes,No,53,5.93,8.9,15,4
380309000070,ND-07014-10373,3803090,ND-07014,7,12,BOWBELLS HIGH SCHOOL,BOWBELLS 14,Burke County,PO Box 279,Bowbells,ND,58721,279,(701)377-2396,43,Rural: Remote,†,†,–,–,26,5.53,4.7,7,2
380320000074,ND-06001-10431,3803200,ND-06001,PK,6,BOWMAN CO ELEMENTARY SCHOOL,BOWMAN CO 1,Bowman County,Drawer H,Bowman,ND,58623,128,(701)523-3283,43,Rural: Remote,†,†,Yes,No,234,21.81,10.7,28,10
380320000075,ND-06001-10433,3803200,ND-06001,7,12,BOWMAN CO HIGH SCHOOL,BOWMAN CO 1,Bowman County,Drawer H,Bowman,ND,58623,128,(701)523-3283,43,Rural: Remote,†,†,–,–,203,18.5,11,24,9
381182000858,ND-30001-10573,3811820,ND-30001,9,12,BRAVE CENTER ACADEMY,MANDAN 1,Morton County,901 Division St NW,Mandan,ND,58554,1641,(701)751-6525,23,Suburb: Small,†,†,–,–,23,2,11.5,0,0
381941000885,ND-09006-10621,3819410,ND-09006,KG,5,BROOKS HARBOR ELEMENTARY SCHOOL,WEST FARGO 6,Cass County,801 22nd Ave W,West Fargo,ND,58078,3175,(701)356-8310,22,Suburb: Midsize,†,†,–,–,322,24.7,13,71,15
380359000080,ND-07036-52621,3803590,ND-07036,PK,6,BURKE CENTRAL ELEMENTARY SCHOOL,BURKE CENTRAL 36,Burke County,PO Box 91,Lignite,ND,58752,91,(701)933-2821,43,Rural: Remote,†,†,Yes,No,46,11.05,4.2,10,4
380359000082,ND-07036-52623,3803590,ND-07036,7,12,BURKE CENTRAL HIGH SCHOOL,BURKE CENTRAL 36,Burke County,PO Box 91,Lignite,ND,58752,91,(701)933-2821,43,Rural: Remote,†,†,–,–,39,8,4.9,8,3
381873000646,ND-51007-88191,3818730,ND-51007,PK,6,BURLINGTON-DES LACS ELEMENTARY SCHOOL,UNITED 7,Ward County,PO Box 158,Burlington,ND,58722,158,(701)839-7135,42,Rural: Distant,†,†,Yes,Yes,502,34,14.8,56,39
381698000585,ND-43003-12781,3816980,ND-43003,PK,6,CANNON BALL ELEMENTARY SCHOOL,SOLEN 3,Sioux County,PO Box 218,Cannon Ball,ND,58528,218,(701)854-3341,43,Rural: Remote,†,†,Yes,Yes,121,12,10.1,121,–
380678000186,ND-09001-12922,3806780,ND-09001,6,8,CARL BEN EIELSON MIDDLE SCHOOL,FARGO 1,Cass County,1601 13th Ave S,Fargo,ND,58103,3957,(701)446-1700,12,City: Midsize,†,†,–,–,761,55.8,13.6,265,50
380005300087,ND-16049-13031,3800053,ND-16049,PK,6,CARRINGTON ELEMENTARY SCHOOL,CARRINGTON 49,Foster County,PO Box 48,Carrington,ND,58421,48,(701)652-2739,43,Rural: Remote,†,†,Yes,No,270,19.7,13.7,34,22
380005300088,ND-16049-13043,3800053,ND-16049,7,12,CARRINGTON HIGH SCHOOL,CARRINGTON 49,Foster County,PO Box 48,Carrington,ND,58421,48,(701)652-3136,43,Rural: Remote,†,†,–,–,230,22.5,10.2,33,18
380001800094,ND-34006-13231,3800018,ND-34006,PK,5,CAVALIER ELEMENTARY SCHOOL,CAVALIER 6,Pembina County,PO Box 410,Cavalier,ND,58220,410,(701)265-8417,43,Rural: Remote,†,†,Yes,No,223,14.35,15.5,48,15
380001800089,ND-34006-13233,3800018,ND-34006,6,12,CAVALIER HIGH SCHOOL,CAVALIER 6,Pembina County,PO Box 410,Cavalier,ND,58220,410,(701)265-8417,43,Rural: Remote,†,†,Yes,No,213,22.65,9.4,45,14
380001400821,ND-08001-13481,3800014,ND-08001,KG,5,CENTENNIAL ELEMENTARY SCHOOL,BISMARCK 1,Burleigh County,2800 Ithica Dr,Bismarck,ND,58503,900,(701)323-4290,13,City: Small,†,†,–,–,436,25.98,16.8,64,7
380678000823,ND-09001-27891,3806780,ND-09001,KG,5,CENTENNIAL ELEMENTARY SCHOOL,FARGO 1,Cass County,4201 25th St S,Fargo,ND,58104,6801,(701)446-4300,12,City: Midsize,†,†,–,–,551,36.53,15.1,61,30
380005200096,ND-33001-13501,3800052,ND-33001,PK,6,CENTER-STANTON ELEMENTARY SCHOOL,CENTER-STANTON 1,Oliver County,PO Box 248,Center,ND,58530,248,(701)794-8778,42,Rural: Distant,†,†,Yes,No,142,11.64,12.2,35,9
380005200097,ND-33001-13503,3800052,ND-33001,7,12,CENTER-STANTON HIGH SCHOOL,CENTER-STANTON 1,Oliver County,PO Box 248,Center,ND,58530,248,(701)794-8778,42,Rural: Distant,†,†,–,–,104,10.36,10,25,6
381303000433,ND-51001-57503,3813030,ND-51001,9,10,CENTRAL CAMPUS SCHOOL,MINOT 1,Ward County,215 1st St SE,Minot,ND,58701,3919,(701)857-4660,33,Town: Remote,†,†,–,–,989,73.5,13.5,164,73
380409000099,ND-09017-13541,3804090,ND-09017,PK,5,CENTRAL CASS ELEMENTARY SCHOOL,CENTRAL CASS 17,Cass County,802 5th St N,Casselton,ND,58012,3346,(701)347-5352,42,Rural: Distant,†,†,Yes,No,467,31.36,14.9,55,12
380409000100,ND-09017-13543,3804090,ND-09017,9,12,CENTRAL CASS HIGH SCHOOL,CENTRAL CASS 17,Cass County,802 5th St N,Casselton,ND,58012,3346,(701)347-5352,42,Rural: Distant,†,†,–,–,246,20.16,12.2,28,7
380409000163,ND-09017-13542,3804090,ND-09017,6,8,CENTRAL CASS MIDDLE SCHOOL,CENTRAL CASS 17,Cass County,802 5th St N,Casselton,ND,58012,3346,(701)347-5352,42,Rural: Distant,†,†,Yes,No,227,13.53,16.8,27,6
380003900633,ND-53015-13601,3800039,ND-53015,PK,6,CENTRAL ELEMENTARY SCHOOL,TIOGA 15,Williams County,PO Box 69,Tioga,ND,58852,69,(701)664-3441,43,Rural: Remote,†,†,Yes,No,284,21.63,13.1,24,9
380813000254,ND-18001-32393,3808130,ND-18001,9,12,CENTRAL HIGH SCHOOL,GRAND FORKS 1,Grand Forks County,115 N 4th St,Grand Forks,ND,58203,3709,(701)746-2375,13,City: Small,†,†,–,–,1004,78.06,12.9,232,50
380504000127,ND-36001-18332,3805040,ND-36001,5,8,CENTRAL MIDDLE SCHOOL,DEVILS LAKE 1,Ramsey County,325 7th St NE,Devils Lake,ND,58301,2488,(701)662-7664,33,Town: Remote,†,†,–,–,525,43,12.2,209,47
380414000103,ND-49003-13691,3804140,ND-49003,PK,6,CENTRAL VALLEY ELEMENTARY SCHOOL,CENTRAL VALLEY 3,Traill County,1556 Hwy 81 NE,Buxton,ND,58218,9268,(701)847-2220,42,Rural: Distant,†,†,Yes,No,129,11.42,11.3,19,6
380414000104,ND-49003-13693,3804140,ND-49003,7,12,CENTRAL VALLEY HIGH SCHOOL,CENTRAL VALLEY 3,Traill County,1556 Hwy 81 NE,Buxton,ND,58218,9268,(701)847-2220,42,Rural: Distant,†,†,–,–,77,7.99,9.6,12,4
380806000143,ND-50003-13661,3808060,ND-50003,PK,6,CENTURY ELEMENTARY SCHOOL,GRAFTON 3,Walsh County,1540 School Rd,Grafton,ND,58237,1715,(701)352-1739,33,Town: Remote,†,†,Yes,Yes,537,52,10.3,163,62
380813000824,ND-18001-13641,3808130,ND-18001,PK,5,CENTURY ELEMENTARY SCHOOL,GRAND FORKS 1,Grand Forks County,3351 17th Ave S,Grand Forks,ND,58201,8401,(701)746-2440,13,City: Small,†,†,Yes,Yes,456,34.83,13.1,180,31
380001400047,ND-08001-13653,3800014,ND-08001,9,12,CENTURY HIGH SCHOOL,BISMARCK 1,Burleigh County,1000 E Century Ave,Bismarck,ND,58503,599,(701)323-4900,13,City: Small,†,†,–,–,1257,83.6,15,109,28
381941000680,ND-09006-50902,3819410,ND-09006,6,8,CHENEY MIDDLE SCHOOL,WEST FARGO 6,Cass County,825 17th Ave E,West Fargo,ND,58078,4274,(701)356-2090,22,Suburb: Midsize,†,†,–,–,1135,89.5,12.7,366,70
380678000195,ND-09001-14181,3806780,ND-09001,KG,5,CLARA BARTON HAWTHORNE ELEMENTARY SCHOOL,FARGO 1,Cass County,1417 6th St S,Fargo,ND,58103,4298,(701)446-4400,12,City: Midsize,†,†,–,–,385,30,12.8,73,22
380813000755,ND-18001-15303,3808130,ND-18001,9,12,COMMUNITY ALTERNATIVE HIGH SCHOOL,GRAND FORKS 1,Grand Forks County,500 Stanford Road,Grand Forks,ND,58203,2799,(701)795-2777,13,City: Small,†,†,–,–,85,9.6,8.9,52,5
381182000384,ND-30001-16561,3811820,ND-30001,PK,5,CUSTER ELEMENTARY SCHOOL,MANDAN 1,Morton County,205 8th Ave NE,Mandan,ND,58554,3728,(701)751-6503,23,Suburb: Small,†,†,Yes,Yes,128,13,9.8,54,16
381303000434,ND-51001-17151,3813030,ND-51001,PK,5,DAKOTA ELEMENTARY SCHOOL,MINOT 1,Ward County,101 Eagle Way,Minot AFB,ND,58704,1499,(701)727-3310,33,Town: Remote,†,†,–,–,289,18.47,15.6,36,53
380004000416,ND-32001-56411,3800040,ND-32001,PK,6,DAKOTA PRAIRIE ELEMENTARY SCHOOL,DAKOTA PRAIRIE 1,Nelson County,PO Box 337,McVille,ND,58254,337,(701)322-4771,43,Rural: Remote,†,†,Yes,Yes,164,14.4,11.4,41,12
380004000649,ND-32001-88263,3800040,ND-32001,7,12,DAKOTA PRAIRIE HIGH SCHOOL,DAKOTA PRAIRIE 1,Nelson County,PO Box 37,Petersburg,ND,58272,37,(701)345-8233,43,Rural: Remote,†,†,–,–,132,14.2,9.3,32,10
381941000897,ND-09006-17741,3819410,ND-09006,KG,5,DEER CREEK ELEMENTARY SCHOOL,WEST FARGO 6,Cass County,6400 54th Ave S,Fargo,ND,58104,4569,(701)356-8390,41,Rural: Fringe,†,†,†,†,†,†,†,†,†
381988000848,ND-53001-17753,3819880,ND-53001,9,12,DEL EASTON ALTERNATIVE HIGH SCHOOL,WILLISTON 1,Williams County,PO Box 1407,Williston,ND,58802,1407,(701)572-1055,33,Town: Remote,†,†,–,–,17,2,8.5,0,0
380284000033,ND-04001-17801,3802840,ND-04001,PK,8,DEMORES ELEMENTARY SCHOOL,BILLINGS CO 1,Billings County,PO Box 307,Medora,ND,58645,307,(701)623-4868,43,Rural: Remote,†,†,–,–,46,6.32,7.3,2,1
381873000647,ND-51007-88233,3818730,ND-51007,7,12,DES LACS-BURLINGTON HIGH SCHOOL,UNITED 7,Ward County,PO Box 117,Des Lacs,ND,58733,117,(701)725-4334,42,Rural: Distant,†,†,–,–,178,17.44,10.2,20,9
380504000126,ND-36001-18293,3805040,ND-36001,9,12,DEVILS LAKE HIGH SCHOOL,DEVILS LAKE 1,Ramsey County,1601 College Drive N,Devils Lake,ND,58301,1550,(701)662-1200,33,Town: Remote,†,†,–,–,479,30,16,115,37
380003800132,ND-45001-18453,3800038,ND-45001,9,12,DICKINSON HIGH SCHOOL,DICKINSON 1,Stark County,444 4th St W,Dickinson,ND,58601,4951,(701)456-0030,33,Town: Remote,†,†,–,–,1006,65.75,15.3,145,35
380003800887,ND-45001-18482,3800038,ND-45001,6,8,DICKINSON MIDDLE SCHOOL,DICKINSON 1,Stark County,444 4th St W,Dickinson,ND,58601,4951,(701)456-0021,41,Rural: Fringe,†,†,Yes,Yes,846,61.6,13.7,183,45
380813000874,ND-18001-18561,3808130,ND-18001,PK,5,DISCOVERY ELEMENTARY SCHOOL,GRAND FORKS 1,Grand Forks County,3300 43rd Ave S,Grand Forks,ND,58201,5991,(701)787-4359,41,Rural: Fringe,†,†,–,–,490,31.88,15.4,42,11
380678000079,ND-09001-18552,3806780,ND-09001,6,8,DISCOVERY MIDDLE SCHOOL,FARGO 1,Cass County,1717 40th Ave S,Fargo,ND,58104,6301,(701)446-3300,12,City: Midsize,†,†,–,–,1044,69.8,15,196,52
380516000139,ND-12001-18601,3805160,ND-12001,PK,6,DIVIDE COUNTY ELEMENTARY SCHOOL,DIVIDE COUNTY 1,Divide County,PO Box G,Crosby,ND,58730,662,(701)965-6324,43,Rural: Remote,†,†,Yes,No,193,17.9,10.8,49,11
380516000140,ND-12001-18663,3805160,ND-12001,7,12,DIVIDE COUNTY HIGH SCHOOL,DIVIDE COUNTY 1,Divide County,PO Box G,Crosby,ND,58730,662,(701)965-6392,43,Rural: Remote,†,†,–,–,165,14.9,11.1,45,13
380001400048,ND-08001-18971,3800014,ND-08001,KG,5,DOROTHY MOSES ELEMENTARY SCHOOL,BISMARCK 1,Burleigh County,1312 S Columbia Dr,Bismarck,ND,58504,6597,(701)323-4180,13,City: Small,†,†,Yes,Yes,369,29.32,12.6,156,30
380002900149,ND-25057-19253,3800029,ND-25057,7,12,DRAKE HIGH SCHOOL,DRAKE 57,McHenry County,PO Box 256,Drake,ND,58736,256,(701)465-3732,43,Rural: Remote,†,†,–,–,80,8.13,9.8,32,8
380534000150,ND-34019-19281,3805340,ND-34019,PK,8,DRAYTON ELEMENTARY SCHOOL,DRAYTON 19,Pembina County,108 S 5th St,Drayton,ND,58225,4413,(701)454-3324,43,Rural: Remote,†,†,Yes,No,149,14.67,10.2,51,21
380534000151,ND-34019-19283,3805340,ND-34019,9,12,DRAYTON HIGH SCHOOL,DRAYTON 19,Pembina County,108 S 5th St,Drayton,ND,58225,4413,(701)454-3324,43,Rural: Remote,†,†,–,–,35,6.01,5.8,12,5
380546000155,ND-40001-19681,3805460,ND-40001,PK,6,DUNSEITH ELEMENTARY SCHOOL,DUNSEITH 1,Rolette County,PO Box 789,Dunseith,ND,58329,789,(701)244-5792,43,Rural: Remote,†,†,Yes,Yes,273,27,10.1,273,–
380546000157,ND-40001-19663,3805460,ND-40001,7,12,DUNSEITH HIGH SCHOOL,DUNSEITH 1,Rolette County,PO Box 789,Dunseith,ND,58329,789,(701)244-5249,43,Rural: Remote,†,†,Yes,Yes,249,28,8.9,249,–
380678000881,ND-09001-20801,3806780,ND-09001,KG,5,EAGLES ELEMENTARY SCHOOL,FARGO 1,Cass County,3502 University Dr,Fargo,ND,58104,6228,(701)446-3900,12,City: Midsize,†,†,Yes,Yes,330,31,10.6,97,24
380003800022,ND-45001-20991,3800038,ND-45001,PK,PK,EARLY CHILDHOOD CENTER,DICKINSON 1,Stark County,107 3rd Ave SE,Dickinson,ND,58601,5637,(701)227-3010,33,Town: Remote,†,†,–,–,82,11.11,7.4,0,0
381941000026,ND-09006-21001,3819410,ND-09006,PK,PK,EARLY CHILDHOOD CENTER,WEST FARGO 6,Cass County,330 3rd Ave E,West Fargo,ND,58078,1800,(701)356-2020,22,Suburb: Midsize,†,†,–,–,134,10,13.4,0,0
380678000109,ND-09001-49321,3806780,ND-09001,PK,PK,EARLY CHILDHOOD SPECIAL EDUCATION SCHOOL,FARGO 1,Cass County,1305 9th Ave S,Fargo,ND,58103,2501,(701)446-3100,12,City: Midsize,†,†,–,–,136,7,19.4,0,0
382034000714,ND-27014-27411,3820340,ND-27014,PK,8,EAST FAIRVIEW ELEMENTARY SCHOOL,YELLOWSTONE 14,McKenzie County,301 2nd St S,Fairview,MT,59221,9306,(701)844-5649,43,Rural: Remote,†,†,–,–,83,10,8.3,22,4
381941000677,ND-09006-27521,3819410,ND-09006,KG,5,EASTWOOD ELEMENTARY SCHOOL,WEST FARGO 6,Cass County,500 10th Ave E,West Fargo,ND,58078,3099,(701)356-2030,22,Suburb: Midsize,†,†,Yes,Yes,436,49.6,8.8,191,35
380678000873,ND-09001-21041,3806780,ND-09001,KG,5,ED CLAPP ELEMENTARY SCHOOL,FARGO 1,Cass County,3131 S 28th St,Fargo,ND,58103,5028,(701)446-2900,12,City: Midsize,†,†,Yes,Yes,489,43,11.4,238,46
380585000093,ND-23003-21071,3805850,ND-23003,PK,6,EDGELEY ELEMENTARY SCHOOL,EDGELEY 3,LaMoure County,PO Box 37,Edgeley,ND,58433,37,(701)493-2292,43,Rural: Remote,†,†,Yes,Yes,115,9.25,12.4,17,6
380585000166,ND-23003-21073,3805850,ND-23003,7,12,EDGELEY HIGH SCHOOL,EDGELEY 3,LaMoure County,PO Box 37,Edgeley,ND,58433,37,(701)493-2292,43,Rural: Remote,†,†,Yes,Yes,113,9.92,11.4,17,5
381303000435,ND-51001-21111,3813030,ND-51001,PK,5,EDISON ELEMENTARY SCHOOL,MINOT 1,Ward County,701 17th Ave SW,Minot,ND,58701,6298,(701)857-4595,33,Town: Remote,†,†,–,–,459,25.4,18.1,77,8
380595000868,ND-36002-21131,3805950,ND-36002,PK,8,EDMORE ELEMENTARY SCHOOL,EDMORE 2,Ramsey County,PO Box 188,Edmore,ND,58330,188,(701)644-2281,43,Rural: Remote,†,†,Yes,No,34,9,3.8,12,1
380595000170,ND-36002-21133,3805950,ND-36002,9,12,EDMORE HIGH SCHOOL,EDMORE 2,Ramsey County,PO Box 188,Edmore,ND,58330,188,(701)644-2281,43,Rural: Remote,†,†,–,–,16,5,3.2,6,–
381392000495,ND-31001-60361,3813920,ND-31001,PK,5,EDWIN LOE ELEMENTARY SCHOOL,NEW TOWN 1,Mountrail County,PO Box 700,New Town,ND,58763,700,(701)627-3718,43,Rural: Remote,†,†,–,–,533,35.29,15.1,533,–
380601000171,ND-53006-22701,3806010,ND-53006,KG,8,EIGHT MILE ELEMENTARY SCHOOL,EIGHT MILE 6,Williams County,PO Box 239,Trenton,ND,58853,239,(701)774-8221,42,Rural: Distant,†,†,Yes,Yes,203,14.36,14.1,87,15
380601000172,ND-53006-22703,3806010,ND-53006,9,12,EIGHT MILE HIGH SCHOOL,EIGHT MILE 6,Williams County,PO Box 239,Trenton,ND,58853,239,(701)774-8221,42,Rural: Distant,†,†,Yes,Yes,101,7.32,13.8,43,7
380004500174,ND-19049-23281,3800045,ND-19049,PK,6,ELGIN-NEW LEIPZIG ELEMENTARY SCHOOL,ELGIN-NEW LEIPZIG 49,Grant County,PO Box 70,Elgin,ND,58533,70,(701)584-2374,43,Rural: Remote,†,†,Yes,Yes,85,8.59,9.9,26,10
380004500175,ND-19049-23283,3800045,ND-19049,7,12,ELGIN-NEW LEIPZIG HIGH SCHOOL,ELGIN-NEW LEIPZIG 49,Grant County,PO Box 70,Elgin,ND,58533,70,(701)584-2374,43,Rural: Remote,†,†,Yes,Yes,74,7.88,9.4,23,8
380609000177,ND-11040-23331,3806090,ND-11040,PK,8,ELLENDALE ELEMENTARY SCHOOL,ELLENDALE 40,Dickey County,PO Box 400,Ellendale,ND,58436,400,(701)349-3232,43,Rural: Remote,†,†,Yes,Yes,210,19.5,10.8,48,25
380609000178,ND-11040-23333,3806090,ND-11040,9,12,ELLENDALE HIGH SCHOOL,ELLENDALE 40,Dickey County,PO Box 400,Ellendale,ND,58436,400,(701)349-3232,43,Rural: Remote,†,†,–,–,85,9,9.4,20,10
380636000182,ND-18127-23621,3806360,ND-18127,PK,8,EMERADO ELEMENTARY SCHOOL,EMERADO 127,Grand Forks County,PO Box 69,Emerado,ND,58228,69,(701)594-5125,41,Rural: Fringe,†,†,Yes,Yes,126,12,10.5,126,–
380006100183,ND-37024-23871,3800061,ND-37024,KG,6,ENDERLIN AREA ELEMENTARY SCHOOL,ENDERLIN AREA 24,Ransom County,410 Bluff St,Enderlin,ND,58027,1358,(701)437-2240,43,Rural: Remote,†,†,Yes,No,174,16.27,10.7,37,17
380006100184,ND-37024-23873,3800061,ND-37024,7,12,ENDERLIN AREA HIGH SCHOOL,ENDERLIN AREA 24,Ransom County,410 Bluff St,Enderlin,ND,58027,1358,(701)437-2240,43,Rural: Remote,†,†,–,–,128,13.97,9.2,28,13
381303000436,ND-51001-24802,3813030,ND-51001,6,8,ERIK RAMSTAD MIDDLE SCHOOL,MINOT 1,Ward County,1215 36th Ave NW,Minot,ND,58703,3503,(701)857-4466,33,Town: Remote,†,†,Yes,No,695,50.56,13.7,144,58
380669000190,ND-39018-27391,3806690,ND-39018,PK,6,FAIRMOUNT ELEMENTARY SCHOOL,FAIRMOUNT 18,Richland County,PO Box 228,Fairmount,ND,58030,228,(701)474-5469,43,Rural: Remote,†,†,Yes,No,50,7,7.1,30,1
380669000191,ND-39018-27393,3806690,ND-39018,7,12,FAIRMOUNT HIGH SCHOOL,FAIRMOUNT 18,Richland County,PO Box 228,Fairmount,ND,58030,228,(701)474-5469,43,Rural: Remote,†,†,–,–,52,6.75,7.7,32,2
380678000855,ND-09001-17403,3806780,ND-09001,9,12,FARGO DAVIES HIGH SCHOOL,FARGO 1,Cass County,7150 25th St S,Fargo,ND,58104,7804,(701)446-5600,41,Rural: Fringe,†,†,–,–,1274,81.51,15.6,182,48
380004900212,ND-52025-27921,3800049,ND-52025,PK,8,FESSENDEN-BOWDON ELEMENTARY SCHOOL,FESSENDEN-BOWDON 25,Wells County,PO Box 67,Fessenden,ND,58438,67,(701)547-3296,43,Rural: Remote,†,†,Yes,No,144,10.21,14.1,10,23
380004900213,ND-52025-27923,3800049,ND-52025,9,12,FESSENDEN-BOWDON HIGH SCHOOL,FESSENDEN-BOWDON 25,Wells County,PO Box 67,Fessenden,ND,58438,67,(701)547-3296,43,Rural: Remote,†,†,–,–,33,4.43,7.4,2,5
380691000743,ND-46019-28271,3806910,ND-46019,PK,6,FINLEY-SHARON ELEMENTARY SCHOOL,FINLEY-SHARON 19,Steele County,PO Box 448,Finley,ND,58230,448,(701)524-2420,43,Rural: Remote,†,†,Yes,No,40,10,4,8,2
380691000217,ND-46019-28273,3806910,ND-46019,7,12,FINLEY-SHARON HIGH SCHOOL,FINLEY-SHARON 19,Steele County,PO Box 448,Finley,ND,58230,448,(701)524-2420,43,Rural: Remote,†,†,Yes,No,38,8.15,4.7,8,2
380693000218,ND-30039-28541,3806930,ND-30039,PK,6,FLASHER ELEMENTARY SCHOOL,FLASHER 39,Morton County,PO Box 267,Flasher,ND,58535,267,(701)597-3355,43,Rural: Remote,†,†,Yes,Yes,135,11,12.3,25,14
380693000219,ND-30039-28543,3806930,ND-30039,7,12,FLASHER HIGH SCHOOL,FLASHER 39,Morton County,PO Box 267,Flasher,ND,58535,267,(701)597-3355,43,Rural: Remote,†,†,Yes,Yes,98,10,9.8,19,11
380005600224,ND-50005-28911,3800056,ND-50005,PK,8,FORDVILLE-LANKIN ELEMENTARY SCHOOL,FORDVILLE-LANKIN 5,Walsh County,PO Box 127,Fordville,ND,58231,127,(701)229-3297,43,Rural: Remote,†,†,–,–,31,7,4.4,8,1
380005600225,ND-50005-28913,3800056,ND-50005,9,12,FORDVILLE-LANKIN HIGH SCHOOL,FORDVILLE-LANKIN 5,Walsh County,PO Box 127,Fordville,ND,58231,127,(701)229-3297,43,Rural: Remote,†,†,–,–,10,4.56,2.2,3,†
380003300226,ND-37006-28981,3800033,ND-37006,KG,6,FORT RANSOM ELEMENTARY SCHOOL,FT RANSOM 6,Ransom County,PO Box 593,Lisbon,ND,58054,593,(701)973-2591,43,Rural: Remote,†,†,–,–,24,3.15,7.6,4,3
380720000744,ND-43004-29212,3807200,ND-43004,5,8,FORT YATES MIDDLE SCHOOL,FT YATES 4,Sioux County,PO Box 797,Fort Yates,ND,58538,797,(701)854-3819,43,Rural: Remote,†,†,Yes,Yes,118,19,6.2,118,–
380720000898,ND-43004-29211,3807200,ND-43004,PK,PK,FORT YATES PK SCHOOL,FT YATES 4,Sioux County,PO Box 797,Fort Yates,ND,58538,797,(701)854-3819,43,Rural: Remote,†,†,–,–,13,1,13,13,–
380717000227,ND-03030-29103,3807170,ND-03030,9,12,FOUR WINDS COMMUNITY HIGH SCHOOL,FT TOTTEN 30,Benson County,PO Box 239,Fort Totten,ND,58335,239,(701)766-1400,42,Rural: Distant,†,†,Yes,Yes,170,22.39,7.6,170,–
380717000853,ND-03030-29101,3807170,ND-03030,PK,PK,FOUR WINDS COMMUNITY PK SCHOOL,FT TOTTEN 30,Benson County,PO Box 239,Fort Totten,ND,58335,239,(701)766-1400,42,Rural: Distant,†,†,–,–,20,1,20,20,–
381941000857,ND-09006-28961,3819410,ND-09006,KG,5,FREEDOM ELEMENTARY SCHOOL,WEST FARGO 6,Cass County,401 26th Ave E,West Fargo,ND,58078,1725,(701)356-5221,22,Suburb: Midsize,†,†,–,–,511,37.3,13.7,124,26
381182000081,ND-30001-29251,3811820,ND-30001,KG,5,FT LINCOLN ELEMENTARY SCHOOL,MANDAN 1,Morton County,2007 8th Ave SE,Mandan,ND,58554,5001,(701)751-6504,23,Suburb: Small,†,†,–,–,479,26,18.4,63,19
380004300230,ND-24056-30131,3800043,ND-24056,PK,8,GACKLE-STREETER ELEMENTARY SCHOOL,GACKLE-STREETER 56,Logan County,PO Box 375,Gackle,ND,58442,375,(701)485-3692,43,Rural: Remote,†,†,Yes,No,85,9.36,9.1,25,7
380004300231,ND-24056-30133,3800043,ND-24056,9,12,GACKLE-STREETER HIGH SCHOOL,GACKLE-STREETER 56,Logan County,PO Box 375,Gackle,ND,58442,375,(701)485-3692,43,Rural: Remote,†,†,–,–,19,5.73,3.3,6,2
381376000831,ND-53008-30451,3813760,ND-53008,PK,2,GARDEN VALLEY ELEMENTARY SCHOOL,WILLIAMS COUNTY 8,Williams County,13565 60th St NW,Williston,ND,58801,8919,(701)826-4261,42,Rural: Distant,†,†,–,–,337,15,22.5,60,13
380759000234,ND-28051-30523,3807590,ND-28051,7,12,GARRISON HIGH SCHOOL,GARRISON 51,McLean County,PO Box 249,Garrison,ND,58540,249,(701)463-2818,43,Rural: Remote,†,†,–,–,161,13.59,11.8,26,14
380783000235,ND-30048-31651,3807830,ND-30048,PK,8,GLEN ULLIN ELEMENTARY SCHOOL,GLEN ULLIN 48,Morton County,PO Box 548,Glen Ullin,ND,58631,548,(701)348-3590,43,Rural: Remote,†,†,Yes,No,90,20.42,4.4,16,9
380783000236,ND-30048-31653,3807830,ND-30048,9,12,GLEN ULLIN HIGH SCHOOL,GLEN ULLIN 48,Morton County,PO Box 548,Glen Ullin,ND,58631,548,(701)348-3590,43,Rural: Remote,†,†,–,–,39,8.43,4.6,7,4
380785000237,ND-38026-31691,3807850,ND-38026,PK,6,GLENBURN ELEMENTARY SCHOOL,GLENBURN 26,Renville County,PO Box 138,Glenburn,ND,58740,138,(701)362-7426,42,Rural: Distant,†,†,Yes,No,147,14.42,10.2,45,16
380785000238,ND-38026-31693,3807850,ND-38026,7,12,GLENBURN HIGH SCHOOL,GLENBURN 26,Renville County,PO Box 138,Glenburn,ND,58740,138,(701)362-7426,42,Rural: Distant,†,†,–,–,118,14.58,8.1,37,12
381161000379,ND-17006-31911,3811610,ND-17006,PK,8,GOLVA ELEMENTARY SCHOOL,LONE TREE 6,Golden Valley County,PO Box 170,Golva,ND,58632,170,(701)872-3674,43,Rural: Remote,†,†,–,–,30,4.33,6.9,4,1
380795000242,ND-42016-31991,3807950,ND-42016,PK,6,GOODRICH ELEMENTARY SCHOOL,GOODRICH 16,Sheridan County,PO Box 159,Goodrich,ND,58444,159,(701)884-2469,43,Rural: Remote,†,†,Yes,No,15,3.5,4.3,5,4
380795000243,ND-42016-31993,3807950,ND-42016,7,12,GOODRICH HIGH SCHOOL,GOODRICH 16,Sheridan County,PO Box 159,Goodrich,ND,58444,159,(701)884-2469,43,Rural: Remote,†,†,–,–,11,2.76,4,3,3
380806000248,ND-50003-32313,3808060,ND-50003,9,12,GRAFTON HIGH SCHOOL,GRAFTON 3,Walsh County,1548 School Rd,Grafton,ND,58237,1715,(701)352-1930,33,Town: Remote,†,†,Yes,Yes,268,19,14.1,84,25
380806000247,ND-50003-32352,3808060,ND-50003,7,8,GRAFTON JUNIOR HIGH SCHOOL,GRAFTON 3,Walsh County,1556 School Rd,Grafton,ND,58237,1715,(701)352-1469,33,Town: Remote,†,†,Yes,Yes,122,17.5,7,45,7
380006100884,ND-37024-32521,3800061,ND-37024,KG,8,GRANT COLONY SCHOOL,ENDERLIN AREA 24,Ransom County,5543 129th Ave SE,Enderlin,ND,58027,9642,(701)864-2611,43,Rural: Remote,†,†,–,–,4,1,4,0,0
380846000273,ND-53099-32811,3808460,ND-53099,KG,6,GRENORA ELEMENTARY SCHOOL,GRENORA 99,Williams County,PO Box 38,Grenora,ND,58845,38,(701)694-2711,43,Rural: Remote,†,†,Yes,No,100,8.85,11.3,36,11
380846000274,ND-53099-32813,3808460,ND-53099,7,12,GRENORA HIGH SCHOOL,GRENORA 99,Williams County,PO Box 38,Grenora,ND,58845,38,(701)694-2711,43,Rural: Remote,†,†,–,–,79,7.88,10,28,8
380456000164,ND-20018-15551,3804560,ND-20018,PK,8,GRIGGS COUNTY CENTRAL ELEMENTARY SCHOOL,GRIGGS COUNTY CENTRAL 18,Griggs County,1207 Foster Ave NE,Cooperstown,ND,58425,7037,(701)797-3114,43,Rural: Remote,†,†,Yes,Yes,181,14.7,12.3,47,23
380456000116,ND-20018-15553,3804560,ND-20018,9,12,GRIGGS COUNTY CENTRAL HIGH SCHOOL,GRIGGS COUNTY CENTRAL 18,Griggs County,1207 Foster Ave NE,Cooperstown,ND,58425,7037,(701)797-3114,43,Rural: Remote,†,†,–,–,72,8.3,8.7,18,9
380001400049,ND-08001-32821,3800014,ND-08001,KG,5,GRIMSRUD ELEMENTARY SCHOOL,BISMARCK 1,Burleigh County,716 W St Benedict Dr,Bismarck,ND,58501,1566,(701)323-4150,13,City: Small,†,†,Yes,No,254,16.92,15,46,7
381988000758,ND-53001-33701,3819880,ND-53001,KG,4,HAGAN ELEMENTARY SCHOOL,WILLISTON 1,Williams County,PO Box 1407,Williston,ND,58802,1407,(701)572-4960,41,Rural: Fringe,†,†,Yes,Yes,491,31,15.8,90,33
380861000277,ND-13019-33901,3808610,ND-13019,KG,6,HALLIDAY ELEMENTARY SCHOOL,HALLIDAY 19,Dunn County,PO Box 188,Halliday,ND,58636,188,(701)938-4391,43,Rural: Remote,†,†,–,–,23,5.3,4.3,15,5
380871000281,ND-39008-34321,3808710,ND-39008,PK,6,HANKINSON ELEMENTARY SCHOOL,HANKINSON 8,Richland County,PO Box 220,Hankinson,ND,58041,220,(701)242-7516,43,Rural: Remote,†,†,Yes,No,132,8,16.5,27,8
380871000283,ND-39008-34323,3808710,ND-39008,7,12,HANKINSON HIGH SCHOOL,HANKINSON 8,Richland County,PO Box 220,Hankinson,ND,58041,220,(701)242-7516,43,Rural: Remote,†,†,–,–,132,16,8.3,26,8
380889000288,ND-52038-34793,3808890,ND-52038,7,12,HARVEY HIGH SCHOOL,HARVEY 38,Wells County,200 North St E,Harvey,ND,58341,1027,(701)324-2267,43,Rural: Remote,†,†,–,–,175,14.38,12.2,32,16
381941000678,ND-09006-35001,3819410,ND-09006,KG,5,HARWOOD ELEMENTARY SCHOOL,WEST FARGO 6,Cass County,110 Freedland Dr,Harwood,ND,58042,4131,(701)356-2040,41,Rural: Fringe,†,†,–,–,139,9.93,14,9,2
380900000289,ND-49007-35041,3809000,ND-49007,PK,6,HATTON EIELSON ELEMENTARY SCHOOL,HATTON EIELSON 7,Traill County,PO Box 200,Hatton,ND,58240,200,(701)543-3456,42,Rural: Distant,†,†,Yes,No,92,11.5,8,13,11
380900000290,ND-49007-35043,3809000,ND-49007,7,12,HATTON EIELSON HIGH SCHOOL,HATTON EIELSON 7,Traill County,PO Box 200,Hatton,ND,58240,200,(701)543-3456,42,Rural: Distant,†,†,–,–,89,10.82,8.2,12,10
380913000291,ND-15006-35251,3809130,ND-15006,PK,6,HAZELTON-MOFFIT-BRADDOCK ELEMENTARY SCHOOL,HAZELTON-MOFFIT-BRADDOCK 6,Emmons County,PO Box 209,Hazelton,ND,58544,209,(701)782-6231,43,Rural: Remote,†,†,Yes,No,69,7.5,9.2,20,4
380913000141,ND-15006-35253,3809130,ND-15006,7,12,HAZELTON-MOFFIT-BRADDOCK HIGH SCHOOL,HAZELTON-MOFFIT-BRADDOCK 6,Emmons County,PO Box 209,Hazelton,ND,58544,209,(701)782-6231,43,Rural: Remote,†,†,Yes,No,57,7,8.1,16,4
380003100293,ND-29003-35281,3800031,ND-29003,PK,5,HAZEN ELEMENTARY SCHOOL,HAZEN 3,Mercer County,PO Box 487,Hazen,ND,58545,487,(701)748-6120,42,Rural: Distant,†,†,Yes,No,268,19.06,14.1,37,11
380003100294,ND-29003-35293,3800031,ND-29003,9,12,HAZEN HIGH SCHOOL,HAZEN 3,Mercer County,PO Box 487,Hazen,ND,58545,487,(701)748-2345,42,Rural: Distant,†,†,–,–,169,12.75,13.3,12,8
380003100863,ND-29003-35302,3800031,ND-29003,6,8,HAZEN MIDDLE SCHOOL,HAZEN 3,Mercer County,PO Box 487,Hazen,ND,58545,487,(701)748-6649,42,Rural: Distant,†,†,–,–,122,7.19,17,17,3
380003800742,ND-45001-31601,3800038,ND-45001,KG,5,HEART RIVER ELEMENTARY SCHOOL,DICKINSON 1,Stark County,444 4th St W,Dickinson,ND,58601,4951,(701)456-0012,33,Town: Remote,†,†,Yes,Yes,263,25,10.5,78,17
380918000295,ND-30013-35371,3809180,ND-30013,PK,6,HEBRON ELEMENTARY SCHOOL,HEBRON 13,Morton County,PO Box Q,Hebron,ND,58638,447,(701)878-4442,43,Rural: Remote,†,†,Yes,Yes,107,9.4,11.4,25,9
380918000296,ND-30013-35373,3809180,ND-30013,7,12,HEBRON HIGH SCHOOL,HEBRON 13,Morton County,PO Box Q,Hebron,ND,58638,447,(701)878-4442,43,Rural: Remote,†,†,–,–,55,10.6,5.2,13,5
381941000899,ND-09006-17762,3819410,ND-09006,6,6,HERITAGE MIDDLE SCHOOL,WEST FARGO 6,Cass County,6400 54th Ave S,Fargo,ND,58104,4569,(701)356-8390,41,Rural: Fringe,†,†,†,†,†,†,†,†,†
380941000298,ND-01013-35991,3809410,ND-01013,PK,6,HETTINGER ELEMENTARY SCHOOL,HETTINGER 13,Adams County,PO Box 1188,Hettinger,ND,58639,1188,(701)567-5315,43,Rural: Remote,†,†,Yes,No,180,11.3,15.9,28,9
380941000299,ND-01013-35993,3809410,ND-01013,7,12,HETTINGER HIGH SCHOOL,HETTINGER 13,Adams County,PO Box 1188,Hettinger,ND,58639,1188,(701)567-5315,43,Rural: Remote,†,†,–,–,107,13.56,7.9,16,6
380001400050,ND-08001-36121,3800014,ND-08001,KG,5,HIGHLAND ACRES ELEMENTARY SCHOOL,BISMARCK 1,Burleigh County,1200 Prairie Dr,Bismarck,ND,58501,2432,(701)323-4160,13,City: Small,†,†,–,–,172,11.1,15.5,8,8
380957000301,ND-49009-36331,3809570,ND-49009,PK,6,HILLSBORO ELEMENTARY SCHOOL,HILLSBORO 9,Traill County,PO Box 579,Hillsboro,ND,58045,579,(701)636-4711,43,Rural: Remote,†,†,Yes,No,260,19,13.7,71,32
380957000302,ND-49009-36303,3809570,ND-49009,7,12,HILLSBORO HIGH SCHOOL,HILLSBORO 9,Traill County,PO Box 579,Hillsboro,ND,58045,579,(701)636-4360,43,Rural: Remote,†,†,–,–,226,16,14.1,50,28
380971000161,ND-46010-37293,3809710,ND-46010,7,12,HOPE HIGH SCHOOL,HOPE 10,Steele County,PO Box 100,Hope,ND,58046,100,(701)945-2473,43,Rural: Remote,†,†,–,–,67,10.31,6.5,14,2
380040400900,ND-09085-68871,3800404,ND-09085,–,–,HOPE PAGE ELEMENTARY SCHOOL,HOPE PAGE 85,†,PO Box 26,Page,ND,58064,26,(701)668-2520,†,N,†,†,†,†,†,†,†,†,†
380040400901,ND-09085-68883,3800404,ND-09085,–,–,HOPE PAGE HIGH SCHOOL,HOPE PAGE 85,†,PO Box 26,Page,ND,58064,26,(701)668-2520,†,N,†,†,†,†,†,†,†,†,†
381941000679,ND-09006-37381,3819410,ND-09006,KG,5,HORACE ELEMENTARY SCHOOL,WEST FARGO 6,Cass County,110 3rd Ave N,Horace,ND,58047,4001,(701)356-2080,22,Suburb: Midsize,†,†,–,–,243,17,14.3,29,6
381941000902,ND-09006-94033,3819410,ND-09006,–,–,HORACE HIGH SCHOOL,WEST FARGO 6,†,8100 Lakeview Dr,Horace,ND,58047,,(701)356-2000,†,N,†,†,†,†,†,†,†,†,†
380678000198,ND-09001-37331,3806780,ND-09001,KG,5,HORACE MANN ROOSEVELT ELEMENTARY SCHOOL,FARGO 1,Cass County,1025 3rd St N,Fargo,ND,58102,3799,(701)446-4600,12,City: Midsize,†,†,Yes,No,342,30.34,11.3,121,25
380001400051,ND-08001-37952,3800014,ND-08001,6,8,HORIZON MIDDLE SCHOOL,BISMARCK 1,Burleigh County,500 Ash Coulee Dr,Bismarck,ND,58503,8818,(701)323-4550,13,City: Small,†,†,–,–,1084,66.77,16.2,114,38
380981000305,ND-27032-37411,3809810,ND-27032,KG,8,HORSE CREEK SCHOOL,HORSE CREEK 32,McKenzie County,1812 Horse Creek Rd,Cartwright,ND,58838,9753,(701)828-3080,43,Rural: Remote,†,†,–,–,7,1,7,0,0
381941000867,ND-09006-93161,3819410,ND-09006,KG,5,INDEPENDENCE ELEMENTARY SCHOOL,WEST FARGO 6,Cass County,3700 54th St S,Fargo,ND,58104,7471,(701)356-5890,12,City: Midsize,†,†,–,–,538,37.6,14.3,49,26
380813000255,ND-18001-44991,3808130,ND-18001,PK,5,J NELSON KELLY ELEMENTARY SCHOOL,GRAND FORKS 1,Grand Forks County,3000 Cherry St,Grand Forks,ND,58201,7419,(701)746-2265,13,City: Small,†,†,–,–,476,33.5,14.2,61,16
380002100310,ND-47001-45703,3800021,ND-47001,9,12,JAMESTOWN HIGH SCHOOL,JAMESTOWN 1,Stutsman County,PO Box 269,Jamestown,ND,58402,269,(701)952-4003,33,Town: Remote,†,†,–,–,696,65,10.7,128,46
380002100311,ND-47001-45732,3800021,ND-47001,6,8,JAMESTOWN MIDDLE SCHOOL,JAMESTOWN 1,Stutsman County,PO Box 269,Jamestown,ND,58402,269,(701)252-0317,33,Town: Remote,†,†,–,–,539,37.27,14.5,120,42
380001400052,ND-08001-45801,3800014,ND-08001,KG,5,JEANNETTE MYHRE ELEMENTARY SCHOOL,BISMARCK 1,Burleigh County,919 S 12th St,Bismarck,ND,58504,5977,(701)323-4200,13,City: Small,†,†,Yes,Yes,273,24.5,11.1,273,–
380003800134,ND-45001-46001,3800038,ND-45001,KG,5,JEFFERSON ELEMENTARY SCHOOL,DICKINSON 1,Stark County,444 4th St W,Dickinson,ND,58601,4951,(701)456-0013,33,Town: Remote,†,†,–,–,354,27,13.1,44,14
380678000199,ND-09001-45981,3806780,ND-09001,KG,5,JEFFERSON ELEMENTARY SCHOOL,FARGO 1,Cass County,1701 4th Ave S,Fargo,ND,58103,1562,(701)446-4700,12,City: Midsize,†,†,Yes,Yes,336,30,11.2,217,30
381885000654,ND-02002-46011,3818850,ND-02002,PK,3,JEFFERSON ELEMENTARY SCHOOL,VALLEY CITY 2,Barnes County,460 Central Ave N,Valley City,ND,58072,2997,(701)845-0622,33,Town: Remote,†,†,Yes,Yes,310,15,20.7,121,20
381303000439,ND-51001-46452,3813030,ND-51001,6,8,JIM HILL MIDDLE SCHOOL,MINOT 1,Ward County,1000 6th St SW,Minot,ND,58701,4599,(701)857-4477,33,Town: Remote,†,†,Yes,Yes,782,56.58,13.8,197,49
381303000879,ND-51001-46701,3813030,ND-51001,PK,5,JOHN HOEVEN ELEMENTARY SCHOOL,MINOT 1,Ward County,3400 13th St SE,Minot,ND,58701,7216,(701)418-1600,41,Rural: Fringe,†,†,Yes,No,470,27.26,17.2,87,47
381018000731,ND-51028-48781,3810180,ND-51028,PK,8,KENMARE ELEMENTARY SCHOOL,KENMARE 28,Ward County,PO Box 667,Kenmare,ND,58746,667,(701)385-4688,43,Rural: Remote,†,†,Yes,No,224,20,11.2,11,5
381018000326,ND-51028-48823,3810180,ND-51028,9,12,KENMARE HIGH SCHOOL,KENMARE 28,Ward County,PO Box 667,Kenmare,ND,58746,667,(701)385-4996,43,Rural: Remote,†,†,–,–,83,10,8.3,45,17
380678000206,ND-09001-48831,3806780,ND-09001,KG,5,KENNEDY ELEMENTARY SCHOOL,FARGO 1,Cass County,4401 42nd St S,Fargo,ND,58104,3906,(701)446-4200,12,City: Midsize,†,†,–,–,518,39,13.3,99,25
381026000329,ND-47019-48921,3810260,ND-47019,PK,6,KENSAL ELEMENTARY SCHOOL,KENSAL 19,Stutsman County,803 1st Ave,Kensal,ND,58455,4030,(701)435-2484,43,Rural: Remote,†,†,Yes,No,52,4.6,11.3,6,6
381027000331,ND-13016-49271,3810270,ND-13016,PK,6,KILLDEER ELEMENTARY SCHOOL,KILLDEER 16,Dunn County,PO Box 579,Killdeer,ND,58640,579,(701)764-5877,43,Rural: Remote,†,†,–,–,367,26.9,13.6,80,18
381027000332,ND-13016-49273,3810270,ND-13016,7,12,KILLDEER HIGH SCHOOL,KILLDEER 16,Dunn County,PO Box 579,Killdeer,ND,58640,579,(701)764-5877,43,Rural: Remote,†,†,–,–,228,16.58,13.8,49,11
380002500334,ND-09002-49331,3800025,ND-09002,PK,6,KINDRED ELEMENTARY SCHOOL,KINDRED 2,Cass County,55 1st Ave S,Kindred,ND,58051,4027,(701)428-3388,42,Rural: Distant,†,†,Yes,No,456,35.61,12.8,21,14
380002500335,ND-09002-49343,3800025,ND-09002,7,12,KINDRED HIGH SCHOOL,KINDRED 2,Cass County,255 Dakota St,Kindred,ND,58051,4225,(701)428-3177,42,Rural: Distant,†,†,–,–,339,24.42,13.9,19,12
381050000338,ND-23007-50721,3810500,ND-23007,PK,8,KULM ELEMENTARY SCHOOL,KULM 7,LaMoure County,PO Box G,Kulm,ND,58456,197,(701)647-2303,43,Rural: Remote,†,†,Yes,Yes,99,11.25,8.8,25,17
381050000339,ND-23007-50723,3810500,ND-23007,9,12,KULM HIGH SCHOOL,KULM 7,LaMoure County,PO Box G,Kulm,ND,58456,197,(701)647-2303,43,Rural: Remote,†,†,–,–,41,5.47,7.5,11,7
381941000815,ND-09006-50711,3819410,ND-09006,KG,5,L E BERGER ELEMENTARY SCHOOL,WEST FARGO 6,Cass County,631 4th Ave E,West Fargo,ND,58078,1999,(701)356-2010,22,Suburb: Midsize,†,†,Yes,Yes,381,34.67,11,192,43
380813000256,ND-18001-51251,3808130,ND-18001,PK,5,LAKE AGASSIZ ELEMENTARY SCHOOL,GRAND FORKS 1,Grand Forks County,605 Stanford Rd,Grand Forks,ND,58203,2128,(701)746-2275,13,City: Small,†,†,Yes,Yes,402,21,19.1,203,34
381060000341,ND-32066-51371,3810600,ND-32066,PK,6,LAKOTA ELEMENTARY SCHOOL,LAKOTA 66,Nelson County,PO Box 388,Lakota,ND,58344,388,(701)247-2955,43,Rural: Remote,†,†,Yes,Yes,90,10.7,8.4,22,4
381060000342,ND-32066-51363,3810600,ND-32066,7,12,LAKOTA HIGH SCHOOL,LAKOTA 66,Nelson County,PO Box 388,Lakota,ND,58344,388,(701)247-2992,43,Rural: Remote,†,†,–,–,67,12.75,5.3,16,1
381074000346,ND-23008-51441,3810740,ND-23008,KG,8,LAMOURE COLONY SCHOOL,LAMOURE 8,LaMoure County,PO Box 656,LaMoure,ND,58458,656,(701)883-5396,43,Rural: Remote,†,†,Yes,No,31,2.5,12.4,31,–
381074000343,ND-23008-51451,3810740,ND-23008,PK,8,LAMOURE ELEMENTARY SCHOOL,LAMOURE 8,LaMoure County,PO Box 656,LaMoure,ND,58458,656,(701)883-5397,43,Rural: Remote,†,†,Yes,Yes,169,18,9.4,34,8
381074000345,ND-23008-51453,3810740,ND-23008,9,12,LAMOURE HIGH SCHOOL,LAMOURE 8,LaMoure County,PO Box 656,LaMoure,ND,58458,656,(701)883-5397,43,Rural: Remote,†,†,–,–,106,8,13.3,22,5
381081000347,ND-10023-51541,3810810,ND-10023,PK,6,LANGDON AREA ELEMENTARY SCHOOL,LANGDON AREA 23,Cavalier County,721 11th Ave,Langdon,ND,58249,2132,(701)256-3270,43,Rural: Remote,†,†,Yes,No,208,17,12.2,36,16
381081000348,ND-10023-51533,3810810,ND-10023,7,12,LANGDON AREA HIGH SCHOOL,LANGDON AREA 23,Cavalier County,715 14th Ave,Langdon,ND,58249,2198,(701)256-5291,43,Rural: Remote,†,†,–,–,181,24.21,7.5,30,11
381086000354,ND-18044-51631,3810860,ND-18044,PK,6,LARIMORE ELEMENTARY SCHOOL,LARIMORE 44,Grand Forks County,PO Box 769,Larimore,ND,58251,769,(701)343-2249,42,Rural: Distant,†,†,Yes,No,229,18.93,12.1,43,30
381086000355,ND-18044-51693,3810860,ND-18044,7,12,LARIMORE HIGH SCHOOL,LARIMORE 44,Grand Forks County,PO Box 769,Larimore,ND,58251,769,(701)343-2366,42,Rural: Distant,†,†,–,–,165,13.81,11.9,23,17
381098000357,ND-03006-51841,3810980,ND-03006,PK,8,LEEDS ELEMENTARY SCHOOL,LEEDS 6,Benson County,PO Box 189,Leeds,ND,58346,189,(701)466-2461,43,Rural: Remote,†,†,Yes,Yes,84,12.3,6.8,21,2
381098000358,ND-03006-51843,3810980,ND-03006,9,12,LEEDS HIGH SCHOOL,LEEDS 6,Benson County,PO Box 189,Leeds,ND,58346,189,(701)466-2461,43,Rural: Remote,†,†,–,–,53,6.43,8.2,13,1
381941000872,ND-09006-52011,3819410,ND-09006,KG,5,LEGACY ELEMENTARY SCHOOL,WEST FARGO 6,Cass County,5150 9th St W,West Fargo,ND,58078,4068,(701)356-3740,22,Suburb: Midsize,†,†,–,–,563,34,16.6,42,20
380001400866,ND-08001-51993,3800014,ND-08001,9,12,LEGACY HIGH SCHOOL,BISMARCK 1,Burleigh County,3400 Calgary Ave,Bismarck,ND,58503,1369,(701)323-4850,13,City: Small,†,†,–,–,1245,78,16,151,48
381182000386,ND-30001-52281,3811820,ND-30001,PK,5,LEWIS AND CLARK ELEMENTARY SCHOOL,MANDAN 1,Morton County,600 14th St NW,Mandan,ND,58554,1899,(701)751-6505,23,Suburb: Small,†,†,–,–,424,26.25,16.2,90,16
380813000257,ND-18001-52251,3808130,ND-18001,PK,5,LEWIS AND CLARK ELEMENTARY SCHOOL,GRAND FORKS 1,Grand Forks County,1100 13th Ave S,Grand Forks,ND,58201,5415,(701)746-2285,13,City: Small,†,†,Yes,Yes,192,18.4,10.4,51,24
380678000200,ND-09001-52221,3806780,ND-09001,KG,5,LEWIS AND CLARK ELEMENTARY SCHOOL,FARGO 1,Cass County,1729 16th St S,Fargo,ND,58103,4899,(701)446-4800,12,City: Midsize,†,†,Yes,Yes,496,42.82,11.6,197,43
381988000690,ND-53001-52311,3819880,ND-53001,KG,4,LEWIS AND CLARK ELEMENTARY SCHOOL,WILLISTON 1,Williams County,PO Box 1407,Williston,ND,58802,1407,(701)572-6331,33,Town: Remote,†,†,–,–,277,16,17.3,36,18
381303000445,ND-51001-61261,3813030,ND-51001,PK,5,LEWIS AND CLARK ELEMENTARY SCHOOL,MINOT 1,Ward County,2215 8th St NW,Minot,ND,58703,999,(701)857-4665,33,Town: Remote,†,†,Yes,No,506,35.57,14.2,113,41
380001400865,ND-08001-52551,3800014,ND-08001,KG,5,LIBERTY ELEMENTARY SCHOOL,BISMARCK 1,Burleigh County,5400 Onyx Dr,Bismarck,ND,58503,5019,(701)323-4320,41,Rural: Fringe,†,†,–,–,614,36.73,16.7,25,2
381941000859,ND-09006-52582,3819410,ND-09006,6,8,LIBERTY MIDDLE SCHOOL,WEST FARGO 6,Cass County,801 36th Ave E,West Fargo,ND,58078,7982,(701)356-2671,22,Suburb: Midsize,†,†,–,–,1178,88,13.4,193,74
381114000365,ND-39028-52601,3811140,ND-39028,PK,6,LIDGERWOOD ELEMENTARY SCHOOL,LIDGERWOOD 28,Richland County,PO Box 468,Lidgerwood,ND,58053,468,(701)538-7341,43,Rural: Remote,†,†,Yes,Yes,97,9,10.8,19,14
381114000366,ND-39028-52603,3811140,ND-39028,7,12,LIDGERWOOD HIGH SCHOOL,LIDGERWOOD 28,Richland County,PO Box 468,Lidgerwood,ND,58053,468,(701)538-7341,43,Rural: Remote,†,†,Yes,Yes,84,8.79,9.6,16,13
380678000201,ND-09001-52771,3806780,ND-09001,KG,5,LINCOLN ELEMENTARY SCHOOL,FARGO 1,Cass County,2120 9th St S,Fargo,ND,58103,5399,(701)446-4900,12,City: Midsize,†,†,Yes,Yes,439,35,12.5,200,42
380002100312,ND-47001-52841,3800021,ND-47001,KG,5,LINCOLN ELEMENTARY SCHOOL,JAMESTOWN 1,Stutsman County,PO Box 269,Jamestown,ND,58402,269,(701)252-0867,33,Town: Remote,†,†,Yes,Yes,228,15,15.2,70,34
380001400864,ND-08001-52861,3800014,ND-08001,KG,5,LINCOLN ELEMENTARY SCHOOL,BISMARCK 1,Burleigh County,3320 McCurry Way,Lincoln,ND,58504,9349,(701)323-4310,41,Rural: Fringe,†,†,–,–,631,35.98,17.5,77,43
380003800135,ND-45001-52821,3800038,ND-45001,KG,5,LINCOLN ELEMENTARY SCHOOL,DICKINSON 1,Stark County,444 4th St W,Dickinson,ND,58601,4951,(701)456-0014,33,Town: Remote,†,†,–,–,357,31,11.5,57,13
380238000024,ND-17003-52781,3802380,ND-17003,PK,6,LINCOLN ELEMENTARY SCHOOL,BEACH 3,Golden Valley County,PO Box 639,Beach,ND,58621,639,(701)872-4253,43,Rural: Remote,†,†,Yes,Yes,141,12.9,10.9,32,8
380001700370,ND-15036-52881,3800017,ND-15036,PK,8,LINTON ELEMENTARY SCHOOL,LINTON 36,Emmons County,PO Box 970,Linton,ND,58552,970,(701)254-4138,43,Rural: Remote,†,†,Yes,No,176,17.5,10.1,27,12
380001700371,ND-15036-52883,3800017,ND-15036,9,12,LINTON HIGH SCHOOL,LINTON 36,Emmons County,PO Box 970,Linton,ND,58552,970,(701)254-4138,43,Rural: Remote,†,†,–,–,84,9,9.3,13,6
381143000373,ND-37019-52901,3811430,ND-37019,PK,4,LISBON ELEMENTARY SCHOOL,LISBON 19,Ransom County,PO Box 593,Lisbon,ND,58054,593,(701)683-4107,43,Rural: Remote,†,†,Yes,No,216,17.89,12.1,31,15
381143000374,ND-37019-52963,3811430,ND-37019,9,12,LISBON HIGH SCHOOL,LISBON 19,Ransom County,PO Box 593,Lisbon,ND,58054,593,(701)683-4106,43,Rural: Remote,†,†,–,–,187,18.29,10.2,17,6
381143000375,ND-37019-52931,3811430,ND-37019,5,8,LISBON MIDDLE SCHOOL,LISBON 19,Ransom County,PO Box 593,Lisbon,ND,58054,593,(701)683-4108,43,Rural: Remote,†,†,Yes,No,197,15.34,12.8,20,14
380005700376,ND-02046-52981,3800057,ND-02046,PK,5,LITCHVILLE-MARION ELEMENTARY SCHOOL,LITCHVILLE-MARION 46,Barnes County,304 6th Ave,Litchville,ND,58461,7145,(701)762-4234,43,Rural: Remote,†,†,Yes,Yes,96,8.86,10.8,24,14
380005700399,ND-02046-54833,3800057,ND-02046,6,12,LITCHVILLE-MARION HIGH SCHOOL,LITCHVILLE-MARION 46,LaMoure County,PO Box 159,Marion,ND,58466,159,(701)669-2261,43,Rural: Remote,†,†,–,–,33,7.5,4.4,20,5
381154000378,ND-30004-81231,3811540,ND-30004,PK,8,LITTLE HEART ELEMENTARY SCHOOL,LITTLE HEART 4,Morton County,2354 County Rd 136,Saint Anthony,ND,58566,9601,(701)445-7331,42,Rural: Distant,†,†,–,–,22,3,7.3,0,0
380678000202,ND-09001-53241,3806780,ND-09001,KG,5,LONGFELLOW ELEMENTARY SCHOOL,FARGO 1,Cass County,20 29th Ave NE,Fargo,ND,58102,1799,(701)446-5000,12,City: Midsize,†,†,–,–,351,25.45,13.8,18,9
381303000441,ND-51001-53261,3813030,ND-51001,PK,5,LONGFELLOW ELEMENTARY SCHOOL,MINOT 1,Ward County,600 16th St NW,Minot,ND,58703,1999,(701)857-4610,33,Town: Remote,†,†,Yes,Yes,438,28.63,15.3,112,32
380002100825,ND-47001-53301,3800021,ND-47001,KG,5,LOUIS L'AMOUR ELEMENTARY SCHOOL,JAMESTOWN 1,Stutsman County,PO Box 269,Jamestown,ND,58402,269,(701)251-2102,41,Rural: Fringe,†,†,–,–,102,10.33,9.9,29,10
381170000381,ND-03009-09021,3811700,ND-03009,PK,8,MADDOCK ELEMENTARY SCHOOL,MADDOCK 9,Benson County,PO Box 398,Maddock,ND,58348,398,(701)438-2531,43,Rural: Remote,†,†,Yes,No,102,11.06,9.2,26,19
381170000382,ND-03009-09023,3811700,ND-03009,9,12,MADDOCK HIGH SCHOOL,MADDOCK 9,Benson County,PO Box 398,Maddock,ND,58348,398,(701)438-2531,43,Rural: Remote,†,†,–,–,38,5.07,7.5,10,7
380678000203,ND-09001-54351,3806780,ND-09001,KG,5,MADISON ELEMENTARY SCHOOL,FARGO 1,Cass County,1040 N 29th St,Fargo,ND,58102,3157,(701)446-5100,12,City: Midsize,†,†,Yes,Yes,123,11.8,10.4,123,–
381303000442,ND-51001-57523,3813030,ND-51001,11,12,MAGIC CITY CAMPUS HIGH SCHOOL,MINOT 1,Ward County,1100 11th Ave SW,Minot,ND,58701,4299,(701)857-4500,33,Town: Remote,†,†,–,–,918,65.29,14.1,147,57
381182000387,ND-30001-54533,3811820,ND-30001,9,12,MANDAN HIGH SCHOOL,MANDAN 1,Morton County,905 8th Ave NW,Mandan,ND,58554,2400,(701)751-6501,23,Suburb: Small,†,†,–,–,1074,72,14.9,176,54
381182000388,ND-30001-54572,3811820,ND-30001,6,8,MANDAN MIDDLE SCHOOL,MANDAN 1,Morton County,2901 12th Ave NW,Mandan,ND,58554,1642,(701)751-6502,23,Suburb: Small,†,†,Yes,No,952,61,15.6,207,56
381185000747,ND-27036-54591,3811850,ND-27036,PK,8,MANDAREE ELEMENTARY SCHOOL,MANDAREE 36,†,PO Box 488,Mandaree,ND,58757,488,(701)759-3311,†,N,†,†,†,†,†,†,†,†,†
381185000006,ND-27036-54593,3811850,ND-27036,9,12,MANDAREE HIGH SCHOOL,MANDAREE 36,†,PO Box 488,Mandaree,ND,58757,488,(701)759-3311,†,N,†,†,†,†,†,†,†,†,†
381197000393,ND-08045-54661,3811970,ND-08045,KG,8,MANNING ELEMENTARY SCHOOL,MANNING 45,Burleigh County,10500 Hwy 1804 S,Bismarck,ND,58504,4117,(701)223-0082,42,Rural: Distant,†,†,–,–,11,2.28,4.8,0,0
381200000394,ND-18125-54731,3812000,ND-18125,PK,8,MANVEL ELEMENTARY SCHOOL,MANVEL 125,Grand Forks County,801 Oldham Ave,Manvel,ND,58256,4019,(701)696-2212,42,Rural: Distant,†,†,Yes,No,184,15.43,11.9,29,7
380609000179,ND-11040-54811,3806090,ND-11040,KG,8,MAPLE RIVER COLONY SCHOOL,ELLENDALE 40,Dickey County,PO Box 400,Ellendale,ND,58436,400,(701)349-3232,43,Rural: Remote,†,†,–,–,45,3,15,0,0
381202000889,ND-09004-11481,3812020,ND-09004,PK,6,MAPLE VALLEY ELEMENTARY SCHOOL,MAPLE VALLEY 4,Cass County,PO Box 168,Tower City,ND,58071,168,(701)749-2570,43,Rural: Remote,†,†,Yes,No,122,10.24,11.9,17,11
381202000395,ND-09004-11483,3812020,ND-09004,7,12,MAPLE VALLEY HIGH SCHOOL,MAPLE VALLEY 4,Cass County,PO Box 168,Tower City,ND,58071,168,(701)749-2570,43,Rural: Remote,†,†,–,–,87,11.97,7.3,12,8
381203000397,ND-09007-54791,3812030,ND-09007,PK,6,MAPLETON ELEMENTARY SCHOOL,MAPLETON 7,Cass County,PO Box 39,Mapleton,ND,58059,39,(701)282-3833,42,Rural: Distant,†,†,Yes,Yes,163,12.3,13.3,16,7
381212000400,ND-44012-54861,3812120,ND-44012,PK,8,MARMARTH ELEMENTARY SCHOOL,MARMARTH 12,Slope County,PO Box 70,Marmarth,ND,58643,70,(701)279-5521,43,Rural: Remote,†,†,–,–,15,2,7.5,0,0
380000500797,ND-30800-54583,3800005,ND-30800,9,12,MARMOT SCHOOL 9-12,MARMOT SCHOOLS,Morton County,701 16th Ave SW,Mandan,ND,58554,5800,(701)667-1400,41,Rural: Fringe,†,†,–,–,28,16,1.8,28,–
380000500837,ND-30800-54581,3800005,ND-30800,KG,8,MARMOT SCHOOL K-8,MARMOT SCHOOLS,Morton County,701 16th Ave SW,Mandan,ND,58554,5800,(701)667-1400,41,Rural: Fringe,†,†,–,–,2,18,0.1,†,†
381182000390,ND-30001-82861,3811820,ND-30001,PK,5,MARY STARK ELEMENTARY SCHOOL,MANDAN 1,Morton County,405 8th Ave SW,Mandan,ND,58554,4099,(701)751-6506,23,Suburb: Small,†,†,Yes,Yes,215,19.82,10.8,122,21
381235000401,ND-28050-55191,3812350,ND-28050,PK,6,MAX ELEMENTARY SCHOOL,MAX 50,McLean County,PO Box 297,Max,ND,58759,297,(701)679-2685,43,Rural: Remote,†,†,Yes,No,113,9.63,11.7,28,6
381235000402,ND-28050-55193,3812350,ND-28050,7,12,MAX HIGH SCHOOL,MAX 50,McLean County,PO Box 297,Max,ND,58759,297,(701)679-2685,43,Rural: Remote,†,†,–,–,86,7.49,11.5,22,5
380004100406,ND-49014-55263,3800041,ND-49014,9,12,MAY-PORT CG HIGH SCHOOL,MAY-PORT CG 14,Traill County,900 Main St W,Mayville,ND,58257,1000,(701)788-2281,43,Rural: Remote,†,†,–,–,154,15.51,9.9,26,10
380004100019,ND-49014-55262,3800041,ND-49014,6,8,MAY-PORT CG MIDDLE SCHOOL,MAY-PORT CG 14,Traill County,900 Main St W,Mayville,ND,58257,1000,(701)788-2281,43,Rural: Remote,†,†,Yes,No,115,10,11.5,19,8
381243000407,ND-42019-53201,3812430,ND-42019,PK,6,MCCLUSKY ELEMENTARY SCHOOL,MCCLUSKY 19,Sheridan County,PO Box 499,McClusky,ND,58463,499,(701)363-2647,43,Rural: Remote,†,†,Yes,No,55,13.93,3.9,26,–
381243000408,ND-42019-55323,3812430,ND-42019,7,12,MCCLUSKY HIGH SCHOOL,MCCLUSKY 19,Sheridan County,PO Box 499,McClusky,ND,58463,499,(701)363-2470,43,Rural: Remote,†,†,–,–,36,13.55,2.7,8,2
381303000443,ND-51001-56101,3813030,ND-51001,KG,5,MCKINLEY ELEMENTARY SCHOOL,MINOT 1,Ward County,5 5th Ave NE,Minot,ND,58703,2411,(701)857-4615,33,Town: Remote,†,†,Yes,No,105,9.4,11.2,39,7
380678000204,ND-09001-56251,3806780,ND-09001,KG,5,MCKINLEY ELEMENTARY SCHOOL,FARGO 1,Cass County,2930 8th St N,Fargo,ND,58102,1491,(701)446-5200,12,City: Midsize,†,†,Yes,Yes,181,18.6,9.7,83,15
381988000860,ND-53001-56291,3819880,ND-53001,KG,4,MCVAY ELEMENTARY SCHOOL,WILLISTON 1,Williams County,PO Box 1407,Williston,ND,58802,1407,(701)572-9104,33,Town: Remote,†,†,Yes,Yes,432,19,22.7,132,42
381266000418,ND-47003-56571,3812660,ND-47003,PK,6,MEDINA ELEMENTARY SCHOOL,MEDINA 3,Stutsman County,PO Box 547,Medina,ND,58467,547,(701)486-3121,43,Rural: Remote,†,†,Yes,No,107,11.9,9,30,21
381266000419,ND-47003-56573,3812660,ND-47003,7,12,MEDINA HIGH SCHOOL,MEDINA 3,Stutsman County,PO Box 547,Medina,ND,58467,547,(701)486-3121,43,Rural: Remote,†,†,Yes,No,59,7.5,7.9,17,11
381303000444,ND-51001-56602,3813030,ND-51001,6,8,MEMORIAL MIDDLE SCHOOL,MINOT 1,Ward County,1 Rocket Rd,Minot AFB,ND,58704,1423,(701)727-3300,33,Town: Remote,†,†,–,–,163,14.67,11.1,11,22
381272000420,ND-08033-56661,3812720,ND-08033,KG,8,MENOKEN ELEMENTARY SCHOOL,MENOKEN 33,Burleigh County,412 N Bismarck St,Menoken,ND,58558,4009,(701)673-3175,42,Rural: Distant,†,†,–,–,44,4,11,8,3
380004200042,ND-20007-09581,3800042,ND-20007,PK,6,MIDKOTA ELEMENTARY SCHOOL,MIDKOTA 7,Griggs County,PO Box 38,Binford,ND,58416,38,(701)676-2511,43,Rural: Remote,†,†,Yes,No,105,8,13.1,38,10
380004200239,ND-20007-31723,3800042,ND-20007,7,12,MIDKOTA HIGH SCHOOL,MIDKOTA 7,Foster County,PO Box 98,Glenfield,ND,58443,98,(701)785-2126,43,Rural: Remote,†,†,–,–,75,9.5,7.9,24,6
381292000424,ND-18128-57071,3812920,ND-18128,PK,8,MIDWAY ELEMENTARY SCHOOL,MIDWAY 128,Grand Forks County,3202 33rd Ave NE,Inkster,ND,58233,9318,(701)869-2432,42,Rural: Distant,†,†,Yes,Yes,113,15.33,7.4,38,7
381292000110,ND-18128-57073,3812920,ND-18128,9,12,MIDWAY HIGH SCHOOL,MIDWAY 128,Grand Forks County,3202 33rd Ave NE,Inkster,ND,58233,9318,(701)869-2432,42,Rural: Distant,†,†,Yes,Yes,59,7.66,7.7,20,3
381293000426,ND-41002-57191,3812930,ND-41002,PK,6,MILNOR ELEMENTARY SCHOOL,MILNOR 2,Sargent County,PO Box 369,Milnor,ND,58060,369,(701)427-5237,43,Rural: Remote,†,†,Yes,Yes,110,11,10,26,10
381293000427,ND-41002-57193,3812930,ND-41002,7,12,MILNOR HIGH SCHOOL,MILNOR 2,Sargent County,PO Box 369,Milnor,ND,58060,369,(701)427-5237,43,Rural: Remote,†,†,–,–,74,13.64,5.4,17,6
381299000430,ND-03005-57411,3812990,ND-03005,PK,8,MINNEWAUKAN ELEMENTARY SCHOOL,MINNEWAUKAN 5,Benson County,4675 Hwy 281 N,Minnewaukan,ND,58351,9576,(701)473-5306,43,Rural: Remote,†,†,Yes,Yes,199,20.37,9.8,199,–
381299000431,ND-03005-57413,3812990,ND-03005,9,12,MINNEWAUKAN HIGH SCHOOL,MINNEWAUKAN 5,Benson County,4675 Hwy 281 N,Minnewaukan,ND,58351,9576,(701)473-5306,43,Rural: Remote,†,†,Yes,Yes,68,5.57,12.2,68,–
380504000128,ND-36001-57431,3805040,ND-36001,PK,KG,MINNIE H KINDERGARTEN CENTER,DEVILS LAKE 1,Ramsey County,210 College Drive S,Devils Lake,ND,58301,3514,(701)662-7670,33,Town: Remote,†,†,Yes,Yes,182,13.46,13.5,69,9
381305000451,ND-50020-57591,3813050,ND-50020,PK,8,MINTO ELEMENTARY SCHOOL,MINTO 20,Walsh County,200 4th St,Minto,ND,58261,6127,(701)248-3479,42,Rural: Distant,†,†,Yes,No,225,15,15,102,20
381305000452,ND-50020-57593,3813050,ND-50020,9,12,MINTO HIGH SCHOOL,MINTO 20,Walsh County,200 4th St,Minto,ND,58261,6127,(701)248-3479,42,Rural: Distant,†,†,–,–,64,7,9.1,29,6
381376000892,ND-53008-57452,3813760,ND-53008,3,8,MISSOURI RIDGE MIDDLE SCHOOL,WILLIAMS COUNTY 8,Williams County,5640 140th Ave NW,Williston,ND,58801,9584,(701)875-2041,42,Rural: Distant,†,†,–,–,156,7.5,20.8,31,7
380005000453,ND-38001-57781,3800050,ND-38001,PK,6,MLS-MOHALL ELEMENTARY SCHOOL,MOHALL-LANSFORD-SHERWOOD 1,Renville County,PO Box 187,Mohall,ND,58761,187,(701)756-6660,43,Rural: Remote,†,†,Yes,No,181,17.06,10.6,24,18
380005000454,ND-38001-57783,3800050,ND-38001,7,12,MLS-MOHALL HIGH SCHOOL,MOHALL-LANSFORD-SHERWOOD 1,Renville County,PO Box 187,Mohall,ND,58761,187,(701)756-6660,43,Rural: Remote,†,†,Yes,No,157,14.02,11.2,21,16
381323000458,ND-47014-57941,3813230,ND-47014,PK,6,MONTPELIER ELEMENTARY SCHOOL,MONTPELIER 14,Stutsman County,214 7th Ave,Montpelier,ND,58472,4016,(701)489-3348,43,Rural: Remote,†,†,Yes,Yes,58,8.6,6.7,20,7
381323000459,ND-47014-57943,3813230,ND-47014,7,12,MONTPELIER HIGH SCHOOL,MONTPELIER 14,Stutsman County,214 7th Ave,Montpelier,ND,58472,4016,(701)489-3348,43,Rural: Remote,†,†,Yes,Yes,51,5.75,8.9,17,7
380004600460,ND-21001-58581,3800046,ND-21001,PK,6,MOTT-REGENT ELEMENTARY SCHOOL,MOTT-REGENT 1,Hettinger County,205 Dakota Ave,Mott,ND,58646,7226,(701)824-2795,43,Rural: Remote,†,†,Yes,Yes,117,11.05,10.6,20,17
380004600461,ND-21001-58583,3800046,ND-21001,7,12,MOTT-REGENT HIGH SCHOOL,MOTT-REGENT 1,Hettinger County,205 Dakota Ave,Mott,ND,58646,7226,(701)824-2795,43,Rural: Remote,†,†,–,–,96,15.5,6.2,17,14
381340000463,ND-40004-50551,3813400,ND-40004,PK,6,MT PLEASANT ELEMENTARY SCHOOL,MT PLEASANT 4,Rolette County,201 5th St NE,Rolla,ND,58367,7178,(701)477-3151,43,Rural: Remote,†,†,Yes,Yes,152,13.35,11.4,55,15
381340000464,ND-40004-50553,3813400,ND-40004,7,12,MT PLEASANT HIGH SCHOOL,MT PLEASANT 4,Rolette County,201 5th St NE,Rolla,ND,58367,7178,(701)477-3151,43,Rural: Remote,†,†,Yes,Yes,96,9.9,9.7,34,9
381344000466,ND-10019-58951,3813440,ND-10019,PK,8,MUNICH ELEMENTARY SCHOOL,MUNICH 19,Cavalier County,PO Box 39,Munich,ND,58352,39,(701)682-5321,43,Rural: Remote,†,†,–,–,68,11.21,6.1,9,4
381344000467,ND-10019-58953,3813440,ND-10019,9,12,MUNICH HIGH SCHOOL,MUNICH 19,Cavalier County,PO Box 39,Munich,ND,58352,39,(701)682-5321,43,Rural: Remote,†,†,–,–,28,5.43,5.2,3,2
381351000468,ND-24002-59771,3813510,ND-24002,PK,6,NAPOLEON ELEMENTARY SCHOOL,NAPOLEON 2,Logan County,PO Box 69,Napoleon,ND,58561,69,(701)754-2244,43,Rural: Remote,†,†,Yes,No,128,11.67,11,25,16
381351000469,ND-24002-59773,3813510,ND-24002,7,12,NAPOLEON HIGH SCHOOL,NAPOLEON 2,Logan County,PO Box 69,Napoleon,ND,58561,69,(701)754-2244,43,Rural: Remote,†,†,–,–,114,9.51,12,23,14
380813000259,ND-18001-59831,3808130,ND-18001,PK,5,NATHAN TWINING ELEMENTARY SCHOOL,GRAND FORKS 1,Grand Forks County,1422 N Louisiana St,Grand Forks AFB,ND,58204,1399,(701)787-5100,32,Town: Distant,†,†,–,–,206,21.58,9.5,17,31
380813000814,ND-18001-59832,3808130,ND-18001,6,8,NATHAN TWINING MIDDLE SCHOOL,GRAND FORKS 1,Grand Forks County,1422 N Louisiana St,Grand Forks AFB,ND,58204,1399,(701)787-5100,32,Town: Distant,†,†,–,–,79,22.92,3.4,7,12
380001500471,ND-08025-59851,3800015,ND-08025,PK,8,NAUGHTON ELEMENTARY SCHOOL,NAUGHTON 25,Burleigh County,9101 123rd Ave NE,Bismarck,ND,58503,6622,(701)391-0166,42,Rural: Distant,†,†,–,–,9,2,4.5,0,0
381366000474,ND-51004-60051,3813660,ND-51004,PK,3,NEDROSE ELEMENTARY SCHOOL,NEDROSE 4,Ward County,5705 15th Ave SE,Minot,ND,58701,8304,(701)838-5550,41,Rural: Fringe,†,†,Yes,No,209,20.64,10.1,86,20
381366000876,ND-51004-60061,3813660,ND-51004,4,8,NEDROSE ELEMENTARY SCHOOL 4-8,NEDROSE 4,Ward County,5705 15th Ave SE,Minot,ND,58701,8304,(701)838-5550,41,Rural: Fringe,†,†,–,–,225,16.46,13.7,67,12
381366000877,ND-51004-60063,3813660,ND-51004,9,12,NEDROSE HIGH SCHOOL,NEDROSE 4,Ward County,5705 15th Ave SE,Minot,ND,58701,8304,(701)838-5550,41,Rural: Fringe,†,†,–,–,158,10.72,14.7,47,8
380002700486,ND-21009-60261,3800027,ND-21009,PK,6,NEW ENGLAND ELEMENTARY SCHOOL,NEW ENGLAND 9,Hettinger County,PO Box 307,New England,ND,58647,307,(701)579-4160,43,Rural: Remote,†,†,Yes,No,181,9.32,19.4,53,31
380002700487,ND-21009-60263,3800027,ND-21009,7,12,NEW ENGLAND HIGH SCHOOL,NEW ENGLAND 9,Hettinger County,PO Box 307,New England,ND,58647,307,(701)579-4160,43,Rural: Remote,†,†,–,–,114,10.13,11.3,33,19
380005900490,ND-14002-59711,3800059,ND-14002,PK,6,NEW ROCKFORD-SHEYENNE ELEMENTARY SCHOOL,NEW ROCKFORD-SHEYENNE 2,Eddy County,437 1st Ave N,New Rockford,ND,58356,1771,(701)947-5036,43,Rural: Remote,†,†,Yes,Yes,195,15.44,12.6,34,15
380005900491,ND-14002-59713,3800059,ND-14002,7,12,NEW ROCKFORD-SHEYENNE HIGH SCHOOL,NEW ROCKFORD-SHEYENNE 2,Eddy County,437 1st Ave N,New Rockford,ND,58356,1771,(701)947-5036,43,Rural: Remote,†,†,–,–,135,15.7,8.6,24,10
380039200493,ND-30049-60333,3800392,ND-30049,7,12,NEW SALEM-ALMONT HIGH SCHOOL,NEW SALEM-ALMONT 49,Morton County,PO Box 378,New Salem,ND,58563,378,(701)843-7610,42,Rural: Distant,†,†,–,–,148,13.38,11.1,21,9
381392000015,ND-31001-60393,3813920,ND-31001,9,12,NEW TOWN HIGH SCHOOL,NEW TOWN 1,Mountrail County,PO Box 700,New Town,ND,58763,700,(701)627-3658,43,Rural: Remote,†,†,–,–,267,22.29,12,267,–
381392000496,ND-31001-60392,3813920,ND-31001,6,8,NEW TOWN MIDDLE SCHOOL,NEW TOWN 1,Mountrail County,PO Box 700,New Town,ND,58763,700,(701)627-3658,43,Rural: Remote,†,†,–,–,224,18.7,12,224,–
380082500113,ND-05054-60431,3800825,ND-05054,PK,6,NEWBURG-UNITED ELEMENTARY SCHOOL,NEWBURG-UNITED 54,Bottineau County,PO Box 427,Newburg,ND,58762,427,(701)272-6151,43,Rural: Remote,†,†,Yes,No,56,6.75,8.3,11,9
380082500834,ND-05054-60433,3800825,ND-05054,7,12,NEWBURG-UNITED HIGH SCHOOL,NEWBURG-UNITED 54,Bottineau County,PO Box 427,Newburg,ND,58762,427,(701)272-6151,43,Rural: Remote,†,†,–,–,33,6.47,5.1,7,6
380005400529,ND-34100-69821,3800054,ND-34100,PK,8,NORTH BORDER-PEMBINA ELEMENTARY SCHOOL,NORTH BORDER 100,Pembina County,155 S 3rd St,Pembina,ND,58271,4136,(701)825-6261,43,Rural: Remote,†,†,Yes,No,111,13,8.5,22,2
380005400530,ND-34100-69823,3800054,ND-34100,9,12,NORTH BORDER-PEMBINA HIGH SCHOOL,NORTH BORDER 100,Pembina County,155 S 3rd St,Pembina,ND,58271,4136,(701)825-6261,43,Rural: Remote,†,†,–,–,31,7,4.4,6,–
380005400669,ND-34100-91861,3800054,ND-34100,PK,8,NORTH BORDER-WALHALLA ELEMENTARY SCHOOL,NORTH BORDER 100,Pembina County,605 10th St,Walhalla,ND,58282,4033,(701)549-3751,43,Rural: Remote,†,†,Yes,No,115,13.5,8.5,32,13
380005400670,ND-34100-91863,3800054,ND-34100,9,12,NORTH BORDER-WALHALLA HIGH SCHOOL,NORTH BORDER 100,Pembina County,605 10th St,Walhalla,ND,58282,4033,(701)549-3751,43,Rural: Remote,†,†,–,–,76,9.5,8,21,9
380678000205,ND-09001-61253,3806780,ND-09001,9,12,NORTH HIGH SCHOOL,FARGO 1,Cass County,801 17th Ave N,Fargo,ND,58102,2299,(701)446-2400,12,City: Midsize,†,†,–,–,973,68.8,14.1,153,59
381303000446,ND-51001-57461,3813030,ND-51001,KG,5,NORTH PLAINS ELEMENTARY SCHOOL,MINOT 1,Ward County,101 C St,Minot AFB,ND,58704,1299,(701)727-3320,33,Town: Remote,†,†,–,–,276,16.87,16.4,23,31
381429000504,ND-41003-61301,3814290,ND-41003,PK,8,NORTH SARGENT ELEMENTARY SCHOOL,NORTH SARGENT 3,Sargent County,PO Box 289,Gwinner,ND,58040,289,(701)678-2492,43,Rural: Remote,†,†,Yes,No,146,17.4,8.4,34,7
381429000505,ND-41003-61303,3814290,ND-41003,9,12,NORTH SARGENT HIGH SCHOOL,NORTH SARGENT 3,Sargent County,PO Box 289,Gwinner,ND,58040,289,(701)678-2492,43,Rural: Remote,†,†,–,–,70,8.4,8.3,16,4
380005800537,ND-51161-71081,3800058,ND-51161,PK,6,NORTH SHORE PLAZA ELEMENTARY SCHOOL,LEWIS AND CLARK 161,Mountrail County,PO Box 38,Plaza,ND,58771,38,(701)497-3734,43,Rural: Remote,†,†,Yes,No,130,8.8,14.8,15,8
380005800507,ND-51161-71083,3800058,ND-51161,7,12,NORTH SHORE PLAZA HIGH SCHOOL,LEWIS AND CLARK 161,Mountrail County,PO Box 38,Plaza,ND,58771,38,(701)497-3734,43,Rural: Remote,†,†,–,–,57,9.6,5.9,6,3
380039000595,ND-48010-12771,3800390,ND-48010,PK,8,NORTH STAR ELEMENTARY SCHOOL,NORTH STAR 10,Towner County,PO Box 489,Cando,ND,58324,489,(701)968-4416,43,Rural: Remote,†,†,Yes,No,233,17.04,13.7,51,13
380039000596,ND-48010-12773,3800390,ND-48010,9,12,NORTH STAR HIGH SCHOOL,NORTH STAR 10,Towner County,PO Box 489,Cando,ND,58324,489,(701)968-4416,43,Rural: Remote,†,†,–,–,71,8.62,8.2,16,4
380004400119,ND-09097-61211,3800044,ND-09097,PK,5,NORTHERN CASS ELEMENTARY SCHOOL,NORTHERN CASS 97,Cass County,16021 18th St SE,Hunter,ND,58048,9730,(701)874-2322,42,Rural: Distant,†,†,Yes,No,308,20.85,14.8,22,20
380004400138,ND-09097-61213,3800044,ND-09097,9,12,NORTHERN CASS HIGH SCHOOL,NORTHERN CASS 97,Cass County,16021 18th St SE,Hunter,ND,58048,9730,(701)874-2322,42,Rural: Distant,†,†,–,–,176,14.05,12.5,12,12
380004400120,ND-09097-61212,3800044,ND-09097,6,8,NORTHERN CASS MIDDLE SCHOOL,NORTHERN CASS 97,Cass County,16021 18th St SE,Hunter,ND,58048,9730,(701)874-2322,42,Rural: Distant,†,†,Yes,No,149,11.11,13.4,11,10
380001400053,ND-08001-61321,3800014,ND-08001,KG,5,NORTHRIDGE ELEMENTARY SCHOOL,BISMARCK 1,Burleigh County,1727 N 3rd St,Bismarck,ND,58501,1702,(701)323-4210,13,City: Small,†,†,Yes,Yes,435,32.02,13.6,103,19
381434000508,ND-18129-61341,3814340,ND-18129,PK,6,NORTHWOOD ELEMENTARY SCHOOL,NORTHWOOD 129,Grand Forks County,420 Trojan Rd,Northwood,ND,58267,3001,(701)587-5221,42,Rural: Distant,†,†,Yes,Yes,188,14.79,12.7,40,13
381434000509,ND-18129-61343,3814340,ND-18129,7,12,NORTHWOOD HIGH SCHOOL,NORTHWOOD 129,Grand Forks County,420 Trojan Rd,Northwood,ND,58267,3001,(701)587-5221,42,Rural: Distant,†,†,–,–,129,11.37,11.3,27,9
381450000513,ND-11041-33081,3814500,ND-11041,PK,6,OAKES ELEMENTARY SCHOOL,OAKES 41,Dickey County,804 Main Ave,Oakes,ND,58474,1739,(701)742-3204,43,Rural: Remote,†,†,Yes,Yes,284,18.08,15.7,56,15
381450000514,ND-11041-62153,3814500,ND-11041,7,12,OAKES HIGH SCHOOL,OAKES 41,Dickey County,804 Main Ave,Oakes,ND,58474,1739,(701)742-3234,43,Rural: Remote,†,†,–,–,209,14.89,14,36,8
381452000515,ND-03016-62261,3814520,ND-03016,KG,8,OBERON ELEMENTARY SCHOOL,OBERON 16,Benson County,PO Box 2,Oberon,ND,58357,2,(701)798-2231,43,Rural: Remote,†,†,Yes,Yes,64,6,10.7,64,–
381941000841,ND-09006-80611,3819410,ND-09006,KG,5,OSGOOD ELEM SCHOOL,WEST FARGO 6,Cass County,5550 44th Ave S,Fargo,ND,58104,4349,(701)356-2190,12,City: Midsize,†,†,Yes,Yes,528,36.8,14.3,129,33
380003800895,ND-45001-71801,3800038,ND-45001,KG,5,P S BERG ELEMENTARY SCHOOL,DICKINSON 1,Stark County,444 4th St W,Dickinson,ND,58601,4951,(701)456-0010,33,Town: Remote,†,†,–,–,180,16,11.3,51,16
381473000521,ND-09080-68821,3814730,ND-09080,PK,6,PAGE ELEMENTARY SCHOOL,PAGE 80,Cass County,PO Box 26,Page,ND,58064,26,(701)668-2520,43,Rural: Remote,†,†,Yes,No,87,9.07,9.6,10,4
380040100145,ND-50008-92081,3800401,ND-50008,PK,6,PARK RIVER AREA ELEMENTARY SCHOOL,PARK RIVER AREA 8,Walsh County,704 5th St W,Park River,ND,58270,4215,(701)284-7164,43,Rural: Remote,†,†,Yes,Yes,327,26,12.6,63,28
380040100526,ND-50008-92083,3800401,ND-50008,7,12,PARK RIVER AREA HIGH SCHOOL,PARK RIVER AREA 8,Walsh County,704 5th St W,Park River,ND,58270,4215,(701)284-7164,43,Rural: Remote,†,†,–,–,117,10,11.7,22,10
381494000527,ND-31003-69231,3814940,ND-31003,PK,6,PARSHALL ELEMENTARY SCHOOL,PARSHALL 3,Mountrail County,PO Box 69,Parshall,ND,58770,69,(701)862-3417,43,Rural: Remote,†,†,Yes,No,172,18,9.6,82,32
381494000528,ND-31003-69253,3814940,ND-31003,7,12,PARSHALL HIGH SCHOOL,PARSHALL 3,Mountrail County,PO Box 158,Parshall,ND,58770,158,(701)862-3129,43,Rural: Remote,†,†,–,–,105,11,9.5,46,11
381303000447,ND-51001-69901,3813030,ND-51001,PK,5,PERKETT ELEMENTARY SCHOOL,MINOT 1,Ward County,2000 5th Ave SW,Minot,ND,58701,3599,(701)857-4680,33,Town: Remote,†,†,–,–,397,23.25,17.1,61,14
380004100405,ND-49014-71451,3800041,ND-49014,PK,5,PETER BOE JR ELEMENTARY SCHOOL,MAY-PORT CG 14,Traill County,20 2nd St NW,Mayville,ND,58257,1198,(701)788-2116,43,Rural: Remote,†,†,Yes,No,224,20.44,11,44,19
380813000251,ND-18001-08921,3808130,ND-18001,PK,5,PHOENIX ELEMENTARY SCHOOL,GRAND FORKS 1,Grand Forks County,351 4th Ave S,Grand Forks,ND,58201,4635,(701)746-2240,13,City: Small,†,†,Yes,Yes,215,21.98,9.8,92,14
381515000818,ND-47010-11441,3815150,ND-47010,PK,6,PINGREE-BUCHANAN ELEMENTARY SCHOOL,PINGREE-BUCHANAN 10,Stutsman County,PO Box 99,Buchanan,ND,58420,99,(701)252-4653,42,Rural: Distant,†,†,Yes,No,92,7.4,12.4,17,18
381515000534,ND-47010-70873,3815150,ND-47010,7,12,PINGREE-BUCHANAN HIGH SCHOOL,PINGREE-BUCHANAN 10,Stutsman County,111 Lincoln Ave,Pingree,ND,58476,7101,(701)252-5563,43,Rural: Remote,†,†,–,–,49,7.5,6.5,11,8
380001400054,ND-08001-70901,3800014,ND-08001,KG,5,PIONEER ELEMENTARY SCHOOL,BISMARCK 1,Burleigh County,1400 Braman Ave,Bismarck,ND,58501,2746,(701)323-4220,13,City: Small,†,†,Yes,Yes,278,18.49,15,100,24
380002400541,ND-07027-71581,3800024,ND-07027,PK,8,POWERS LAKE ELEMENTARY SCHOOL,POWERS LAKE 27,Burke County,PO Box 346,Powers Lake,ND,58773,346,(701)464-5432,43,Rural: Remote,†,†,Yes,No,153,12.9,11.9,16,6
380002400542,ND-07027-71583,3800024,ND-07027,9,12,POWERS LAKE HIGH SCHOOL,POWERS LAKE 27,Burke County,PO Box 346,Powers Lake,ND,58773,346,(701)464-5432,43,Rural: Remote,†,†,–,–,52,7.1,7.3,5,2
380284000816,ND-04001-71721,3802840,ND-04001,PK,8,PRAIRIE ELEMENTARY SCHOOL,BILLINGS CO 1,Billings County,PO Box 307,Medora,ND,58645,307,(701)575-4773,43,Rural: Remote,†,†,–,–,39,5.72,6.8,1,3
380003800869,ND-45001-71731,3800038,ND-45001,KG,5,PRAIRIE ROSE ELEMENTARY SCHOOL,DICKINSON 1,Stark County,2785 10th Ave W,Dickinson,ND,58601,3031,(701)456-0016,33,Town: Remote,†,†,Yes,No,440,32.65,13.5,100,26
380001400810,ND-08001-52761,3800014,ND-08001,KG,5,PRAIRIE ROSE ELEMENTARY SCHOOL,BISMARCK 1,Burleigh County,2200 Oahe Bend,Bismarck,ND,58504,3106,(701)323-4280,41,Rural: Fringe,†,†,–,–,146,8.9,16.4,14,3
380039200494,ND-30049-71761,3800392,ND-30049,KG,6,PRAIRIE VIEW ELEMENTARY SCHOOL,NEW SALEM-ALMONT 49,Morton County,PO Box 29,New Salem,ND,58563,29,(701)843-7823,42,Rural: Distant,†,†,Yes,Yes,194,17.5,11.1,34,14
380504000129,ND-36001-71781,3805040,ND-36001,1,4,PRAIRIE VIEW ELEMENTARY SCHOOL,DEVILS LAKE 1,Ramsey County,200 12th Ave NE,Devils Lake,ND,58301,3242,(701)662-7626,33,Town: Remote,†,†,Yes,Yes,272,20.66,13.2,109,21
381371000477,ND-53002-73521,3813710,ND-53002,PK,8,RAY ELEMENTARY SCHOOL,NESSON 2,Williams County,PO Box 564,Ray,ND,58849,564,(701)568-3301,43,Rural: Remote,†,†,Yes,No,271,16.38,16.5,35,8
381371000478,ND-53002-73523,3813710,ND-53002,9,12,RAY HIGH SCHOOL,NESSON 2,Williams County,PO Box 564,Ray,ND,58849,564,(701)568-3301,43,Rural: Remote,†,†,–,–,86,8.24,10.4,11,3
380813000261,ND-18001-73603,3808130,ND-18001,9,12,RED RIVER HIGH SCHOOL,GRAND FORKS 1,Grand Forks County,2211 17th Ave S,Grand Forks,ND,58201,5299,(701)746-2400,13,City: Small,†,†,–,–,1028,88.5,11.6,193,46
381182000870,ND-30001-73611,3811820,ND-30001,KG,5,RED TRAIL ELEMENTARY SCHOOL,MANDAN 1,Morton County,4801 37th Ave NW,Mandan,ND,58554,1186,(701)751-6508,23,Suburb: Small,†,†,–,–,366,21,17.4,60,9
380320000548,ND-06001-74211,3803200,ND-06001,KG,6,RHAME ELEMENTARY SCHOOL,BOWMAN CO 1,Bowman County,PO Box 250,Rhame,ND,58651,250,(701)279-5523,43,Rural: Remote,†,†,Yes,No,43,5.06,8.5,1,2
380004800893,ND-45034-74331,3800048,ND-45034,4,6,RICHARDTON-TAYLOR ELEMENTARY SCHOOL,RICHARDTON-TAYLOR 34,Stark County,320 Raider Rd,Richardton,ND,58652,7020,(701)974-2111,43,Rural: Remote,†,†,Yes,Yes,83,5.99,13.9,22,6
380004800551,ND-45034-74333,3800048,ND-45034,7,12,RICHARDTON-TAYLOR HIGH SCHOOL,RICHARDTON-TAYLOR 34,Stark County,320 Raider Rd,Richardton,ND,58652,7020,(701)974-2111,43,Rural: Remote,†,†,Yes,Yes,142,11.39,12.5,37,11
380003600552,ND-39044-20311,3800036,ND-39044,PK,6,RICHLAND ELEMENTARY SCHOOL,RICHLAND 44,Richland County,PO Box 139,Abercrombie,ND,58001,139,(701)553-8321,42,Rural: Distant,†,†,Yes,No,154,14.54,10.6,16,7
380003600553,ND-39044-61203,3800036,ND-39044,7,12,RICHLAND JUNIOR-SENIOR HIGH SCHOOL,RICHLAND 44,Richland County,PO Box 49,Colfax,ND,58018,49,(701)372-3713,42,Rural: Distant,†,†,–,–,108,14.19,7.6,24,4
381988000692,ND-53001-74451,3819880,ND-53001,KG,4,RICKARD ELEMENTARY SCHOOL,WILLISTON 1,Williams County,PO Box 1407,Williston,ND,58802,1407,(701)572-5412,33,Town: Remote,†,†,–,–,285,21.4,13.3,29,9
380001400056,ND-08001-74721,3800014,ND-08001,KG,5,RITA MURPHY ELEMENTARY SCHOOL,BISMARCK 1,Burleigh County,611 N 31st St,Bismarck,ND,58501,3299,(701)323-4190,13,City: Small,†,†,–,–,612,36.48,16.8,105,18
380001400727,ND-08001-61291,3800014,ND-08001,KG,5,ROBERT PLACE MILLER ELEMENTARY SCHOOL,BISMARCK 1,Burleigh County,1989 N 20th St,Bismarck,ND,58501,2396,(701)323-4170,13,City: Small,†,†,Yes,Yes,355,24.34,14.6,71,14
381605000558,ND-40029-75551,3816050,ND-40029,PK,8,ROLETTE ELEMENTARY SCHOOL,ROLETTE 29,Rolette County,PO Box 97,Rolette,ND,58366,97,(701)246-3595,43,Rural: Remote,†,†,Yes,Yes,117,13.84,8.5,56,12
381605000559,ND-40029-75553,3816050,ND-40029,9,12,ROLETTE HIGH SCHOOL,ROLETTE 29,Rolette County,PO Box 97,Rolette,ND,58366,97,(701)246-3595,43,Rural: Remote,†,†,Yes,Yes,45,7.61,5.9,21,5
381609000560,ND-19018-13061,3816090,ND-19018,PK,8,ROOSEVELT ELEMENTARY SCHOOL,ROOSEVELT 18,Grant County,PO Box 197,Carson,ND,58529,197,(701)622-3263,43,Rural: Remote,†,†,Yes,Yes,57,7.5,7.6,21,1
381303000448,ND-51001-75771,3813030,ND-51001,PK,5,ROOSEVELT ELEMENTARY SCHOOL,MINOT 1,Ward County,715 8th St NE,Minot,ND,58703,2699,(701)857-4685,33,Town: Remote,†,†,Yes,Yes,128,12.4,10.3,40,16
380001400058,ND-08001-75611,3800014,ND-08001,KG,5,ROOSEVELT ELEMENTARY SCHOOL,BISMARCK 1,Burleigh County,613 W Avenue B,Bismarck,ND,58501,3496,(701)323-4240,13,City: Small,†,†,Yes,Yes,116,7.99,14.5,32,10
380002100313,ND-47001-75711,3800021,ND-47001,KG,5,ROOSEVELT ELEMENTARY SCHOOL,JAMESTOWN 1,Stutsman County,PO Box 269,Jamestown,ND,58402,269,(701)252-1679,33,Town: Remote,†,†,Yes,Yes,229,21.13,10.8,94,29
380003800137,ND-45001-75741,3800038,ND-45001,KG,5,ROOSEVELT ELEMENTARY SCHOOL,DICKINSON 1,Stark County,444 4th St W,Dickinson,ND,58601,4951,(701)456-0015,33,Town: Remote,†,†,Yes,Yes,287,18,15.9,63,14
381182000391,ND-30001-75691,3811820,ND-30001,PK,5,ROOSEVELT ELEMENTARY SCHOOL,MANDAN 1,Morton County,305 10th Ave NW,Mandan,ND,58554,2598,(701)751-6507,23,Suburb: Small,†,†,Yes,Yes,287,18.56,15.5,55,22
381376000482,ND-53008-76001,3813760,ND-53008,KG,5,ROUND PRAIRIE ELEMENTARY SCHOOL,WILLIAMS COUNTY 8,Williams County,5098 151st Ave NW,Williston,ND,58801,9325,(701)875-4346,43,Rural: Remote,†,†,–,–,63,4.16,15.1,11,6
381613000562,ND-35005-76161,3816130,ND-35005,PK,6,RUGBY ELY ELEMENTARY SCHOOL,RUGBY 5,Pierce County,207 2nd St SW,Rugby,ND,58368,1703,(701)776-5757,33,Town: Remote,†,†,Yes,No,363,24.5,14.8,73,36
381613000563,ND-35005-76143,3816130,ND-35005,7,12,RUGBY HIGH SCHOOL,RUGBY 5,Pierce County,1123 S Main Ave,Rugby,ND,58368,2428,(701)776-5201,33,Town: Remote,†,†,–,–,258,24.3,10.6,35,27
381746000599,ND-40003-81521,3817460,ND-40003,PK,8,SAINT JOHN ELEMENTARY SCHOOL,ST JOHN 3,Rolette County,PO Box 200,Saint John,ND,58369,200,(701)477-5651,43,Rural: Remote,†,†,Yes,Yes,301,27.01,11.1,301,–
381746000600,ND-40003-81523,3817460,ND-40003,9,12,SAINT JOHN HIGH SCHOOL,ST JOHN 3,Rolette County,PO Box 200,Saint John,ND,58369,200,(701)477-5651,43,Rural: Remote,†,†,Yes,Yes,119,12.72,9.4,119,–
381752000602,ND-34043-82121,3817520,ND-34043,PK,6,SAINT THOMAS ELEMENTARY SCHOOL,ST THOMAS 43,Pembina County,PO Box 150,Saint Thomas,ND,58276,150,(701)257-6424,43,Rural: Remote,†,†,Yes,No,39,5.4,7.2,9,4
381752000603,ND-34043-82123,3817520,ND-34043,7,12,SAINT THOMAS HIGH SCHOOL,ST THOMAS 43,Pembina County,PO Box 150,Saint Thomas,ND,58276,150,(701)257-6424,43,Rural: Remote,†,†,–,–,15,6.08,2.5,3,1
381643000756,ND-41006-77091,3816430,ND-41006,PK,6,SARGENT CENTRAL ELEMENTARY SCHOOL,SARGENT CENTRAL 6,Sargent County,575 5th St SW,Forman,ND,58032,4212,(701)724-3205,43,Rural: Remote,†,†,Yes,Yes,92,13,7.1,12,7
381643000568,ND-41006-77093,3816430,ND-41006,7,12,SARGENT CENTRAL HIGH SCHOOL,SARGENT CENTRAL 6,Sargent County,575 5th St SW,Forman,ND,58032,4212,(701)724-3205,43,Rural: Remote,†,†,–,–,69,10,6.9,9,5
381647000569,ND-51016-77171,3816470,ND-51016,PK,8,SAWYER ELEMENTARY SCHOOL,SAWYER 16,Ward County,25 1st Ave SW,Sawyer,ND,58781,5000,(701)624-5167,42,Rural: Distant,†,†,Yes,No,44,8,5.5,16,3
380000400803,ND-18800-67151,3800004,ND-18800,†,†,SCHOOL FOR THE BLIND,ND VISION SERVICES,Grand Forks County,500 Stanford Rd,Grand Forks,ND,58203,2799,(701)795-2700,13,City: Small,†,†,†,†,–,0,†,0,0
380000600801,ND-36800-67101,3800006,ND-36800,PK,8,SCHOOL FOR THE DEAF PK-8,ND SCHOOL FOR THE DEAF,Ramsey County,1401 College Drive N,Devils Lake,ND,58301,1596,(701)665-4400,33,Town: Remote,†,†,–,–,13,7.01,1.9,13,–
380813000263,ND-18001-77712,3808130,ND-18001,6,8,SCHROEDER MIDDLE SCHOOL,GRAND FORKS 1,Grand Forks County,800 32nd Ave S,Grand Forks,ND,58201,8240,(701)746-2330,13,City: Small,†,†,–,–,480,44.38,10.8,78,14
380002300571,ND-06033-77851,3800023,ND-06033,PK,6,SCRANTON ELEMENTARY SCHOOL,SCRANTON 33,Bowman County,PO Box 126,Scranton,ND,58653,126,(701)275-8266,43,Rural: Remote,†,†,Yes,No,76,8.1,9.4,13,5
380002300572,ND-06033-77853,3800023,ND-06033,7,12,SCRANTON HIGH SCHOOL,SCRANTON 33,Bowman County,PO Box 126,Scranton,ND,58653,126,(701)275-8266,43,Rural: Remote,†,†,–,–,63,9.2,6.8,10,5
381651000573,ND-43008-78041,3816510,ND-43008,KG,6,SELFRIDGE ELEMENTARY SCHOOL,SELFRIDGE 8,Sioux County,PO Box 45,Selfridge,ND,58568,45,(701)422-3353,43,Rural: Remote,†,†,Yes,No,22,7.15,3.1,22,–
381651000574,ND-43008-78043,3816510,ND-43008,7,12,SELFRIDGE HIGH SCHOOL,SELFRIDGE 8,Sioux County,PO Box 45,Selfridge,ND,58568,45,(701)422-3353,43,Rural: Remote,†,†,Yes,No,37,9.87,3.7,37,–
380001400060,ND-08001-79002,3800014,ND-08001,6,8,SIMLE MIDDLE SCHOOL,BISMARCK 1,Burleigh County,1218 Simle Dr,Bismarck,ND,58501,2977,(701)323-4600,13,City: Small,†,†,–,–,1045,66.5,15.7,163,47
381698000587,ND-43003-80363,3816980,ND-43003,7,12,SOLEN HIGH SCHOOL,SOLEN 3,Sioux County,PO Box 128,Solen,ND,58570,128,(701)445-3331,43,Rural: Remote,†,†,Yes,Yes,87,8.5,10.2,87,–
381303000066,ND-51001-80473,3813030,ND-51001,9,12,SOURIS RIVER CAMPUS ALTERNATIVE HIGH SCHOOL,MINOT 1,Ward County,1510 University Ave W,Minot,ND,58703,1906,(701)857-4496,33,Town: Remote,†,†,–,–,72,11.77,6.1,0,0
380001400739,ND-08001-80503,3800014,ND-08001,9,12,SOUTH CENTRAL ALTERNATIVE HIGH SCHOOL,BISMARCK 1,Burleigh County,406 S Anderson St,Bismarck,ND,58504,5401,(701)323-4520,13,City: Small,†,†,–,–,101,7.3,13.8,101,–
381941000682,ND-09006-80541,3819410,ND-09006,KG,5,SOUTH ELEMENTARY SCHOOL,WEST FARGO 6,Cass County,117 6th Ave W,West Fargo,ND,58078,1796,(701)356-2100,22,Suburb: Midsize,†,†,Yes,Yes,413,33,12.5,128,18
381713000592,ND-45009-80601,3817130,ND-45009,PK,6,SOUTH HEART ELEMENTARY SCHOOL,SOUTH HEART 9,Stark County,PO Box 159,South Heart,ND,58655,159,(701)677-5671,42,Rural: Distant,†,†,Yes,No,233,18.62,12.5,38,11
381713000593,ND-45009-80603,3817130,ND-45009,7,12,SOUTH HEART HIGH SCHOOL,SOUTH HEART 9,Stark County,PO Box 159,South Heart,ND,58655,159,(701)677-5671,42,Rural: Distant,†,†,–,–,140,13.73,10.2,23,7
380678000208,ND-09001-27443,3806780,ND-09001,9,12,SOUTH HIGH SCHOOL,FARGO 1,Cass County,1840 15th Ave S,Fargo,ND,58103,3899,(701)446-2000,12,City: Midsize,†,†,–,–,964,80,12.1,256,57
380813000264,ND-18001-80622,3808130,ND-18001,6,8,SOUTH MIDDLE SCHOOL,GRAND FORKS 1,Grand Forks County,1999 47th Ave S,Grand Forks,ND,58201,3402,(701)746-2345,13,City: Small,†,†,–,–,567,51.5,11,164,43
381717000594,ND-51070-80681,3817170,ND-51070,PK,8,SOUTH PRAIRIE ELEMENTARY SCHOOL,SOUTH PRAIRIE 70,Ward County,100 177th Ave SW,Minot,ND,58701,9747,(701)722-3537,42,Rural: Distant,†,†,Yes,Yes,370,22.5,16.4,60,20
381717000875,ND-51070-80683,3817170,ND-51070,9,12,SOUTH PRAIRIE HIGH SCHOOL,SOUTH PRAIRIE 70,Ward County,100 177th Ave SW,Minot,ND,58701,9747,(701)722-3537,42,Rural: Distant,†,†,–,–,104,13,8,17,6
380003800156,ND-45001-18443,3800038,ND-45001,9,12,SOUTHWEST COMMUNITY HIGH SCHOOL,DICKINSON 1,Stark County,444 4th St W,Dickinson,ND,58601,4951,(701)456-0042,33,Town: Remote,†,†,–,–,26,3,8.7,0,0
380957000871,ND-49009-80781,3809570,ND-49009,KG,8,SPRUCE LANE COLONY SCHOOL,HILLSBORO 9,Traill County,15750 6th St SE,Blanchard,ND,58009,9314,(701)636-2191,43,Rural: Remote,†,†,–,–,8,1,8,0,0
380567000826,ND-27018-81061,3805670,ND-27018,KG,8,SQUAW GAP SCHOOL,EARL 18,Richland County,997 E Bennie Pier Ck Rd,Sidney,MT,59270,9035,(701)565-2230,41,Rural: Fringe,†,†,†,†,0,1,†,0,0
381757000604,ND-31002-82171,3817570,ND-31002,PK,6,STANLEY ELEMENTARY SCHOOL,STANLEY 2,Mountrail County,PO Box 10,Stanley,ND,58784,10,(701)628-2422,43,Rural: Remote,†,†,Yes,No,405,27.56,14.7,72,17
381757000605,ND-31002-82183,3817570,ND-31002,7,12,STANLEY HIGH SCHOOL,STANLEY 2,Mountrail County,PO Box 10,Stanley,ND,58784,10,(701)628-2342,43,Rural: Remote,†,†,–,–,311,22.97,13.5,51,13
381767000608,ND-36044-82301,3817670,ND-36044,PK,6,STARKWEATHER ELEMENTARY SCHOOL,STARKWEATHER 44,Ramsey County,PO Box 45,Starkweather,ND,58377,45,(701)292-4381,43,Rural: Remote,†,†,Yes,Yes,37,4.38,8.4,13,10
381767000609,ND-36044-82303,3817670,ND-36044,7,12,STARKWEATHER HIGH SCHOOL,STARKWEATHER 44,Ramsey County,PO Box 45,Starkweather,ND,58377,45,(701)292-4381,43,Rural: Remote,†,†,–,–,19,4.86,3.9,7,5
380038900611,ND-22001-82321,3800389,ND-22001,PK,6,STEELE-DAWSON ELEMENTARY SCHOOL,KIDDER COUNTY 1,Kidder County,PO Box 380,Steele,ND,58482,380,(701)475-2243,43,Rural: Remote,†,†,Yes,Yes,196,18,10.9,42,26
380038900612,ND-22001-82323,3800389,ND-22001,7,12,STEELE-DAWSON HIGH SCHOOL,KIDDER COUNTY 1,Kidder County,PO Box 380,Steele,ND,58482,380,(701)475-2243,43,Rural: Remote,†,†,–,–,155,15.35,10.1,33,21
381776000613,ND-08035-82361,3817760,ND-08035,PK,8,STERLING ELEMENTARY SCHOOL,STERLING 35,Burleigh County,PO Box 68,Sterling,ND,58572,68,(701)387-4413,42,Rural: Distant,†,†,Yes,No,19,4.6,4.1,4,7
380001600614,ND-15015-82481,3800016,ND-15015,PK,6,STRASBURG ELEMENTARY SCHOOL,STRASBURG 15,Emmons County,PO Box 308,Strasburg,ND,58573,308,(701)336-2667,43,Rural: Remote,†,†,Yes,No,56,8.63,6.5,20,6
380001600615,ND-15015-82483,3800016,ND-15015,7,12,STRASBURG HIGH SCHOOL,STRASBURG 15,Emmons County,PO Box 308,Strasburg,ND,58573,308,(701)336-2667,43,Rural: Remote,†,†,–,–,72,7.75,9.3,25,8
381293000733,ND-41002-77571,3812930,ND-41002,PK,6,SUNDALE COLONY ELEMENTARY SCHOOL,MILNOR 2,Ransom County,PO Box 369,Milnor,ND,58060,369,(701)427-5868,43,Rural: Remote,†,†,Yes,No,24,3.7,6.5,24,–
381293000896,ND-41002-77573,3812930,ND-41002,7,12,SUNDALE COLONY HIGH SCHOOL,MILNOR 2,Ransom County,PO Box 369,Milnor,ND,58060,369,(701)427-5868,43,Rural: Remote,†,†,–,–,16,2.3,7,16,–
381303000449,ND-51001-82641,3813030,ND-51001,KG,5,SUNNYSIDE ELEMENTARY SCHOOL,MINOT 1,Ward County,1000 5th Ave SE,Minot,ND,58701,4906,(701)857-4690,33,Town: Remote,†,†,Yes,Yes,266,20.2,13.2,131,34
380001400850,ND-08001-82631,3800014,ND-08001,KG,5,SUNRISE ELEMENTARY SCHOOL,BISMARCK 1,Burleigh County,3800 Nickerson Ave,Bismarck,ND,58503,5608,(701)323-4300,13,City: Small,†,†,–,–,629,38.76,16.2,61,11
381791000618,ND-51041-82661,3817910,ND-51041,PK,6,SURREY ELEMENTARY SCHOOL,SURREY 41,Ward County,PO Box 40,Surrey,ND,58785,40,(701)838-3282,41,Rural: Fringe,†,†,Yes,No,260,19,13.7,35,17
381791000619,ND-51041-82663,3817910,ND-51041,7,12,SURREY HIGH SCHOOL,SURREY 41,Ward County,PO Box 40,Surrey,ND,58785,40,(701)838-3282,41,Rural: Fringe,†,†,–,–,157,20.5,7.7,21,10
381794000620,ND-30017-82741,3817940,ND-30017,KG,8,SWEET BRIAR SCHOOL,SWEET BRIAR 17,Morton County,4060 County Rd 83,Mandan,ND,58554,8326,(701)663-7453,42,Rural: Distant,†,†,–,–,22,2,11,0,0
380504000130,ND-36001-82801,3805040,ND-36001,1,4,SWEETWATER ELEMENTARY SCHOOL,DEVILS LAKE 1,Ramsey County,1304 2nd Ave NE,Devils Lake,ND,58301,1821,(701)662-7630,33,Town: Remote,†,†,Yes,Yes,252,18,14,90,26
380038900624,ND-22001-83181,3800389,ND-22001,PK,6,TAPPEN ELEMENTARY SCHOOL,KIDDER COUNTY 1,Kidder County,PO Box 127,Tappen,ND,58487,127,(701)327-4256,43,Rural: Remote,†,†,Yes,Yes,34,5.34,6.4,12,3
380004800626,ND-45034-83351,3800048,ND-45034,PK,3,TAYLOR-RICHARDTON ELEMENTARY SCHOOL,RICHARDTON-TAYLOR 34,Stark County,PO Box 157,Taylor,ND,58656,157,(701)974-3585,43,Rural: Remote,†,†,Yes,Yes,130,10.62,12.2,19,8
380004700270,ND-25060-32531,3800047,ND-25060,KG,8,TGU-GRANVILLE ELEMENTARY SCHOOL,TGU 60,McHenry County,210 6th St SW,Granville,ND,58741,4103,(701)728-6641,43,Rural: Remote,†,†,Yes,Yes,80,12.72,6.3,20,5
380004700271,ND-25060-32533,3800047,ND-25060,9,12,TGU-GRANVILLE HIGH SCHOOL,TGU 60,McHenry County,210 6th St SW,Granville,ND,58741,4103,(701)728-6641,43,Rural: Remote,†,†,Yes,Yes,42,5.86,7.2,10,2
380004700498,ND-25060-60461,3800047,ND-25060,PK,8,TGU-TOWNER ELEMENTARY SCHOOL,TGU 60,McHenry County,PO Box 270,Towner,ND,58788,270,(701)537-5414,43,Rural: Remote,†,†,Yes,Yes,169,13.78,12.3,52,19
380004700499,ND-25060-60463,3800047,ND-25060,9,12,TGU-TOWNER HIGH SCHOOL,TGU 60,McHenry County,PO Box 270,Towner,ND,58788,270,(701)537-5414,43,Rural: Remote,†,†,Yes,Yes,47,5.85,8,14,5
381828000629,ND-18061-84161,3818280,ND-18061,KG,6,THOMPSON ELEMENTARY SCHOOL,THOMPSON 61,Grand Forks County,424 3rd St,Thompson,ND,58278,4213,(701)599-2765,42,Rural: Distant,†,†,Yes,No,314,21,15,16,8
381828000630,ND-18061-84163,3818280,ND-18061,7,12,THOMPSON HIGH SCHOOL,THOMPSON 61,Grand Forks County,424 3rd St,Thompson,ND,58278,4213,(701)599-2765,42,Rural: Distant,†,†,–,–,229,17.75,12.9,11,6
380253000856,ND-40007-84611,3802530,ND-40007,PK,PK,TINY TURTLES PRESCHOOL,BELCOURT 7,Rolette County,PO Box 440,Belcourt,ND,58316,440,(701)477-6471,43,Rural: Remote,†,†,–,–,32,2,16,32,–
380003900635,ND-53015-84633,3800039,ND-53015,7,12,TIOGA HIGH SCHOOL,TIOGA 15,Williams County,PO Box 279,Tioga,ND,58852,279,(701)664-3606,43,Rural: Remote,†,†,–,–,174,15.88,11,21,18
381850000640,ND-28072-85621,3818500,ND-28072,PK,6,TURTLE LAKE-MERCER ELEMENTARY SCHOOL,TURTLE LAKE-MERCER 72,McLean County,PO Box 160,Turtle Lake,ND,58575,160,(701)448-2365,43,Rural: Remote,†,†,Yes,Yes,113,9.21,12.3,13,9
381850000641,ND-28072-85623,3818500,ND-28072,7,12,TURTLE LAKE-MERCER HIGH SCHOOL,TURTLE LAKE-MERCER 72,McLean County,PO Box 160,Turtle Lake,ND,58575,160,(701)448-2365,43,Rural: Remote,†,†,Yes,Yes,73,10.94,6.7,8,5
380253000750,ND-40007-85651,3802530,ND-40007,PK,5,TURTLE MOUNTAIN COMMUNITY ELEMENTARY SCHOOL,BELCOURT 7,†,PO Box 440,Belcourt,ND,58316,440,(701)477-6471,†,N,†,†,†,†,†,†,†,†,†
380253000752,ND-40007-85673,3802530,ND-40007,9,12,TURTLE MOUNTAIN COMMUNITY HIGH SCHOOL,BELCOURT 7,†,PO Box 440,Belcourt,ND,58316,440,(701)477-6471,†,N,†,†,†,†,†,†,†,†,†
380253000751,ND-40007-85662,3802530,ND-40007,6,8,TURTLE MOUNTAIN COMMUNITY MIDDLE SCHOOL,BELCOURT 7,†,PO Box 440,Belcourt,ND,58316,440,(701)477-6471,†,N,†,†,†,†,†,†,†,†,†
381860000757,ND-13037-85821,3818600,ND-13037,KG,8,TWIN BUTTES ELEMENTARY SCHOOL,TWIN BUTTES 37,†,7997 7A St NW,Halliday,ND,58636,4004,(701)938-4396,†,N,†,†,†,†,†,†,†,†,†
381866000644,ND-28008-88061,3818660,ND-28008,PK,6,UNDERWOOD ELEMENTARY SCHOOL,UNDERWOOD 8,McLean County,PO Box 100,Underwood,ND,58576,100,(701)442-3201,43,Rural: Remote,†,†,Yes,No,142,12.08,11.8,20,6
381866000645,ND-28008-88063,3818660,ND-28008,7,12,UNDERWOOD HIGH SCHOOL,UNDERWOOD 8,McLean County,PO Box 100,Underwood,ND,58576,100,(701)442-3201,43,Rural: Remote,†,†,Yes,No,81,9.06,8.9,12,3
381885000655,ND-02002-89543,3818850,ND-02002,9,12,VALLEY CITY HIGH SCHOOL,VALLEY CITY 2,Barnes County,460 Central Ave N,Valley City,ND,58072,2997,(701)845-0483,33,Town: Remote,†,†,–,–,353,23.49,15,83,28
381885000656,ND-02002-89542,3818850,ND-02002,7,8,VALLEY CITY JUNIOR HIGH SCHOOL,VALLEY CITY 2,Barnes County,460 Central Ave N,Valley City,ND,58072,2997,(701)845-0483,33,Town: Remote,†,†,–,–,186,14.51,12.8,44,14
380813000265,ND-18001-89752,3808130,ND-18001,6,8,VALLEY MIDDLE SCHOOL,GRAND FORKS 1,Grand Forks County,2100 5th Ave N,Grand Forks,ND,58203,2983,(701)746-2360,13,City: Small,†,†,Yes,Yes,596,59,10.1,230,51
380039700652,ND-34118-16261,3800397,ND-34118,4,8,VALLEY-EDINBURG ELEMENTARY SCHOOL-CRYSTAL,VALLEY-EDINBURG 118,Pembina County,PO Box 129,Crystal,ND,58222,129,(701)657-2163,43,Rural: Remote,†,†,Yes,No,58,6.36,9.1,18,7
380039700852,ND-34118-37211,3800397,ND-34118,PK,3,VALLEY-EDINBURG ELEMENTARY SCHOOL-HOOPLE,VALLEY-EDINBURG 118,Walsh County,PO Box 150,Hoople,ND,58243,150,(701)894-6226,43,Rural: Remote,†,†,Yes,No,63,8.32,7.6,14,3
380039700168,ND-34118-21093,3800397,ND-34118,9,12,VALLEY-EDINBURG HIGH SCHOOL,VALLEY-EDINBURG 118,Walsh County,PO Box 6,Edinburg,ND,58227,6,(701)993-8312,43,Rural: Remote,†,†,–,–,69,6.98,9.9,14,3
381704000590,ND-25001-90031,3817040,ND-25001,PK,6,VELVA ELEMENTARY SCHOOL,VELVA 1,McHenry County,PO Box 179,Velva,ND,58790,179,(701)338-2022,43,Rural: Remote,†,†,Yes,No,265,21.39,12.4,46,11
381704000591,ND-25001-90033,3817040,ND-25001,7,12,VELVA HIGH SCHOOL,VELVA 1,McHenry County,PO Box 179,Velva,ND,58790,179,(701)338-2022,43,Rural: Remote,†,†,–,–,209,15.67,13.3,36,8
380001400811,ND-08001-80381,3800014,ND-08001,KG,5,VICTOR SOLHEIM ELEMENTARY SCHOOL,BISMARCK 1,Burleigh County,325 Munich Dr,Bismarck,ND,58504,7034,(701)323-4260,13,City: Small,†,†,–,–,546,34.78,15.7,79,24
380813000266,ND-18001-90341,3808130,ND-18001,PK,5,VIKING ELEMENTARY SCHOOL,GRAND FORKS 1,Grand Forks County,809 22nd Ave S,Grand Forks,ND,58201,6978,(701)746-2300,13,City: Small,†,†,Yes,Yes,333,24.8,13.4,116,17
380001400061,ND-08001-91632,3800014,ND-08001,6,8,WACHTER MIDDLE SCHOOL,BISMARCK 1,Burleigh County,1107 S 7th St,Bismarck,ND,58504,6598,(701)323-4650,13,City: Small,†,†,–,–,941,60.4,15.6,260,65
381902000660,ND-39037-13621,3819020,ND-39037,1,5,WAHPETON ELEMENTARY SCHOOL,WAHPETON 37,Richland County,PO Box 10,Wahpeton,ND,58074,10,(701)642-8328,32,Town: Distant,†,†,Yes,Yes,433,27,16,166,46
381902000666,ND-39037-91703,3819020,ND-39037,9,12,WAHPETON HIGH SCHOOL,WAHPETON 37,Richland County,PO Box 10,Wahpeton,ND,58074,10,(701)642-2604,32,Town: Distant,†,†,–,–,362,23.77,15.2,71,32
381902000749,ND-39037-13632,3819020,ND-39037,6,8,WAHPETON MIDDLE SCHOOL,WAHPETON 37,Richland County,PO Box 10,Wahpeton,ND,58074,10,(701)642-6687,32,Town: Distant,†,†,–,–,312,21.72,14.4,90,25
381926000671,ND-03029-92191,3819260,ND-03029,PK,4,WARWICK ELEMENTARY SCHOOL,WARWICK 29,Benson County,210 4th Ave,Warwick,ND,58381,8118,(701)294-2561,43,Rural: Remote,†,†,Yes,Yes,88,9.21,9.6,88,–
381926000672,ND-03029-92193,3819260,ND-03029,9,12,WARWICK HIGH SCHOOL,WARWICK 29,Benson County,210 4th Ave,Warwick,ND,58381,8118,(701)294-2561,43,Rural: Remote,†,†,Yes,Yes,70,5.68,12.3,70,–
381926000890,ND-03029-92192,3819260,ND-03029,5,8,WARWICK MIDDLE SCHOOL,WARWICK 29,Benson County,210 4th Ave,Warwick,ND,58381,8118,(701)294-2561,43,Rural: Remote,†,†,Yes,Yes,73,9.09,8,73,–
381929000673,ND-28004-92391,3819290,ND-28004,PK,6,WASHBURN ELEMENTARY SCHOOL,WASHBURN 4,McLean County,PO Box 280,Washburn,ND,58577,280,(701)462-3221,43,Rural: Remote,†,†,Yes,No,174,15.5,11.2,17,18
381929000674,ND-28004-92393,3819290,ND-28004,7,12,WASHBURN HIGH SCHOOL,WASHBURN 4,McLean County,PO Box 280,Washburn,ND,58577,280,(701)462-3221,43,Rural: Remote,†,†,–,–,136,12.3,11.1,13,14
381885000657,ND-02002-92411,3818850,ND-02002,4,6,WASHINGTON ELEMENTARY SCHOOL,VALLEY CITY 2,Barnes County,460 Central Ave N,Valley City,ND,58072,2997,(701)845-0849,33,Town: Remote,†,†,Yes,Yes,234,15.4,15.2,70,21
381303000450,ND-51001-92491,3813030,ND-51001,KG,5,WASHINGTON ELEMENTARY SCHOOL,MINOT 1,Ward County,600 17th Ave SE,Minot,ND,58701,6756,(701)857-4695,33,Town: Remote,†,†,Yes,Yes,361,24.83,14.5,182,23
380002100314,ND-47001-92471,3800021,ND-47001,KG,5,WASHINGTON ELEMENTARY SCHOOL,JAMESTOWN 1,Stutsman County,PO Box 269,Jamestown,ND,58402,269,(701)252-0468,33,Town: Remote,†,†,Yes,Yes,106,9.1,11.6,49,8
380678000210,ND-09001-92431,3806780,ND-09001,KG,5,WASHINGTON ELEMENTARY SCHOOL,FARGO 1,Cass County,1725 N Broadway,Fargo,ND,58102,2238,(701)446-5400,12,City: Midsize,†,†,–,–,355,26.5,13.4,62,22
381254000414,ND-27001-56071,3812540,ND-27001,PK,5,WATFORD CITY ELEMENTARY SCHOOL,MCKENZIE CO 1,McKenzie County,PO Box 589,Watford City,ND,58854,589,(701)444-2985,43,Rural: Remote,†,†,Yes,Yes,995,66.5,15,156,14
381254000415,ND-27001-56063,3812540,ND-27001,9,12,WATFORD CITY HIGH SCHOOL,MCKENZIE CO 1,McKenzie County,PO Box 589,Watford City,ND,58854,589,(701)444-3624,43,Rural: Remote,†,†,–,–,439,29.92,14.7,49,10
381254000886,ND-27001-56092,3812540,ND-27001,6,8,WATFORD CITY MIDDLE SCHOOL,MCKENZIE CO 1,McKenzie County,PO Box 589,Watford City,ND,58854,589,(701)444-3624,43,Rural: Remote,†,†,Yes,Yes,398,23.21,17.1,53,7
380813000267,ND-18001-93131,3808130,ND-18001,PK,5,WEST ELEMENTARY SCHOOL,GRAND FORKS 1,Grand Forks County,615 N 25th St,Grand Forks,ND,58203,2942,(701)746-2310,13,City: Small,†,†,Yes,Yes,120,14.5,8.3,34,12
381941000683,ND-09006-93153,3819410,ND-09006,9,12,WEST FARGO HIGH SCHOOL,WEST FARGO 6,Cass County,801 9th St E,West Fargo,ND,58078,3100,(701)356-2050,22,Suburb: Midsize,†,†,–,–,1487,109.5,13.6,421,89
381941000838,ND-09006-78653,3819410,ND-09006,9,12,WEST FARGO SHEYENNE HIGH SCHOOL,WEST FARGO 6,Cass County,800 40th Ave E,West Fargo,ND,58078,7926,(701)356-2160,22,Suburb: Midsize,†,†,–,–,1393,98.46,14.1,192,57
381947000685,ND-05017-93251,3819470,ND-05017,PK,6,WESTHOPE ELEMENTARY SCHOOL,WESTHOPE 17,Bottineau County,PO Box 406,Westhope,ND,58793,406,(701)245-6444,43,Rural: Remote,†,†,Yes,No,93,9.93,9.4,21,10
381947000686,ND-05017-93253,3819470,ND-05017,7,12,WESTHOPE HIGH SCHOOL,WESTHOPE 17,Bottineau County,PO Box 406,Westhope,ND,58793,406,(701)245-6444,43,Rural: Remote,†,†,Yes,No,47,10.16,4.6,11,5
381941000684,ND-09006-93501,3819410,ND-09006,KG,5,WESTSIDE ELEMENTARY SCHOOL,WEST FARGO 6,Cass County,945 7th Ave W,West Fargo,ND,58078,1499,(701)356-2110,22,Suburb: Midsize,†,†,–,–,478,32.4,14.8,63,32
381202000851,ND-09004-93601,3812020,ND-09004,KG,8,WHEATLAND COLONY SCHOOL,MAPLE VALLEY 4,Cass County,3361 134th Ave SE,Tower City,ND,58071,9703,(701)749-5310,43,Rural: Remote,†,†,–,–,5,1,5,†,†
381968000807,ND-28085-93631,3819680,ND-28085,PK,8,WHITE SHIELD ELEMENTARY SCHOOL,WHITE SHIELD 85,†,2 2nd Ave W,Roseglen,ND,58775,6009,(701)743-4350,†,N,†,†,†,†,†,†,†,†,†
381968000808,ND-28085-93633,3819680,ND-28085,9,12,WHITE SHIELD HIGH SCHOOL,WHITE SHIELD 85,†,2 2nd Ave W,Roseglen,ND,58775,6009,(701)743-4350,†,N,†,†,†,†,†,†,†,†,†
380813000268,ND-18001-94061,3808130,ND-18001,PK,5,WILDER ELEMENTARY SCHOOL,GRAND FORKS 1,Grand Forks County,1009 N 3rd St,Grand Forks,ND,58203,2409,(701)746-2320,13,City: Small,†,†,Yes,Yes,170,15.6,10.9,59,16
381988000694,ND-53001-94121,3819880,ND-53001,KG,4,WILKINSON ELEMENTARY SCHOOL,WILLISTON 1,Williams County,PO Box 1407,Williston,ND,58802,1407,(701)572-6532,33,Town: Remote,†,†,Yes,Yes,281,18,15.6,57,19
380001400062,ND-08001-94141,3800014,ND-08001,KG,5,WILL-MOORE ELEMENTARY SCHOOL,BISMARCK 1,Burleigh County,400 E Avenue E,Bismarck,ND,58501,3956,(701)323-4270,13,City: Small,†,†,Yes,Yes,218,18,12.1,76,18
380002100315,ND-47001-46041,3800021,ND-47001,PK,5,WILLIAM S GUSSNER ELEMENTARY SCHOOL,JAMESTOWN 1,Stutsman County,PO Box 269,Jamestown,ND,58402,269,(701)252-3846,33,Town: Remote,†,†,–,–,252,19,13.3,35,17
381988000695,ND-53001-94163,3819880,ND-53001,9,12,WILLISTON HIGH SCHOOL,WILLISTON 1,Williams County,PO Box 1407,Williston,ND,58802,1407,(701)572-0967,41,Rural: Fringe,†,†,–,–,1262,95,13.3,169,64
381988000696,ND-53001-94182,3819880,ND-53001,7,8,WILLISTON MIDDLE SCHOOL,WILLISTON 1,Williams County,PO Box 1407,Williston,ND,58802,1407,(701)572-5618,33,Town: Remote,†,†,–,–,587,41.75,14.1,92,44
380585000729,ND-23003-21061,3805850,ND-23003,KG,8,WILLOW BANK COLONY SCHOOL,EDGELEY 3,LaMoure County,PO Box 37,Edgeley,ND,58433,37,(701)493-2060,43,Rural: Remote,†,†,Yes,No,28,2,14,28,–
381941000888,ND-09006-94201,3819410,ND-09006,KG,5,WILLOW PARK ELEMENTARY SCHOOL,WEST FARGO 6,Cass County,4901 15th Ave S,Fargo,ND,58103,8993,(701)356-8360,12,City: Midsize,†,†,Yes,Yes,447,49,9.1,261,43
381320000456,ND-28001-94511,3813200,ND-28001,PK,6,WILTON ELEMENTARY SCHOOL,WILTON 1,McLean County,PO Box 249,Wilton,ND,58579,249,(701)734-6331,42,Rural: Distant,†,†,Yes,No,150,11.43,13.1,19,5
381320000457,ND-28001-94513,3813200,ND-28001,7,12,WILTON HIGH SCHOOL,WILTON 1,McLean County,PO Box 249,Wilton,ND,58579,249,(701)734-6331,42,Rural: Distant,†,†,–,–,91,10.57,8.6,12,3
382013000704,ND-08028-94701,3820130,ND-08028,PK,8,WING ELEMENTARY SCHOOL,WING 28,Burleigh County,PO Box 130,Wing,ND,58494,130,(701)943-2319,43,Rural: Remote,†,†,Yes,Yes,52,11.32,4.6,10,5
382013000705,ND-08028-94703,3820130,ND-08028,9,12,WING HIGH SCHOOL,WING 28,Burleigh County,PO Box 130,Wing,ND,58494,130,(701)943-2319,43,Rural: Remote,†,†,–,–,32,4.53,7.1,6,3
380813000269,ND-18001-94751,3808130,ND-18001,PK,5,WINSHIP ELEMENTARY SCHOOL,GRAND FORKS 1,Grand Forks County,1412 5th Ave N,Grand Forks,ND,58203,3155,(701)746-2325,13,City: Small,†,†,Yes,Yes,209,20.75,10.1,133,18
382019000706,ND-26019-94771,3820190,ND-26019,PK,6,WISHEK ELEMENTARY SCHOOL,WISHEK 19,McIntosh County,PO Box 247,Wishek,ND,58495,247,(701)452-2892,43,Rural: Remote,†,†,Yes,No,141,9.18,15.4,40,18
382019000707,ND-26019-94773,3820190,ND-26019,7,12,WISHEK HIGH SCHOOL,WISHEK 19,McIntosh County,PO Box 247,Wishek,ND,58495,247,(701)452-2892,43,Rural: Remote,†,†,Yes,No,79,5.65,14,22,10
380678000211,ND-09001-95163,3806780,ND-09001,9,12,WOODROW WILSON ALTERNATIVE HIGH SCHOOL,FARGO 1,Cass County,1305 9th Ave S,Fargo,ND,58103,2501,(701)446-2800,12,City: Midsize,†,†,–,–,152,9.3,16.3,46,10
382031000712,ND-39042-96271,3820310,ND-39042,PK,6,WYNDMERE ELEMENTARY SCHOOL,WYNDMERE 42,Richland County,PO Box 190,Wyndmere,ND,58081,190,(701)439-2287,43,Rural: Remote,†,†,Yes,No,147,11.65,12.6,14,10
382031000713,ND-39042-96273,3820310,ND-39042,7,12,WYNDMERE HIGH SCHOOL,WYNDMERE 42,Richland County,PO Box 190,Wyndmere,ND,58081,190,(701)439-2287,43,Rural: Remote,†,†,–,–,105,10.29,10.2,10,7
382040000717,ND-26004-98491,3820400,ND-26004,PK,6,ZEELAND ELEMENTARY SCHOOL,ZEELAND 4,McIntosh County,PO Box 2,Zeeland,ND,58581,2,(701)423-5429,43,Rural: Remote,†,†,Yes,Yes,13,5.05,2.6,9,–
382040000718,ND-26004-98493,3820400,ND-26004,7,12,ZEELAND HIGH SCHOOL,ZEELAND 4,McIntosh County,PO Box 2,Zeeland,ND,58581,2,(701)423-5429,43,Rural: Remote,†,†,–,–,18,4.34,4.1,12,1
381902000668,ND-39037-98871,3819020,ND-39037,PK,KG,ZIMMERMAN ELEMENTARY SCHOOL,WAHPETON 37,Richland County,PO Box 10,Wahpeton,ND,58074,10,(701)642-3050,32,Town: Distant,†,†,Yes,Yes,106,8.16,13,42,16
