NCES School ID,State School ID,NCES District ID,State District ID,Low Grade*,High Grade*,School Name,District,County Name*,Street Address,City,State,ZIP,ZIP 4-digit,Phone,Locale Code*,Locale*,Charter,Magnet*,Title I School*,Title 1 School Wide*,Students*,Teachers*,Student Teacher Ratio*,Free Lunch*,Reduced Lunch*
110007200473,DC-155-217,1100072,DC-155,PK,3,Achievement Preparatory Academy PCS - Wahler Place ES,Achievement Preparatory Academy PCS,District of Columbia,908 Wahler Pl SE,Washington,DC,20032,,(202)562-1307,11,City: Large,Yes,†,–,–,375,39,9.6,–,–
110007200405,DC-155-1100,1100072,DC-155,4,8,Achievement Preparatory Academy PCS - Wahler Place MS,Achievement Preparatory Academy PCS,District of Columbia,908 Wahler Pl SE,Washington,DC,20032,,(202)562-1214,11,City: Large,Yes,†,–,–,450,34.5,13,–,–
110003000122,DC-001-202,1100030,DC-001,PK,5,Aiton ES,District of Columbia Public Schools,District of Columbia,533 48th Pl NE,Washington,DC,20019,,(202)671-6060,11,City: Large,No,†,–,–,244,20,12.2,–,–
110003000121,DC-001-203,1100030,DC-001,PK,5,Amidon-Bowen ES,District of Columbia Public Schools,District of Columbia,401 I St SW,Washington,DC,20024,,(202)724-4867,11,City: Large,No,†,–,–,339,31,10.9,–,–
110003000085,DC-001-450,1100030,DC-001,9,12,Anacostia HS,District of Columbia Public Schools,District of Columbia,1601 16th St SE,Washington,DC,20020,,(202)698-2155,11,City: Large,No,†,–,–,296,44,6.7,–,–
110005400304,DC-103-140,1100054,DC-103,PK,PK,AppleTree Early Learning Center PCS - Columbia Heights,AppleTree Early Learning PCS,District of Columbia,2750 14th St NW,Washington,DC,20009,,(202)667-9490,11,City: Large,Yes,†,–,–,154,16,9.6,–,–
110005400447,DC-103-3072,1100054,DC-103,PK,PK,AppleTree Early Learning Center PCS - Douglas Knoll,AppleTree Early Learning PCS,District of Columbia,2017 Savannah Terrace SE,Washington,DC,20020,,(202)629-2545,11,City: Large,Yes,†,–,–,90,6,15,–,–
110005400448,DC-103-3073,1100054,DC-103,PK,PK,AppleTree Early Learning Center PCS - Lincoln Park,AppleTree Early Learning PCS,District of Columbia,138 12th St NE,Washington,DC,20002,,(202)621-6581,11,City: Large,Yes,†,–,–,60,5,12,–,–
110005400435,DC-103-1137,1100054,DC-103,PK,PK,AppleTree Early Learning Center PCS - Oklahoma Avenue,AppleTree Early Learning PCS,District of Columbia,330 21st St NE,Washington,DC,20002,,(202)629-2179,11,City: Large,Yes,†,–,–,151,16,9.4,–,–
110005400517,DC-103-1069,1100054,DC-103,PK,PK,AppleTree Early Learning Center PCS - Parklands at THEARC,AppleTree Early Learning PCS,District of Columbia,1801 Mississippi Avenue SE,Washington,DC,20032,,(202)506-1890,11,City: Large,Yes,†,–,–,92,7,13.1,–,–
110003000084,DC-001-452,1100030,DC-001,9,12,Ballou HS,District of Columbia Public Schools,District of Columbia,3401 4th St SE,Washington,DC,20032,,(202)645-3400,11,City: Large,No,†,–,–,650,69,9.4,–,–
110003000207,DC-001-462,1100030,DC-001,9,12,Ballou STAY HS,District of Columbia Public Schools,District of Columbia,3401 4th St SE,Washington,DC,20032,,(202)645-3390,11,City: Large,No,†,–,–,322,22.48,14.3,–,–
110003000120,DC-001-204,1100030,DC-001,PK,5,Bancroft ES,District of Columbia Public Schools,District of Columbia,1755 Newton St NW,Washington,DC,20010,,(202)673-7280,11,City: Large,No,†,–,–,567,51,11.1,–,–
110003000529,DC-001-1058,1100030,DC-001,9,11,Bard HS Early College DC,District of Columbia Public Schools,†,4430 H St SE,Washington,DC,20019,,(202)898-4664,†,N,No,†,†,†,†,†,†,†,†
110003000119,DC-001-205,1100030,DC-001,PK,5,Barnard ES,District of Columbia Public Schools,District of Columbia,430 Decatur St NW,Washington,DC,20011,,(202)576-1100,11,City: Large,No,†,–,–,620,61,10.2,–,–
110008300443,DC-168-3068,1100083,DC-168,5,12,BASIS DC PCS,Basis DC PCS,District of Columbia,410 8th St NW,Washington,DC,20004,,(202)393-5437,11,City: Large,Yes,†,–,–,637,46.76,13.6,–,–
110003000118,DC-001-206,1100030,DC-001,PK,5,Beers ES,District of Columbia Public Schools,District of Columbia,3600 Alabama Ave SE,Washington,DC,20020,,(202)939-4800,11,City: Large,No,†,–,–,489,38,12.9,–,–
110003000153,DC-001-402,1100030,DC-001,9,12,Benjamin Banneker HS,District of Columbia Public Schools,District of Columbia,800 Euclid St NW,Washington,DC,20001,,(202)671-6320,11,City: Large,No,†,–,–,482,30,16.1,–,–
110010400507,DC-189-289,1100104,DC-189,PK,2,Breakthrough Montessori PCS,Breakthrough Montessori PCS,District of Columbia,1244 Taylor St NW,Washington,DC,20011,,(202)407-7021,11,City: Large,Yes,†,–,–,183,8,22.9,–,–
110003000113,DC-001-212,1100030,DC-001,PK,5,Brent ES,District of Columbia Public Schools,District of Columbia,301 North Carolina Ave SE,Washington,DC,20003,,(202)698-3363,11,City: Large,No,†,–,–,432,33.5,12.9,–,–
110005500305,DC-107-142,1100055,DC-107,PK,5,Bridges PCS,Bridges PCS,District of Columbia,100 Gallatin St NE,Washington,DC,20011,,(202)545-0515,11,City: Large,Yes,†,–,–,412,40.5,10.2,–,–
110003000112,DC-001-213,1100030,DC-001,PK,8,Brightwood Education Campus,District of Columbia Public Schools,District of Columbia,1300 Nicholson St NW,Washington,DC,20011,,(202)722-5670,11,City: Large,No,†,–,–,757,74,10.2,–,–
110003000494,DC-001-347,1100030,DC-001,6,8,Brookland MS,District of Columbia Public Schools,District of Columbia,1150 Michigan Ave NE,Washington,DC,20017,,(202)759-1999,11,City: Large,No,†,–,–,270,22,12.3,–,–
110003000152,DC-001-404,1100030,DC-001,PK,8,Browne Education Campus,District of Columbia Public Schools,District of Columbia,850 26th St NE,Washington,DC,20002,,(202)671-6210,11,City: Large,No,†,–,–,371,32,11.6,–,–
110003000110,DC-001-296,1100030,DC-001,PK,5,Bruce-Monroe ES at Park View,District of Columbia Public Schools,District of Columbia,3560 Warder St NW,Washington,DC,20010,,(202)576-6222,11,City: Large,No,†,–,–,451,43,10.5,–,–
110003000111,DC-001-346,1100030,DC-001,PK,5,Bunker Hill ES,District of Columbia Public Schools,District of Columbia,1401 Michigan Ave NE,Washington,DC,20017,,(202)576-6095,11,City: Large,No,†,–,–,221,22,10,–,–
110003000107,DC-001-220,1100030,DC-001,PK,5,Burroughs ES,District of Columbia Public Schools,District of Columbia,1820 Monroe St NE,Washington,DC,20018,,(202)576-6150,11,City: Large,No,†,–,–,273,26.5,10.3,–,–
110003000106,DC-001-221,1100030,DC-001,PK,5,Burrville ES,District of Columbia Public Schools,District of Columbia,801 Division Ave NE,Washington,DC,20019,,(202)671-6020,11,City: Large,No,†,–,–,295,21.5,13.7,–,–
110003000185,DC-001-247,1100030,DC-001,PK,5,C.W. Harris ES,District of Columbia Public Schools,District of Columbia,301 53rd St SE,Washington,DC,20019,,(202)645-3188,11,City: Large,No,†,–,–,232,25,9.3,–,–
110003500475,DC-108-1207,1100035,DC-108,9,12,Capital City PCS - HS,Capital City PCS,District of Columbia,100 Peabody St NW,Washington,DC,20011,,(202)808-9800,11,City: Large,Yes,†,–,–,335,36.1,9.3,–,–
110003500253,DC-108-184,1100035,DC-108,PK,4,Capital City PCS - Lower School,Capital City PCS,District of Columbia,100 Peabody St NW,Washington,DC,20011,,(202)808-9800,11,City: Large,Yes,†,–,–,323,29,11.1,–,–
110003500464,DC-108-182,1100035,DC-108,5,8,Capital City PCS - MS,Capital City PCS,District of Columbia,100 Peabody St NW,Washington,DC,20011,,(202)808-9800,11,City: Large,Yes,†,–,–,335,35.06,9.6,–,–
110003000446,DC-001-360,1100030,DC-001,PK,8,Capitol Hill Montessori School at Logan,District of Columbia Public Schools,District of Columbia,2501 11th St NW,Washington,DC,20001,,(202)698-4467,11,City: Large,No,†,–,–,362,24.5,14.8,–,–
110003000082,DC-001-454,1100030,DC-001,6,12,Cardozo Education Campus,District of Columbia Public Schools,District of Columbia,1200 Clifton St NW,Washington,DC,20009,,(202)673-7385,11,City: Large,No,†,–,–,746,76,9.8,–,–
110002900245,DC-123-188,1100029,DC-123,PK,KG,Cedar Tree Academy PCS,Cedar Tree Academy PCS,District of Columbia,701 Howard Rd SE,Washington,DC,20020,,(202)610-4193,11,City: Large,Yes,†,–,–,359,19.66,18.3,–,–
110007300400,DC-156-1103,1100073,DC-156,PK,8,Center City PCS - Brightwood,Center City PCS,District of Columbia,6008 Georgia Ave NW,Washington,DC,20011,,(202)723-3322,11,City: Large,Yes,†,–,–,258,23,11.2,–,–
110007300393,DC-156-1104,1100073,DC-156,PK,8,Center City PCS - Capitol Hill,Center City PCS,District of Columbia,1503 East Capitol St SE,Washington,DC,20003,,(202)547-7556,11,City: Large,Yes,†,–,–,262,17,15.4,–,–
110007300412,DC-156-1105,1100073,DC-156,PK,8,Center City PCS - Congress Heights,Center City PCS,District of Columbia,220 High View Pl SE,Washington,DC,20032,,(202)562-7070,11,City: Large,Yes,†,–,–,250,20,12.5,–,–
110007300395,DC-156-1106,1100073,DC-156,PK,8,Center City PCS - Petworth,Center City PCS,District of Columbia,510 Webster St NW,Washington,DC,20011,,(202)726-9212,11,City: Large,Yes,†,–,–,250,22,11.4,–,–
110007300404,DC-156-1107,1100073,DC-156,PK,8,Center City PCS - Shaw,Center City PCS,District of Columbia,711 N St NW,Washington,DC,20001,,(202)234-1093,11,City: Large,Yes,†,–,–,230,19,12.1,–,–
110007300403,DC-156-1108,1100073,DC-156,PK,8,Center City PCS - Trinidad,Center City PCS,District of Columbia,1217 W Virginia Ave NE,Washington,DC,20002,,(202)397-1614,11,City: Large,Yes,†,–,–,207,18,11.5,–,–
110000500456,DC-109-109,1100005,DC-109,9,12,Cesar Chavez PCS for Public Policy - Parkside HS,Cesar Chavez PCS for Public Policy,District of Columbia,3701 Hayes St NE,Washington,DC,20019,,(202)398-2230,11,City: Large,Yes,†,–,–,350,29.5,11.9,–,–
110000500328,DC-109-102,1100005,DC-109,8,8,Cesar Chavez PCS for Public Policy - Parkside MS,Cesar Chavez PCS for Public Policy,District of Columbia,3701 Hayes St NE,Washington,DC,20019,,(202)398-2230,11,City: Large,Yes,†,–,–,133,13,10.2,–,–
110003000103,DC-001-224,1100030,DC-001,PK,5,Cleveland ES,District of Columbia Public Schools,District of Columbia,1825 8th St NW,Washington,DC,20001,,(202)939-4380,11,City: Large,No,†,–,–,304,28,10.9,–,–
110003000396,DC-001-442,1100030,DC-001,6,12,Columbia Heights Education Campus,District of Columbia Public Schools,District of Columbia,3101 16th St NW,Washington,DC,20010,,(202)939-7700,11,City: Large,No,†,–,–,1320,105.5,12.5,–,–
110003000081,DC-001-455,1100030,DC-001,9,12,Coolidge HS,District of Columbia Public Schools,District of Columbia,6315 5th St NW,Washington,DC,20011,,(202)671-6080,11,City: Large,No,†,–,–,327,34,9.6,–,–
110008400440,DC-169-3069,1100084,DC-169,PK,8,Creative Minds International PCS,Creative Minds International PCS,District of Columbia,3700 North Capitol St NW,Washington,DC,20011,,(202)588-0370,11,City: Large,Yes,†,–,–,496,40,12.4,–,–
110004200273,DC-114-199,1100042,DC-114,PK,5,DC Bilingual PCS,DC Bilingual PCS,District of Columbia,33 Riggs Rd NE,Washington,DC,20011,,(202)750-6674,11,City: Large,Yes,†,–,–,444,46.3,9.6,–,–
110004800501,DC-115-276,1100048,DC-115,PK,3,DC Prep PCS - Anacostia ES,DC Prep PCS,District of Columbia,1409 V St SE,Washington,DC,20020,,(202)729-3500,11,City: Large,Yes,†,–,–,379,35,10.8,–,–
110004800387,DC-115-1110,1100048,DC-115,PK,3,DC Prep PCS - Benning ES,DC Prep PCS,District of Columbia,100 41st St NE,Washington,DC,20019,,(202)398-2838,11,City: Large,Yes,†,–,–,449,51,8.8,–,–
110004800474,DC-115-218,1100048,DC-115,4,8,DC Prep PCS - Benning MS,DC Prep PCS,District of Columbia,100 41st St NE,Washington,DC,20019,,(202)396-3780,11,City: Large,Yes,†,–,–,341,36,9.5,–,–
110004800388,DC-115-130,1100048,DC-115,PK,3,DC Prep PCS - Edgewood ES,DC Prep PCS,District of Columbia,707 Edgewood St NE,Washington,DC,20017,,(202)635-4411,11,City: Large,Yes,†,–,–,451,54,8.4,–,–
110004800277,DC-115-196,1100048,DC-115,4,8,DC Prep PCS - Edgewood MS,DC Prep PCS,District of Columbia,701 Edgewood St NE,Washington,DC,20017,,(202)832-5700,11,City: Large,Yes,†,–,–,334,35,9.5,–,–
110008500438,DC-170-3070,1100085,DC-170,PK,8,DC Scholars PCS,DC Scholars PCS,District of Columbia,5601 EAST CAPITOL STREET SE,Washington,DC,20019,,(202)559-6138,11,City: Large,Yes,†,–,–,543,40,13.6,–,–
110003000138,DC-001-405,1100030,DC-001,6,8,Deal MS,District of Columbia Public Schools,District of Columbia,3815 Fort Dr NW,Washington,DC,20016,,(202)939-2010,11,City: Large,No,†,–,–,1507,110.5,13.6,–,–
110010900521,DC-317-1038,1100109,DC-317,6,7,Digital Pioneers Academy PCS,Digital Pioneers Academy PCS,District of Columbia,709 12TH STREET SE,Washington,DC,20003,,(202)677-3522,11,City: Large,Yes,†,–,–,120,11,10.9,–,–
110009700492,DC-181-248,1100097,DC-181,6,12,District of Columbia International School,District of Columbia International School,District of Columbia,1400 Main Drive NW,Washington,DC,20012,,(202)808-9033,11,City: Large,Yes,†,–,–,1061,97.5,10.9,–,–
110003000504,DC-001-349,1100030,DC-001,PK,5,Dorothy I. Height ES,District of Columbia Public Schools,District of Columbia,1300 Allison St NW,Washington,DC,20011,,(202)723-4100,11,City: Large,No,†,–,–,480,46,10.4,–,–
110003000097,DC-001-231,1100030,DC-001,PK,5,Drew ES,District of Columbia Public Schools,District of Columbia,5600 Eads St NE,Washington,DC,20019,,(202)671-6040,11,City: Large,No,†,–,–,236,21.5,11,–,–
110003000016,DC-001-471,1100030,DC-001,9,12,Duke Ellington School of the Arts,District of Columbia Public Schools,District of Columbia,3500 R St NW,Washington,DC,20007,,(202)282-0123,11,City: Large,No,†,–,–,545,4,136.3,–,–
110003000079,DC-001-467,1100030,DC-001,9,12,Dunbar HS,District of Columbia Public Schools,District of Columbia,101 N St NW,Washington,DC,20001,,(202)698-3762,11,City: Large,No,†,–,–,667,49.5,13.5,–,–
110004300472,DC-116-1206,1100043,DC-116,PK,4,E.L. Haynes PCS - ES,E.L. Haynes PCS,District of Columbia,4501 Kansas Ave NW,Washington,DC,20011,,(202)667-4446,11,City: Large,Yes,†,–,–,350,29,12.1,–,–
110004300433,DC-116-1138,1100043,DC-116,9,12,E.L. Haynes PCS - HS,E.L. Haynes PCS,District of Columbia,4501 Kansas Ave NW,Washington,DC,20011,,(202)667-4446,11,City: Large,Yes,†,–,–,436,37,11.8,–,–
110004300274,DC-116-146,1100043,DC-116,5,8,E.L. Haynes PCS - MS,E.L. Haynes PCS,District of Columbia,3600 Georgia Ave NW,Washington,DC,20010,,(202)667-4446,11,City: Large,Yes,†,–,–,351,31.5,11.1,–,–
110004900278,DC-117-195,1100049,DC-117,PK,3,Eagle Academy PCS - Congress Heights,Eagle Academy PCS,District of Columbia,3400 Wheeler Rd SE,Washington,DC,20032,,(202)544-2646,11,City: Large,Yes,†,–,–,682,47,14.5,–,–
110004900434,DC-117-1125,1100049,DC-117,PK,3,Eagle Academy PCS - Fairlawn,Eagle Academy PCS,District of Columbia,2345 R STREET SE,Washington,DC,20020,,(202)459-6825,11,City: Large,Yes,†,–,–,156,10,15.6,–,–
110005700431,DC-118-138,1100057,DC-118,PK,3,Early Childhood Academy PCS,Early Childhood Academy PCS,District of Columbia,885 BARNABY STREET SE,Washington,DC,20032,,(202)373-0035,11,City: Large,Yes,†,–,–,254,15,16.9,–,–
110003000078,DC-001-457,1100030,DC-001,9,12,Eastern HS,District of Columbia Public Schools,District of Columbia,1700 East Capitol St NE,Washington,DC,20003,,(202)698-4500,11,City: Large,No,†,–,–,744,57.5,12.9,–,–
110003000096,DC-001-232,1100030,DC-001,PK,5,Eaton ES,District of Columbia Public Schools,District of Columbia,3373 Van Ness St NW,Washington,DC,20008,,(202)282-0103,11,City: Large,No,†,–,–,474,30.5,15.5,–,–
110003000151,DC-001-407,1100030,DC-001,6,8,Eliot-Hine MS,District of Columbia Public Schools,District of Columbia,1840 Constitution Ave NE,Washington,DC,20002,,(202)939-5380,11,City: Large,No,†,–,–,232,24,9.7,–,–
110000900223,DC-144-159,1100009,DC-144,PK,5,Elsie Whitlow Stokes Community Freedom PCS - Brookland,Elsie Whitlow Stokes Community Freedom PCS,District of Columbia,3700 Oakview Terrace NE,Washington,DC,20017,,(202)265-7237,11,City: Large,Yes,†,–,–,350,43.5,8,–,–
110000900520,DC-144-1059,1100009,DC-144,PK,1,Elsie Whitlow Stokes Community Freedom PCS - East End,Elsie Whitlow Stokes Community Freedom PCS,District of Columbia,5600 E Capitol St NE,Washington,DC,20019,,(202)904-9545,11,City: Large,Yes,†,–,–,134,5,26.8,–,–
110003000519,DC-001-318,1100030,DC-001,PK,8,Excel Academy,District of Columbia Public Schools,District of Columbia,2501 Martin Luther King Jr Ave SE,Washington,DC,20020,,(202)373-0097,11,City: Large,No,†,–,–,469,40,11.7,–,–
110000800497,DC-120-269,1100008,DC-120,PK,3,Friendship PCS - Armstrong Elementary,Friendship PCS,District of Columbia,1400 1St NW,Washington,DC,20001,,(202)518-3928,11,City: Large,Yes,†,–,–,401,30,13.4,–,–
110000800526,DC-120-1140,1100008,DC-120,4,8,Friendship PCS - Armstrong Middle,Friendship PCS,†,1400 1St NW,Washington,DC,20001,,(202)572-1070,†,N,Yes,†,†,†,†,†,†,†,†
110000800479,DC-120-361,1100008,DC-120,PK,3,Friendship PCS - Blow Pierce ES,Friendship PCS,District of Columbia,725 19th St NE,Washington,DC,20002,,(202)572-1070,11,City: Large,Yes,†,–,–,395,22,18,–,–
110000800478,DC-120-362,1100008,DC-120,4,8,Friendship PCS - Blow Pierce MS,Friendship PCS,District of Columbia,725 19th St NE,Washington,DC,20002,,(202)572-1070,11,City: Large,Yes,†,–,–,249,26,9.6,–,–
110000800480,DC-120-363,1100008,DC-120,PK,3,Friendship PCS - Chamberlain ES,Friendship PCS,District of Columbia,1345 Potomac Ave SE,Washington,DC,20003,,(202)547-5800,11,City: Large,Yes,†,–,–,368,21,17.5,–,–
110000800483,DC-120-364,1100008,DC-120,4,8,Friendship PCS - Chamberlain MS,Friendship PCS,District of Columbia,1345 Potomac Ave SE,Washington,DC,20003,,(202)547-5800,11,City: Large,Yes,†,–,–,314,28,11.2,–,–
110000800338,DC-120-186,1100008,DC-120,9,12,Friendship PCS - Collegiate Academy,Friendship PCS,District of Columbia,4095 Minnesota Ave NE,Washington,DC,20019,,(202)396-5500,11,City: Large,Yes,†,–,–,553,47,11.8,–,–
110000800530,DC-120-1083,1100008,DC-120,PK,3,Friendship PCS - Ideal Elementary,Friendship PCS,†,6130 NORTH CAPITOL STREET NW,Washington,DC,20011,,(202)635-6500,†,N,Yes,†,†,†,†,†,†,†,†
110000800528,DC-120-1084,1100008,DC-120,4,8,Friendship PCS - Ideal MS,Friendship PCS,†,6130 NORTH CAPITOL STREET NW,Washington,DC,20011,,(202)635-6500,†,N,Yes,†,†,†,†,†,†,†,†
110000800495,DC-120-268,1100008,DC-120,KG,8,Friendship PCS - Online,Friendship PCS,District of Columbia,1351 Nicholson St NW,Washington,DC,20011,,(202)281-1700,11,City: Large,Yes,†,–,–,191,8,23.9,–,–
110000800382,DC-120-113,1100008,DC-120,PK,3,Friendship PCS - Southeast ES,Friendship PCS,District of Columbia,645 Milwaukee Pl SE,Washington,DC,20032,,(202)562-1980,11,City: Large,Yes,†,–,–,411,29,14.2,–,–
110000800515,DC-120-1057,1100008,DC-120,4,7,Friendship PCS - Southeast MS,Friendship PCS,District of Columbia,645 Milwaukee Pl SE,Washington,DC,20032,,(202)562-1980,11,City: Large,Yes,†,–,–,179,13,13.8,–,–
110000800496,DC-120-1164,1100008,DC-120,9,12,Friendship PCS - Technology Preparatory HS,Friendship PCS,District of Columbia,2705 Martin Luther King Jr Ave SE,Washington,DC,20032,,(202)552-5700,11,City: Large,Yes,†,–,–,270,35,7.7,–,–
110000800422,DC-120-1124,1100008,DC-120,8,8,Friendship PCS - Technology Preparatory MS,Friendship PCS,District of Columbia,2705 Martin Luther King Jr Ave SE,Washington,DC,20032,,(202)552-5700,11,City: Large,Yes,†,–,–,138,5,27.6,–,–
110000800482,DC-120-365,1100008,DC-120,PK,3,Friendship PCS - Woodridge ES,Friendship PCS,District of Columbia,2959 Carlton Ave NE,Washington,DC,20018,,(202)635-6500,11,City: Large,Yes,†,–,–,285,18,15.8,–,–
110000800481,DC-120-366,1100008,DC-120,4,8,Friendship PCS - Woodridge MS,Friendship PCS,District of Columbia,2959 Carlton Ave NE,Washington,DC,20018,,(202)635-6500,11,City: Large,Yes,†,–,–,227,23,9.9,–,–
110003000165,DC-001-238,1100030,DC-001,PK,5,Garfield ES,District of Columbia Public Schools,District of Columbia,2435 Alabama Ave SE,Washington,DC,20020,,(202)671-6140,11,City: Large,No,†,–,–,291,25,11.6,–,–
110003000171,DC-001-239,1100030,DC-001,PK,5,Garrison ES,District of Columbia Public Schools,District of Columbia,1200 S St NW,Washington,DC,20009,,(202)673-7263,11,City: Large,No,†,–,–,277,29,9.6,–,–
110010500508,DC-190-297,1100105,DC-190,9,12,Goodwill Excel Center PCS,Goodwill Excel Center PCS,District of Columbia,1776 G St NW,Washington,DC,20006,,(202)839-3650,11,City: Large,Yes,†,–,–,374,15,24.9,–,–
110003000100,DC-001-227,1100030,DC-001,PK,5,H.D. Cooke ES,District of Columbia Public Schools,District of Columbia,2525 17th St NW,Washington,DC,20009,,(202)939-5390,11,City: Large,No,†,–,–,387,41,9.4,–,–
110003000055,DC-001-464,1100030,DC-001,9,12,H.D. Woodson HS,District of Columbia Public Schools,District of Columbia,540 55th St NE,Washington,DC,20019,,(202)939-2030,11,City: Large,No,†,–,–,455,47,9.7,–,–
110003000186,DC-001-246,1100030,DC-001,6,8,Hardy MS,District of Columbia Public Schools,District of Columbia,1819 35th St NW,Washington,DC,20007,,(202)729-4350,11,City: Large,No,†,–,–,451,33,13.7,–,–
110009600491,DC-180-245,1100096,DC-180,KG,5,Harmony DC PCS - School of Excellence,Harmony DC PCS,District of Columbia,62 T St NE,Washington,DC,20002,,(202)529-7500,11,City: Large,Yes,†,–,–,112,11.5,9.7,–,–
110003000135,DC-001-413,1100030,DC-001,6,8,Hart MS,District of Columbia Public Schools,District of Columbia,601 Mississippi Ave SE,Washington,DC,20032,,(202)671-6426,11,City: Large,No,†,–,–,357,29,12.3,–,–
110003000183,DC-001-258,1100030,DC-001,PK,5,Hearst ES,District of Columbia Public Schools,District of Columbia,3950 37th St NW,Washington,DC,20008,,(202)282-0106,11,City: Large,No,†,–,–,331,27.5,12,–,–
110003000182,DC-001-249,1100030,DC-001,PK,5,Hendley ES,District of Columbia Public Schools,District of Columbia,425 Chesapeake St SE,Washington,DC,20032,,(202)645-3450,11,City: Large,No,†,–,–,366,31,11.8,–,–
110005100301,DC-121-131,1100051,DC-121,PK,5,Hope Community PCS - Lamond,Hope Community PCS,District of Columbia,6200 Kansas Ave NE,Washington,DC,20011,,(202)722-4421,11,City: Large,Yes,†,–,–,276,18,15.3,–,–
110005100386,DC-121-114,1100051,DC-121,PK,8,Hope Community PCS - Tolson,Hope Community PCS,District of Columbia,2917 8th St NE,Washington,DC,20017,,(202)832-7370,11,City: Large,Yes,†,–,–,465,32,14.5,–,–
110003000181,DC-001-251,1100030,DC-001,PK,5,Houston ES,District of Columbia Public Schools,District of Columbia,1100 50th Pl NE,Washington,DC,20019,,(202)671-6170,11,City: Large,No,†,–,–,277,23.5,11.8,–,–
110005800308,DC-124-115,1100058,DC-124,6,8,Howard University MS of Mathematics and Science PCS,Howard University Middle School of Math and Science PCS,District of Columbia,405 Howard Pl NW,Washington,DC,20059,,(202)806-7725,11,City: Large,Yes,†,–,–,283,30,9.4,–,–
110003000180,DC-001-252,1100030,DC-001,PK,5,Hyde-Addison ES,District of Columbia Public Schools,District of Columbia,3219 O St NW,Washington,DC,20007,,(202)282-0170,11,City: Large,No,†,–,–,352,30,11.7,–,–
110003000524,DC-001-1071,1100030,DC-001,6,6,Ida B. Wells MS,District of Columbia Public Schools,†,405 Sheridan St NW,Washington,DC,20011,,(202)671-0693,†,N,No,†,†,†,†,†,†,†,†
110001300227,DC-126-163,1100013,DC-126,9,12,IDEA PCS,IDEA PCS,District of Columbia,1027 45th St NE,Washington,DC,20019,,(202)399-4750,11,City: Large,Yes,†,–,–,327,37,8.8,–,–
110009000460,DC-173-200,1100090,DC-173,PK,6,Ingenuity Prep PCS,Ingenuity Prep PCS,District of Columbia,4600 Livingston Rd SE,Washington,DC,20032,,(202)562-0391,11,City: Large,Yes,†,–,–,560,61,9.2,–,–
110008000437,DC-165-3064,1100080,DC-165,PK,8,Inspired Teaching Demonstration PCS,Inspired Teaching Demonstration PCS,District of Columbia,200 Douglas St NE,Washington,DC,20002,,(202)248-6825,11,City: Large,Yes,†,–,–,470,33.49,14,–,–
110003000062,DC-001-339,1100030,DC-001,PK,5,J.O. Wilson ES,District of Columbia Public Schools,District of Columbia,660 K St NE,Washington,DC,20002,,(202)698-4733,11,City: Large,No,†,–,–,477,42,11.4,–,–
110003000179,DC-001-254,1100030,DC-001,PK,5,Janney ES,District of Columbia Public Schools,District of Columbia,4130 Albemarle St NW,Washington,DC,20016,,(202)282-0110,11,City: Large,No,†,–,–,739,53.5,13.8,–,–
110003000453,DC-001-433,1100030,DC-001,6,8,Jefferson MS Academy,District of Columbia Public Schools,District of Columbia,801 7th St SW,Washington,DC,20024,,(202)729-3270,11,City: Large,No,†,–,–,341,27.5,12.4,–,–
110003000144,DC-001-416,1100030,DC-001,6,8,Johnson MS,District of Columbia Public Schools,District of Columbia,1400 Bruce Pl SE,Washington,DC,20020,,(202)939-3140,11,City: Large,No,†,–,–,275,24.5,11.2,–,–
110003000272,DC-001-421,1100030,DC-001,6,8,Kelly Miller MS,District of Columbia Public Schools,District of Columbia,301 49th St NE,Washington,DC,20019,,(202)388-6870,11,City: Large,No,†,–,–,482,36.5,13.2,–,–
110003000176,DC-001-257,1100030,DC-001,PK,5,Ketcham ES,District of Columbia Public Schools,District of Columbia,1919 15th St SE,Washington,DC,20020,,(202)698-1122,11,City: Large,No,†,–,–,300,22.5,13.3,–,–
110003000174,DC-001-272,1100030,DC-001,PK,5,Key ES,District of Columbia Public Schools,District of Columbia,5001 Dana Pl NW,Washington,DC,20016,,(202)729-3280,11,City: Large,No,†,–,–,399,30,13.3,–,–
110003000173,DC-001-259,1100030,DC-001,PK,5,Kimball ES,District of Columbia Public Schools,District of Columbia,3375 Minnesota Ave SE,Washington,DC,20019,,(202)671-6260,11,City: Large,No,†,–,–,343,23.5,14.6,–,–
110003000102,DC-001-344,1100030,DC-001,PK,5,King ES,District of Columbia Public Schools,District of Columbia,3200 6th St SE,Washington,DC,20032,,(202)939-4900,11,City: Large,No,†,–,–,295,28,10.5,–,–
110009900502,DC-186-267,1100099,DC-186,6,12,Kingsman Academy PCS,Kingsman Academy PCS,District of Columbia,1375 E St NE,Washington,DC,20002,,(202)547-1028,11,City: Large,Yes,†,–,–,285,20.3,14,–,–
110003100381,DC-129-116,1100031,DC-129,5,8,KIPP DC - AIM Academy PCS,KIPP DC PCS,District of Columbia,2600 Douglass Rd SE,Washington,DC,20020,,(202)678-5477,11,City: Large,Yes,†,–,–,391,30.43,12.8,–,–
110003100489,DC-129-236,1100031,DC-129,PK,KG,KIPP DC - Arts and Technology Academy PCS,KIPP DC PCS,District of Columbia,5300 Blaine St NE,Washington,DC,20019,,(202)398-6811,11,City: Large,Yes,†,–,–,348,21.58,16.1,–,–
110003100421,DC-129-1123,1100031,DC-129,9,12,KIPP DC - College Preparatory Academy PCS,KIPP DC PCS,District of Columbia,1405 Brentwood Parkway NE,Washington,DC,20002,,(202)678-2527,11,City: Large,Yes,†,–,–,802,76.05,10.5,–,–
110003100468,DC-129-209,1100031,DC-129,PK,KG,KIPP DC - Connect Academy PCS,KIPP DC PCS,District of Columbia,1375 Mt Olivet Rd NE,Washington,DC,20002,,(202)396-5477,11,City: Large,Yes,†,–,–,323,19.71,16.4,–,–
110003100427,DC-129-1122,1100031,DC-129,PK,KG,KIPP DC - Discover Academy PCS,KIPP DC PCS,District of Columbia,2600 Douglass Pl SE,Washington,DC,20020,,(202)678-7735,11,City: Large,Yes,†,–,–,354,20.34,17.4,–,–
110003100432,DC-129-1129,1100031,DC-129,PK,KG,KIPP DC - Grow Academy PCS,KIPP DC PCS,District of Columbia,421 P St NW,Washington,DC,20001,,(202)986-4769,11,City: Large,Yes,†,–,–,318,19.37,16.4,–,–
110003100452,DC-129-3071,1100031,DC-129,1,4,KIPP DC - Heights Academy PCS,KIPP DC PCS,District of Columbia,2600 Douglass Rd SE,Washington,DC,20020,,(202)610-5323,11,City: Large,Yes,†,–,–,462,32.67,14.1,–,–
110003100522,DC-129-1085,1100031,DC-129,4,8,KIPP DC - Honor Academy PCS,KIPP DC PCS,†,3301 WHEELER ROAD SE,Washington,DC,20032,,(202)562-9170,†,N,Yes,†,†,†,†,†,†,†,†
110003100246,DC-129-189,1100031,DC-129,5,8,KIPP DC - KEY Academy PCS,KIPP DC PCS,District of Columbia,4801 Benning Rd SE,Washington,DC,20019,,(202)582-5477,11,City: Large,Yes,†,–,–,337,26.57,12.7,–,–
110003100463,DC-129-190,1100031,DC-129,1,4,KIPP DC - Lead Academy PCS,KIPP DC PCS,District of Columbia,421 P St NW,Washington,DC,20001,,(202)223-4505,11,City: Large,Yes,†,–,–,400,28.76,13.9,–,–
110003100375,DC-129-132,1100031,DC-129,PK,PK,KIPP DC - LEAP Academy PCS,KIPP DC PCS,District of Columbia,4801 Benning Rd SE,Washington,DC,20019,,(202)582-5327,11,City: Large,Yes,†,–,–,195,12.53,15.6,–,–
110003100487,DC-129-242,1100031,DC-129,5,8,KIPP DC - Northeast Academy PCS,KIPP DC PCS,District of Columbia,1375 Mount Olivet Rd NE,Washington,DC,20002,,(202)398-5477,11,City: Large,Yes,†,–,–,329,26.48,12.4,–,–
110003100419,DC-129-1121,1100031,DC-129,KG,4,KIPP DC - Promise Academy PCS,KIPP DC PCS,District of Columbia,4801 Benning Rd SE,Washington,DC,20019,,(202)592-1390,11,City: Large,Yes,†,–,–,518,33.38,15.5,–,–
110003100488,DC-129-237,1100031,DC-129,1,4,KIPP DC - Quest Academy PCS,KIPP DC PCS,District of Columbia,5300 Blaine St NE,Washington,DC,20019,,(202)398-6811,11,City: Large,Yes,†,–,–,412,28.27,14.6,–,–
110003100523,DC-129-1086,1100031,DC-129,9,12,KIPP DC - Somerset College Preparatory PCS,KIPP DC PCS,†,3301 WHEELER ROAD SE,Washington,DC,20032,,(202)562-9105,†,N,Yes,†,†,†,†,†,†,†,†
110003100469,DC-129-214,1100031,DC-129,1,4,KIPP DC - Spring Academy PCS,KIPP DC PCS,District of Columbia,1375 Mt Olivet Rd NE,Washington,DC,20002,,(202)397-5477,11,City: Large,Yes,†,–,–,411,28.68,14.3,–,–
110003100486,DC-129-243,1100031,DC-129,5,8,KIPP DC - Valor Academy PCS,KIPP DC PCS,District of Columbia,5300 Blaine St NE,Washington,DC,20019,,(202)398-6811,11,City: Large,Yes,†,–,–,336,25.56,13.1,–,–
110003100376,DC-129-121,1100031,DC-129,5,8,KIPP DC - WILL Academy PCS,KIPP DC PCS,District of Columbia,421 P St NW,Washington,DC,20001,,(202)328-9455,11,City: Large,Yes,†,–,–,328,27.54,11.9,–,–
110003000143,DC-001-417,1100030,DC-001,6,8,Kramer MS,District of Columbia Public Schools,District of Columbia,1700 Q St SE,Washington,DC,20020,,(202)939-3150,11,City: Large,No,†,–,–,208,22.5,9.2,–,–
110003000045,DC-001-261,1100030,DC-001,PK,5,Lafayette ES,District of Columbia Public Schools,District of Columbia,5701 Broad Branch Rd NW,Washington,DC,20015,,(202)282-0116,11,City: Large,No,†,–,–,887,56.5,15.7,–,–
110003000044,DC-001-262,1100030,DC-001,PK,5,Langdon ES,District of Columbia Public Schools,District of Columbia,1900 Evarts St NE,Washington,DC,20018,,(202)576-6048,11,City: Large,No,†,–,–,353,24.5,14.4,–,–
110003000445,DC-001-370,1100030,DC-001,PK,5,Langley ES,District of Columbia Public Schools,District of Columbia,101 T Street NE,Washington,DC,20002,,(202)724-4223,11,City: Large,No,†,–,–,290,27,10.7,–,–
110003000042,DC-001-264,1100030,DC-001,PK,8,LaSalle-Backus Education Campus,District of Columbia Public Schools,District of Columbia,501 Riggs Rd NE,Washington,DC,20011,,(202)671-6340,11,City: Large,No,†,–,–,382,38,10.1,–,–
110003200247,DC-130-193,1100032,DC-130,PK,5,Latin American Montessori Bilingual PCS,Latin American Montessori Bilingual PCS,District of Columbia,1375 Missouri Ave NW,Washington,DC,20011,,(202)726-6200,11,City: Large,Yes,†,–,–,476,39.25,12.1,–,–
110003000161,DC-001-291,1100030,DC-001,PK,5,Lawrence E. Boone ES,District of Columbia Public Schools,District of Columbia,2200 Minnesota Ave SE,Washington,DC,20020,,(202)671-6240,11,City: Large,No,†,–,–,430,30,14.3,–,–
110003000041,DC-001-266,1100030,DC-001,PK,8,Leckie Education Campus,District of Columbia Public Schools,District of Columbia,4201 ML King Ave SW,Washington,DC,20032,,(202)645-3330,11,City: Large,No,†,–,–,529,39.5,13.4,–,–
110009300476,DC-177-228,1100093,DC-177,PK,6,Lee Montessori PCS - Brookland,Lee Montessori PCS,District of Columbia,3025 4th St NE,Washington,DC,20017,,(202)779-9740,11,City: Large,Yes,†,–,–,210,9.33,22.5,–,–
110009300525,DC-177-1141,1100093,DC-177,PK,PK,Lee Montessori PCS - East End,Lee Montessori PCS,†,2501 MARTIN LUTHER KING JR AVENUE SE,Washington,DC,20020,,(202)996-6700,†,N,Yes,†,†,†,†,†,†,†,†
110003000037,DC-001-271,1100030,DC-001,PK,5,Ludlow-Taylor ES,District of Columbia Public Schools,District of Columbia,659 G St NE,Washington,DC,20002,,(202)698-3244,11,City: Large,No,†,–,–,439,39,11.3,–,–
110003000198,DC-001-884,1100030,DC-001,9,12,Luke C. Moore HS,District of Columbia Public Schools,District of Columbia,1001 Monroe St NE,Washington,DC,20017,,(202)281-3600,11,City: Large,No,†,–,–,288,16,18,–,–
110003000511,DC-001-420,1100030,DC-001,6,8,MacFarland MS,District of Columbia Public Schools,District of Columbia,4400 Iowa Ave NW,Washington,DC,20011,,(202)671-6033,11,City: Large,No,†,–,–,354,28,12.6,–,–
110003000036,DC-001-308,1100030,DC-001,PK,5,Malcolm X ES at Green,District of Columbia Public Schools,District of Columbia,1500 Mississippi Ave SE,Washington,DC,20032,,(202)645-3409,11,City: Large,No,†,–,–,242,22,11,–,–
110003000035,DC-001-273,1100030,DC-001,PK,5,Mann ES,District of Columbia Public Schools,District of Columbia,4430 Newark St NW,Washington,DC,20016,,(202)282-0126,11,City: Large,No,†,–,–,397,31.5,12.6,–,–
110003000032,DC-001-284,1100030,DC-001,PK,5,Marie Reed ES,District of Columbia Public Schools,District of Columbia,2201 18th St NW,Washington,DC,20009,,(202)673-7308,11,City: Large,No,†,–,–,437,42,10.4,–,–
110004400275,DC-132-135,1100044,DC-132,PK,8,Mary McLeod Bethune Day Academy PCS,Mary McLeod Bethune Day Academy PCS,District of Columbia,1404 Jackson St NE,Washington,DC,20011,,(202)459-4710,11,City: Large,Yes,†,–,–,413,51.29,8.1,–,–
110003000034,DC-001-274,1100030,DC-001,PK,5,Maury ES,District of Columbia Public Schools,District of Columbia,1250 Constitution Ave NE,Washington,DC,20002,,(202)698-3838,11,City: Large,No,†,–,–,407,30,13.6,–,–
110008700213,DC-4002-860,1100087,DC-4002,9,12,Maya Angelou Academy at New Beginnings formerly Oak Hill,DYRS,Anne Arundel County,8400 River Rd,Laurel,MD,20724,,(202)299-5362,41,Rural: Fringe,No,†,–,–,33,11.5,2.9,–,–
110001400391,DC-133-101,1100014,DC-133,9,12,Maya Angelou PCS - HS,Maya Angelou PCS,District of Columbia,5600 E Capitol St NE,Washington,DC,20019,,(202)379-4335,11,City: Large,Yes,†,–,–,201,20.25,9.9,–,–
110003000470,DC-001-435,1100030,DC-001,6,8,McKinley MS,District of Columbia Public Schools,District of Columbia,151 T St NE,Washington,DC,20002,,(202)281-3950,11,City: Large,No,†,–,–,231,22,10.5,–,–
110003000267,DC-001-458,1100030,DC-001,9,12,McKinley Technology HS,District of Columbia Public Schools,District of Columbia,151 T St NE,Washington,DC,20002,,(202)281-3950,11,City: Large,No,†,–,–,633,43.5,14.6,–,–
110001500229,DC-135-165,1100015,DC-135,PK,8,Meridian PCS,Meridian PCS,District of Columbia,2120 13th St NW,Washington,DC,20009,,(202)387-9830,11,City: Large,Yes,†,–,–,642,53,12.1,–,–
110003000004,DC-001-280,1100030,DC-001,PK,5,Miner ES,District of Columbia Public Schools,District of Columbia,601 15th St NE,Washington,DC,20002,,(202)397-3960,11,City: Large,No,†,–,–,361,31,11.6,–,–
110010000500,DC-184-260,1100100,DC-184,5,8,Monument Academy PCS,Monument Academy PCS,District of Columbia,500 19th St NE,Washington,DC,20002,,(202)545-3180,11,City: Large,Yes,†,–,–,128,20,6.4,–,–
110003000002,DC-001-285,1100030,DC-001,PK,5,Moten ES,District of Columbia Public Schools,District of Columbia,1565 Morris Rd SE,Washington,DC,20020,,(202)698-1111,11,City: Large,No,†,–,–,323,32,10.1,–,–
110008600444,DC-171-3065,1100086,DC-171,PK,5,Mundo Verde Bilingual PCS,Mundo Verde Bilingual PCS,District of Columbia,30 P St NW,Washington,DC,20001,,(202)750-7060,11,City: Large,Yes,†,–,–,594,42,14.1,–,–
110008600527,DC-171-1088,1100086,DC-171,PK,KG,Mundo Verde Bilingual PCS - 4401 8th Street NE Campus,Mundo Verde Bilingual PCS,†,4401 8TH STREET NE,Washington,DC,20017,,(202)750-7060,†,N,Yes,†,†,†,†,†,†,†,†
110003000001,DC-001-287,1100030,DC-001,PK,5,Murch ES,District of Columbia Public Schools,District of Columbia,4810 36th St NW,Washington,DC,20008,,(202)282-0130,11,City: Large,No,†,–,–,601,41.5,14.5,–,–
110003000163,DC-001-288,1100030,DC-001,PK,5,Nalle ES,District of Columbia Public Schools,District of Columbia,219 50th St SE,Washington,DC,20019,,(202)671-6280,11,City: Large,No,†,–,–,370,30,12.3,–,–
110007900424,DC-163-1120,1100079,DC-163,9,12,National Collegiate Preparatory PCHS,National Collegiate Preparatory PCHS,District of Columbia,4600 Livingston Rd SE,Washington,DC,20032,,(202)832-7737,11,City: Large,Yes,†,–,–,252,27,9.3,–,–
110003000164,DC-001-290,1100030,DC-001,PK,5,Noyes ES,District of Columbia Public Schools,District of Columbia,2725 10th St NE,Washington,DC,20018,,(202)281-2580,11,City: Large,No,†,–,–,224,23,9.7,–,–
110003000160,DC-001-292,1100030,DC-001,PK,8,Oyster-Adams Bilingual School,District of Columbia Public Schools,District of Columbia,2801 Calvert St NW and 2020 19th St NW,Washington,DC,20008,,(202)671-6130,11,City: Large,No,†,–,–,706,61,11.6,–,–
110003000158,DC-001-294,1100030,DC-001,PK,5,Patterson ES,District of Columbia Public Schools,District of Columbia,4399 South Capitol Terr SW,Washington,DC,20032,,(202)939-5280,11,City: Large,No,†,–,–,386,34,11.4,–,–
110003900477,DC-138-222,1100039,DC-138,9,12,Paul PCS - International HS,Paul PCS,District of Columbia,5800 8th St NW,Washington,DC,20011,,(202)291-7499,11,City: Large,Yes,†,–,–,466,52.7,8.8,–,–
110003900257,DC-138-170,1100039,DC-138,6,8,Paul PCS - MS,Paul PCS,District of Columbia,5800 8th St NW,Washington,DC,20011,,(202)291-7499,11,City: Large,Yes,†,–,–,262,22.5,11.6,–,–
110003000157,DC-001-295,1100030,DC-001,PK,5,Payne ES,District of Columbia Public Schools,District of Columbia,1445 C St SE,Washington,DC,20003,,(202)698-3262,11,City: Large,No,†,–,–,346,29,11.9,–,–
110003000156,DC-001-301,1100030,DC-001,PK,KG,Peabody ES (Capitol Hill Cluster),District of Columbia Public Schools,District of Columbia,425 C St NE,Washington,DC,20002,,(202)698-3277,11,City: Large,No,†,–,–,226,15.5,14.6,–,–
110001100225,DC-125-161,1100011,DC-125,PK,8,Perry Street Preparatory PCS,Perry Street Preparatory PCS,District of Columbia,1800 Perry St NE,Washington,DC,20018,,(202)529-4400,11,City: Large,Yes,†,–,–,367,31.5,11.7,–,–
110003000407,DC-001-478,1100030,DC-001,9,12,Phelps Architecture Construction and Engineering HS,District of Columbia Public Schools,District of Columbia,704 26th St NE,Washington,DC,20002,,(202)729-4360,11,City: Large,No,†,–,–,265,31,8.5,–,–
110003000126,DC-001-299,1100030,DC-001,PK,5,Plummer ES,District of Columbia Public Schools,District of Columbia,4601 Texas Ave SE,Washington,DC,20019,,(202)939-4360,11,City: Large,No,†,–,–,331,32,10.3,–,–
110003000125,DC-001-300,1100030,DC-001,PK,5,Powell ES,District of Columbia Public Schools,District of Columbia,1350 Upshur St NW,Washington,DC,20011,,(202)671-6270,11,City: Large,No,†,–,–,535,46,11.6,–,–
110003000029,DC-001-316,1100030,DC-001,PK,5,Randle Highlands ES,District of Columbia Public Schools,District of Columbia,1650 30th St SE,Washington,DC,20020,,(202)729-3250,11,City: Large,No,†,–,–,329,23,14.3,–,–
110003000033,DC-001-302,1100030,DC-001,PK,8,Raymond Education Campus,District of Columbia Public Schools,District of Columbia,915 Spring Rd NW,Washington,DC,20010,,(202)576-6236,11,City: Large,No,†,–,–,558,51,10.9,–,–
110008200441,DC-167-3067,1100082,DC-167,8,12,Richard Wright PCS for Journalism and Media Arts,Richard Wright PCS for Journalism and Media Arts,District of Columbia,770 M St SE,Washington,DC,20003,,(202)388-1011,11,City: Large,Yes,†,–,–,299,25,12,–,–
110003000506,DC-001-304,1100030,DC-001,3,12,River Terrace Education Campus,District of Columbia Public Schools,District of Columbia,405 Anacostia Ave NE,Washington,DC,20019,,(202)442-7111,11,City: Large,No,†,–,–,131,23,5.7,–,–
110010600514,DC-191-1016,1100106,DC-191,PK,4,Rocketship DC PCS - Legacy Prep,Rocketship DC PCS,District of Columbia,4250 Massachusetts Ave SE,Washington,DC,20020,,(202)803-7004,11,City: Large,Yes,†,–,–,467,25,18.7,–,–
110010600509,DC-191-286,1100106,DC-191,PK,5,Rocketship DC PCS - Rise Academy,Rocketship DC PCS,District of Columbia,2335 Raynolds Pl SE,Washington,DC,20020,,(202)750-7177,11,City: Large,Yes,†,–,–,618,37.75,16.4,–,–
110003000512,DC-001-436,1100030,DC-001,9,12,Ron Brown College Preparatory HS,District of Columbia Public Schools,District of Columbia,4800 Meade St NE,Washington,DC,20019,,(202)729-4343,11,City: Large,No,†,–,–,261,29,9,–,–
110003000008,DC-001-459,1100030,DC-001,9,12,Roosevelt HS,District of Columbia Public Schools,District of Columbia,4301 13th St NW,Washington,DC,20011,,(202)576-6130,11,City: Large,No,†,–,–,645,60,10.8,–,–
110003000264,DC-001-456,1100030,DC-001,9,12,Roosevelt STAY HS,District of Columbia Public Schools,District of Columbia,4301 13th St NW,Washington,DC,20011,,(202)576-8399,11,City: Large,No,†,–,–,426,21.74,19.6,–,–
110002000234,DC-140-173,1100020,DC-140,PK,5,Roots PCS,Roots PCS,District of Columbia,15 Kennedy St NW,Washington,DC,20011,,(202)882-8073,11,City: Large,Yes,†,–,–,109,9,12.1,–,–
110003000027,DC-001-305,1100030,DC-001,PK,5,Ross ES,District of Columbia Public Schools,District of Columbia,1730 R St NW,Washington,DC,20009,,(202)673-7200,11,City: Large,No,†,–,–,190,16.5,11.5,–,–
110003000025,DC-001-307,1100030,DC-001,PK,5,Savoy ES,District of Columbia Public Schools,District of Columbia,2400 Shannon Pl SE,Washington,DC,20020,,(202)939-2000,11,City: Large,No,†,–,–,271,24,11.3,–,–
110003000149,DC-001-409,1100030,DC-001,PK,8,School Without Walls at Francis-Stevens,District of Columbia Public Schools,District of Columbia,2425 N St NW,Washington,DC,20037,,(202)724-4841,11,City: Large,No,†,–,–,472,41.5,11.4,–,–
110003000131,DC-001-466,1100030,DC-001,9,12,School Without Walls HS,District of Columbia Public Schools,District of Columbia,2130 G St NW,Washington,DC,20037,,(202)645-9690,11,City: Large,No,†,–,–,592,37,16,–,–
110003000466,DC-001-175,1100030,DC-001,PK,5,School-Within-School at Goding,District of Columbia Public Schools,District of Columbia,920 F St NE,Washington,DC,20002,,(202)727-7377,11,City: Large,No,†,–,–,313,28,11.2,–,–
110003000024,DC-001-309,1100030,DC-001,PK,5,Seaton ES,District of Columbia Public Schools,District of Columbia,1503 10th St NW,Washington,DC,20001,,(202)673-7215,11,City: Large,No,†,–,–,390,41,9.5,–,–
110002200236,DC-142-174,1100022,DC-142,8,12,SEED PCS of Washington DC,SEED PCS of Washington DC,District of Columbia,4300 C St SE,Washington,DC,20019,,(202)248-7773,11,City: Large,Yes,†,–,–,284,37,7.7,–,–
110008800461,DC-174-197,1100088,DC-174,PK,5,Sela PCS,Sela PCS,District of Columbia,6015 Chillum Pl NE,Washington,DC,20011,,(202)670-7352,11,City: Large,Yes,†,–,–,229,17,13.5,–,–
110003000030,DC-001-313,1100030,DC-001,PK,5,Shepherd ES,District of Columbia Public Schools,District of Columbia,7800 14th St NW,Washington,DC,20012,,(202)576-6140,11,City: Large,No,†,–,–,379,25,15.2,–,–
110008100442,DC-166-3066,1100081,DC-166,PK,6,Shining Stars Montessori Academy PCS,Shining Stars Montessori Academy PCS,District of Columbia,1240 Randolph St NE,Washington,DC,20017,,(202)723-1467,11,City: Large,Yes,†,–,–,285,12,23.8,–,–
110003000054,DC-001-315,1100030,DC-001,PK,5,Simon ES,District of Columbia Public Schools,District of Columbia,401 Mississippi Ave SE,Washington,DC,20032,,(202)645-3360,11,City: Large,No,†,–,–,241,22.5,10.7,–,–
110003000064,DC-001-322,1100030,DC-001,PK,5,Smothers ES,District of Columbia Public Schools,District of Columbia,4400 Brooks St NE,Washington,DC,20019,,(202)939-3600,11,City: Large,No,†,–,–,249,25,10,–,–
110003000019,DC-001-427,1100030,DC-001,6,8,Sousa MS,District of Columbia Public Schools,District of Columbia,3650 Ely Pl SE,Washington,DC,20019,,(202)729-3260,11,City: Large,No,†,–,–,242,25,9.7,–,–
110006400367,DC-143-1047,1100064,DC-143,PK,12,St. Coletta Special Education PCS,St. Coletta Special Education PCS,District of Columbia,1901 Independence Ave SE,Washington,DC,20003,,(202)350-8680,11,City: Large,Yes,†,–,–,250,24,10.4,–,–
110003000013,DC-001-319,1100030,DC-001,PK,5,Stanton ES,District of Columbia Public Schools,District of Columbia,2701 Naylor Rd SE,Washington,DC,20020,,(202)671-6180,11,City: Large,No,†,–,–,473,36,13.1,–,–
110011000518,DC-314-1037,1100110,DC-314,4,5,Statesmen College Preparatory Academy for Boys PCS,Statesmen College Preparatory Academy for Boys PCS,District of Columbia,4600 LIVINGSTON ROAD SE,Washington,DC,20032,,(202)505-9072,11,City: Large,Yes,†,–,–,56,4,14,–,–
110003000050,DC-001-321,1100030,DC-001,PK,5,Stoddert ES,District of Columbia Public Schools,District of Columbia,4001 Calvert St NW,Washington,DC,20007,,(202)671-6030,11,City: Large,No,†,–,–,463,30,15.4,–,–
110003000191,DC-001-428,1100030,DC-001,6,8,Stuart-Hobson MS (Capitol Hill Cluster),District of Columbia Public Schools,District of Columbia,410 E St NE,Washington,DC,20002,,(202)671-6010,11,City: Large,No,†,–,–,454,30,15.1,–,–
110003000011,DC-001-324,1100030,DC-001,PK,8,Takoma Education Campus,District of Columbia Public Schools,District of Columbia,7010 Piney Branch Rd NW,Washington,DC,20012,,(202)671-6050,11,City: Large,No,†,–,–,508,47.5,10.7,–,–
110010100499,DC-188-255,1100101,DC-188,KG,8,The Children's Guild PCS,The Children's Guild DC PCS,District of Columbia,2146 24th Pl NE,Washington,DC,20018,,(202)774-5442,11,City: Large,Yes,†,–,–,376,36,10.4,–,–
110003000049,DC-001-325,1100030,DC-001,PK,5,Thomas ES,District of Columbia Public Schools,District of Columbia,650 Anacostia Ave NE,Washington,DC,20019,,(202)724-4593,11,City: Large,No,†,–,–,355,31,11.5,–,–
110003000076,DC-001-326,1100030,DC-001,PK,5,Thomson ES,District of Columbia Public Schools,District of Columbia,1200 L St NW,Washington,DC,20005,,(202)898-4660,11,City: Large,No,†,–,–,331,29,11.4,–,–
110003400249,DC-146-191,1100034,DC-146,9,12,Thurgood Marshall Academy PCS,Thurgood Marshall Academy PCS,District of Columbia,2427 Martin Luther King Jr Ave SE,Washington,DC,20020,,(202)563-6862,11,City: Large,Yes,†,–,–,392,35,11.2,–,–
110003000075,DC-001-327,1100030,DC-001,PK,8,Truesdell Education Campus,District of Columbia Public Schools,District of Columbia,800 Ingraham St NW,Washington,DC,20011,,(202)576-6202,11,City: Large,No,†,–,–,609,56,10.9,–,–
110003000074,DC-001-328,1100030,DC-001,PK,5,Tubman ES,District of Columbia Public Schools,District of Columbia,3101 13th St NW,Washington,DC,20010,,(202)673-7285,11,City: Large,No,†,–,–,548,56.5,9.7,–,–
110003000073,DC-001-329,1100030,DC-001,PK,5,Turner ES,District of Columbia Public Schools,District of Columbia,3264 Stanton Rd SE,Washington,DC,20032,,(202)645-3470,11,City: Large,No,†,–,–,497,35,14.2,–,–
110004500279,DC-149-198,1100045,DC-149,PK,8,Two Rivers PCS - 4th St,Two Rivers PCS,District of Columbia,1227 4th St NE,Washington,DC,20002,,(202)543-8477,11,City: Large,Yes,†,–,–,528,41.98,12.6,–,–
110004500498,DC-149-270,1100045,DC-149,PK,5,Two Rivers PCS - Young,Two Rivers PCS,District of Columbia,820 26th St NE,Washington,DC,20002,,(202)388-1360,11,City: Large,Yes,†,–,–,332,24.97,13.3,–,–
110003000072,DC-001-330,1100030,DC-001,PK,5,Tyler ES,District of Columbia Public Schools,District of Columbia,1001 G St SE,Washington,DC,20003,,(202)939-4810,11,City: Large,No,†,–,–,512,42.5,12,–,–
110003000505,DC-001-331,1100030,DC-001,PK,4,Van Ness ES,District of Columbia Public Schools,District of Columbia,1150 5th St SE,Washington,DC,20003,,(202)727-4314,11,City: Large,No,†,–,–,270,23,11.7,–,–
110003000070,DC-001-332,1100030,DC-001,PK,8,Walker-Jones Education Campus,District of Columbia Public Schools,District of Columbia,1125 New Jersey Ave NW,Washington,DC,20001,,(202)939-5934,11,City: Large,No,†,–,–,384,36,10.7,–,–
110010200503,DC-185-263,1100102,DC-185,6,8,Washington Global PCS,Washington Global PCS,District of Columbia,525 School St SW,Washington,DC,20024,,(202)796-2415,11,City: Large,Yes,†,–,–,216,17,12.7,–,–
110001900324,DC-151-125,1100019,DC-151,5,8,Washington Latin PCS - MS,Washington Latin PCS,District of Columbia,5200 2nd St NW,Washington,DC,20011,,(202)223-1111,11,City: Large,Yes,†,–,–,370,29.7,12.5,–,–
110001900423,DC-151-1118,1100019,DC-151,9,12,Washington Latin PCS - Upper School,Washington Latin PCS,District of Columbia,5200 2nd St NW,Washington,DC,20011,,(202)223-1111,11,City: Large,Yes,†,–,–,328,37.8,8.7,–,–
110010300510,DC-194-283,1100103,DC-194,9,12,Washington Leadership Academy PCS,Washington Leadership Academy PCS,District of Columbia,3015 4th St NE,Washington,DC,20017,,(240)580-3371,11,City: Large,Yes,†,–,–,306,26,11.8,–,–
110003000397,DC-001-474,1100030,DC-001,7,12,Washington Metropolitan HS,District of Columbia Public Schools,District of Columbia,300 Bryant St NW,Washington,DC,20001,,(202)939-3610,11,City: Large,No,†,–,–,136,21,6.5,–,–
110007700411,DC-160-1117,1100077,DC-160,PK,5,Washington Yu Ying PCS,Washington Yu Ying PCS,District of Columbia,220 Taylor St NE,Washington,DC,20017,,(202)635-1950,11,City: Large,Yes,†,–,–,569,44,12.9,–,–
110003000048,DC-001-333,1100030,DC-001,1,5,Watkins ES (Capitol Hill Cluster),District of Columbia Public Schools,District of Columbia,420 12th St SE,Washington,DC,20003,,(202)698-3355,11,City: Large,No,†,–,–,444,28,15.9,–,–
110003000067,DC-001-336,1100030,DC-001,PK,8,West Education Campus,District of Columbia Public Schools,District of Columbia,4300 13th St NW,Washington,DC,20011,,(202)576-6226,11,City: Large,No,†,–,–,336,31,10.8,–,–
110003000068,DC-001-335,1100030,DC-001,PK,8,Wheatley Education Campus,District of Columbia Public Schools,District of Columbia,1299 Neal St NE,Washington,DC,20002,,(202)939-5970,11,City: Large,No,†,–,–,312,32,9.8,–,–
110003000065,DC-001-338,1100030,DC-001,PK,8,Whittier Education Campus,District of Columbia Public Schools,District of Columbia,6201 5th St NW,Washington,DC,20011,,(202)576-6156,11,City: Large,No,†,–,–,351,35,10,–,–
110003000133,DC-001-463,1100030,DC-001,9,12,Woodrow Wilson HS,District of Columbia Public Schools,District of Columbia,3950 Chesapeake St NW,Washington,DC,20016,,(202)282-0120,11,City: Large,No,†,–,–,1796,117,15.4,–,–
