NCES School ID,State School ID,NCES District ID,State District ID,Low Grade*,High Grade*,School Name,District,County Name*,Street Address,City,State,ZIP,ZIP 4-digit,Phone,Locale Code*,Locale*,Charter,Magnet*,Title I School*,Title 1 School Wide*,Students*,Teachers*,Student Teacher Ratio*,Free Lunch*,Reduced Lunch*
150003000150,HI-001-2-224,1500030,HI-001,9,12,Admiral Arthur W Radford High School,Hawaii Department of Education,Honolulu County,4361 Salt Lake Blvd,Honolulu,HI,96818,,(808)421-4200,21,Suburb: Large,No,†,–,–,1244,76,16.4,142,134
150003000154,HI-001-2-221,1500030,HI-001,PK,6,Admiral Chester W Nimitz Elementary School,Hawaii Department of Education,Honolulu County,520 Main St,Honolulu,HI,96818,,(808)421-4165,21,Suburb: Large,No,†,–,–,690,42.5,16.2,67,115
150003000157,HI-001-4-335,1500030,HI-001,PK,6,Ahuimanu Elementary School,Hawaii Department of Education,Honolulu County,47-470 Hui Aeko Pl,Kaneohe,HI,96744,,(808)239-3125,22,Suburb: Midsize,No,†,Yes,Yes,315,21.5,14.7,85,28
150003000178,HI-001-2-200,1500030,HI-001,PK,6,Aiea Elementary School,Hawaii Department of Education,Honolulu County,99-370 Moanalua Rd,Aiea,HI,96701,,(808)483-7200,21,Suburb: Large,No,†,Yes,Yes,331,22,15,257,21
150003000177,HI-001-2-202,1500030,HI-001,9,12,Aiea High School,Hawaii Department of Education,Honolulu County,98-1276 Ulune St,Aiea,HI,96701,,(808)483-7300,21,Suburb: Large,No,†,Yes,Yes,971,65,14.9,324,137
150003000176,HI-001-2-201,1500030,HI-001,7,8,Aiea Intermediate School,Hawaii Department of Education,Honolulu County,99-600 Kulawea St,Aiea,HI,96701,,(808)483-7230,21,Suburb: Large,No,†,Yes,Yes,602,40,15.1,251,58
150003000101,HI-001-4-300,1500030,HI-001,PK,6,Aikahi Elementary School,Hawaii Department of Education,Honolulu County,281 Ilihau St,Kailua,HI,96734,,(808)254-7944,22,Suburb: Midsize,No,†,–,–,472,30,15.7,46,16
150003000227,HI-001-1-100,1500030,HI-001,PK,5,Aina Haina Elementary School,Hawaii Department of Education,Honolulu County,801 W Hind Dr,Honolulu,HI,96821,,(808)377-2419,21,Suburb: Large,No,†,–,–,469,28.5,16.5,62,22
150003000226,HI-001-1-101,1500030,HI-001,PK,5,Ala Wai Elementary School,Hawaii Department of Education,Honolulu County,503 Kamoku St,Honolulu,HI,96826,,(808)973-0070,11,City: Large,No,†,Yes,Yes,353,23,15.3,172,32
150003000304,HI-001-7-558,1500030,HI-001,KG,6,Alaka'i O Kaua'i Charter School,Hawaii Department of Education,Kauai County,2-4035 Kaumualii Hwy,Koloa,HI,96746,,(808)635-5110,41,Rural: Fringe,Yes,†,–,–,123,8.25,14.9,14,0
150003000175,HI-001-2-203,1500030,HI-001,PK,6,Aliamanu Elementary School,Hawaii Department of Education,Honolulu County,3265 Salt Lake Blvd,Honolulu,HI,96818,,(808)421-4280,11,City: Large,No,†,–,–,631,40,15.8,102,81
150003000174,HI-001-2-204,1500030,HI-001,7,8,Aliamanu Middle School,Hawaii Department of Education,Honolulu County,3271 Salt Lake Blvd,Honolulu,HI,96818,,(808)421-4100,11,City: Large,No,†,–,–,749,45,16.6,113,99
150003000225,HI-001-1-102,1500030,HI-001,PK,5,Aliiolani Elementary School,Hawaii Department of Education,Honolulu County,1240 7th Ave,Honolulu,HI,96816,,(808)733-4750,11,City: Large,No,†,Yes,Yes,231,16,14.4,84,27
150003000147,HI-001-2-227,1500030,HI-001,PK,6,Alvah A Scott Elementary School,Hawaii Department of Education,Honolulu County,98-1230 Moanalua Rd,Aiea,HI,96701,,(808)483-7220,21,Suburb: Large,No,†,–,–,471,29,16.2,162,59
150003000246,HI-001-1-103,1500030,HI-001,PK,12,Anuenue School,Hawaii Department of Education,Honolulu County,2528 10th Ave,Honolulu,HI,96816,,(808)733-8465,11,City: Large,No,†,Yes,Yes,516,31,16.6,289,51
150003000136,HI-001-3-250,1500030,HI-001,PK,6,August Ahrens Elementary School,Hawaii Department of Education,Honolulu County,94-1170 Waipahu St,Waipahu,HI,96797,,(808)675-0202,21,Suburb: Large,No,†,Yes,Yes,1260,78,16.2,456,188
150003000135,HI-001-3-251,1500030,HI-001,PK,5,Barbers Point Elementary School,Hawaii Department of Education,Honolulu County,3001 Boxer Rd,Kapolei,HI,96707,,(808)673-7400,21,Suburb: Large,No,†,Yes,Yes,540,34,15.9,254,58
150003000022,HI-001-4-324,1500030,HI-001,PK,6,Blanche Pope Elementary School,Hawaii Department of Education,Honolulu County,41-133 Huli St,Waimanalo,HI,96795,,(808)259-0450,22,Suburb: Midsize,No,†,Yes,Yes,230,17,13.5,187,9
150003000100,HI-001-4-301,1500030,HI-001,9,12,Castle High School,Hawaii Department of Education,Honolulu County,45-386 Kaneohe Bay Dr,Kaneohe,HI,96744,,(808)233-5600,22,Suburb: Midsize,No,†,–,–,1129,80,14.1,327,108
150003000223,HI-001-1-104,1500030,HI-001,6,8,Central Middle School,Hawaii Department of Education,Honolulu County,1302 Queen Emma St,Honolulu,HI,96813,,(808)587-4400,11,City: Large,No,†,Yes,Yes,414,25,16.6,296,25
150003000266,HI-001-7-448,1500030,HI-001,6,8,Chiefess Kamakahelei Middle School,Hawaii Department of Education,Kauai County,4431 Nuhou St,Lihue,HI,96766,,(808)241-3200,33,Town: Remote,No,†,Yes,Yes,987,58,17,322,93
150003000037,HI-001-5-367,1500030,HI-001,PK,6,Chiefess Kapiolani Elementary School,Hawaii Department of Education,Hawaii County,966 Kilauea Ave,Hilo,HI,96720,,(808)974-4160,33,Town: Remote,No,†,Yes,Yes,383,24,16,284,19
150003000262,HI-001-5-396,1500030,HI-001,KG,12,Connections - New Century PCS,Hawaii Department of Education,Hawaii County,174 Kamehameha Ave,Hilo,HI,96720,2834,(808)961-3664,33,Town: Remote,Yes,†,Yes,Yes,335,26.5,12.6,192,59
150003000173,HI-001-2-207,1500030,HI-001,PK,5,Daniel K Inouye Elementary School,Hawaii Department of Education,Honolulu County,Waianae & Ayres Ave,Wahiawa,HI,96786,,(808)622-6380,21,Suburb: Large,No,†,–,–,743,49,15.2,92,103
150003000305,HI-001-3-568,1500030,HI-001,6,6,DreamHouse Ewa Beach,Hawaii Department of Education,Honolulu County,91-1121 Keaunui Dr,Ewa Beach,HI,96706,,(808)354-0476,21,Suburb: Large,Yes,†,†,†,†,†,†,†,†
150003000081,HI-001-7-451,1500030,HI-001,PK,5,Eleele Elementary School,Hawaii Department of Education,Kauai County,PO Box 38,Eleele,HI,96705,,(808)335-2111,33,Town: Remote,No,†,Yes,Yes,483,28,17.3,181,60
150003000094,HI-001-7-463,1500030,HI-001,PK,5,Elsie H Wilcox Elementary School,Hawaii Department of Education,Kauai County,4319 Hardy St,Lihue,HI,96766,,(808)274-3150,33,Town: Remote,No,†,Yes,Yes,772,53,14.6,286,72
150003000001,HI-001-4-302,1500030,HI-001,PK,6,Enchanted Lake Elementary School,Hawaii Department of Education,Honolulu County,770 Keolu Dr,Kailua,HI,96734,,(808)266-7800,22,Suburb: Midsize,No,†,–,–,388,25,15.5,101,27
150003000027,HI-001-5-351,1500030,HI-001,PK,6,Ernest Bowen DeSilva Elementary School,Hawaii Department of Education,Hawaii County,278 Ainako Ave,Hilo,HI,96720,,(808)974-4855,33,Town: Remote,No,†,–,–,451,24.5,18.4,110,22
150003000132,HI-001-3-254,1500030,HI-001,PK,6,Ewa Beach Elementary School,Hawaii Department of Education,Honolulu County,91-740 Papipi Rd,Ewa Beach,HI,96706,,(808)689-1271,21,Suburb: Large,No,†,Yes,Yes,821,44,18.7,230,40
150003000133,HI-001-3-253,1500030,HI-001,PK,6,Ewa Elementary School,Hawaii Department of Education,Honolulu County,91-1280 Renton Rd,Ewa Beach,HI,96706,,(808)681-8202,21,Suburb: Large,No,†,Yes,Yes,1086,71,15.3,425,106
150003000296,HI-001-3-296,1500030,HI-001,6,8,Ewa Makai Middle School,Hawaii Department of Education,Honolulu County,91-6291 Kapolei Pkwy,Ewa Beach,HI,96706,,(808)687-9500,21,Suburb: Large,No,†,–,–,869,49,17.7,194,60
150003000016,HI-001-4-318,1500030,HI-001,7,8,Governor Samuel Wilder King Intermediate School,Hawaii Department of Education,Honolulu County,46-155 Kamehameha Hwy,Kaneohe,HI,96744,,(808)233-5727,22,Suburb: Midsize,No,†,Yes,Yes,641,42,15.3,234,83
150003000222,HI-001-1-105,1500030,HI-001,6,8,Governor Sanford B Dole Middle School,Hawaii Department of Education,Honolulu County,1803 Kam IV Rd,Honolulu,HI,96819,,(808)832-3340,11,City: Large,No,†,Yes,Yes,765,50,15.3,505,79
150003000221,HI-001-1-106,1500030,HI-001,9,12,Governor Wallace Rider Farrington High School,Hawaii Department of Education,Honolulu County,1564 North King St,Honolulu,HI,96817,,(808)832-3600,11,City: Large,No,†,Yes,Yes,2315,135,17.1,998,241
150003000139,HI-001-2-235,1500030,HI-001,PK,6,Gustav H Webling Elementary School,Hawaii Department of Education,Honolulu County,99-370 Paihi St,Aiea,HI,96701,,(808)483-7240,21,Suburb: Large,No,†,–,–,423,28.5,14.8,94,51
150003000028,HI-001-5-352,1500030,HI-001,PK,6,Haaheo Elementary School,Hawaii Department of Education,Hawaii County,121 Haaheo Rd,Hilo,HI,96720,,(808)974-4111,33,Town: Remote,No,†,Yes,Yes,201,12,16.8,92,12
150003000219,HI-001-1-108,1500030,HI-001,PK,5,Hahaione Elementary School,Hawaii Department of Education,Honolulu County,595 Pepeekeo St,Honolulu,HI,96825,,(808)397-5822,21,Suburb: Large,No,†,–,–,533,33,16.2,49,15
150003000057,HI-001-6-401,1500030,HI-001,PK,5,Haiku Elementary School,Hawaii Department of Education,Maui County,105 Pauwela Rd,Haiku,HI,96708,,(808)575-3000,31,Town: Fringe,No,†,Yes,Yes,456,30,15.2,188,49
150003000275,HI-001-4-546,1500030,HI-001,4,12,Hakipuu Learning Center,Hawaii Department of Education,Honolulu County,PO Box 1159,Kaneohe,HI,96744,,(808)235-9155,22,Suburb: Midsize,Yes,†,Yes,Yes,54,4.5,12,26,12
150003000270,HI-001-1-540,1500030,HI-001,4,12,Halau Ku Mana - A New Century PCS,Hawaii Department of Education,Honolulu County,2101 Makiki Heights Dr,Honolulu,HI,96822,,(808)945-1600,11,City: Large,Yes,†,Yes,Yes,140,16,8.8,27,0
150003000172,HI-001-2-206,1500030,HI-001,PK,6,Haleiwa Elementary School,Hawaii Department of Education,Honolulu County,66-505 Haleiwa Rd,Haleiwa,HI,96712,,(808)637-8237,31,Town: Fringe,No,†,Yes,Yes,240,15,16,107,33
150003000058,HI-001-6-402,1500030,HI-001,PK,12,Hana High & Elementary School,Hawaii Department of Education,Maui County,PO Box 128,Hana,HI,96713,,(808)248-4815,43,Rural: Remote,No,†,Yes,Yes,349,30,11.6,196,53
150003000082,HI-001-7-452,1500030,HI-001,PK,6,Hanalei Elementary School,Hawaii Department of Education,Kauai County,PO Box 46,Hanalei,HI,96714,,(808)826-4300,33,Town: Remote,No,†,–,–,252,17,14.8,62,10
150003000002,HI-001-4-303,1500030,HI-001,PK,6,Hauula Elementary School,Hawaii Department of Education,Honolulu County,54-046 Kamehameha Hwy,Hauula,HI,96717,,(808)293-8925,31,Town: Fringe,No,†,Yes,Yes,350,27,13,182,33
150003000282,HI-001-5-561,1500030,HI-001,KG,12,Hawaii Academy of Arts & Science PCS,Hawaii Department of Education,Hawaii County,PO Box 1494,Pahoa,HI,96778,,(808)965-3730,41,Rural: Fringe,Yes,†,Yes,Yes,644,37,17.4,418,98
150003000096,HI-001-1-470,1500030,HI-001,PK,12,Hawaii School for the Deaf and Blind,Hawaii Department of Education,Honolulu County,3440 Leahi Ave,Honolulu,HI,96815,,(808)733-4999,11,City: Large,No,†,Yes,Yes,61,15,4.1,29,2
150003000295,HI-001-3-551,1500030,HI-001,KG,12,Hawaii Technology Academy - PCS,Hawaii Department of Education,Honolulu County,94-450 Mokuola St,Waipahu,HI,96797,,(808)676-5444,21,Suburb: Large,Yes,†,–,–,1197,66.5,18,174,77
150003000003,HI-001-4-304,1500030,HI-001,PK,6,Heeia Elementary School,Hawaii Department of Education,Honolulu County,46-202 Haiku Rd,Kaneohe,HI,96744,,(808)233-5677,22,Suburb: Midsize,No,†,Yes,Yes,437,30,14.6,180,51
150003000171,HI-001-2-208,1500030,HI-001,PK,5,Helemano Elementary School,Hawaii Department of Education,Honolulu County,1001 Ihi Ihi Ave,Wahiawa,HI,96786,,(808)622-6336,21,Suburb: Large,No,†,Yes,Yes,535,40,13.4,226,78
150003000228,HI-001-1-154,1500030,HI-001,9,12,Henry J Kaiser High School,Hawaii Department of Education,Honolulu County,511 Lunalilo Home Rd,Honolulu,HI,96825,,(808)394-1200,21,Suburb: Large,No,†,–,–,1161,63,18.4,113,42
150003000056,HI-001-6-400,1500030,HI-001,9,12,Henry Perrine Baldwin High School,Hawaii Department of Education,Maui County,1650 Kaahumanu Ave,Wailuku,HI,96793,,(808)984-5656,13,City: Small,No,†,–,–,1322,83,15.9,380,111
150003000131,HI-001-3-255,1500030,HI-001,7,8,Highlands Intermediate School,Hawaii Department of Education,Honolulu County,1460 Hoolaulea St,Pearl City,HI,96782,,(808)453-6480,21,Suburb: Large,No,†,–,–,883,59,15,235,79
150003000029,HI-001-5-355,1500030,HI-001,9,12,Hilo High School,Hawaii Department of Education,Hawaii County,556 Waianuenue Ave,Hilo,HI,96720,,(808)974-4021,33,Town: Remote,No,†,Yes,Yes,1178,81,14.5,547,77
150003000030,HI-001-5-356,1500030,HI-001,7,8,Hilo Intermediate School,Hawaii Department of Education,Hawaii County,587 Waianuenue Ave,Hilo,HI,96720,,(808)974-4955,33,Town: Remote,No,†,Yes,Yes,562,35,16.1,311,40
150003000031,HI-001-5-357,1500030,HI-001,PK,6,Hilo Union Elementary School,Hawaii Department of Education,Hawaii County,506 Waianuenue Ave,Hilo,HI,96720,,(808)933-0900,33,Town: Remote,No,†,Yes,Yes,441,33,13.4,325,16
150003000214,HI-001-1-109,1500030,HI-001,PK,5,Hokulani Elementary School,Hawaii Department of Education,Honolulu County,2940 Kamakini St,Honolulu,HI,96816,,(808)733-4789,11,City: Large,No,†,–,–,323,22,14.7,29,12
150003000248,HI-001-3-280,1500030,HI-001,PK,6,Holomua Elementary School,Hawaii Department of Education,Honolulu County,91-1561 Keaunui Dr,Ewa Beach,HI,96706,,(808)685-2000,21,Suburb: Large,No,†,–,–,1150,77,14.9,286,87
150003000032,HI-001-5-358,1500030,HI-001,PK,5,Holualoa Elementary School,Hawaii Department of Education,Hawaii County,76-5957 Mamalahoa Hwy,Holualoa,HI,96725,,(808)322-4800,41,Rural: Fringe,No,†,Yes,Yes,524,27,19.4,192,51
150003000033,HI-001-5-359,1500030,HI-001,PK,5,Honaunau Elementary School,Hawaii Department of Education,Hawaii County,83-5360 Mamalahoa Hwy,Captain Cook,HI,96704,,(808)328-2727,33,Town: Remote,No,†,Yes,Yes,133,11.5,11.6,105,4
150003000249,HI-001-5-361,1500030,HI-001,PK,6,Honokaa Elementary School,Hawaii Department of Education,Hawaii County,45-534 Pakalana St,Honokaa,HI,96727,,(808)775-8820,33,Town: Remote,No,†,Yes,Yes,391,21,18.6,202,49
150003000034,HI-001-5-360,1500030,HI-001,7,12,Honokaa High & Intermediate School,Hawaii Department of Education,Hawaii County,45-527 Pakalana St,Honokaa,HI,96727,,(808)775-8800,33,Town: Remote,No,†,Yes,Yes,611,41,14.9,300,57
150003000306,HI-001-3-297,1500030,HI-001,–,–,Honouliuli Middle School,Hawaii Department of Education,†,91-559 Maunakapu St,Ewa Beach,HI,96706,,(808)305-8281,†,N,No,†,†,†,†,†,†,†,†
150003000130,HI-001-3-276,1500030,HI-001,PK,6,Honowai Elementary School,Hawaii Department of Education,Honolulu County,94-600 Honowai St,Waipahu,HI,96797,,(808)675-0165,21,Suburb: Large,No,†,Yes,Yes,682,43,15.9,323,94
150003000300,HI-001-3-293,1500030,HI-001,PK,5,Hookele Elementary School,Hawaii Department of Education,Honolulu County,91-511 Kunehi St,Kapolei,HI,96707,,(808)305-8500,21,Suburb: Large,No,†,–,–,873,47,18.6,159,47
150003000035,HI-001-5-363,1500030,HI-001,PK,5,Hookena Elementary School,Hawaii Department of Education,Hawaii County,86-4355 Mamalahoa Hwy,Captain Cook,HI,96704,,(808)328-2710,42,Rural: Distant,No,†,Yes,Yes,106,8,13.3,63,11
150003000059,HI-001-6-404,1500030,HI-001,6,8,Iao Intermediate School,Hawaii Department of Education,Maui County,260 S Market St,Wailuku,HI,96793,,(808)984-5610,13,City: Small,No,†,–,–,987,63,15.7,377,113
150003000169,HI-001-2-210,1500030,HI-001,PK,5,Iliahi Elementary School,Hawaii Department of Education,Honolulu County,2035 California Ave,Wahiawa,HI,96786,,(808)622-6411,21,Suburb: Large,No,†,Yes,Yes,377,25,15.1,140,53
150003000129,HI-001-3-279,1500030,HI-001,7,8,Ilima Intermediate School,Hawaii Department of Education,Honolulu County,91-884 Fort Weaver Rd,Ewa Beach,HI,96706,,(808)689-1250,21,Suburb: Large,No,†,Yes,Yes,875,55,15.9,321,100
150003000277,HI-001-5-548,1500030,HI-001,KG,8,Innovations - PCS,Hawaii Department of Education,Hawaii County,75-5815 Queen Kaahumanu Hwy,Kailua-Kona,HI,96740,,(808)327-6205,41,Rural: Fringe,Yes,†,–,–,240,14,17.1,89,52
150003000128,HI-001-3-256,1500030,HI-001,PK,6,Iroquois Point Elementary School,Hawaii Department of Education,Honolulu County,5553 Cormorant Ave,Ewa Beach,HI,96706,,(808)499-6500,21,Suburb: Large,No,†,–,–,701,45,15.6,145,72
150003000134,HI-001-3-252,1500030,HI-001,9,12,James Campbell High School,Hawaii Department of Education,Honolulu County,91-980 North Rd,Ewa Beach,HI,96706,,(808)689-1200,21,Suburb: Large,No,†,–,–,3095,186,16.6,711,230
150003000283,HI-001-5-562,1500030,HI-001,PK,11,Ka Umeke Kaeo - PCS,Hawaii Department of Education,Hawaii County,222 Desha Ave,Hilo,HI,96720,,(808)933-3482,33,Town: Remote,Yes,†,Yes,Yes,207,26,8,120,20
150003000286,HI-001-3-545,1500030,HI-001,KG,8,Ka Waihona o ka Naauao - New Century PCS,Hawaii Department of Education,Honolulu County,89-195 Farrington Hwy,Waianae,HI,96792,,(808)620-9030,21,Suburb: Large,Yes,†,Yes,Yes,738,55.5,13.3,326,75
150003000018,HI-001-4-320,1500030,HI-001,PK,6,Ka'ohao Public Charter School,Hawaii Department of Education,Honolulu County,140 Alala Rd,Kailua,HI,96734,,(808)266-7844,22,Suburb: Midsize,Yes,†,–,–,341,36.2,9.4,23,0
150003000004,HI-001-4-305,1500030,HI-001,PK,6,Kaaawa Elementary School,Hawaii Department of Education,Honolulu County,51-296 Kamehameha Hwy,Kaaawa,HI,96730,,(808)237-7751,31,Town: Fringe,No,†,Yes,Yes,132,9.5,13.9,40,16
150003000168,HI-001-2-211,1500030,HI-001,PK,5,Kaala Elementary School,Hawaii Department of Education,Honolulu County,130 California Ave,Wahiawa,HI,96786,,(808)622-6366,21,Suburb: Large,No,†,Yes,Yes,454,30,15.1,290,43
150003000005,HI-001-4-330,1500030,HI-001,PK,6,Kaelepulu Elementary School,Hawaii Department of Education,Honolulu County,530 Keolu Dr,Kailua,HI,96734,,(808)266-7811,22,Suburb: Midsize,No,†,–,–,209,14,14.9,26,6
150003000216,HI-001-1-113,1500030,HI-001,PK,5,Kaewai Elementary School,Hawaii Department of Education,Honolulu County,1929 Kamehameha IV Rd,Honolulu,HI,96819,,(808)832-3500,11,City: Large,No,†,Yes,Yes,307,25,12.3,223,18
150003000232,HI-001-5-371,1500030,HI-001,PK,5,Kahakai Elementary School,Hawaii Department of Education,Hawaii County,76-147 Royal Poinciana Dr,Kailua-Kona,HI,96740,,(808)327-4313,33,Town: Remote,No,†,Yes,Yes,759,44,17.3,372,96
150003000215,HI-001-1-114,1500030,HI-001,PK,5,Kahala Elementary School,Hawaii Department of Education,Honolulu County,4559 Kilauea Ave,Honolulu,HI,96816,,(808)733-8455,11,City: Large,No,†,–,–,397,25,15.9,58,15
150003000006,HI-001-4-306,1500030,HI-001,PK,6,Kahaluu Elementary School,Hawaii Department of Education,Honolulu County,47-280 Waihee Rd,Kaneohe,HI,96744,,(808)239-3101,22,Suburb: Midsize,No,†,Yes,Yes,276,22,12.5,139,27
150003000236,HI-001-4-331,1500030,HI-001,PK,6,Kahuku Elementary School,Hawaii Department of Education,Honolulu County,56-170 Pualalea St,Kahuku,HI,96731,,(808)293-8980,31,Town: Fringe,No,†,Yes,Yes,430,29,14.8,180,77
150003000007,HI-001-4-307,1500030,HI-001,7,12,Kahuku High & Intermediate School,Hawaii Department of Education,Honolulu County,56-490 Kamehameha Hwy,Kahuku,HI,96731,,(808)293-8950,31,Town: Fringe,No,†,Yes,Yes,1381,96,14.4,459,162
150003000060,HI-001-6-405,1500030,HI-001,PK,5,Kahului Elementary School,Hawaii Department of Education,Maui County,410 S Hina Ave,Kahului,HI,96732,,(808)873-3055,13,City: Small,No,†,Yes,Yes,1003,62,16.2,409,115
150003000008,HI-001-4-308,1500030,HI-001,PK,6,Kailua Elementary School,Hawaii Department of Education,Honolulu County,315 Kuulei Rd,Kailua,HI,96734,,(808)266-7878,22,Suburb: Midsize,No,†,Yes,Yes,347,22,15.8,140,26
150003000009,HI-001-4-309,1500030,HI-001,9,12,Kailua High School,Hawaii Department of Education,Honolulu County,451 Ulumanu Dr,Kailua,HI,96734,,(808)266-7900,22,Suburb: Midsize,No,†,Yes,Yes,804,48.5,16.6,275,91
150003000010,HI-001-4-310,1500030,HI-001,7,8,Kailua Intermediate School,Hawaii Department of Education,Honolulu County,145 South Kainalu Dr,Kailua,HI,96734,,(808)263-1500,22,Suburb: Midsize,No,†,–,–,775,51,15.2,164,61
150003000127,HI-001-3-281,1500030,HI-001,PK,6,Kaimiloa Elementary School,Hawaii Department of Education,Honolulu County,91-1028 Kaunolu St,Ewa Beach,HI,96706,,(808)689-1280,21,Suburb: Large,No,†,Yes,Yes,647,43,15,269,95
150003000212,HI-001-1-115,1500030,HI-001,9,12,Kaimuki High School,Hawaii Department of Education,Honolulu County,2705 Kaimuki Ave,Honolulu,HI,96816,,(808)733-4900,11,City: Large,No,†,Yes,Yes,702,52.5,13.4,352,59
150003000211,HI-001-1-116,1500030,HI-001,6,8,Kaimuki Middle School,Hawaii Department of Education,Honolulu County,631 18th Ave,Honolulu,HI,96816,,(808)733-4800,11,City: Large,No,†,–,–,989,58,17.1,125,74
150003000011,HI-001-4-311,1500030,HI-001,PK,6,Kainalu Elementary School,Hawaii Department of Education,Honolulu County,165 Kaiholu St,Kailua,HI,96734,,(808)266-7835,22,Suburb: Midsize,No,†,–,–,424,27,15.7,75,19
150003000083,HI-001-7-453,1500030,HI-001,PK,5,Kalaheo Elementary School,Hawaii Department of Education,Kauai County,4400 Maka Rd,Kalaheo,HI,96741,,(808)332-6801,33,Town: Remote,No,†,–,–,410,30.5,13.4,102,36
150003000012,HI-001-4-312,1500030,HI-001,9,12,Kalaheo High School,Hawaii Department of Education,Honolulu County,730 Iliaina St,Kailua,HI,96734,,(808)254-7900,22,Suburb: Midsize,No,†,–,–,759,48.5,15.6,99,40
150003000163,HI-001-1-119,1500030,HI-001,9,12,Kalani High School,Hawaii Department of Education,Honolulu County,4680 Kalanianaole Hwy,Honolulu,HI,96821,,(808)377-7744,21,Suburb: Large,No,†,–,–,1422,79,18,173,79
150003000239,HI-001-3-287,1500030,HI-001,PK,6,Kaleiopuu Elementary School,Hawaii Department of Education,Honolulu County,94-665 Kaaholo St,Waipahu,HI,96797,,(808)675-0266,21,Suburb: Large,No,†,–,–,903,51,17.7,336,102
150003000162,HI-001-1-120,1500030,HI-001,PK,5,Kalihi Elementary School,Hawaii Department of Education,Honolulu County,2471 Kula Kolea Dr,Honolulu,HI,96819,,(808)832-3177,41,Rural: Fringe,No,†,Yes,Yes,248,20,12.4,182,19
150003000160,HI-001-1-121,1500030,HI-001,PK,5,Kalihi Kai Elementary School,Hawaii Department of Education,Honolulu County,626 McNeill St,Honolulu,HI,96817,,(808)832-3322,11,City: Large,No,†,Yes,Yes,558,42,13.3,256,81
150003000210,HI-001-1-122,1500030,HI-001,PK,5,Kalihi Uka Elementary School,Hawaii Department of Education,Honolulu County,2411 Kalihi St,Honolulu,HI,96819,,(808)832-3310,11,City: Large,No,†,Yes,Yes,246,16.5,14.9,110,52
150003000209,HI-001-1-123,1500030,HI-001,PK,5,Kalihi Waena Elementary School,Hawaii Department of Education,Honolulu County,1240 Gulick Ave,Honolulu,HI,96819,,(808)832-3210,11,City: Large,No,†,Yes,Yes,469,33,14.2,271,67
150003000240,HI-001-3-275,1500030,HI-001,PK,12,Kamaile Academy PCS,Hawaii Department of Education,Honolulu County,85-180 Ala Akau St,Waianae,HI,96792,,(808)697-7110,41,Rural: Fringe,Yes,†,Yes,Yes,844,63,13.4,771,30
150003000303,HI-001-2-553,1500030,HI-001,PK,8,Kamalani Academy,Hawaii Department of Education,Honolulu County,1403 California Ave,Wahiawa,HI,96786,,(808)203-2992,21,Suburb: Large,Yes,†,–,–,297,15,19.8,98,44
150003000253,HI-001-6-431,1500030,HI-001,PK,5,Kamalii Elementary School,Hawaii Department of Education,Maui County,180 Kealii Alanui,Kihei,HI,96753,,(808)875-6840,31,Town: Fringe,No,†,–,–,485,31,15.6,106,30
150003000208,HI-001-1-155,1500030,HI-001,PK,5,Kamiloiki Elementary School,Hawaii Department of Education,Honolulu County,7788 Hawaii Kai Dr,Honolulu,HI,96825,,(808)397-5800,21,Suburb: Large,No,†,–,–,391,24.5,16,35,20
150003000013,HI-001-4-313,1500030,HI-001,PK,6,Kaneohe Elementary School,Hawaii Department of Education,Honolulu County,45-495 Kamehameha Hwy,Kaneohe,HI,96744,,(808)233-5633,22,Suburb: Midsize,No,†,–,–,635,40,15.9,138,48
150003000231,HI-001-3-283,1500030,HI-001,PK,6,Kanoelani Elementary School,Hawaii Department of Education,Honolulu County,94-1091 Oli Lp,Waipahu,HI,96797,,(808)675-0195,21,Suburb: Large,No,†,–,–,770,49,15.7,211,65
150003000263,HI-001-5-397,1500030,HI-001,KG,12,Kanu o ka Aina - New Century PCS,Hawaii Department of Education,Hawaii County,PO Box 398,Kamuela,HI,96743,,(808)887-8144,41,Rural: Fringe,Yes,†,Yes,Yes,548,27,20.3,287,36
150003000289,HI-001-7-564,1500030,HI-001,KG,12,Kanuikapono Learning Center,Hawaii Department of Education,Kauai County,PO Box 12,Anahola,HI,96703,,(808)822-9032,33,Town: Remote,Yes,†,Yes,Yes,187,9.25,20.2,81,7
150003000084,HI-001-7-454,1500030,HI-001,PK,5,Kapaa Elementary School,Hawaii Department of Education,Kauai County,4886 Kawaihau Rd,Kapaa,HI,96746,,(808)821-4424,33,Town: Remote,No,†,Yes,Yes,921,59,15.6,391,83
150003000085,HI-001-7-455,1500030,HI-001,9,12,Kapaa High School,Hawaii Department of Education,Kauai County,4695 Mailihuna Rd,Kapaa,HI,96746,,(808)821-4400,33,Town: Remote,No,†,–,–,1083,70,15.5,292,77
150003000255,HI-001-7-447,1500030,HI-001,6,8,Kapaa Middle School,Hawaii Department of Education,Kauai County,4867 Olohena Rd,Kapaa,HI,96746,,(808)821-4460,41,Rural: Fringe,No,†,Yes,Yes,607,29,20.9,225,71
150003000207,HI-001-1-124,1500030,HI-001,PK,5,Kapalama Elementary School,Hawaii Department of Education,Honolulu County,1601 North School St,Honolulu,HI,96817,,(808)832-3290,11,City: Large,No,†,Yes,Yes,595,35.5,16.8,214,95
150003000302,HI-001-3-555,1500030,HI-001,9,11,Kapolei Charter School by Goodwill Hawaii,Hawaii Department of Education,Honolulu County,2140 Lauwiliwili St,Kapolei,HI,96706,,(808)836-0313,41,Rural: Fringe,Yes,†,–,–,89,4,22.3,20,0
150003000166,HI-001-3-282,1500030,HI-001,PK,5,Kapolei Elementary School,Hawaii Department of Education,Honolulu County,91-1119 Kamaaha Lp,Kapolei,HI,96707,,(808)693-7000,21,Suburb: Large,No,†,–,–,828,61,13.6,279,68
150003000261,HI-001-3-292,1500030,HI-001,9,12,Kapolei High School,Hawaii Department of Education,Honolulu County,91-5007 Kapolei Pkwy,Kapolei,HI,96707,,(808)692-8200,21,Suburb: Large,No,†,–,–,1996,120.5,16.6,552,134
150003000259,HI-001-3-291,1500030,HI-001,6,8,Kapolei Middle School,Hawaii Department of Education,Honolulu County,91-5335 Kapolei Pkwy,Kapolei,HI,96707,,(808)693-7025,21,Suburb: Large,No,†,–,–,1526,97,15.7,537,110
150003000014,HI-001-4-315,1500030,HI-001,PK,6,Kapunahala Elementary School,Hawaii Department of Education,Honolulu County,45-828 Anoi Rd,Kaneohe,HI,96744,,(808)233-5650,22,Suburb: Midsize,No,†,–,–,538,36,14.9,180,59
150003000038,HI-001-5-368,1500030,HI-001,PK,12,Kau High & Pahala Elementary School,Hawaii Department of Education,Hawaii County,PO Box 100,Pahala,HI,96777,,(808)928-2088,43,Rural: Remote,No,†,Yes,Yes,500,40,12.5,366,38
150003000086,HI-001-7-456,1500030,HI-001,9,12,Kauai High School,Hawaii Department of Education,Kauai County,3577 Lala Rd,Lihue,HI,96766,,(808)274-3160,33,Town: Remote,No,†,–,–,1154,69,16.7,317,67
150003000206,HI-001-1-125,1500030,HI-001,PK,5,Kauluwela Elementary School,Hawaii Department of Education,Honolulu County,1486 Aala St,Honolulu,HI,96817,,(808)587-4447,11,City: Large,No,†,Yes,Yes,414,27,15.3,287,39
150003000039,HI-001-5-369,1500030,HI-001,PK,6,Kaumana Elementary School,Hawaii Department of Education,Hawaii County,1710 Kaumana Dr,Hilo,HI,96720,,(808)974-4190,33,Town: Remote,No,†,Yes,Yes,261,18,14.5,129,17
150003000062,HI-001-6-407,1500030,HI-001,PK,6,Kaunakakai Elementary School,Hawaii Department of Education,Maui County,PO Box 1950,Kaunakakai,HI,96748,,(808)533-1730,43,Rural: Remote,No,†,Yes,Yes,293,19,15.4,182,36
150003000294,HI-001-7-565,1500030,HI-001,KG,12,Kawaikini NCPCS,Hawaii Department of Education,Kauai County,3-1821 J Kaumualii Hwy,Lihue,HI,96766,,(808)632-2032,41,Rural: Fringe,Yes,†,Yes,Yes,155,12.5,12.4,60,25
150003000278,HI-001-5-549,1500030,HI-001,7,12,Ke Ana Laahana - PCS,Hawaii Department of Education,Hawaii County,PO Box 4997,Hilo,HI,96720,,(808)961-6228,41,Rural: Fringe,Yes,†,Yes,Yes,38,5,7.6,23,0
150003000280,HI-001-7-556,1500030,HI-001,PK,12,Ke Kula Niihau o Kekaha Learning Center - A Laboratory PCS,Hawaii Department of Education,Kauai County,PO Box 129,Kekaha,HI,96752,129,(808)337-0481,33,Town: Remote,Yes,†,Yes,Yes,52,4,13,29,10
150003000287,HI-001-5-378,1500030,HI-001,PK,12,Ke Kula o Ehunuikaimalino,Hawaii Department of Education,Hawaii County,PO Box 9009,Kealakekua,HI,96750,,(808)323-1900,41,Rural: Fringe,No,†,Yes,Yes,216,17,12.7,127,22
150003000284,HI-001-5-563,1500030,HI-001,PK,8,Ke Kula o Nawahiokalaniopuu Iki - Laboratory PCS,Hawaii Department of Education,Hawaii County,16-120 Opukahaia St,Keaau,HI,96749,,(808)982-4260,41,Rural: Fringe,Yes,†,–,–,450,35.75,12.6,203,52
150003000276,HI-001-4-547,1500030,HI-001,PK,12,Ke Kula o Samuel M Kamakau - A Laboratory PCS,Hawaii Department of Education,Honolulu County,46-500 Kuneki St,Kaneohe,HI,96744,,(808)235-9175,22,Suburb: Midsize,Yes,†,–,–,120,9,13.3,42,15
150003000258,HI-001-5-353,1500030,HI-001,PK,5,Keaau Elementary School,Hawaii Department of Education,Hawaii County,16-680 Keaau-Pahoa Rd,Keaau,HI,96749,,(808)982-4210,41,Rural: Fringe,No,†,Yes,Yes,876,46,19,583,58
150003000260,HI-001-5-354,1500030,HI-001,9,12,Keaau High School,Hawaii Department of Education,Hawaii County,16-725 Keaau-Pahoa Rd,Keaau,HI,96749,,(808)982-4220,33,Town: Remote,No,†,Yes,Yes,1032,71,14.5,709,81
150003000040,HI-001-5-370,1500030,HI-001,6,8,Keaau Middle School,Hawaii Department of Education,Hawaii County,15-565 Keaau-Pahoa Rd,Keaau,HI,96749,,(808)982-4200,33,Town: Remote,No,†,Yes,Yes,712,48,14.8,513,58
150003000041,HI-001-5-388,1500030,HI-001,PK,5,Kealakehe Elementary School,Hawaii Department of Education,Hawaii County,74-5118 Kealakaa St,Kailua-Kona,HI,96740,,(808)327-4308,33,Town: Remote,No,†,Yes,Yes,966,65.5,14.7,544,108
150003000254,HI-001-5-392,1500030,HI-001,9,12,Kealakehe High School,Hawaii Department of Education,Hawaii County,74-5000 Puohulihuli St,Kailua-Kona,HI,96740,,(808)327-4300,41,Rural: Fringe,No,†,Yes,Yes,1374,75,18.3,558,136
150003000235,HI-001-5-390,1500030,HI-001,6,8,Kealakehe Intermediate School,Hawaii Department of Education,Hawaii County,74-5062 Onipaa St,Kailua-Kona,HI,96740,,(808)327-4314,33,Town: Remote,No,†,Yes,Yes,689,50,13.8,364,81
150003000042,HI-001-5-372,1500030,HI-001,PK,6,Keaukaha Elementary School,Hawaii Department of Education,Hawaii County,240 Desha Ave,Hilo,HI,96720,,(808)974-4181,33,Town: Remote,No,†,Yes,Yes,412,32,12.9,267,29
150003000088,HI-001-7-458,1500030,HI-001,PK,5,Kekaha Elementary School,Hawaii Department of Education,Kauai County,PO Box 580,Kekaha,HI,96752,,(808)337-7655,33,Town: Remote,No,†,Yes,Yes,316,22,14.4,151,49
150003000015,HI-001-4-317,1500030,HI-001,PK,6,Keolu Elementary School,Hawaii Department of Education,Honolulu County,1416 Keolu Dr,Kailua,HI,96734,,(808)266-7818,22,Suburb: Midsize,No,†,Yes,Yes,129,9,14.3,53,21
150003000244,HI-001-5-391,1500030,HI-001,PK,6,Keonepoko Elementary School,Hawaii Department of Education,Hawaii County,15-890 Kahakai Blvd,Pahoa,HI,96778,,(808)965-2131,33,Town: Remote,No,†,Yes,Yes,545,46,11.8,412,20
150003000291,HI-001-3-294,1500030,HI-001,PK,6,Keoneula Elementary School,Hawaii Department of Education,Honolulu County,91-970 Kaileolea Dr,Ewa Beach,HI,96706,,(808)689-1380,21,Suburb: Large,No,†,–,–,1082,58,18.7,204,73
150003000279,HI-001-6-554,1500030,HI-001,KG,12,Kihei Charter School,Hawaii Department of Education,Maui County,PO Box 1098,Kihei,HI,96753,,(808)875-0700,41,Rural: Fringe,Yes,†,–,–,652,37,17.6,110,49
150003000064,HI-001-6-409,1500030,HI-001,PK,5,Kihei Elementary School,Hawaii Department of Education,Maui County,250 E Lipoa St,Kihei,HI,96753,,(808)875-6818,31,Town: Fringe,No,†,Yes,Yes,704,50,14.1,285,92
150003000089,HI-001-7-459,1500030,HI-001,PK,6,Kilauea Elementary School,Hawaii Department of Education,Kauai County,2440 Kolo Rd,Kilauea,HI,96754,,(808)828-1212,33,Town: Remote,No,†,Yes,Yes,320,19,16.8,99,53
150003000065,HI-001-6-410,1500030,HI-001,PK,6,Kilohana Elementary School,Hawaii Department of Education,Maui County,HC 01,Kaunakakai,HI,96748,9701,(808)558-2200,42,Rural: Distant,No,†,Yes,Yes,77,8,9.6,47,11
150003000164,HI-001-1-118,1500030,HI-001,6,8,King David Kalakaua Middle School,Hawaii Department of Education,Honolulu County,821 Kalihi St,Honolulu,HI,96819,,(808)832-3130,11,City: Large,No,†,Yes,Yes,1090,60,18.2,547,143
150003000061,HI-001-6-406,1500030,HI-001,PK,5,King Kamehameha III Elementary School,Hawaii Department of Education,Maui County,611 Front St,Lahaina,HI,96761,,(808)662-3955,31,Town: Fringe,No,†,–,–,725,44,16.5,227,70
150003000242,HI-001-7-457,1500030,HI-001,PK,5,King Kaumualii Elementary School,Hawaii Department of Education,Kauai County,4381 Hanamaulu Rd,Lihue,HI,96766,,(808)241-3150,33,Town: Remote,No,†,Yes,Yes,606,45,13.5,221,75
150003000251,HI-001-6-435,1500030,HI-001,9,12,King Kekaulike High School,Hawaii Department of Education,Maui County,121 Kula Hwy,Pukalani,HI,96768,,(808)573-8710,31,Town: Fringe,No,†,Yes,Yes,1097,72,15.2,354,95
150003000201,HI-001-1-130,1500030,HI-001,PK,5,King Liholiho Elementary School,Hawaii Department of Education,Honolulu County,3430 Maunaloa Ave,Honolulu,HI,96816,,(808)733-4850,11,City: Large,No,†,Yes,Yes,479,28,17.1,104,42
150003000195,HI-001-1-135,1500030,HI-001,PK,5,King William Lunalilo Elementary School,Hawaii Department of Education,Honolulu County,810 Pumehana St,Honolulu,HI,96826,,(808)973-0270,11,City: Large,No,†,–,–,324,22.5,14.4,150,40
150003000167,HI-001-2-212,1500030,HI-001,PK,5,Kipapa Elementary School,Hawaii Department of Education,Honolulu County,95-076 Kipapa Dr,Mililani,HI,96789,,(808)627-7322,21,Suburb: Large,No,†,Yes,Yes,587,40,14.7,230,72
150003000250,HI-001-5-395,1500030,HI-001,PK,5,Kohala Elementary School,Hawaii Department of Education,Hawaii County,PO Box 819,Kapaau,HI,96755,,(808)889-7100,33,Town: Remote,No,†,Yes,Yes,341,23,14.8,167,46
150003000043,HI-001-5-373,1500030,HI-001,9,12,Kohala High School,Hawaii Department of Education,Hawaii County,PO Box 279,Kapaau,HI,96755,,(808)889-7117,33,Town: Remote,No,†,Yes,Yes,265,20,13.3,118,33
150003000267,HI-001-5-366,1500030,HI-001,6,8,Kohala Middle School,Hawaii Department of Education,Hawaii County,PO Box 777,Kapaau,HI,96755,,(808)889-7119,33,Town: Remote,No,†,Yes,Yes,183,14,13.1,87,26
150003000204,HI-001-1-127,1500030,HI-001,PK,5,Koko Head Elementary School,Hawaii Department of Education,Honolulu County,189 Lunalilo Home Rd,Honolulu,HI,96825,,(808)397-5811,21,Suburb: Large,No,†,–,–,284,20,14.2,31,13
150003000090,HI-001-7-460,1500030,HI-001,PK,5,Koloa Elementary School,Hawaii Department of Education,Kauai County,3223 Poipu Rd,Koloa,HI,96756,,(808)742-8460,33,Town: Remote,No,†,Yes,Yes,323,23,14,107,38
150003000293,HI-001-5-566,1500030,HI-001,KG,8,Kona Pacific - PCS,Hawaii Department of Education,Hawaii County,PO Box 115,Kealakekua,HI,96750,115,(808)322-4900,41,Rural: Fringe,Yes,†,Yes,Yes,218,18,12.1,84,22
150003000044,HI-001-5-375,1500030,HI-001,PK,5,Konawaena Elementary School,Hawaii Department of Education,Hawaii County,81-901 Onouli Rd,Kealakekua,HI,96750,,(808)323-4555,33,Town: Remote,No,†,Yes,Yes,563,33,17.1,303,55
150003000045,HI-001-5-374,1500030,HI-001,9,12,Konawaena High School,Hawaii Department of Education,Hawaii County,81-1043 Konawaena School Rd,Kealakekua,HI,96750,,(808)323-4500,41,Rural: Fringe,No,†,Yes,Yes,831,52,16,414,62
150003000252,HI-001-5-376,1500030,HI-001,6,8,Konawaena Middle School,Hawaii Department of Education,Hawaii County,81-1045 Konawaena School Rd,Kealakekua,HI,96750,,(808)323-4566,41,Rural: Fringe,No,†,Yes,Yes,660,42,15.7,337,48
150003000288,HI-001-5-557,1500030,HI-001,PK,12,Kua o ka La - NCPCS,Hawaii Department of Education,Hawaii County,14-5322 Kaimu-Kapoho Rd,Pahoa,HI,96778,,(808)965-5098,42,Rural: Distant,Yes,†,Yes,Yes,185,16,11.6,112,22
150003000066,HI-001-6-411,1500030,HI-001,PK,6,Kualapuu School - Public Conversion Charter,Hawaii Department of Education,Maui County,PO Box 260,Kualapuu,HI,96757,,(808)567-6900,43,Rural: Remote,Yes,†,Yes,Yes,315,25,12.6,181,81
150003000269,HI-001-7-466,1500030,HI-001,PK,12,Kula Aupuni Niihau A Kahelelani Aloha - NCPCS,Hawaii Department of Education,Kauai County,PO Box 610,Kekaha,HI,96752,,(808)337-2022,33,Town: Remote,Yes,†,Yes,Yes,50,5.5,9.1,33,11
150003000067,HI-001-6-412,1500030,HI-001,PK,5,Kula Elementary School,Hawaii Department of Education,Maui County,5000 Kula Hwy,Kula,HI,96790,8110,(808)876-7610,41,Rural: Fringe,No,†,–,–,451,32,14.1,162,37
150003000068,HI-001-6-413,1500030,HI-001,6,8,Lahaina Intermediate School,Hawaii Department of Education,Maui County,871 Lahainaluna Rd,Lahaina,HI,96761,,(808)662-3965,31,Town: Fringe,No,†,Yes,Yes,760,48,15.8,270,114
150003000069,HI-001-6-414,1500030,HI-001,9,12,Lahainaluna High School,Hawaii Department of Education,Maui County,980 Lahainaluna Rd,Lahaina,HI,96761,,(808)662-4000,41,Rural: Fringe,No,†,–,–,992,64,15.5,239,100
150003000017,HI-001-4-319,1500030,HI-001,PK,6,Laie Elementary School,Hawaii Department of Education,Honolulu County,55-109 Kulanui St,Laie,HI,96762,,(808)293-8965,31,Town: Fringe,No,†,Yes,Yes,651,36,18.1,236,111
150003000070,HI-001-6-415,1500030,HI-001,PK,12,Lanai High & Elementary School,Hawaii Department of Education,Maui County,PO Box 630630,Lanai City,HI,96763,,(808)565-7900,32,Town: Distant,No,†,–,–,562,43,13.1,176,50
150003000202,HI-001-1-129,1500030,HI-001,PK,5,Lanakila Elementary School,Hawaii Department of Education,Honolulu County,717 North Kuakini St,Honolulu,HI,96817,,(808)587-4466,11,City: Large,No,†,Yes,Yes,387,24,16.1,178,62
150003000046,HI-001-5-377,1500030,HI-001,PK,12,Laupahoehoe Community - PCS,Hawaii Department of Education,Hawaii County,PO Box 189,Laupahoehoe,HI,96764,,(808)962-2200,43,Rural: Remote,Yes,†,Yes,Yes,368,50,7.4,189,34
150003000126,HI-001-3-268,1500030,HI-001,PK,6,Lehua Elementary School,Hawaii Department of Education,Honolulu County,791 Lehua Ave,Pearl City,HI,96782,,(808)453-6490,21,Suburb: Large,No,†,Yes,Yes,288,18,16,118,39
150003000230,HI-001-3-271,1500030,HI-001,PK,6,Leihoku Elementary School,Hawaii Department of Education,Honolulu County,86-285 Leihoku St,Waianae,HI,96792,,(808)697-7100,21,Suburb: Large,No,†,Yes,Yes,878,60,14.6,574,80
150003000108,HI-001-2-214,1500030,HI-001,9,12,Leilehua High School,Hawaii Department of Education,Honolulu County,1515 California Ave,Wahiawa,HI,96786,,(808)622-6550,21,Suburb: Large,No,†,Yes,Yes,1718,111,15.5,645,242
150003000071,HI-001-6-416,1500030,HI-001,PK,5,Lihikai Elementary School,Hawaii Department of Education,Maui County,335 S Papa Ave,Kahului,HI,96732,,(808)873-3033,13,City: Small,No,†,Yes,Yes,871,55,15.8,376,138
150003000198,HI-001-1-133,1500030,HI-001,PK,1,Linapuni Elementary School,Hawaii Department of Education,Honolulu County,1434 Linapuni St,Honolulu,HI,96819,,(808)832-3303,11,City: Large,No,†,Yes,Yes,160,12,13.3,147,3
150003000238,HI-001-6-430,1500030,HI-001,6,8,Lokelani Intermediate School,Hawaii Department of Education,Maui County,1401 Liloa Dr,Kihei,HI,96753,,(808)875-6800,31,Town: Fringe,No,†,Yes,Yes,551,39,14.1,205,67
150003000170,HI-001-2-209,1500030,HI-001,PK,6,Lt Col Horrace Meek Hickam Elementary School,Hawaii Department of Education,Honolulu County,Manzelman Cir,Honolulu,HI,96818,,(808)421-4148,21,Suburb: Large,No,†,–,–,594,36,16.5,10,30
150003000196,HI-001-1-136,1500030,HI-001,PK,6,Maemae Elementary School,Hawaii Department of Education,Honolulu County,319 Wyllie St,Honolulu,HI,96817,,(808)595-5400,11,City: Large,No,†,–,–,691,40,17.3,104,35
150003000125,HI-001-3-257,1500030,HI-001,PK,6,Maili Elementary School,Hawaii Department of Education,Honolulu County,87-360 Kulaaupuni St,Waianae,HI,96792,,(808)697-7150,21,Suburb: Large,No,†,Yes,Yes,803,56.5,14.2,522,50
150003000146,HI-001-2-228,1500030,HI-001,PK,6,Major General William R Shafter Elementary School,Hawaii Department of Education,Honolulu County,2 Fort Shafter,Honolulu,HI,96819,4895,(808)832-3560,11,City: Large,No,†,–,–,423,29,14.6,59,94
150003000138,HI-001-2-236,1500030,HI-001,PK,5,Major Sheldon Wheeler Elementary School,Hawaii Department of Education,Honolulu County,1 Wheeler Army Airfield,Wahiawa,HI,96786,4198,(808)622-6400,21,Suburb: Large,No,†,–,–,735,50.5,14.6,213,129
150003000137,HI-001-2-237,1500030,HI-001,6,8,Major Sheldon Wheeler Middle School,Hawaii Department of Education,Honolulu County,2 Wheeler Army Airfield,Wahiawa,HI,96786,4199,(808)622-6525,21,Suburb: Large,No,†,–,–,800,52,15.4,202,141
150003000124,HI-001-3-258,1500030,HI-001,PK,6,Makaha Elementary School,Hawaii Department of Education,Honolulu County,84-200 Ala Naauao Pl,Waianae,HI,96792,,(808)695-7900,21,Suburb: Large,No,†,Yes,Yes,547,45,12.2,354,54
150003000123,HI-001-3-259,1500030,HI-001,PK,5,Makakilo Elementary School,Hawaii Department of Education,Honolulu County,92-675 Anipeahi St,Kapolei,HI,96707,,(808)672-1122,21,Suburb: Large,No,†,Yes,Yes,493,30.5,16.2,183,38
150003000107,HI-001-2-215,1500030,HI-001,PK,6,Makalapa Elementary School,Hawaii Department of Education,Honolulu County,4435 Salt Lake Blvd,Honolulu,HI,96818,,(808)421-4110,21,Suburb: Large,No,†,Yes,Yes,603,34,17.7,149,139
150003000072,HI-001-6-417,1500030,HI-001,PK,5,Makawao Elementary School,Hawaii Department of Education,Maui County,3542 Baldwin Ave,Makawao,HI,96768,,(808)573-8770,31,Town: Fringe,No,†,Yes,Yes,562,37,15.2,226,73
150003000299,HI-001-4-550,1500030,HI-001,KG,7,Malama Honua Learning Center PCS,Hawaii Department of Education,Honolulu County,41-054 Ehukai St,Waimanalo,HI,96795,,(808)259-5522,22,Suburb: Midsize,Yes,†,–,–,126,8,15.8,41,22
150003000122,HI-001-3-260,1500030,HI-001,PK,6,Manana Elementary School,Hawaii Department of Education,Honolulu County,1147 Kumano St,Pearl City,HI,96782,,(808)453-6430,21,Suburb: Large,No,†,–,–,373,23,16.2,106,30
150003000194,HI-001-1-137,1500030,HI-001,PK,5,Manoa Elementary School,Hawaii Department of Education,Honolulu County,3155 Manoa Rd,Honolulu,HI,96822,,(808)988-1868,11,City: Large,No,†,–,–,509,32,15.9,54,21
150003000073,HI-001-6-418,1500030,HI-001,9,12,Maui High School,Hawaii Department of Education,Maui County,660 S Lono Ave,Kahului,HI,96732,,(808)873-3000,13,City: Small,No,†,–,–,2017,118,17.1,523,188
150003000241,HI-001-6-428,1500030,HI-001,6,8,Maui Waena Intermediate School,Hawaii Department of Education,Maui County,795 Onehee Ave,Kahului,HI,96732,,(808)873-3070,13,City: Small,No,†,Yes,Yes,1155,72,16,417,132
150003000121,HI-001-3-286,1500030,HI-001,PK,5,Mauka Lani Elementary School,Hawaii Department of Education,Honolulu County,92-1300 Panana St,Kapolei,HI,96707,,(808)672-1100,21,Suburb: Large,No,†,Yes,Yes,623,43,14.5,244,50
150003000074,HI-001-6-419,1500030,HI-001,PK,6,Maunaloa Elementary School,Hawaii Department of Education,Maui County,PO Box 128,Maunaloa,HI,96770,,(808)552-2000,43,Rural: Remote,No,†,Yes,Yes,38,4,9.5,28,2
150003000019,HI-001-4-321,1500030,HI-001,PK,6,Maunawili Elementary School,Hawaii Department of Education,Honolulu County,1465 Ulupii St,Kailua,HI,96734,,(808)266-7822,22,Suburb: Midsize,No,†,–,–,364,24,15.2,83,30
150003000179,HI-001-1-153,1500030,HI-001,PK,5,Mayor John H Wilson Elementary School,Hawaii Department of Education,Honolulu County,4945 Kilauea Ave,Honolulu,HI,96816,,(808)733-4740,11,City: Large,No,†,–,–,577,34,17,31,29
150003000220,HI-001-1-107,1500030,HI-001,PK,5,Mayor Joseph J Fern Elementary School,Hawaii Department of Education,Honolulu County,1121 Middle St,Honolulu,HI,96819,,(808)832-3040,11,City: Large,No,†,Yes,Yes,445,31,14.4,302,49
150003000102,HI-001-2-216,1500030,HI-001,9,12,Mililani High School,Hawaii Department of Education,Honolulu County,95-1200 Meheula Pkwy,Mililani,HI,96789,,(808)627-7747,21,Suburb: Large,No,†,–,–,2616,147.5,17.7,298,94
150003000285,HI-001-2-240,1500030,HI-001,PK,5,Mililani Ike Elementary School,Hawaii Department of Education,Honolulu County,95-1330 Lehiwa Dr,Mililani,HI,96789,,(808)626-2980,21,Suburb: Large,No,†,–,–,642,37,17.4,22,11
150003000099,HI-001-2-241,1500030,HI-001,PK,5,Mililani Mauka Elementary School,Hawaii Department of Education,Honolulu County,95-1111 Makaikai St,Mililani,HI,96789,,(808)626-3350,21,Suburb: Large,No,†,–,–,785,51,15.4,87,32
150003000256,HI-001-2-238,1500030,HI-001,6,8,Mililani Middle School,Hawaii Department of Education,Honolulu County,95-1140 Lehiwa Dr,Mililani,HI,96789,,(808)626-7355,21,Suburb: Large,No,†,–,–,1886,100,18.9,276,87
150003000106,HI-001-2-242,1500030,HI-001,PK,5,Mililani Uka Elementary School,Hawaii Department of Education,Honolulu County,94-380 Kuahelani Ave,Mililani,HI,96789,,(808)627-7303,21,Suburb: Large,No,†,–,–,707,42,16.8,129,53
150003000105,HI-001-2-234,1500030,HI-001,PK,5,Mililani Waena Elementary School,Hawaii Department of Education,Honolulu County,95-502 Kipapa Dr,Mililani,HI,96789,,(808)627-7300,21,Suburb: Large,No,†,–,–,790,46,17.2,140,43
150003000104,HI-001-2-217,1500030,HI-001,PK,6,Moanalua Elementary School,Hawaii Department of Education,Honolulu County,1337 Mahiole St,Honolulu,HI,96819,,(808)831-7878,11,City: Large,No,†,–,–,647,38,17,83,49
150003000103,HI-001-2-218,1500030,HI-001,9,12,Moanalua High School,Hawaii Department of Education,Honolulu County,2825 Ala Ilima St,Honolulu,HI,96819,,(808)837-8455,11,City: Large,No,†,–,–,1976,121,16.3,293,150
150003000156,HI-001-2-219,1500030,HI-001,7,8,Moanalua Middle School,Hawaii Department of Education,Honolulu County,1289 Mahiole St,Honolulu,HI,96819,,(808)831-7850,11,City: Large,No,†,–,–,853,45.5,18.7,136,67
150003000020,HI-001-4-322,1500030,HI-001,PK,6,Mokapu Elementary School,Hawaii Department of Education,Honolulu County,KMCAS Bldg,Kailua,HI,96734,,(808)254-7964,22,Suburb: Midsize,No,†,–,–,937,53.5,17.5,53,125
150003000155,HI-001-2-220,1500030,HI-001,PK,6,Mokulele Elementary School,Hawaii Department of Education,Honolulu County,250 Aupaka St,Honolulu,HI,96818,,(808)421-4180,21,Suburb: Large,No,†,–,–,285,23,12.4,40,49
150003000075,HI-001-6-421,1500030,HI-001,9,12,Molokai High School,Hawaii Department of Education,Maui County,PO Box 158,Hoolehua,HI,96729,,(808)567-6950,43,Rural: Remote,No,†,Yes,Yes,321,24,13.4,176,36
150003000290,HI-001-6-434,1500030,HI-001,7,8,Molokai Middle School,Hawaii Department of Education,Maui County,PO Box 443,Hoolehua,HI,96729,,(808)567-6940,43,Rural: Remote,No,†,Yes,Yes,200,13.5,14.8,131,29
150003000120,HI-001-3-285,1500030,HI-001,PK,6,Momilani Elementary School,Hawaii Department of Education,Honolulu County,2130 Hookiekie St,Pearl City,HI,96782,,(808)453-6444,21,Suburb: Large,No,†,–,–,406,21,19.3,37,12
150003000047,HI-001-5-379,1500030,HI-001,PK,5,Mountain View Elementary School,Hawaii Department of Education,Hawaii County,PO Box 9,Mountain View,HI,96771,,(808)968-2300,42,Rural: Distant,No,†,Yes,Yes,480,34,14.1,379,27
150003000274,HI-001-1-544,1500030,HI-001,KG,12,Myron B. Thompson Academy - A New Century PCS,Hawaii Department of Education,Honolulu County,1040A Richards St,Honolulu,HI,96813,,(808)441-8000,11,City: Large,Yes,†,–,–,568,20,28.4,79,0
150003000264,HI-001-5-398,1500030,HI-001,PK,6,Na Wai Ola - PCS,Hawaii Department of Education,Hawaii County,PO Box 711539,Mountain View,HI,96771,,(808)968-2318,42,Rural: Distant,Yes,†,Yes,Yes,146,12,12.2,102,0
150003000048,HI-001-5-380,1500030,HI-001,PK,6,Naalehu Elementary School,Hawaii Department of Education,Hawaii County,PO Box 170,Naalehu,HI,96772,170,(808)939-2413,43,Rural: Remote,No,†,Yes,Yes,382,25,15.3,318,13
150003000119,HI-001-3-261,1500030,HI-001,PK,6,Nanaikapono Elementary School,Hawaii Department of Education,Honolulu County,89-153 Mano Ave,Waianae,HI,96792,,(808)668-5800,21,Suburb: Large,No,†,Yes,Yes,783,54,14.5,602,62
150003000118,HI-001-3-262,1500030,HI-001,PK,6,Nanakuli Elementary School,Hawaii Department of Education,Honolulu County,89-778 Haleakala Ave,Waianae,HI,96792,,(808)668-5813,21,Suburb: Large,No,†,Yes,Yes,401,26,15.4,290,31
150003000117,HI-001-3-263,1500030,HI-001,7,12,Nanakuli High & Intermediate School,Hawaii Department of Education,Honolulu County,89-980 Nanakuli Ave,Waianae,HI,96792,,(808)668-5823,21,Suburb: Large,No,†,Yes,Yes,1029,79,13,657,74
150003000091,HI-001-7-461,1500030,HI-001,PK,12,Niihau High & Elementary School,Hawaii Department of Education,Kauai County,c/o Waimea High School,Waimea,HI,96796,,(808)338-6800,33,Town: Remote,No,†,Yes,Yes,9,2,4.5,3,0
150003000192,HI-001-1-139,1500030,HI-001,6,8,Niu Valley Middle School,Hawaii Department of Education,Honolulu County,310 Halemaumau St,Honolulu,HI,96821,,(808)377-2440,21,Suburb: Large,No,†,–,–,858,48,17.9,76,32
150003000191,HI-001-1-140,1500030,HI-001,PK,5,Noelani Elementary School,Hawaii Department of Education,Honolulu County,2655 Woodlawn Dr,Honolulu,HI,96822,,(808)988-1858,11,City: Large,No,†,–,–,445,25,17.8,52,13
150003000190,HI-001-1-141,1500030,HI-001,PK,5,Nuuanu Elementary School,Hawaii Department of Education,Honolulu County,3055 Puiwa Ln,Honolulu,HI,96817,,(808)595-5422,11,City: Large,No,†,–,–,350,23,15.2,33,22
150003000098,HI-001-4-475,1500030,HI-001,7,12,Olomana School,Hawaii Department of Education,Honolulu County,42-522 Kalanianaole Hwy,Kailua,HI,96734,,(808)266-7866,41,Rural: Fringe,No,†,Yes,Yes,71,38.5,1.8,37,3
150003000049,HI-001-5-382,1500030,HI-001,PK,9,Paauilo Elementary & Intermediate School,Hawaii Department of Education,Hawaii County,PO Box 329,Paauilo,HI,96776,,(808)776-7710,42,Rural: Distant,No,†,Yes,Yes,205,14,14.6,96,10
150003000234,HI-001-5-381,1500030,HI-001,PK,6,Pahoa Elementary School,Hawaii Department of Education,Hawaii County,15-3030 Puna Rd,Pahoa,HI,96778,,(808)965-2141,33,Town: Remote,No,†,Yes,Yes,362,25,14.5,308,14
150003000050,HI-001-5-383,1500030,HI-001,7,12,Pahoa High & Intermediate School,Hawaii Department of Education,Hawaii County,15-3038 Puna Rd,Pahoa,HI,96778,,(808)965-2150,33,Town: Remote,No,†,Yes,Yes,549,37,14.8,426,18
150003000076,HI-001-6-422,1500030,HI-001,PK,5,Paia Elementary School,Hawaii Department of Education,Maui County,955 Baldwin Ave,Paia,HI,96779,,(808)579-2100,41,Rural: Fringe,No,†,Yes,Yes,440,29.5,14.9,188,58
150003000116,HI-001-3-264,1500030,HI-001,PK,6,Palisades Elementary School,Hawaii Department of Education,Honolulu County,2306 Auhuhu St,Pearl City,HI,96782,,(808)453-6550,21,Suburb: Large,No,†,–,–,438,27,16.2,113,31
150003000189,HI-001-1-142,1500030,HI-001,PK,5,Palolo Elementary School,Hawaii Department of Education,Honolulu County,2106 10th Ave,Honolulu,HI,96816,,(808)733-4700,11,City: Large,No,†,Yes,Yes,271,20.5,13.2,252,10
150003000188,HI-001-1-143,1500030,HI-001,PK,5,Pauoa Elementary School,Hawaii Department of Education,Honolulu County,2301 Pauoa Rd,Honolulu,HI,96813,,(808)587-4500,11,City: Large,No,†,Yes,Yes,294,21,14,123,33
150003000115,HI-001-3-265,1500030,HI-001,PK,6,Pearl City Elementary School,Hawaii Department of Education,Honolulu County,1090 Waimano Home Rd,Pearl City,HI,96782,,(808)453-6455,21,Suburb: Large,No,†,Yes,Yes,436,29,15,157,57
150003000114,HI-001-3-266,1500030,HI-001,9,12,Pearl City High School,Hawaii Department of Education,Honolulu County,2100 Hookiekie St,Pearl City,HI,96782,,(808)453-6500,21,Suburb: Large,No,†,–,–,1602,100,16,366,104
150003000113,HI-001-3-267,1500030,HI-001,PK,6,Pearl City Highlands School,Hawaii Department of Education,Honolulu County,1419 Waimanalo Home Rd,Pearl City,HI,96782,,(808)453-6470,21,Suburb: Large,No,†,–,–,539,28,19.3,97,30
150003000153,HI-001-2-222,1500030,HI-001,PK,6,Pearl Harbor Elementary School,Hawaii Department of Education,Honolulu County,1 Moanalua Ridge,Honolulu,HI,96818,3116,(808)421-4130,11,City: Large,No,†,Yes,Yes,550,37.5,14.7,166,100
150003000152,HI-001-2-223,1500030,HI-001,PK,6,Pearl Harbor Kai Elementary School,Hawaii Department of Education,Honolulu County,1 C Ave,Honolulu,HI,96818,4099,(808)421-4245,21,Suburb: Large,No,†,–,–,428,30.5,14,42,57
150003000151,HI-001-2-243,1500030,HI-001,PK,6,Pearl Ridge Elementary School,Hawaii Department of Education,Honolulu County,98-940 Moanalua Rd,Aiea,HI,96701,,(808)483-7250,21,Suburb: Large,No,†,–,–,527,33,16,93,34
150003000112,HI-001-3-269,1500030,HI-001,PK,6,Pohakea Elementary School,Hawaii Department of Education,Honolulu County,91-750 Fort Weaver Rd,Ewa Beach,HI,96706,,(808)689-1290,21,Suburb: Large,No,†,Yes,Yes,493,31,15.9,210,55
150003000292,HI-001-6-433,1500030,HI-001,PK,5,Pomaikai Elementary School,Hawaii Department of Education,Maui County,4650 S Kamehameha Ave,Kahului,HI,96732,,(808)876-7610,13,City: Small,No,†,–,–,606,40,15.2,68,50
150003000197,HI-001-1-134,1500030,HI-001,PK,5,President Abraham Lincoln Elementary School,Hawaii Department of Education,Honolulu County,615 Auwaiolimu St,Honolulu,HI,96813,,(808)587-4480,11,City: Large,No,†,Yes,Yes,341,23,14.8,162,37
150003000180,HI-001-1-152,1500030,HI-001,6,8,President George Washington Middle School,Hawaii Department of Education,Honolulu County,1633 South King St,Honolulu,HI,96826,,(808)973-0177,11,City: Large,No,†,Yes,Yes,785,55.5,14.1,346,84
150003000186,HI-001-1-146,1500030,HI-001,9,12,President Theodore Roosevelt High School,Hawaii Department of Education,Honolulu County,1120 Nehoa St,Honolulu,HI,96822,,(808)587-4600,11,City: Large,No,†,–,–,1372,79,17.4,422,131
150003000213,HI-001-1-111,1500030,HI-001,PK,5,President Thomas Jefferson Elementary School,Hawaii Department of Education,Honolulu County,324 Kapahulu Ave,Honolulu,HI,96815,,(808)971-6922,11,City: Large,No,†,Yes,Yes,386,25,15.4,176,40
150003000193,HI-001-1-138,1500030,HI-001,9,12,President William McKinley High School,Hawaii Department of Education,Honolulu County,1039 South King St,Honolulu,HI,96814,,(808)594-0400,11,City: Large,No,†,Yes,Yes,1592,91.5,17.4,667,153
150003000205,HI-001-1-126,1500030,HI-001,6,8,Prince David Kawananakoa Middle School,Hawaii Department of Education,Honolulu County,49 Funchal St,Honolulu,HI,96813,,(808)587-4430,11,City: Large,No,†,Yes,Yes,710,40,17.8,275,91
150003000036,HI-001-5-365,1500030,HI-001,PK,8,Prince Jonah Kalanianaole Elementary & Intermediate School,Hawaii Department of Education,Hawaii County,27-330 Old Mamalahoa Hwy,Papaikou,HI,96781,28,(808)964-9700,33,Town: Remote,No,†,Yes,Yes,331,26,12.7,229,10
150003000203,HI-001-1-128,1500030,HI-001,PK,5,Prince Jonah Kuhio Elementary School,Hawaii Department of Education,Honolulu County,2759 South King St,Honolulu,HI,96826,,(808)973-0085,11,City: Large,No,†,Yes,Yes,224,16,14,134,22
150003000200,HI-001-1-131,1500030,HI-001,PK,5,Princess Miriam K Likelike Elementary School,Hawaii Department of Education,Honolulu County,1618 Palama St,Honolulu,HI,96817,,(808)832-3370,11,City: Large,No,†,Yes,Yes,321,23,14,210,33
150003000237,HI-001-6-429,1500030,HI-001,PK,5,Princess Nahienaena Elementary School,Hawaii Department of Education,Maui County,816 Niheu St,Lahaina,HI,96761,,(808)662-4020,31,Town: Fringe,No,†,Yes,Yes,769,52,14.8,271,108
150003000165,HI-001-1-117,1500030,HI-001,PK,5,Princess Victoria Kaiulani Elementary School,Hawaii Department of Education,Honolulu County,783 North King St,Honolulu,HI,96817,,(808)832-3160,11,City: Large,No,†,Yes,Yes,344,24,14.3,261,29
150003000077,HI-001-6-426,1500030,HI-001,PK,5,Pukalani Elementary School,Hawaii Department of Education,Maui County,2945 Iolani St,Pukalani,HI,96768,,(808)573-8760,31,Town: Fringe,No,†,Yes,Yes,405,27,15,156,41
150003000023,HI-001-4-314,1500030,HI-001,PK,8,Puohala Elementary School,Hawaii Department of Education,Honolulu County,45-233 Kulauli St,Kaneohe,HI,96744,,(808)233-5660,22,Suburb: Midsize,No,†,Yes,Yes,257,19.5,13.2,122,31
150003000297,HI-001-6-436,1500030,HI-001,PK,5,Puu Kukui Elementary School,Hawaii Department of Education,Maui County,3700 Kehalani Mauka Parkway,Wailuku,HI,96793,,(808)727-3000,13,City: Small,No,†,–,–,774,44,17.6,195,52
150003000187,HI-001-1-145,1500030,HI-001,PK,5,Puuhale Elementary School,Hawaii Department of Education,Honolulu County,345 Puuhale Rd,Honolulu,HI,96819,,(808)832-3190,11,City: Large,No,†,Yes,Yes,236,15.5,15.2,138,31
150003000217,HI-001-1-112,1500030,HI-001,PK,5,Queen Kaahumanu Elementary School,Hawaii Department of Education,Honolulu County,1141 Kinau St,Honolulu,HI,96814,,(808)587-4414,11,City: Large,No,†,Yes,Yes,521,36.5,14.3,273,40
150003000149,HI-001-2-225,1500030,HI-001,PK,6,Red Hill Elementary School,Hawaii Department of Education,Honolulu County,1265 Ala Kula Pl,Honolulu,HI,96819,,(808)831-7866,11,City: Large,No,†,Yes,Yes,474,29,16.3,98,82
150003000021,HI-001-4-323,1500030,HI-001,PK,6,Reverend Benjamin Parker Elementary School,Hawaii Department of Education,Honolulu County,45-259 Waikalua Rd,Kaneohe,HI,96744,,(808)233-5686,22,Suburb: Midsize,No,†,Yes,Yes,327,25,13.1,139,44
150003000184,HI-001-1-148,1500030,HI-001,6,8,Robert Louis Stevenson Middle School,Hawaii Department of Education,Honolulu County,1202 Prospect St,Honolulu,HI,96822,,(808)587-4520,11,City: Large,No,†,Yes,Yes,660,44,15,245,56
150003000185,HI-001-1-147,1500030,HI-001,PK,5,Royal Elementary School,Hawaii Department of Education,Honolulu County,1519 Queen Emma St,Honolulu,HI,96813,,(808)587-4510,11,City: Large,No,†,Yes,Yes,360,23,15.7,163,40
150003000148,HI-001-2-239,1500030,HI-001,PK,6,Salt Lake Elementary School,Hawaii Department of Education,Honolulu County,1131 Ala Lilikoi St,Honolulu,HI,96818,,(808)831-7870,11,City: Large,No,†,Yes,Yes,738,45,16.4,270,98
150003000233,HI-001-6-420,1500030,HI-001,6,8,Samuel Enoka Kalama Intermediate School,Hawaii Department of Education,Maui County,120 Makani Rd,Makawao,HI,96768,,(808)573-8735,31,Town: Fringe,No,†,Yes,Yes,900,64,14.1,361,97
150003000298,HI-001-1-567,1500030,HI-001,6,8,School for Examining Essential Questions of Sustainability,Hawaii Department of Education,Honolulu County,845 22nd Ave,Honolulu,HI,96816,,(808)677-3377,11,City: Large,Yes,†,–,–,185,17,10.9,31,12
150003000145,HI-001-2-226,1500030,HI-001,PK,5,Sergeant Samuel K Solomon Elementary School,Hawaii Department of Education,Honolulu County,1 Schofield Barracks,Wahiawa,HI,96786,3799,(808)624-9500,21,Suburb: Large,No,†,Yes,Yes,880,59,14.9,269,191
150003000024,HI-001-4-325,1500030,HI-001,PK,6,Sunset Beach Elementary School,Hawaii Department of Education,Honolulu County,59-360 Kamehameha Hwy,Haleiwa,HI,96712,,(808)638-8777,41,Rural: Fringe,No,†,–,–,402,26,15.5,86,23
150003000273,HI-001-1-543,1500030,HI-001,KG,12,University Laboratory School,Hawaii Department of Education,Honolulu County,1776 University Ave,Honolulu,HI,96822,,(808)956-7833,11,City: Large,Yes,†,–,–,437,35,12.5,32,12
150003000281,HI-001-5-560,1500030,HI-001,PK,8,Volcano School of Arts & Sciences - A Community PCS,Hawaii Department of Education,Hawaii County,PO Box 845,Volcano,HI,96785,,(808)985-9800,43,Rural: Remote,Yes,†,Yes,Yes,191,21.25,9,75,0
150003000271,HI-001-1-541,1500030,HI-001,KG,8,Voyager - A Public Charter School,Hawaii Department of Education,Honolulu County,2428 Wilder Ave,Honolulu,HI,96822,,(808)521-9770,11,City: Large,Yes,†,–,–,291,21,13.9,42,0
150003000144,HI-001-2-229,1500030,HI-001,PK,5,Wahiawa Elementary School,Hawaii Department of Education,Honolulu County,1402 Glen Ave,Wahiawa,HI,96786,,(808)622-6393,21,Suburb: Large,No,†,Yes,Yes,431,31,13.9,254,41
150003000143,HI-001-2-230,1500030,HI-001,6,8,Wahiawa Middle School,Hawaii Department of Education,Honolulu County,275 Rose St,Wahiawa,HI,96786,,(808)622-6500,41,Rural: Fringe,No,†,Yes,Yes,826,54,15.3,444,92
150003000025,HI-001-4-326,1500030,HI-001,PK,6,Waiahole Elementary School,Hawaii Department of Education,Honolulu County,48-215 Waiahole Valley Rd,Kaneohe,HI,96744,,(808)239-3111,41,Rural: Fringe,No,†,Yes,Yes,71,8.5,8.4,35,9
150003000051,HI-001-5-384,1500030,HI-001,PK,5,Waiakea Elementary School,Hawaii Department of Education,Hawaii County,180 W Puainako St,Hilo,HI,96720,,(808)981-7215,33,Town: Remote,No,†,Yes,Yes,878,58,15.1,446,67
150003000052,HI-001-5-389,1500030,HI-001,9,12,Waiakea High School,Hawaii Department of Education,Hawaii County,155 W Kawili St,Hilo,HI,96720,,(808)974-4888,33,Town: Remote,No,†,Yes,Yes,1241,78,15.9,432,111
150003000053,HI-001-5-385,1500030,HI-001,6,8,Waiakea Intermediate School,Hawaii Department of Education,Hawaii County,200 W Puainako St,Hilo,HI,96720,,(808)981-7231,33,Town: Remote,No,†,Yes,Yes,891,58,15.4,372,78
150003000054,HI-001-5-386,1500030,HI-001,PK,5,Waiakeawaena Elementary School,Hawaii Department of Education,Hawaii County,2420 Kilauea Ave,Hilo,HI,96720,,(808)981-7200,33,Town: Remote,No,†,Yes,Yes,715,50,14.3,341,60
150003000183,HI-001-1-149,1500030,HI-001,PK,5,Waialae Elementary - PCS,Hawaii Department of Education,Honolulu County,1045 19th Ave,Honolulu,HI,96816,,(808)733-4880,11,City: Large,Yes,†,–,–,509,40,12.7,46,0
150003000142,HI-001-2-231,1500030,HI-001,PK,6,Waialua Elementary School,Hawaii Department of Education,Honolulu County,67-020 Waialua Beach Rd,Waialua,HI,96791,,(808)637-8228,31,Town: Fringe,No,†,Yes,Yes,523,29,18,165,87
150003000141,HI-001-2-232,1500030,HI-001,7,12,Waialua High & Intermediate School,Hawaii Department of Education,Honolulu County,67-160 Farrington Hwy,Waialua,HI,96791,,(808)637-8200,31,Town: Fringe,No,†,–,–,666,45.5,14.6,188,73
150003000111,HI-001-3-270,1500030,HI-001,PK,6,Waianae Elementary School,Hawaii Department of Education,Honolulu County,85-220 McArthur St,Waianae,HI,96792,,(808)697-7083,21,Suburb: Large,No,†,Yes,Yes,497,31,16,386,31
150003000110,HI-001-3-272,1500030,HI-001,9,12,Waianae High School,Hawaii Department of Education,Honolulu County,85-251 Farrington Hwy,Waianae,HI,96792,,(808)697-7017,21,Suburb: Large,No,†,Yes,Yes,1714,124,13.8,1033,102
150003000229,HI-001-3-273,1500030,HI-001,7,8,Waianae Intermediate School,Hawaii Department of Education,Honolulu County,85-626 Farrington Hwy,Waianae,HI,96792,,(808)697-7121,21,Suburb: Large,No,†,Yes,Yes,974,60,16.2,659,73
150003000109,HI-001-3-288,1500030,HI-001,PK,6,Waiau Elementary School,Hawaii Department of Education,Honolulu County,98-450 Hookanike St,Pearl City,HI,96782,,(808)453-6530,21,Suburb: Large,No,†,Yes,Yes,489,36,13.6,167,60
150003000079,HI-001-6-424,1500030,HI-001,PK,5,Waihee Elementary School,Hawaii Department of Education,Maui County,2125 Kahekili Hwy,Wailuku,HI,96793,,(808)984-5644,41,Rural: Fringe,No,†,Yes,Yes,617,44,14,253,91
150003000257,HI-001-3-290,1500030,HI-001,PK,6,Waikele Elementary School,Hawaii Department of Education,Honolulu County,94-1035 Kukula St,Waipahu,HI,96797,,(808)677-6100,21,Suburb: Large,No,†,–,–,579,41,14.1,150,41
150003000182,HI-001-1-150,1500030,HI-001,PK,5,Waikiki Elementary School,Hawaii Department of Education,Honolulu County,3710 Leahi Ave,Honolulu,HI,96815,,(808)971-6900,11,City: Large,No,†,–,–,600,32.5,18.5,89,44
150003000247,HI-001-5-393,1500030,HI-001,PK,8,Waikoloa Elementary and Middle School,Hawaii Department of Education,Hawaii County,68-1730 Hooko St,Waikoloa,HI,96738,,(808)883-6808,41,Rural: Fringe,No,†,Yes,Yes,845,54.5,15.5,378,80
150003000080,HI-001-6-425,1500030,HI-001,PK,5,Wailuku Elementary School,Hawaii Department of Education,Maui County,355 S High St,Wailuku,HI,96793,,(808)984-5622,13,City: Small,No,†,Yes,Yes,696,49,14.2,352,53
150003000140,HI-001-2-233,1500030,HI-001,PK,6,Waimalu Elementary School,Hawaii Department of Education,Honolulu County,98-825 Moanalua Rd,Aiea,HI,96701,,(808)483-7210,21,Suburb: Large,No,†,Yes,Yes,417,31,13.5,168,56
150003000026,HI-001-4-327,1500030,HI-001,PK,8,Waimanalo Elementary & Intermediate School,Hawaii Department of Education,Honolulu County,41-1330 Kalanianaole Hwy,Waimanalo,HI,96795,,(808)259-0460,22,Suburb: Midsize,No,†,Yes,Yes,431,31,13.9,269,44
150003000092,HI-001-7-464,1500030,HI-001,6,8,Waimea Canyon Middle School,Hawaii Department of Education,Kauai County,PO Box 518,Waimea,HI,96796,,(808)338-6830,33,Town: Remote,No,†,Yes,Yes,501,34,14.7,212,63
150003000055,HI-001-5-387,1500030,HI-001,PK,5,Waimea Elementary School,Hawaii Department of Education,Hawaii County,67-1225 Mamalahoa Hwy,Kamuela,HI,96743,,(808)887-7636,33,Town: Remote,No,†,Yes,Yes,518,36,14.4,303,46
150003000093,HI-001-7-462,1500030,HI-001,9,12,Waimea High School,Hawaii Department of Education,Kauai County,PO Box 339,Waimea,HI,96796,,(808)338-6800,33,Town: Remote,No,†,Yes,Yes,621,42.5,14.6,226,77
150003000268,HI-001-5-394,1500030,HI-001,6,8,Waimea Middle - PCCS,Hawaii Department of Education,Hawaii County,67-1229 Mamalahoa Hwy,Kamuela,HI,96743,,(808)887-6090,33,Town: Remote,Yes,†,–,–,259,22.5,11.5,177,20
150003000159,HI-001-3-274,1500030,HI-001,PK,6,Waipahu Elementary School,Hawaii Department of Education,Honolulu County,94-465 Waipahu St,Waipahu,HI,96797,,(808)675-0150,21,Suburb: Large,No,†,Yes,Yes,1021,78,13.1,675,99
150003000161,HI-001-3-277,1500030,HI-001,9,12,Waipahu High School,Hawaii Department of Education,Honolulu County,94-1211 Farrington Hwy,Waipahu,HI,96797,,(808)675-0222,21,Suburb: Large,No,†,Yes,Yes,2682,159,16.9,972,374
150003000158,HI-001-3-278,1500030,HI-001,7,8,Waipahu Intermediate School,Hawaii Department of Education,Honolulu County,94-455 Farrington Hwy,Waipahu,HI,96797,,(808)675-0177,21,Suburb: Large,No,†,Yes,Yes,1275,80,15.9,524,163
150003000265,HI-001-5-399,1500030,HI-001,6,12,West Hawaii Explorations Academy,Hawaii Department of Education,Hawaii County,73-4460 Queen Kaahumanu Hwy,Kailua-Kona,HI,96740,,(808)327-4751,41,Rural: Fringe,Yes,†,–,–,266,18.5,14.4,78,36
150003000218,HI-001-1-110,1500030,HI-001,6,8,William P Jarrett Middle School,Hawaii Department of Education,Honolulu County,1903 Palolo Ave,Honolulu,HI,96816,,(808)733-4888,11,City: Large,No,†,Yes,Yes,275,24,11.5,181,14
