NCES School ID,State School ID,NCES District ID,State District ID,Low Grade*,High Grade*,School Name,District,County Name*,Street Address,City,State,ZIP,ZIP 4-digit,Phone,Locale Code*,Locale*,Charter,Magnet*,Title I School*,Title 1 School Wide*,Students*,Teachers*,Student Teacher Ratio*,Free Lunch*,Reduced Lunch*
464839001338,SD-17002-06,4648390,SD-17002,KG,8,Abbott House Elementary - 06,Mitchell School District 17-2,Davison County,909 Court Merrill St,Mitchell,SD,57301,,(605)996-2486,33,Town: Remote,No,†,–,–,9,3,3,3,0
464839001337,SD-17002-07,4648390,SD-17002,9,12,Abbott House High School - 07,Mitchell School District 17-2,Davison County,909 Court Merrill St,Mitchell,SD,57301,,(605)996-2486,33,Town: Remote,No,†,–,–,22,0.25,88,2,1
460002800013,SD-61001-04,4600028,SD-61001,PK,6,Alcester-Hudson Elementary - 04,Alcester-Hudson School District 61-1,Union County,409 E 6th St,Alcester,SD,57001,,(605)934-2171,43,Rural: Remote,No,†,Yes,Yes,243,16.82,14.4,59,12
460002800014,SD-61001-01,4600028,SD-61001,9,12,Alcester-Hudson High School - 01,Alcester-Hudson School District 61-1,Union County,PO Box 198,Alcester,SD,57001,198,(605)934-1890,43,Rural: Remote,No,†,Yes,No,87,9.59,9.1,21,3
460002800874,SD-61001-03,4600028,SD-61001,7,8,Alcester-Hudson Jr. High - 03,Alcester-Hudson School District 61-1,Union County,PO Box 198,Alcester,SD,57001,198,(605)934-1890,43,Rural: Remote,No,†,Yes,No,56,3.33,16.8,12,6
466627001128,SD-49005-50,4666270,SD-49005,KG,5,All City Elementary - 50,Sioux Falls School District 49-5,Minnehaha County,2511 W Brookings St,Sioux Falls,SD,57104,1726,(605)367-6120,12,City: Midsize,No,†,–,–,150,8.48,17.7,14,2
463954000359,SD-11001-02,4639540,SD-11001,PK,5,Andes Central Elementary - 02,Andes Central School District 11-1,Charles Mix County,1001 High St,Lake Andes,SD,57356,,(605)487-5243,43,Rural: Remote,No,†,Yes,Yes,180,15.95,11.3,180,0
463954000360,SD-11001-01,4639540,SD-11001,9,12,Andes Central High School - 01,Andes Central School District 11-1,Charles Mix County,1001 High St,Lake Andes,SD,57356,40,(605)487-7671,43,Rural: Remote,No,†,Yes,Yes,58,7.29,8,58,0
463954000850,SD-11001-04,4639540,SD-11001,6,8,Andes Central Middle School - 04,Andes Central School District 11-1,Charles Mix County,1001 High St,Lake Andes,SD,57356,,(605)487-5207,43,Rural: Remote,No,†,Yes,Yes,55,7.52,7.3,55,0
466627000770,SD-49005-20,4666270,SD-49005,PK,5,Anne Sullivan Elementary - 20,Sioux Falls School District 49-5,Minnehaha County,3701 E 3rd St,Sioux Falls,SD,57103,6629,(605)367-6084,12,City: Midsize,No,†,Yes,Yes,625,38.14,16.4,350,104
466627001368,SD-49005-71,4666270,SD-49005,KG,12,ARISE Shelter Care - 71,Sioux Falls School District 49-5,Minnehaha County,201 N West Ave,Sioux Falls,SD,57104,,(605)367-7647,12,City: Midsize,No,†,–,–,7,1,7,†,†
460372000021,SD-38001-02,4603720,SD-38001,KG,6,Arlington Elementary - 02,Arlington School District 38-1,Kingsbury County,PO Box 359,Arlington,SD,57212,,(605)983-5741,43,Rural: Remote,No,†,Yes,No,137,10.39,13.2,24,4
460372000022,SD-38001-01,4603720,SD-38001,9,12,Arlington High School - 01,Arlington School District 38-1,Kingsbury County,PO Box 359,Arlington,SD,57212,,(605)983-5598,43,Rural: Remote,No,†,Yes,No,76,9.05,8.4,13,1
460372000877,SD-38001-03,4603720,SD-38001,7,8,Arlington Jr. High - 03,Arlington School District 38-1,Kingsbury County,PO Box 359,Arlington,SD,57212,,(605)983-5598,43,Rural: Remote,No,†,Yes,No,41,2.29,17.9,4,4
460372001381,SD-38001-04,4603720,SD-38001,PK,PK,Arlington Preschool - 04,Arlington School District 38-1,Kingsbury County,PO Box 359,Arlington,SD,57212,,(605)983-5597,43,Rural: Remote,No,†,Yes,No,19,0.47,40.4,2,1
460378000023,SD-21001-02,4603780,SD-21001,KG,5,Armour Elementary - 02,Armour School District 21-1,Douglas County,PO Box 640,Armour,SD,57313,640,(605)724-2698,43,Rural: Remote,No,†,Yes,Yes,81,6.3,12.9,22,9
460378000024,SD-21001-01,4603780,SD-21001,9,12,Armour High School - 01,Armour School District 21-1,Douglas County,PO Box 640,Armour,SD,57313,640,(605)724-2153,43,Rural: Remote,No,†,Yes,No,59,7.07,8.3,11,2
460378000878,SD-21001-03,4603780,SD-21001,6,8,Armour Middle School - 03,Armour School District 21-1,Douglas County,PO Box 640,Armour,SD,57313,640,(605)724-2698,43,Rural: Remote,No,†,Yes,Yes,37,4.77,7.8,6,6
466993001236,SD-46001-17,4669930,SD-46001,KG,8,Atall Elementary - 17,Meade School District 46-1,Meade County,603 Garfield St,Whitewood,SD,57793,,(605)269-2264,43,Rural: Remote,No,†,–,–,11,2.27,4.8,0,0
465571001274,SD-01001-05,4655710,SD-01001,9,12,Aurora Plains Academy High School - 05,Plankinton School District 01-1,Aurora County,1400 E 10th St,Plankinton,SD,57368,,(605)942-5437,43,Rural: Remote,No,†,–,–,31,5.34,5.8,0,0
465571001276,SD-01001-04,4655710,SD-01001,4,8,Aurora Plains Academy Middle School - 04,Plankinton School District 01-1,Aurora County,1400 E 10th St,Plankinton,SD,57368,,(605)942-5437,43,Rural: Remote,No,†,–,–,14,4.66,3,0,0
467437000300,SD-13001-03,4674370,SD-13001,PK,1,Austin Elementary - 03,Vermillion School District 13-1,Clay County,300 High St,Vermillion,SD,57069,2023,(605)677-7010,32,Town: Distant,No,†,Yes,Yes,279,17.68,15.8,73,12
460427000028,SD-04001-02,4604270,SD-04001,KG,6,Avon Elementary - 02,Avon School District 04-1,Bon Homme County,PO Box 407,Avon,SD,57315,407,(605)286-3291,43,Rural: Remote,No,†,Yes,Yes,119,10.6,11.2,29,7
460427000029,SD-04001-01,4604270,SD-04001,9,12,Avon High School - 01,Avon School District 04-1,Bon Homme County,PO Box 407,Avon,SD,57315,407,(605)286-3291,43,Rural: Remote,No,†,Yes,No,69,7.33,9.4,14,7
460427000829,SD-04001-05,4604270,SD-04001,7,8,Avon Jr. High - 05,Avon School District 04-1,Bon Homme County,PO Box 407,Avon,SD,57315,407,(605)286-3291,43,Rural: Remote,No,†,Yes,Yes,40,2.54,15.7,16,2
460427001325,SD-04001-06,4604270,SD-04001,PK,PK,Avon Preschool - 06,Avon School District 04-1,Bon Homme County,PO Box 407,Avon,SD,57315,407,(605)286-3291,43,Rural: Remote,No,†,Yes,No,10,0.6,16.7,0,0
460468000035,SD-49001-02,4604680,SD-49001,PK,5,Baltic Elementary - 02,Baltic School District 49-1,Minnehaha County,PO Box 309,Baltic,SD,57003,309,(605)529-5464,42,Rural: Distant,No,†,Yes,No,256,17.3,14.8,37,12
460468000036,SD-49001-01,4604680,SD-49001,9,12,Baltic High School - 01,Baltic School District 49-1,Minnehaha County,PO Box 309,Baltic,SD,57003,309,(605)529-5461,42,Rural: Distant,No,†,Yes,No,136,10.27,13.2,10,9
460468000986,SD-49001-03,4604680,SD-49001,6,8,Baltic Middle School - 03,Baltic School District 49-1,Minnehaha County,PO Box 309,Baltic,SD,57003,309,(605)529-5461,42,Rural: Distant,No,†,Yes,No,117,7.43,15.7,12,10
466546000573,SD-65001-01,4665460,SD-65001,PK,8,Batesland School - 01,Oglala Lakota County 65-1,Oglala Lakota County,PO Box 49,Batesland,SD,57716,49,(605)454-4210,43,Rural: Remote,No,†,Yes,Yes,188,13,14.5,185,0
468043000791,SD-63003-03,4680430,SD-63003,KG,5,Beadle Elementary - 03,Yankton School District 63-3,Yankton County,PO Box 738,Yankton,SD,57078,738,(605)665-2282,33,Town: Remote,No,†,Yes,No,407,24.05,16.9,126,34
460561001277,SD-09001-09,4605610,SD-09001,9,12,Belle Fourche Education Connection - 09,Belle Fourche School District 09-1,Butte County,2305 13th Ave,Belle Fourche,SD,57717,,(605)723-0955,33,Town: Remote,No,†,Yes,Yes,35,2,17.5,20,3
460561000038,SD-09001-01,4605610,SD-09001,9,12,Belle Fourche High School - 01,Belle Fourche School District 09-1,Butte County,2305 13th Ave,Belle Fourche,SD,57717,,(605)723-3350,33,Town: Remote,No,†,Yes,No,367,24.94,14.7,82,41
460561001117,SD-09001-07,4605610,SD-09001,5,8,Belle Fourche Middle School - 07,Belle Fourche School District 09-1,Butte County,2305 13th Ave,Belle Fourche,SD,57717,,(605)723-3367,33,Town: Remote,No,†,Yes,Yes,437,29.96,14.6,136,55
460624000042,SD-03001-01,4606240,SD-03001,9,12,Bennett County High School - 01,Bennett County School District 03-1,Bennett County,PO Box 580,Martin,SD,57551,580,(605)685-6330,43,Rural: Remote,No,†,Yes,Yes,137,12.75,10.7,137,0
460624001015,SD-03001-06,4606240,SD-03001,6,8,Bennett County Middle School - 06,Bennett County School District 03-1,Bennett County,PO Box 580,Martin,SD,57551,580,(605)685-6330,43,Rural: Remote,No,†,Yes,Yes,75,8.58,8.7,75,0
460636000047,SD-61002-02,4606360,SD-61002,KG,5,Beresford Elementary - 02,Beresford School District 61-2,Union County,209 S 4th St,Beresford,SD,57004,2107,(605)763-5012,43,Rural: Remote,No,†,Yes,No,280,22.15,12.6,46,14
460636000048,SD-61002-01,4606360,SD-61002,9,12,Beresford High School - 01,Beresford School District 61-2,Union County,301 W Maple St,Beresford,SD,57004,2196,(605)763-2145,43,Rural: Remote,No,†,Yes,No,221,15.72,14.1,28,7
460636000051,SD-61002-03,4606360,SD-61002,6,8,Beresford Middle School - 03,Beresford School District 61-2,Union County,205 W Maple St,Beresford,SD,57004,2196,(605)763-2139,43,Rural: Remote,No,†,Yes,No,189,10.31,18.3,25,7
460696000053,SD-25001-01,4606960,SD-25001,PK,5,Big Stone City Elementary - 01,Big Stone City School District 25-1,Grant County,655 Walnut St,Big Stone City,SD,57216,,(605)862-8108,42,Rural: Distant,No,†,Yes,Yes,51,8.8,5.8,11,1
460696000352,SD-25001-03,4606960,SD-25001,6,8,Big Stone City Middle School - 03,Big Stone City School District 25-1,Grant County,655 Walnut St,Big Stone City,SD,57216,,(605)862-8108,42,Rural: Distant,No,†,Yes,Yes,15,3.97,3.8,3,2
467566000779,SD-51005-08,4675660,SD-51005,KG,6,Big White Elementary - 08,Wall School District 51-5,Pennington County,PO Box 414,Wall,SD,57790,414,(605)279-2156,43,Rural: Remote,No,†,Yes,No,7,1,7,0,0
460705000054,SD-52001-02,4607050,SD-52001,KG,6,Bison Elementary - 02,Bison School District 52-1,Perkins County,PO Box 9,Bison,SD,57620,9,(605)244-5271,43,Rural: Remote,No,†,Yes,Yes,89,11.77,7.6,15,12
460705000055,SD-52001-01,4607050,SD-52001,9,12,Bison High School - 01,Bison School District 52-1,Perkins County,PO Box 9,Bison,SD,57620,9,(605)244-5271,43,Rural: Remote,No,†,Yes,No,40,7.75,5.2,9,7
460705000879,SD-52001-04,4607050,SD-52001,7,8,Bison Jr. High - 04,Bison School District 52-1,Perkins County,PO Box 9,Bison,SD,57620,9,(605)244-5271,43,Rural: Remote,No,†,Yes,Yes,16,2.21,7.2,6,2
465982000538,SD-51004-03,4659820,SD-51004,KG,5,Black Hawk Elementary - 03,Rapid City Area School District 51-4,Meade County,7108 Seeaire St,Rapid City,SD,57718,,(605)787-6701,23,Suburb: Small,No,†,–,–,391,24.68,15.8,101,28
468012001366,SD-40201-08,4680120,SD-40201,4,8,Black Hills Academy at Canyon Hills - 08,Black Hills Special Services Cooperative,Lawrence County,2519 Windmill Dr,Spearfish,SD,57783,,(605)347-4467,32,Town: Distant,No,†,–,–,1,0.25,4,†,†
468012001308,SD-40201-07,4680120,SD-40201,9,12,Black Hills Academy at Canyon Hills High School - 07,Black Hills Special Services Cooperative,Lawrence County,2519 Windmill Dr,Spearfish,SD,57783,,(605)347-4467,32,Town: Distant,No,†,–,–,4,0.02,200,†,†
466693001304,SD-40002-06,4666930,SD-40002,10,12,Black Hills Education Connections - 06,Spearfish School District 40-2,Lawrence County,2910 4th Ave,Spearfish,SD,57783,,(605)642-8286,32,Town: Distant,No,†,–,–,34,1,34,2,1
460000201390,SD-25004-04,4600002,SD-25004,KG,8,Blue Sky Colony - 04,Milbank School District 25-4,Grant County,410 10th Ave E,Revillo,SD,57259,,(605)432-6615,42,Rural: Distant,No,†,Yes,No,5,1,5,0,0
462403001158,SD-24004-06,4624030,SD-24004,KG,8,Blumengard Colony Elementary - 06,Faulkton Area Schools 24-4,Faulk County,35075 148th St,Faulkton,SD,57438,,(605)598-6266,43,Rural: Remote,No,†,Yes,Yes,28,2,14,0,0
460004200855,SD-58003-03,4600042,SD-58003,KG,5,Blunt Elementary - 03,Agar-Blunt-Onida School District 58-3,Hughes County,PO Box 207,Blunt,SD,57522,207,(605)258-2617,43,Rural: Remote,No,†,Yes,Yes,35,5.44,6.4,13,3
460740000065,SD-04002-01,4607400,SD-04002,9,12,Bon Homme High School - 01,Bon Homme School District 04-2,Bon Homme County,PO Box 28,Tyndall,SD,57066,28,(605)589-3387,43,Rural: Remote,No,†,Yes,No,124,12.08,10.3,21,12
460740000987,SD-04002-02,4607400,SD-04002,6,8,Bon Homme Middle School - 02,Bon Homme School District 04-2,Bon Homme County,PO Box 28,Tyndall,SD,57066,28,(605)589-3387,43,Rural: Remote,No,†,Yes,Yes,113,8.06,14,30,8
460740001328,SD-04002-08,4607400,SD-04002,PK,PK,Bon Homme PK - 08,Bon Homme School District 04-2,Bon Homme County,PO Box 28,Tyndall,SD,57066,28,(605)589-3389,43,Rural: Remote,No,†,Yes,No,36,1.5,24,11,6
463444001385,SD-22005-06,4634440,SD-22005,KG,8,Boulder Colony School - 06,Edmunds Central School District 22-5,Edmunds County,PO Box 317,Roscoe,SD,57471,,(605)287-4251,43,Rural: Remote,No,†,Yes,No,6,1,6,0,0
460780000068,SD-22001-02,4607800,SD-22001,PK,6,Bowdle Elementary - 02,Bowdle School District 22-1,Edmunds County,PO Box 563,Bowdle,SD,57428,563,(605)285-6590,43,Rural: Remote,No,†,Yes,Yes,56,8.64,6.5,10,4
460780000069,SD-22001-01,4607800,SD-22001,9,12,Bowdle High School - 01,Bowdle School District 22-1,Edmunds County,PO Box 563,Bowdle,SD,57428,563,(605)285-6590,43,Rural: Remote,No,†,Yes,No,30,5.6,5.4,5,1
460780000883,SD-22001-03,4607800,SD-22001,7,8,Bowdle Jr. High - 03,Bowdle School District 22-1,Edmunds County,PO Box 563,Bowdle,SD,57428,563,(605)285-6590,43,Rural: Remote,No,†,Yes,No,27,2.8,9.6,2,4
460795000414,SD-49002-03,4607950,SD-49002,PK,4,Brandon Elementary - 03,Brandon Valley School District 49-2,Minnehaha County,501 Holly Blvd,Brandon,SD,57005,1277,(605)582-6315,31,Town: Fringe,No,†,Yes,No,577,40.18,14.4,73,56
460795000071,SD-49002-01,4607950,SD-49002,9,12,Brandon Valley High School - 01,Brandon Valley School District 49-2,Minnehaha County,301 S Splitrock Blvd,Brandon,SD,57005,1651,(605)582-3211,31,Town: Fringe,No,†,–,–,1122,51.88,21.6,90,56
460795001355,SD-49002-07,4607950,SD-49002,5,6,Brandon Valley Intermediate - 07,Brandon Valley School District 49-2,Minnehaha County,201 W Park St,Brandon,SD,57005,,(605)582-6035,41,Rural: Fringe,No,†,Yes,No,673,40.56,16.6,101,48
460795000072,SD-49002-02,4607950,SD-49002,7,8,Brandon Valley Middle School - 02,Brandon Valley School District 49-2,Minnehaha County,700 Holly Blvd,Brandon,SD,57005,1328,(605)582-3214,31,Town: Fringe,No,†,–,–,682,35.5,19.2,74,50
462403001090,SD-24004-05,4624030,SD-24004,KG,8,Brentwood Colony Elementary - 05,Faulkton Area Schools 24-4,Faulk County,15442 343rd Ave,Faulkton,SD,57438,,(605)598-6266,43,Rural: Remote,No,†,Yes,Yes,18,2,9,0,0
466627001139,SD-49005-52,4666270,SD-49005,KG,5,Bridges At Horace Mann - 52,Sioux Falls School District 49-5,Minnehaha County,1401 E 26th St,Sioux Falls,SD,57105,,(605)367-6190,12,City: Midsize,No,†,Yes,Yes,96,22.16,4.3,96,0
462142010071,SD-30003-02,4621420,SD-30003,PK,5,Bridgewater-Emery Elementary - 02,Bridgewater-Emery 30-3,McCook County,PO Box 350,Bridgewater,SD,57319,,(605)729-2541,43,Rural: Remote,No,†,Yes,Yes,157,12.82,12.2,61,7
462142000074,SD-30003-01,4621420,SD-30003,9,12,Bridgewater-Emery High School - 01,Bridgewater-Emery 30-3,Hanson County,130 N 6th St,Emery,SD,57332,,(605)449-4271,43,Rural: Remote,No,†,Yes,No,111,12.14,9.1,19,7
462142000902,SD-30003-04,4621420,SD-30003,6,8,Bridgewater-Emery Middle School - 04,Bridgewater-Emery 30-3,Hanson County,130 N 6th St,Emery,SD,57332,,(605)449-4271,43,Rural: Remote,No,†,Yes,No,76,7.32,10.4,21,3
460004101140,SD-45004-02,4600041,SD-45004,KG,5,Britton-Hecla Elementary - 02,Britton-Hecla School District 45-4,Marshall County,PO Box 190,Britton,SD,57430,190,(605)443-2234,43,Rural: Remote,No,†,Yes,Yes,198,15.42,12.8,41,16
460004101141,SD-45004-01,4600041,SD-45004,9,12,Britton-Hecla High School - 01,Britton-Hecla School District 45-4,Marshall County,PO Box 190,Britton,SD,57430,190,(605)448-2234,43,Rural: Remote,No,†,Yes,No,80,9.03,8.9,8,6
460004101142,SD-45004-03,4600041,SD-45004,6,8,Britton-Hecla Middle School - 03,Britton-Hecla School District 45-4,Marshall County,PO Box 190,Britton,SD,57430,190,(605)448-2234,43,Rural: Remote,No,†,Yes,No,84,4.7,17.9,6,5
460852000082,SD-05001-01,4608520,SD-05001,9,12,Brookings High School - 01,Brookings School District 05-1,Brookings County,530 Elm Ave,Brookings,SD,57006,3498,(605)696-4100,33,Town: Remote,No,†,–,–,924,60.41,15.3,116,36
465526000494,SD-32002-03,4655260,SD-32002,KG,5,Buchanan Elementary - 03,Pierre School District 32-2,Hughes County,100 N Buchanan Ave,Pierre,SD,57501,3004,(605)773-7310,33,Town: Remote,No,†,Yes,No,422,26,16.2,114,22
463548001370,SD-02002-18,4635480,SD-02002,KG,1,Buchanan K-1 Center - 18,Huron School District 02-2,Beadle County,PO Box 949,Huron,SD,57350,949,(605)353-7875,33,Town: Remote,No,†,Yes,Yes,456,30,15.2,279,45
460930000087,SD-31001-02,4609300,SD-31001,KG,5,Buffalo Elementary - 02,Harding County School District 31-1,Harding County,PO Box 367,Buffalo,SD,57720,367,(605)375-3241,43,Rural: Remote,No,†,Yes,Yes,76,8.14,9.3,5,8
460951200100,SD-26002-02,4609512,SD-26002,PK,5,Burke Elementary - 02,Burke School District 26-2,Gregory County,PO Box 382,Burke,SD,57523,382,(605)775-2246,43,Rural: Remote,No,†,Yes,Yes,131,9.6,13.6,33,20
460951200101,SD-26002-01,4609512,SD-26002,9,12,Burke High School - 01,Burke School District 26-2,Gregory County,PO Box 382,Burke,SD,57523,382,(605)775-2645,43,Rural: Remote,No,†,Yes,Yes,88,7.31,12,20,16
460951201043,SD-26002-04,4609512,SD-26002,6,8,Burke Middle School - 04,Burke School District 26-2,Gregory County,PO Box 382,Burke,SD,57523,382,(605)775-2645,43,Rural: Remote,No,†,Yes,Yes,73,3.77,19.4,24,15
460207000002,SD-06001-05,4602070,SD-06001,KG,5,C C Lee Elementary - 05,Aberdeen School District 06-1,Brown County,1900 N State St,Aberdeen,SD,57401,1432,(605)725-7500,33,Town: Remote,No,†,–,–,385,24.91,15.5,60,5
460852001298,SD-05001-06,4608520,SD-05001,4,5,Camelot Intermediate - 06,Brookings School District 05-1,Brookings County,1401 15th St S,Brookings,SD,57006,,(605)696-4400,33,Town: Remote,No,†,Yes,No,564,35.25,16,101,35
467452001301,SD-60006-04,4674520,SD-60006,KG,8,Cameron Colony Elementary - 04,Viborg-Hurley School District 60-6,Turner County,28971 447th Ave,Viborg,SD,57070,,(605)766-5418,43,Rural: Remote,No,†,Yes,No,19,2,9.5,0,0
460930000701,SD-31001-08,4609300,SD-31001,KG,8,Camp Crook Elementary - 08,Harding County School District 31-1,Harding County,PO Box 367,Buffalo,SD,57720,367,(605)375-3241,43,Rural: Remote,No,†,Yes,No,10,1.16,8.6,0,0
466414001348,SD-39004-04,4664140,SD-39004,KG,8,Camridge Colony School - 04,Rutland School District 39-4,Lake County,102 School St,Rutland,SD,57057,,(605)586-4352,42,Rural: Distant,No,†,Yes,No,21,1.33,15.8,0,0
461917001299,SD-56002-06,4619170,SD-56002,KG,8,Camrose Colony Elementary - 06,Doland School District 56-2,Spink County,16950 400 Ave,Frankfort,SD,57440,,(605)635-6302,43,Rural: Remote,No,†,Yes,Yes,10,1.06,9.4,7,0
461032000104,SD-43001-02,4610320,SD-43001,PK,5,Canistota Elementary - 02,Canistota School District 43-1,McCook County,PO Box 8,Canistota,SD,57012,8,(605)296-3458,42,Rural: Distant,No,†,Yes,No,98,9.85,9.9,25,4
461032000105,SD-43001-01,4610320,SD-43001,9,12,Canistota High School - 01,Canistota School District 43-1,McCook County,PO Box 8,Canistota,SD,57012,8,(605)296-3458,42,Rural: Distant,No,†,Yes,No,54,8.3,6.5,13,0
461032001016,SD-43001-03,4610320,SD-43001,6,8,Canistota Middle School - 03,Canistota School District 43-1,McCook County,PO Box 8,Canistota,SD,57012,8,(605)296-3458,42,Rural: Distant,No,†,Yes,No,43,4.02,10.7,11,2
461056000109,SD-41001-01,4610560,SD-41001,9,12,Canton High School - 01,Canton School District 41-1,Lincoln County,800 N Main St,Canton,SD,57013,1299,(605)764-2706,32,Town: Distant,No,†,Yes,No,244,18.91,12.9,27,9
461056000831,SD-41001-04,4610560,SD-41001,6,8,Canton Middle School - 04,Canton School District 41-1,Lincoln County,800 N Main St,Canton,SD,57013,1299,(605)764-2706,32,Town: Distant,No,†,Yes,No,217,13.61,15.9,42,15
465982000540,SD-51004-04,4659820,SD-51004,PK,5,Canyon Lake Elementary - 04,Rapid City Area School District 51-4,Pennington County,1500 Evergreen Dr,Rapid City,SD,57702,,(605)394-1817,13,City: Small,No,†,Yes,Yes,413,26.89,15.4,117,10
461128000113,SD-28001-02,4611280,SD-28001,PK,6,Castlewood Elementary - 02,Castlewood School District 28-1,Hamlin County,310 E Harry St,Castlewood,SD,57223,,(605)793-2497,43,Rural: Remote,No,†,Yes,Yes,181,10.47,17.3,37,12
461128000114,SD-28001-01,4611280,SD-28001,9,12,Castlewood High School - 01,Castlewood School District 28-1,Hamlin County,310 E Harry St,Castlewood,SD,57223,,(605)793-2497,43,Rural: Remote,No,†,Yes,No,82,6.07,13.5,9,8
461128000954,SD-28001-03,4611280,SD-28001,7,8,Castlewood Jr. High - 03,Castlewood School District 28-1,Hamlin County,310 E Harry St,Castlewood,SD,57223,,(605)793-2497,43,Rural: Remote,No,†,Yes,No,39,2.54,15.4,3,2
468043801252,SD-11005-14,4680438,SD-11005,KG,8,Cedar Grove Colony Elementary - 14,Platte - Geddes School District 11-5,Brule County,PO Box 140,Platte,SD,57369,140,(605)337-2468,43,Rural: Remote,No,†,Yes,Yes,42,3.17,13.2,39,0
461176000115,SD-60001-02,4611760,SD-60001,PK,5,Centerville Elementary - 02,Centerville School District 60-1,Turner County,PO Box 100,Centerville,SD,57014,100,(605)563-2291,43,Rural: Remote,No,†,Yes,Yes,167,9.19,18.2,51,4
461176000116,SD-60001-01,4611760,SD-60001,9,12,Centerville High School - 01,Centerville School District 60-1,Turner County,PO Box 100,Centerville,SD,57014,100,(605)563-2291,43,Rural: Remote,No,†,Yes,No,58,6.2,9.4,15,7
461176001023,SD-60001-03,4611760,SD-60001,6,8,Centerville Middle School - 03,Centerville School District 60-1,Turner County,PO Box 100,Centerville,SD,57014,100,(605)563-2291,43,Rural: Remote,No,†,Yes,No,67,5.61,11.9,15,6
460207000003,SD-06001-01,4602070,SD-06001,9,12,Central High School - 01,Aberdeen School District 06-1,Brown County,2200 S Roosevelt St,Aberdeen,SD,57401,,(605)725-8100,33,Town: Remote,No,†,Yes,No,1306,74.46,17.5,292,98
465982000529,SD-51004-41,4659820,SD-51004,9,12,Central High School - 41,Rapid City Area School District 51-4,Pennington County,433 Mt Rushmore Rd,Rapid City,SD,57701,2724,(605)394-4023,13,City: Small,No,†,Yes,Yes,1887,105.39,17.9,413,58
466993000736,SD-46001-09,4669930,SD-46001,KG,8,Central Meade County School - 09,Meade School District 46-1,Meade County,PO Box 16,Whitewood,SD,57793,16,(605)269-2264,43,Rural: Remote,No,†,–,–,55,4.72,11.7,3,0
466627001129,SD-49005-51,4666270,SD-49005,2,5,Challenge Center - 51,Sioux Falls School District 49-5,Minnehaha County,3101 S 4th Ave,Sioux Falls,SD,57105,4414,(605)367-6170,12,City: Midsize,No,†,–,–,175,7.9,22.2,17,10
461200000118,SD-07001-03,4612000,SD-07001,KG,5,Chamberlain Elementary - 03,Chamberlain School District 07-1,Brule County,PO Box 119,Chamberlain,SD,57325,119,(605)234-4460,43,Rural: Remote,No,†,Yes,Yes,419,44.49,9.4,190,28
461200000119,SD-07001-01,4612000,SD-07001,9,12,Chamberlain High School - 01,Chamberlain School District 07-1,Brule County,PO Box 119,Chamberlain,SD,57325,119,(605)234-4467,43,Rural: Remote,No,†,Yes,Yes,256,23.01,11.1,90,16
461200000889,SD-07001-02,4612000,SD-07001,6,8,Chamberlain Jr. High - 02,Chamberlain School District 07-1,Brule County,PO Box 119,Chamberlain,SD,57325,119,(605)234-4467,43,Rural: Remote,No,†,Yes,Yes,207,13.7,15.1,75,14
461230001269,SD-39001-92,4612300,SD-39001,9,12,Chester Area Cyber School - 92,Chester Area School District 39-1,Lake County,PO Box 159,Chester,SD,57016,,(605)489-2411,42,Rural: Distant,No,†,–,–,112,6.63,16.9,0,0
461230000131,SD-39001-02,4612300,SD-39001,PK,5,Chester Elementary -02,Chester Area School District 39-1,Lake County,102 2nd Ave,Chester,SD,57016,159,(605)489-2411,42,Rural: Distant,No,†,Yes,No,175,10.54,16.6,24,17
461230000130,SD-39001-01,4612300,SD-39001,9,12,Chester High School - 01,Chester Area School District 39-1,Lake County,PO Box 159,Chester,SD,57016,159,(605)489-2411,42,Rural: Distant,No,†,Yes,No,99,9.41,10.5,4,13
461230000832,SD-39001-03,4612300,SD-39001,6,8,Chester Middle School - 03,Chester Area School District 39-1,Lake County,PO Box 159,Chester,SD,57016,159,(605)489-2411,42,Rural: Distant,No,†,Yes,No,78,5.29,14.7,11,6
462485000849,SD-57001-06,4624850,SD-57001,KG,8,Cheyenne Elementary - 06,Stanley County School District 57-1,Stanley County,Po Box 370,Fort Pierre,SD,57532,370,(605)223-7745,43,Rural: Remote,No,†,Yes,No,12,1,12,0,0
461128001126,SD-28001-04,4611280,SD-28001,KG,8,Claremont Colony Elementary - 04,Castlewood School District 28-1,Hamlin County,46271 184th St,Castlewood,SD,57223,,(605)793-2497,43,Rural: Remote,No,†,Yes,No,12,1,12,0,0
461917001101,SD-56002-05,4619170,SD-56002,KG,8,Clark Colony Elementary - 05,Doland School District 56-2,Spink County,41181 179th St,Raymond,SD,57258,,(605)635-6302,43,Rural: Remote,No,†,Yes,Yes,14,1.23,11.4,11,0
461294000132,SD-12002-02,4612940,SD-12002,PK,4,Clark Elementary - 02,Clark School District 12-2,Clark County,200 2nd Ave NW,Clark,SD,57225,278,(605)532-3606,43,Rural: Remote,No,†,Yes,No,148,10.95,13.5,36,17
461294000133,SD-12002-01,4612940,SD-12002,9,12,Clark High School - 01,Clark School District 12-2,Clark County,220 N Clinton St,Clark,SD,57225,,(605)532-3604,43,Rural: Remote,No,†,Yes,No,75,9.28,8.1,15,8
461294000890,SD-12002-03,4612940,SD-12002,5,8,Clark Middle School - 03,Clark School District 12-2,Clark County,220 N Clinton St,Clark,SD,57225,1318,(605)532-3604,43,Rural: Remote,No,†,Yes,No,89,5.36,16.6,23,15
460003601011,SD-19004-02,4600036,SD-19004,PK,5,Clear Lake Elementary - 02,Deuel School District 19-4,Deuel County,PO Box 770,Clear Lake,SD,57226,770,(605)874-2162,43,Rural: Remote,No,†,Yes,No,279,18.56,15,68,17
460003601013,SD-19004-04,4600036,SD-19004,6,8,Clear Lake Middle School - 04,Deuel School District 19-4,Deuel County,PO Box 770,Clear Lake,SD,57226,770,(605)874-2162,43,Rural: Remote,No,†,Yes,No,123,7.92,15.5,21,15
467245001091,SD-33005-07,4672450,SD-33005,KG,8,Clearfield Colony Elementary - 07,Tripp-Delmont School District 33-5,Charles Mix County,PO Box 430,Tripp,SD,57376,430,(605)935-6766,43,Rural: Remote,No,†,Yes,Yes,11,1.17,9.4,0,0
466627000581,SD-49005-14,4666270,SD-49005,PK,5,Cleveland Elementary - 14,Sioux Falls School District 49-5,Minnehaha County,1000 S Edward Dr,Sioux Falls,SD,57103,2932,(605)367-6150,12,City: Midsize,No,†,Yes,Yes,567,39.48,14.4,323,55
467935001297,SD-12003-06,4679350,SD-12003,KG,8,Collins Colony Elementary - 06,Willow Lake School District 12-3,Clark County,PO Box 170,Willow Lake,SD,57278,170,(605)625-5945,43,Rural: Remote,No,†,Yes,No,19,1.5,12.7,0,0
461410000093,SD-50005-03,4614100,SD-50005,PK,6,Colman Elementary - 03,Colman-Egan School District 50-5,Moody County,200 S Loban Ave,Colman,SD,57017,239,(605)534-3534,43,Rural: Remote,No,†,Yes,No,141,11.41,12.4,16,16
461410000091,SD-50005-01,4614100,SD-50005,9,12,Colman-Egan High School - 01,Colman-Egan School District 50-5,Moody County,200 S Loban Ave,Colman,SD,57017,239,(605)534-3534,43,Rural: Remote,No,†,Yes,No,74,6.94,10.7,7,5
461410000092,SD-50005-02,4614100,SD-50005,7,8,Colman-Egan Jr. High - 02,Colman-Egan School District 50-5,Moody County,200 S Loban Ave,Colman,SD,57017,239,(605)534-3534,43,Rural: Remote,No,†,Yes,No,43,2.44,17.6,8,4
461413000140,SD-59003-02,4614130,SD-59003,PK,5,Colome Elementary - 02,Colome Consolidated 59-3,Tripp County,PO Box 367,Colome,SD,57528,367,(605)842-1624,42,Rural: Distant,No,†,Yes,Yes,97,8.11,12,40,6
461413000141,SD-59003-01,4614130,SD-59003,9,12,Colome High School - 01,Colome Consolidated 59-3,Tripp County,PO Box 367,Colome,SD,57528,367,(605)842-1624,42,Rural: Distant,No,†,Yes,Yes,75,8.04,9.3,21,3
461413000893,SD-59003-03,4614130,SD-59003,6,8,Colome Middle School - 03,Colome Consolidated 59-3,Tripp County,PO Box 367,Colome,SD,57528,367,(605)842-1624,42,Rural: Distant,No,†,Yes,Yes,55,4.67,11.8,19,5
466627001122,SD-49005-41,4666270,SD-49005,12,12,Community Campus - 41,Sioux Falls School District 49-5,Minnehaha County,2101 W 41st St Ste 47,Sioux Falls,SD,57105,,(605)367-4359,12,City: Midsize,No,†,–,–,34,3,11.3,7,1
460696001182,SD-25001-02,4606960,SD-25001,KG,12,Contract - 02,Big Stone City School District 25-1,Big Stone County,655 Walnut St,Big Stone City,SD,57216,,(605)862-8108,42,Rural: Distant,No,†,†,†,0,–,†,–,–
465982000542,SD-51004-21,4659820,SD-51004,KG,5,Corral Drive Elementary - 21,Rapid City Area School District 51-4,Pennington County,3736 Corral Dr,Rapid City,SD,57702,,(605)394-6789,13,City: Small,No,†,–,–,477,23.45,20.3,20,2
468044501354,SD-21003-02,4680445,SD-21003,PK,6,Corsica-Stickney Elementary - 02,Corsica-Stickney 21-3,Aurora County,PO Box 67,Stickney,SD,57375,,(605)732-4221,43,Rural: Remote,No,†,Yes,Yes,172,12.62,13.6,22,16
468044501357,SD-21003-01,4680445,SD-21003,9,12,Corsica-Stickney High School - 01,Corsica-Stickney 21-3,Douglas County,120 S Napoleon Ave,Corsica,SD,57328,,(605)946-5475,43,Rural: Remote,No,†,Yes,No,81,7.74,10.5,8,17
468044501352,SD-21003-03,4680445,SD-21003,7,8,Corsica-Stickney Jr. High - 03,Corsica-Stickney 21-3,Douglas County,120 S Napoleon Ave,Corsica,SD,57328,,(605)946-5475,43,Rural: Remote,No,†,Yes,No,30,2.71,11.1,2,7
466693000401,SD-40002-07,4666930,SD-40002,3,5,Creekside Elementary - 07,Spearfish School District 40-2,Lawrence County,525 E Illinois,Spearfish,SD,57783,,(605)717-1210,32,Town: Distant,No,†,Yes,Yes,583,36.38,16,127,31
466627001305,SD-49005-37,4666270,SD-49005,9,12,CTE - 37,Sioux Falls School District 49-5,Minnehaha County,4700 W Career Cir,Sioux Falls,SD,57107,,(605)367-5504,41,Rural: Fringe,No,†,–,–,2,17,0.1,†,†
461695000154,SD-16001-02,4616950,SD-16001,PK,6,Custer Elementary - 02,Custer School District 16-1,Custer County,1415 Wildcat Ln,Custer,SD,57730,1005,(605)673-4483,42,Rural: Distant,No,†,Yes,Yes,340,26,13.1,89,24
461695000155,SD-16001-01,4616950,SD-16001,9,12,Custer High School - 01,Custer School District 16-1,Custer County,1645 Wildcat Ln,Custer,SD,57730,1124,(605)673-4473,42,Rural: Distant,No,†,Yes,No,285,17.55,16.2,74,19
461695000992,SD-16001-05,4616950,SD-16001,7,8,Custer Jr. High - 05,Custer School District 16-1,Custer County,1645 Wildcat Ln,Custer,SD,57730,1124,(605)673-4473,42,Rural: Distant,No,†,Yes,No,111,7.44,14.9,27,7
460852001356,SD-05001-07,4608520,SD-05001,KG,3,Dakota Prairie Elementary - 07,Brookings School District 05-1,Brookings County,111 26th St S,Brookings,SD,57006,,(605)696-4900,33,Town: Remote,No,†,Yes,No,470,33.6,14,52,36
463699000251,SD-61008-02,4636990,SD-61008,KG,3,Dakota Valley Elementary - 02,Dakota Valley School District 61-8,Union County,1150 Northshore Dr,North Sioux City,SD,57049,,(605)422-3840,22,Suburb: Midsize,No,†,Yes,No,424,32.5,13,52,9
463699000345,SD-61008-01,4636990,SD-61008,9,12,Dakota Valley High School - 01,Dakota Valley School District 61-8,Union County,1150 Northshore Dr,North Sioux City,SD,57049,,(605)422-3820,22,Suburb: Midsize,No,†,Yes,No,376,24.08,15.6,32,11
463699000809,SD-61008-03,4636990,SD-61008,6,8,Dakota Valley Middle School - 03,Dakota Valley School District 61-8,Union County,1150 Northshore Dr,North Sioux City,SD,57049,,(605)422-3830,22,Suburb: Midsize,No,†,Yes,No,331,12.74,26,35,16
463699001075,SD-61008-04,4636990,SD-61008,4,5,Dakota Valley Upper Elementary - 04,Dakota Valley School District 61-8,Union County,1150 Northshore Dr,North Sioux City,SD,57049,,(605)422-3830,22,Suburb: Midsize,No,†,Yes,No,223,16.64,13.4,33,12
460740001393,SD-04002-20,4607400,SD-04002,KG,8,Dawson Colony School - 20,Bon Homme School District 04-2,Bon Homme County,41544 Hwy 46,Scotland,SD,57059,,(605)589-3166,43,Rural: Remote,No,†,Yes,No,10,2.06,4.9,0,0
461785000163,SD-38002-01,4617850,SD-38002,9,12,De Smet High School - 01,De Smet School District 38-2,Kingsbury County,PO Box 157,De Smet,SD,57231,157,(605)854-3423,43,Rural: Remote,No,†,Yes,No,82,9.8,8.4,18,5
461785000993,SD-38002-03,4617850,SD-38002,6,8,De Smet Middle School - 03,De Smet School District 38-2,Kingsbury County,PO Box 157,De Smet,SD,57231,157,(605)854-3423,43,Rural: Remote,No,†,Yes,No,52,4.14,12.6,7,5
463606001085,SD-22006-05,4636060,SD-22006,PK,8,Deerfield Colony Elementary - 05,Ipswich Public School District 22-6,Edmunds County,PO Box 306,Ipswich,SD,57451,306,(605)426-6832,43,Rural: Remote,No,†,Yes,No,27,2.55,10.6,0,0
461812000164,SD-49003-02,4618120,SD-49003,KG,4,Dell Rapids Elementary - 02,Dell Rapids School District 49-3,Minnehaha County,309 W 15th St,Dell Rapids,SD,57022,1099,(605)428-5473,32,Town: Distant,No,†,Yes,No,369,29.09,12.7,44,24
461812000165,SD-49003-01,4618120,SD-49003,9,12,Dell Rapids High School - 01,Dell Rapids School District 49-3,Minnehaha County,1216 N Garfield Ave,Dell Rapids,SD,57022,1099,(605)428-5473,32,Town: Distant,No,†,Yes,No,298,20.42,14.6,23,18
461812000837,SD-49003-03,4618120,SD-49003,5,8,Dell Rapids Middle School - 03,Dell Rapids School District 49-3,Minnehaha County,1216 N Garfield Ave,Dell Rapids,SD,57022,1099,(605)428-5473,32,Town: Distant,No,†,Yes,No,281,16.92,16.6,29,25
467830000559,SD-05006-03,4678300,SD-05006,PK,6,Deubrook Elementary - 03,Deubrook Area School District 05-6,Deuel County,PO Box 399,Toronto,SD,57268,399,(605)794-1152,43,Rural: Remote,No,†,Yes,No,176,14.6,12.1,33,3
467830000012,SD-05006-01,4678300,SD-05006,9,12,Deubrook High School - 01,Deubrook Area School District 05-6,Brookings County,PO Box 346,White,SD,57276,346,(605)629-1114,42,Rural: Distant,No,†,Yes,No,116,12.09,9.6,17,3
467830000016,SD-05006-02,4678300,SD-05006,7,8,Deubrook Jr. High - 02,Deubrook Area School District 05-6,Brookings County,PO Box 346,White,SD,57276,346,(605)629-1114,42,Rural: Distant,No,†,Yes,No,67,4.17,16.1,15,2
460003601010,SD-19004-01,4600036,SD-19004,9,12,Deuel High School - 01,Deuel School District 19-4,Deuel County,PO Box 770,Clear Lake,SD,57226,770,(605)874-2163,43,Rural: Remote,No,†,Yes,No,135,13.55,10,18,9
468012001001,SD-40201-01,4680120,SD-40201,PK,12,Developmental Disabilities Program - 01,Black Hills Special Services Cooperative,Meade County,PO Box 218,Sturgis,SD,57785,218,(605)423-4444,32,Town: Distant,No,†,–,–,43,2.75,15.6,9,1
466627001238,SD-49005-26,4666270,SD-49005,PK,5,Discovery Elementary - 26,Sioux Falls School District 49-5,Minnehaha County,1506 S Discovery Ave,Sioux Falls,SD,57106,,(605)362-3530,12,City: Midsize,No,†,–,–,902,48.23,18.7,140,51
461917000170,SD-56002-03,4619170,SD-56002,PK,6,Doland Elementary - 03,Doland School District 56-2,Spink County,PO Box 219,Doland,SD,57436,,(605)635-6241,43,Rural: Remote,No,†,Yes,Yes,58,6.58,8.8,16,1
461917000171,SD-56002-01,4619170,SD-56002,9,12,Doland High School - 01,Doland School District 56-2,Spink County,PO Box 219,Doland,SD,57436,,(605)635-6241,43,Rural: Remote,No,†,Yes,No,24,5.63,4.3,5,1
461917000895,SD-56002-02,4619170,SD-56002,7,8,Doland Jr. High - 02,Doland School District 56-2,Spink County,PO Box 219,Doland,SD,57436,,(605)635-6241,43,Rural: Remote,No,†,Yes,Yes,15,1.88,8,5,1
461941000174,SD-51001-03,4619410,SD-51001,9,12,Douglas High School - 03,Douglas School District 51-1,Pennington County,420 Patriot Dr,Box Elder,SD,57719,9749,(605)923-0030,31,Town: Fringe,No,†,Yes,No,747,44.66,16.7,171,37
461941000176,SD-51001-01,4619410,SD-51001,6,8,Douglas Middle School - 01,Douglas School District 51-1,Pennington County,691 Tower Rd,Box Elder,SD,57719,,(605)923-0050,31,Town: Fringe,No,†,Yes,No,711,39.02,18.2,186,65
461941001125,SD-51001-08,4619410,SD-51001,PK,PK,Douglas Preschool - 08,Douglas School District 51-1,Pennington County,421 Don Williams Dr,Box Elder,SD,57719,9749,(605)923-0090,31,Town: Fringe,No,†,Yes,No,20,2,10,0,0
461945000799,SD-64002-02,4619450,SD-64002,PK,6,Dupree Elementary - 02,Dupree School District 64-2,Ziebach County,PO Box 10,Dupree,SD,57623,10,(605)365-5140,43,Rural: Remote,No,†,Yes,Yes,225,21.45,10.5,225,0
461945000800,SD-64002-01,4619450,SD-64002,9,12,Dupree High School - 01,Dupree School District 64-2,Ziebach County,PO Box 10,Dupree,SD,57623,10,(605)365-5140,43,Rural: Remote,No,†,Yes,Yes,83,8.62,9.6,83,0
461945000896,SD-64002-04,4619450,SD-64002,7,8,Dupree Jr. High - 04,Dupree School District 64-2,Ziebach County,PO Box 10,Dupree,SD,57623,10,(605)365-5140,43,Rural: Remote,No,†,Yes,Yes,73,5.34,13.7,73,0
462010001233,SD-20001-07,4620100,SD-20001,9,12,E. A. G. L. E. Center High School - 07,Eagle Butte School District 20-1,Dewey County,PO Box 672,Eagle Butte,SD,57625,672,(605)964-8773,33,Town: Remote,No,†,–,–,1,2.71,0.4,†,†
462010001360,SD-20001-09,4620100,SD-20001,5,8,E.A.G.L.E. Center - 09,Eagle Butte School District 20-1,Dewey County,PO Box 672,Eagle Butte,SD,57625,672,(605)964-8773,33,Town: Remote,No,†,†,†,0,0.29,†,–,–
462010000956,SD-20001-01,4620100,SD-20001,9,12,Eagle Butte High School - 01,Eagle Butte School District 20-1,Dewey County,PO Box 672,Eagle Butte,SD,57625,672,(605)964-8744,33,Town: Remote,No,†,–,–,9,9.12,1,6,0
462010000898,SD-20001-06,4620100,SD-20001,7,8,Eagle Butte Jr. High - 06,Eagle Butte School District 20-1,Dewey County,PO Box 672,Eagle Butte,SD,57625,672,(605)964-7841,33,Town: Remote,No,†,–,–,4,4,1,†,†
462010000897,SD-20001-02,4620100,SD-20001,KG,2,Eagle Butte Primary - 02,Eagle Butte School District 20-1,Dewey County,PO Box 672,Eagle Butte,SD,57625,672,(605)964-7920,33,Town: Remote,No,†,–,–,84,3,28,81,0
462010000605,SD-20001-03,4620100,SD-20001,3,6,Eagle Butte Upper Elementary - 03,Eagle Butte School District 20-1,Ziebach County,PO Box 260,Eagle Butte,SD,57625,260,(605)964-4911,41,Rural: Fringe,No,†,Yes,Yes,248,22.88,10.8,245,0
467542001278,SD-11004-04,4675420,SD-11004,PK,PK,Early Learning Center - 04,Wagner Community School District 11-4,Charles Mix County,101 Walnut Ave SW,Wagner,SD,57380,,(605)384-4354,43,Rural: Remote,No,†,Yes,Yes,210,11.55,18.2,207,0
465982000528,SD-51004-30,4659820,SD-51004,6,8,East Middle School - 30,Rapid City Area School District 51-4,Pennington County,4860 Homestead St,Rapid City,SD,57703,,(605)394-4092,41,Rural: Fringe,No,†,Yes,Yes,664,43.76,15.2,200,59
462085000181,SD-23001-03,4620850,SD-23001,KG,8,Edgemont Elementary - 03,Edgemont School District 23-1,Fall River County,PO Box 29,Edgemont,SD,57735,29,(605)662-7254,43,Rural: Remote,No,†,Yes,Yes,110,10.56,10.4,41,12
462085000182,SD-23001-01,4620850,SD-23001,9,12,Edgemont High School - 01,Edgemont School District 23-1,Fall River County,PO Box 29,Edgemont,SD,57735,29,(605)662-7254,43,Rural: Remote,No,†,Yes,Yes,49,5.47,9,11,5
466627000583,SD-49005-06,4666270,SD-49005,6,8,Edison Middle School - 06,Sioux Falls School District 49-5,Minnehaha County,2101 S West Ave,Sioux Falls,SD,57105,2537,(605)367-7643,12,City: Midsize,No,†,Yes,No,1078,66.87,16.1,296,93
463444001066,SD-22005-05,4634440,SD-22005,PK,5,Edmunds Central Elementary - 05,Edmunds Central School District 22-5,Edmunds County,PO Box 317,Roscoe,SD,57471,317,(605)287-4251,43,Rural: Remote,No,†,Yes,Yes,82,8.5,9.6,30,6
463444000031,SD-22005-01,4634440,SD-22005,9,12,Edmunds Central High School - 01,Edmunds Central School District 22-5,Edmunds County,PO Box 317,Roscoe,SD,57471,317,(605)287-4251,43,Rural: Remote,No,†,Yes,No,35,5.08,6.9,6,5
463444000032,SD-22005-02,4634440,SD-22005,6,8,Edmunds Central Middle School - 02,Edmunds Central School District 22-5,Edmunds County,PO Box 317,Roscoe,SD,57471,317,(605)287-4251,43,Rural: Remote,No,†,Yes,No,26,3.04,8.6,9,3
466627001175,SD-49005-43,4666270,SD-49005,KG,5,Elementary Immersion Center - 43,Sioux Falls School District 49-5,Minnehaha County,2511 W Brookings St,Sioux Falls,SD,57104,,(605)367-6120,12,City: Midsize,No,†,Yes,Yes,111,8.24,13.5,111,0
462130000899,SD-16002-01,4621300,SD-16002,PK,8,Elk Mountain Elementary - 01,Elk Mountain School District 16-2,Custer County,10222 Valley Rd,Dewey,SD,57735,,(605)673-2258,43,Rural: Remote,No,†,–,–,11,2.65,4.2,0,0
462130001371,SD-16002-04,4621300,SD-16002,9,12,Elk Mountain High School - 04,Elk Mountain School District 16-2,Custer County,10222 Valley Rd,Dewey,SD,57735,,(605)749-2258,43,Rural: Remote,No,†,–,–,3,0.95,3.2,0,0
462130001186,SD-16002-92,4621300,SD-16002,9,12,Elk Mountain Virtual High School - 92,Elk Mountain School District 16-2,Custer County,10222 Valley Rd,Dewey,SD,57735,,(605)749-2258,43,Rural: Remote,No,†,†,†,0,0.21,†,–,–
462134000185,SD-61007-02,4621340,SD-61007,KG,5,Elk Point-Jefferson Elementary - 02,Elk Point-Jefferson School District 61-7,Union County,PO Box 578,Elk Point,SD,57025,578,(605)356-5801,42,Rural: Distant,No,†,Yes,No,329,22.73,14.5,52,26
462134000186,SD-61007-01,4621340,SD-61007,9,12,Elk Point-Jefferson High School - 01,Elk Point-Jefferson School District 61-7,Union County,PO Box 578,Elk Point,SD,57025,578,(605)356-5901,42,Rural: Distant,No,†,Yes,No,195,13.84,14.1,23,12
462134000900,SD-61007-03,4621340,SD-61007,6,8,Elk Point-Jefferson Middle School - 03,Elk Point-Jefferson School District 61-7,Union County,PO Box 578,Elk Point,SD,57025,578,(605)356-5901,42,Rural: Distant,No,†,Yes,No,160,8.11,19.7,16,13
462139000187,SD-05003-02,4621390,SD-05003,PK,6,Elkton Elementary - 02,Elkton School District 05-3,Brookings County,PO Box 190,Elkton,SD,57026,190,(605)542-2541,43,Rural: Remote,No,†,Yes,Yes,179,14.87,12,41,10
462139000188,SD-05003-01,4621390,SD-05003,9,12,Elkton High School - 01,Elkton School District 05-3,Brookings County,PO Box 190,Elkton,SD,57026,190,(605)542-2541,43,Rural: Remote,No,†,Yes,No,97,9.9,9.8,20,8
462139000901,SD-05003-03,4621390,SD-05003,7,8,Elkton Jr. High - 03,Elkton School District 05-3,Brookings County,PO Box 190,Elkton,SD,57026,190,(605)542-2541,43,Rural: Remote,No,†,Yes,Yes,76,4.39,17.3,21,1
466993000740,SD-46001-13,4669930,SD-46001,KG,8,Elm Springs Elementary - 13,Meade School District 46-1,Meade County,603 Garfield St,Whitewood,SD,57793,,(605)269-2264,43,Rural: Remote,No,†,–,–,13,2.47,5.3,0,0
463135001335,SD-41002-07,4631350,SD-41002,KG,5,Endeavor Elementary - 07,Harrisburg School District 41-2,Lincoln County,2401 W 95th St,Sioux Falls,SD,57108,,(605)743-2567,41,Rural: Fringe,No,†,–,–,529,33.34,15.9,23,5
462241000191,SD-28002-02,4622410,SD-28002,PK,5,Estelline Elementary - 02,Estelline School District 28-2,Hamlin County,PO Box 306,Estelline,SD,57234,306,(605)873-2201,43,Rural: Remote,No,†,Yes,Yes,133,10.41,12.8,41,11
462241000192,SD-28002-01,4622410,SD-28002,9,12,Estelline High School - 01,Estelline School District 28-2,Hamlin County,PO Box 306,Estelline,SD,57234,306,(605)873-2201,43,Rural: Remote,No,†,Yes,No,81,7.92,10.2,17,3
462241001045,SD-28002-03,4622410,SD-28002,6,8,Estelline Middle School - 03,Estelline School District 28-2,Hamlin County,PO Box 306,Estelline,SD,57234,306,(605)873-2201,43,Rural: Remote,No,†,Yes,Yes,63,3.85,16.4,19,4
462250000193,SD-17001-02,4622500,SD-17001,PK,6,Ethan Elementary - 02,Ethan School District 17-1,Davison County,PO Box 169,Ethan,SD,57334,169,(605)227-4211,42,Rural: Distant,No,†,Yes,No,164,11.27,14.6,32,26
462250000194,SD-17001-01,4622500,SD-17001,9,12,Ethan High School - 01,Ethan School District 17-1,Davison County,PO Box 169,Ethan,SD,57334,169,(605)227-4211,42,Rural: Distant,No,†,Yes,No,78,6.92,11.3,8,6
462250000903,SD-17001-03,4622500,SD-17001,7,8,Ethan Jr. High - 03,Ethan School District 17-1,Davison County,PO Box 169,Ethan,SD,57334,169,(605)227-4211,42,Rural: Distant,No,†,Yes,No,44,2.46,17.9,5,6
466627000585,SD-49005-16,4666270,SD-49005,KG,5,Eugene Field A+ Elementary - 16,Sioux Falls School District 49-5,Minnehaha County,501 S Highland Ave,Sioux Falls,SD,57103,2234,(605)367-6160,12,City: Midsize,No,†,Yes,No,419,26.53,15.8,95,43
462256000195,SD-44001-02,4622560,SD-44001,PK,6,Eureka Elementary - 02,Eureka School District 44-1,McPherson County,PO Box 10,Eureka,SD,57437,10,(605)284-2875,43,Rural: Remote,No,†,Yes,Yes,95,10.03,9.5,20,15
462256000196,SD-44001-01,4622560,SD-44001,9,12,Eureka High School - 01,Eureka School District 44-1,McPherson County,PO Box 10,Eureka,SD,57437,10,(605)284-2875,43,Rural: Remote,No,†,Yes,No,44,5.67,7.8,12,3
462256000958,SD-44001-03,4622560,SD-44001,7,8,Eureka Jr. High - 03,Eureka School District 44-1,McPherson County,PO Box 10,Eureka,SD,57437,10,(605)284-2875,43,Rural: Remote,No,†,Yes,Yes,35,5.17,6.8,18,1
463135001169,SD-41002-04,4631350,SD-41002,PK,5,Explorer Elementary - 04,Harrisburg School District 41-2,Lincoln County,4010 W 82nd St,Sioux Falls,SD,57108,,(605)743-2567,12,City: Midsize,No,†,Yes,No,480,32.48,14.8,92,24
462294000805,SD-46002-02,4622940,SD-46002,KG,6,Faith Elementary - 02,Faith School District 46-2,Meade County,PO Box 619,Faith,SD,57626,619,(605)967-2152,43,Rural: Remote,No,†,Yes,Yes,68,5.48,12.4,17,14
462294000806,SD-46002-01,4622940,SD-46002,9,12,Faith High School - 01,Faith School District 46-2,Meade County,PO Box 619,Faith,SD,57626,619,(605)967-2152,43,Rural: Remote,No,†,Yes,No,63,5.59,11.3,9,8
462294000995,SD-46002-06,4622940,SD-46002,7,8,Faith Jr. High - 06,Faith School District 46-2,Meade County,PO Box 619,Faith,SD,57626,619,(605)967-2152,43,Rural: Remote,No,†,Yes,No,25,1.81,13.8,7,4
463171001389,SD-49007-08,4631710,SD-49007,5,12,Falls Academy - 08,West Central School District 49-7,Minnehaha County,46560 264th St,Sioux Falls,SD,57107,,(605)528-3799,41,Rural: Fringe,No,†,–,–,21,0.6,35,3,0
462403000202,SD-24004-02,4624030,SD-24004,PK,6,Faulkton Elementary - 02,Faulkton Area Schools 24-4,Faulk County,PO Box 308,Faulkton,SD,57438,308,(605)598-6266,43,Rural: Remote,No,†,Yes,No,156,12.88,12.1,10,5
462403000203,SD-24004-01,4624030,SD-24004,9,12,Faulkton High School - 01,Faulkton Area Schools 24-4,Faulk County,PO Box 308,Faulkton,SD,57438,308,(605)598-6266,43,Rural: Remote,No,†,Yes,No,74,7.37,10,4,3
462403000204,SD-24004-08,4624030,SD-24004,7,8,Faulkton Jr. High - 08,Faulkton Area Schools 24-4,Faulk County,PO Box 308,Faulkton,SD,57438,308,(605)598-6266,43,Rural: Remote,No,†,Yes,No,33,2.81,11.7,2,3
462439000207,SD-50003-04,4624390,SD-50003,KG,4,Flandreau Elementary - 04,Flandreau School District 50-3,Moody County,500 W Community Dr,Flandreau,SD,57028,,(605)997-2780,43,Rural: Remote,No,†,Yes,Yes,252,23.66,10.7,108,28
462439000206,SD-50003-01,4624390,SD-50003,9,12,Flandreau High School - 01,Flandreau School District 50-3,Moody County,600 W Community Dr,Flandreau,SD,57028,1098,(605)997-2455,43,Rural: Remote,No,†,Yes,Yes,175,15.44,11.3,60,21
462439000205,SD-50003-03,4624390,SD-50003,5,8,Flandreau Middle School - 03,Flandreau School District 50-3,Moody County,700 W Community Dr,Flandreau,SD,57028,1098,(605)997-2705,43,Rural: Remote,No,†,Yes,Yes,221,17.85,12.4,81,25
466627001123,SD-49005-45,4666270,SD-49005,6,12,Flex - 45,Sioux Falls School District 49-5,Minnehaha County,201 N West Ave,Sioux Falls,SD,57104,,(605)367-7647,12,City: Midsize,No,†,–,–,41,9.29,4.4,41,0
462454000208,SD-14001-02,4624540,SD-14001,PK,5,Florence Elementary - 02,Florence School District 14-1,Codington County,PO Box 66,Florence,SD,57235,66,(605)758-2412,42,Rural: Distant,No,†,Yes,Yes,147,10.04,14.6,24,22
462454000209,SD-14001-01,4624540,SD-14001,9,12,Florence High School - 01,Florence School District 14-1,Codington County,PO Box 66,Florence,SD,57235,66,(605)758-2412,42,Rural: Distant,No,†,Yes,Yes,68,7,9.7,15,8
462454000589,SD-14001-03,4624540,SD-14001,6,8,Florence Middle School - 03,Florence School District 14-1,Codington County,PO Box 66,Florence,SD,57235,66,(605)758-2412,42,Rural: Distant,No,†,Yes,Yes,62,4.24,14.6,11,11
461294001081,SD-12002-04,4612940,SD-12002,KG,8,Fordham Colony Elementary - 04,Clark School District 12-2,Clark County,RR 1 Box 28,Carpenter,SD,57322,9721,(605)532-3606,43,Rural: Remote,No,†,Yes,No,31,2,15.5,0,0
460795001302,SD-49002-06,4607950,SD-49002,KG,4,Fred Assam Elementary - 06,Brandon Valley School District 49-2,Minnehaha County,7700 E Willowwood St,Sioux Falls,SD,57110,,(605)582-1500,12,City: Midsize,No,†,Yes,No,559,33.93,16.5,80,36
462140000189,SD-06002-02,4621400,SD-06002,KG,6,Frederick Elementary - 02,Frederick Area School District 06-2,Brown County,PO Box 486,Frederick,SD,57441,486,(605)329-2145,43,Rural: Remote,No,†,Yes,Yes,79,10.1,7.8,19,6
462140000190,SD-06002-01,4621400,SD-06002,9,12,Frederick High School - 01,Frederick Area School District 06-2,Brown County,PO Box 486,Frederick,SD,57441,486,(605)329-2145,43,Rural: Remote,No,†,Yes,No,53,5.1,10.4,8,1
462140000957,SD-06002-03,4621400,SD-06002,7,8,Frederick Jr. High - 03,Frederick Area School District 06-2,Brown County,PO Box 486,Frederick,SD,57441,486,(605)329-2145,43,Rural: Remote,No,†,Yes,No,31,2.15,14.4,8,2
463135001318,SD-41002-06,4631350,SD-41002,KG,5,Freedom Elementary - 06,Harrisburg School District 41-2,Lincoln County,1101 Tom Sawyer Trl,Harrisburg,SD,57032,,(605)743-2567,41,Rural: Fringe,No,†,Yes,No,453,29.77,15.2,73,18
468044100486,SD-62006-03,4680441,SD-62006,KG,2,Freeman Davis Elementary - 03,Mobridge-Pollock 62-6,Walworth County,1107 1st Ave E,Mobridge,SD,57601,,(605)845-9275,33,Town: Remote,No,†,Yes,Yes,128,8.52,15,55,2
462550000219,SD-33001-02,4625500,SD-33001,KG,6,Freeman Elementary - 02,Freeman School District 33-1,Hutchinson County,PO Box 220,Freeman,SD,57029,220,(605)925-4216,43,Rural: Remote,No,†,Yes,No,144,11.26,12.8,21,13
462550000220,SD-33001-01,4625500,SD-33001,9,12,Freeman High School - 01,Freeman School District 33-1,Hutchinson County,PO Box 220,Freeman,SD,57029,220,(605)925-4214,43,Rural: Remote,No,†,Yes,No,81,7.84,10.3,5,3
462550000842,SD-33001-05,4625500,SD-33001,7,8,Freeman Jr. High - 05,Freeman School District 33-1,Hutchinson County,PO Box 220,Freeman,SD,57029,220,(605)925-4214,43,Rural: Remote,No,†,Yes,No,37,2.22,16.7,2,2
466627000587,SD-49005-19,4666270,SD-49005,PK,5,Garfield Elementary - 19,Sioux Falls School District 49-5,Minnehaha County,705 S Roberts Dr,Sioux Falls,SD,57104,4414,(605)367-6180,12,City: Midsize,No,†,Yes,Yes,525,35.48,14.8,342,76
462637000223,SD-49004-02,4626370,SD-49004,PK,5,Garretson Elementary - 02,Garretson School District 49-4,Minnehaha County,PO Box C,Garretson,SD,57030,381,(605)594-3453,42,Rural: Distant,No,†,Yes,No,240,15.58,15.4,31,22
462637000224,SD-49004-01,4626370,SD-49004,9,12,Garretson High School - 01,Garretson School District 49-4,Minnehaha County,PO Box C,Garretson,SD,57030,381,(605)594-3452,42,Rural: Distant,No,†,Yes,No,158,9.59,16.5,15,5
462637000843,SD-49004-03,4626370,SD-49004,6,8,Garretson Middle School - 03,Garretson School District 49-4,Minnehaha County,PO Box C,Garretson,SD,57030,381,(605)594-3452,42,Rural: Distant,No,†,Yes,No,114,6.97,16.4,4,3
462649000228,SD-63001-02,4626490,SD-63001,PK,5,Gayville-Volin Elementary - 02,Gayville-Volin School District 63-1,Yankton County,PO Box 158,Gayville,SD,57031,,(605)267-4476,42,Rural: Distant,No,†,Yes,Yes,156,10.33,15.1,30,23
462649000227,SD-63001-01,4626490,SD-63001,9,12,Gayville-Volin High School - 01,Gayville-Volin School District 63-1,Yankton County,PO Box 158,Gayville,SD,57031,158,(605)267-4476,42,Rural: Distant,No,†,Yes,No,103,9.07,11.4,26,9
462649000844,SD-63001-03,4626490,SD-63001,6,8,Gayville-Volin Middle School - 03,Gayville-Volin School District 63-1,Yankton County,PO Box 158,Gayville,SD,57031,158,(605)267-4476,42,Rural: Distant,No,†,Yes,Yes,65,2.96,22,15,15
465982000536,SD-51004-01,4659820,SD-51004,PK,5,General Beadle Elementary - 01,Rapid City Area School District 51-4,Pennington County,10 Van Buren St,Rapid City,SD,57701,969,(605)394-1841,13,City: Small,No,†,Yes,Yes,517,36.65,14.1,517,0
466627001333,SD-49005-09,4666270,SD-49005,6,8,George McGovern Middle School -09,Sioux Falls School District 49-5,Minnehaha County,6221 W Maple St,Sioux Falls,SD,57107,,(605)367-4440,41,Rural: Fringe,No,†,Yes,Yes,890,70.07,12.7,590,91
466045001362,SD-56004-06,4660450,SD-56004,2,8,George S Mickelson Alternative Elementary - 06,Redfield School District 56-4,Spink County,PO Box 560,Redfield,SD,57469,560,(605)472-4520,43,Rural: Remote,No,†,–,–,1,1,1,†,†
466045001102,SD-56004-04,4660450,SD-56004,9,12,George S Mickelson Alternative High School - 04,Redfield School District 56-4,Spink County,PO Box 560,Redfield,SD,57469,560,(605)472-4520,43,Rural: Remote,No,†,–,–,16,1,16,13,0
460852000083,SD-05001-02,4608520,SD-05001,6,8,George S. Mickelson Middle School - 02,Brookings School District 05-1,Brookings County,1801 12th St S,Brookings,SD,57006,5411,(605)696-4500,33,Town: Remote,No,†,–,–,805,56.33,14.3,127,45
465526000501,SD-32002-02,4655260,SD-32002,6,8,Georgia Morse Middle School - 02,Pierre School District 32-2,Hughes County,309 E Capitol Ave,Pierre,SD,57501,3115,(605)773-7330,33,Town: Remote,No,†,–,–,654,38.7,16.9,114,40
464839000591,SD-17002-04,4648390,SD-17002,KG,5,Gertie Belle Rogers Elementary - 04,Mitchell School District 17-2,Davison County,1301 N Kimball St,Mitchell,SD,57301,7760,(605)995-3091,33,Town: Remote,No,†,Yes,Yes,414,27.55,15,122,44
462697000231,SD-53001-02,4626970,SD-53001,KG,5,Gettysburg Elementary - 02,Gettysburg School District 53-1,Potter County,100 E King Ave,Gettysburg,SD,57442,1799,(605)765-2438,43,Rural: Remote,No,†,Yes,Yes,103,10.01,10.3,17,9
462697000232,SD-53001-01,4626970,SD-53001,9,12,Gettysburg High School - 01,Gettysburg School District 53-1,Potter County,100 E King Ave,Gettysburg,SD,57442,1799,(605)765-2436,43,Rural: Remote,No,†,Yes,No,81,8.13,10,13,11
462697000959,SD-53001-03,4626970,SD-53001,6,8,Gettysburg Middle School - 03,Gettysburg School District 53-1,Potter County,100 E King Ave,Gettysburg,SD,57442,1799,(605)765-2436,43,Rural: Remote,No,†,Yes,No,55,4.92,11.2,9,10
460004601166,SD-56006-04,4600046,SD-56006,KG,8,Glendale Colony Elementary - 04,Hitchcock Tulare School District 56-6,Spink County,PO Box 108,Tulare,SD,57476,108,(605)266-2151,43,Rural: Remote,No,†,Yes,Yes,27,2.5,10.8,0,0
460102601281,SD-43007-04,4601026,SD-43007,KG,8,Goldenview Colony School - 04,McCook Central School District 43-7,McCook County,PO Box 310,Salem,SD,57058,310,(605)425-2264,43,Rural: Remote,No,†,Yes,No,23,2.08,11.1,0,0
461230001377,SD-39001-07,4612300,SD-39001,KG,8,Graceville Colony - 07,Chester Area School District 39-1,Lake County,23843 - 446A Ave,Winfred,SD,57076,,(605)256-2267,42,Rural: Distant,No,†,Yes,No,14,2,7,0,0
465982000548,SD-51004-06,4659820,SD-51004,KG,5,Grandview Elementary - 06,Rapid City Area School District 51-4,Pennington County,3301 Grandview Dr,Rapid City,SD,57701,7450,(605)394-1829,13,City: Small,No,†,Yes,No,452,28.3,16,95,20
463822000917,SD-07002-13,4638220,SD-07002,KG,8,Grass Ranch Colony Elementary - 13,Kimball School District 07-2,Brule County,PO Box 479,Kimball,SD,57355,479,(605)778-6231,43,Rural: Remote,No,†,Yes,Yes,38,3.18,11.9,35,0
463822001185,SD-07002-15,4638220,SD-07002,9,12,Grass Ranch Colony High School - 15,Kimball School District 07-2,Brule County,PO Box 479,Kimball,SD,57355,479,(605)778-6231,43,Rural: Remote,No,†,Yes,Yes,11,1.05,10.5,8,0
464164001069,SD-44002-06,4641640,SD-44002,KG,8,Grassland Colony Elementary - 06,Leola School District 44-2,McPherson County,PO Box 350,Leola,SD,57456,350,(605)439-3477,43,Rural: Remote,No,†,Yes,Yes,17,2.41,7.1,0,0
467245000067,SD-33005-05,4672450,SD-33005,KG,8,Greenwood Colony Elementary - 05,Tripp-Delmont School District 33-5,Douglas County,PO Box 430,Tripp,SD,57376,430,(605)935-6766,43,Rural: Remote,No,†,Yes,Yes,7,1.18,5.9,0,0
462988000238,SD-26004-02,4629880,SD-26004,KG,5,Gregory Elementary - 02,Gregory School District 26-4,Gregory County,PO Box 438,Gregory,SD,57533,438,(605)835-8771,43,Rural: Remote,No,†,Yes,Yes,187,17.48,10.7,70,20
462988000239,SD-26004-01,4629880,SD-26004,9,12,Gregory High School - 01,Gregory School District 26-4,Gregory County,PO Box 438,Gregory,SD,57533,438,(605)835-9672,43,Rural: Remote,No,†,Yes,No,101,10.17,9.9,31,9
462988001296,SD-26004-04,4629880,SD-26004,6,8,Gregory Junior High - 04,Gregory School District 26-4,Gregory County,PO Box 438,Gregory,SD,57533,438,(605)835-8771,43,Rural: Remote,No,†,Yes,Yes,85,5.89,14.4,33,6
460004501156,SD-06006-02,4600045,SD-06006,PK,5,Groton Area Elementary - 02,Groton Area School District 06-6,Brown County,PO Box 410,Groton,SD,57445,410,(605)397-2317,43,Rural: Remote,No,†,Yes,Yes,285,20.76,13.7,28,20
460004501155,SD-06006-01,4600045,SD-06006,9,12,Groton Area High School - 01,Groton Area School District 06-6,Brown County,PO Box 410,Groton,SD,57445,410,(605)397-8381,43,Rural: Remote,No,†,Yes,No,178,15.17,11.7,13,6
460004501157,SD-06006-04,4600045,SD-06006,6,8,Groton Area Middle School - 04,Groton Area School District 06-6,Brown County,PO Box 410,Groton,SD,57445,410,(605)397-8381,43,Rural: Remote,No,†,Yes,No,125,9.68,12.9,9,9
463080001111,SD-28003-09,4630800,SD-28003,PK,5,Hamlin Elementary - 09,Hamlin School District 28-3,Hamlin County,44577 188th St,Hayti,SD,57241,5408,(605)783-3631,43,Rural: Remote,No,†,Yes,Yes,438,27.53,15.9,142,86
463080000260,SD-28003-01,4630800,SD-28003,9,12,Hamlin High School - 01,Hamlin School District 28-3,Hamlin County,44577 188th St,Hayti,SD,57241,,(605)783-3644,43,Rural: Remote,No,†,Yes,No,215,15.61,13.8,41,28
463080000259,SD-28003-02,4630800,SD-28003,6,8,Hamlin Middle School - 02,Hamlin School District 28-3,Hamlin County,44577 188th St,Hayti,SD,57241,5408,(605)783-3644,43,Rural: Remote,No,†,Yes,Yes,191,9.95,19.2,50,32
460264001272,SD-30001-07,4602640,SD-30001,9,12,Hanson Colony Alternative High School - 07,Hanson School District 30-1,Hanson County,PO Box 490,Alexandria,SD,57311,,(605)239-4387,42,Rural: Distant,No,†,Yes,No,5,0.31,16.1,0,0
460264000876,SD-30001-06,4602640,SD-30001,PK,5,Hanson Elementary - 06,Hanson School District 30-1,Hanson County,PO Box 490,Alexandria,SD,57311,490,(605)239-4387,43,Rural: Remote,No,†,Yes,Yes,175,13.55,12.9,24,7
460264000017,SD-30001-01,4602640,SD-30001,9,12,Hanson High School - 01,Hanson School District 30-1,Hanson County,PO Box 490,Alexandria,SD,57311,490,(605)239-4387,43,Rural: Remote,No,†,Yes,No,106,9.74,10.9,11,6
460264000018,SD-30001-02,4602640,SD-30001,6,8,Hanson Middle School - 02,Hanson School District 30-1,Hanson County,PO Box 490,Alexandria,SD,57311,490,(605)239-4387,43,Rural: Remote,No,†,Yes,No,93,6.29,14.8,9,10
460930000088,SD-31001-01,4609300,SD-31001,9,12,Harding County High School - 01,Harding County School District 31-1,Harding County,PO Box 367,Buffalo,SD,57720,367,(605)375-3241,43,Rural: Remote,No,†,Yes,Yes,65,8.05,8.1,6,3
460930000887,SD-31001-03,4609300,SD-31001,6,8,Harding County Middle School - 03,Harding County School District 31-1,Harding County,PO Box 367,Buffalo,SD,57720,367,(605)375-3241,43,Rural: Remote,No,†,Yes,Yes,39,4.82,8.1,5,3
463135000264,SD-41002-01,4631350,SD-41002,9,12,Harrisburg High School - 01,Harrisburg School District 41-2,Lincoln County,1300 W Willow St,Harrisburg,SD,57032,,(605)743-2567,41,Rural: Fringe,No,†,Yes,No,1053,79.91,13.2,102,40
463135001334,SD-41002-08,4631350,SD-41002,6,8,Harrisburg North Middle School - 08,Harrisburg School District 41-2,Lincoln County,2201 W 95th St,Sioux Falls,SD,57108,,(605)743-2567,41,Rural: Fringe,No,†,–,–,724,51.82,14,61,24
463135000847,SD-41002-03,4631350,SD-41002,6,8,Harrisburg South Middle School - 03,Harrisburg School District 41-2,Lincoln County,600 S Cliff Ave,Harrisburg,SD,57032,,(605)743-2567,31,Town: Fringe,No,†,Yes,No,400,31.8,12.6,50,16
466627000588,SD-49005-54,4666270,SD-49005,PK,5,Harvey Dunn Elementary - 54,Sioux Falls School District 49-5,Minnehaha County,2400 S Bahnson Ave,Sioux Falls,SD,57103,4462,(605)371-4120,12,City: Midsize,No,†,–,–,758,39.91,19,200,39
466627000936,SD-49005-56,4666270,SD-49005,PK,5,Hawthorne Elementary - 56,Sioux Falls School District 49-5,Minnehaha County,601 N Spring Ave,Sioux Falls,SD,57104,2721,(605)367-4580,12,City: Midsize,No,†,Yes,Yes,471,33.54,14,471,0
466627000590,SD-49005-38,4666270,SD-49005,PK,5,Hayward Elementary - 38,Sioux Falls School District 49-5,Minnehaha County,400 N Valley View Rd,Sioux Falls,SD,57107,1022,(605)367-4590,12,City: Midsize,No,†,Yes,Yes,709,46.17,15.4,485,77
467209000669,SD-66001-05,4672090,SD-66001,KG,8,He Dog Elementary - 05,Todd County School District 66-1,Todd County,PO Box 260,Parmelee,SD,57566,277,(605)747-2438,43,Rural: Remote,No,†,Yes,Yes,163,9.28,17.6,163,0
463234000275,SD-14002-02,4632340,SD-14002,PK,5,Henry Elementary - 02,Henry School District 14-2,Codington County,PO Box 8,Henry,SD,57243,8,(605)532-5364,43,Rural: Remote,No,†,Yes,Yes,76,6.85,11.1,28,12
463234000276,SD-14002-01,4632340,SD-14002,9,12,Henry High School - 01,Henry School District 14-2,Codington County,PO Box 8,Henry,SD,57243,8,(605)532-5364,43,Rural: Remote,No,†,Yes,Yes,58,5.56,10.4,19,11
463234001047,SD-14002-03,4632340,SD-14002,6,8,Henry Middle School - 03,Henry School District 14-2,Codington County,PO Box 8,Henry,SD,57243,8,(605)532-5364,43,Rural: Remote,No,†,Yes,No,49,4.49,10.9,14,2
466993000735,SD-46001-08,4669930,SD-46001,KG,8,Hereford Elementary - 08,Meade School District 46-1,Meade County,PO Box 16,Whitewood,SD,57793,16,(605)269-2264,43,Rural: Remote,No,†,–,–,15,2.47,6.1,0,0
461695000159,SD-16001-04,4616950,SD-16001,KG,8,Hermosa Elementary - 04,Custer School District 16-1,Custer County,PO Box 27,Hermosa,SD,57744,27,(605)255-4345,42,Rural: Distant,No,†,Yes,Yes,219,18.3,12,67,22
463243000277,SD-10001-02,4632430,SD-10001,KG,5,Herreid Elementary - 02,Herreid School District 10-1,Campbell County,PO Box 276,Herreid,SD,57632,276,(605)437-2263,43,Rural: Remote,No,†,Yes,Yes,54,7.06,7.6,13,5
463243000278,SD-10001-01,4632430,SD-10001,9,12,Herreid High School - 01,Herreid School District 10-1,Campbell County,PO Box 276,Herreid,SD,57632,276,(605)437-2263,43,Rural: Remote,No,†,Yes,No,39,4.71,8.3,10,3
463243000910,SD-10001-03,4632430,SD-10001,6,8,Herreid Middle School - 03,Herreid School District 10-1,Campbell County,PO Box 276,Herreid,SD,57632,276,(605)437-2263,43,Rural: Remote,No,†,Yes,No,26,3.8,6.8,10,1
461230001295,SD-39001-06,4612300,SD-39001,9,12,High Plains - 06,Chester Area School District 39-1,Lake County,PO Box 159,Chester,SD,57016,159,(605)489-2411,42,Rural: Distant,No,†,Yes,No,67,0.71,94.4,6,1
468044000323,SD-34002-02,4680440,SD-34002,PK,6,Highmore Elementary - 02,Highmore-Harrold 34-2,Hyde County,415 Iowa Ave S,Highmore,SD,57345,416,(605)852-2276,43,Rural: Remote,No,†,Yes,No,123,12.88,9.5,29,16
468044000324,SD-34002-01,4680440,SD-34002,9,12,Highmore High School - 01,Highmore-Harrold 34-2,Hyde County,415 Iowa Ave S,Highmore,SD,57345,416,(605)852-2275,43,Rural: Remote,No,†,Yes,No,84,7.63,11,9,7
468044001049,SD-34002-03,4680440,SD-34002,7,8,Highmore Jr. High - 03,Highmore-Harrold 34-2,Hyde County,415 Iowa Ave S,Highmore,SD,57345,416,(605)852-2275,43,Rural: Remote,No,†,Yes,No,37,3.15,11.7,3,7
463336000279,SD-51002-02,4633360,SD-51002,PK,5,Hill City Elementary - 02,Hill City School District 51-2,Pennington County,PO Box 659,Hill City,SD,57745,659,(605)574-3015,42,Rural: Distant,No,†,Yes,Yes,186,16.44,11.3,69,11
463336000280,SD-51002-01,4633360,SD-51002,9,12,Hill City High School - 01,Hill City School District 51-2,Pennington County,PO Box 659,Hill City,SD,57745,659,(605)574-3000,42,Rural: Distant,No,†,Yes,No,153,11.99,12.8,31,11
463336000848,SD-51002-04,4633360,SD-51002,6,8,Hill City Middle School - 04,Hill City School District 51-2,Pennington County,PO Box 659,Hill City,SD,57745,659,(605)574-3025,42,Rural: Distant,No,†,Yes,No,118,5.1,23.1,26,10
461294001082,SD-12002-05,4612940,SD-12002,KG,8,Hillcrest Colony Elementary - 05,Clark School District 12-2,Clark County,1004 Hillcrest Dr,Garden City,SD,57236,,(605)532-3606,43,Rural: Remote,No,†,Yes,Yes,27,2,13.5,24,0
460852000085,SD-05001-04,4608520,SD-05001,KG,3,Hillcrest Elementary - 04,Brookings School District 05-1,Brookings County,304 15th Ave,Brookings,SD,57006,2078,(605)696-4600,33,Town: Remote,No,†,Yes,Yes,284,21.3,13.3,65,15
461917001100,SD-56002-04,4619170,SD-56002,KG,8,Hillside Colony Elementary - 04,Doland School District 56-2,Spink County,18248 Hillside Ln,Doland,SD,57436,,(605)635-5302,43,Rural: Remote,No,†,Yes,Yes,22,2.2,10,19,0
461917001359,SD-56002-07,4619170,SD-56002,9,12,Hillside Colony High School - 07,Doland School District 56-2,Spink County,18248 Hillside Ln,Doland,SD,57436,,(605)635-6302,43,Rural: Remote,No,†,Yes,No,17,1.32,12.9,14,0
460004601167,SD-56006-05,4600046,SD-56006,KG,6,Hitchcock-Tulare Elementary - 05,Hitchcock Tulare School District 56-6,Beadle County,PO Box 8,Hitchcock,SD,57348,,(605)266-2151,43,Rural: Remote,No,†,Yes,No,85,9.92,8.6,14,10
460004601163,SD-56006-01,4600046,SD-56006,9,12,Hitchcock-Tulare High School - 01,Hitchcock Tulare School District 56-6,Spink County,PO Box 108,Tulare,SD,57476,108,(605)596-4171,43,Rural: Remote,No,†,Yes,No,53,6.21,8.5,3,7
460004601164,SD-56006-02,4600046,SD-56006,7,8,Hitchcock-Tulare Jr. High School - 02,Hitchcock Tulare School District 56-6,Spink County,PO Box 108,Tulare,SD,57476,108,(605)596-4171,43,Rural: Remote,No,†,Yes,No,33,3.18,10.4,3,2
460207000005,SD-06001-02,4602070,SD-06001,6,8,Holgate Middle School - 02,Aberdeen School District 06-1,Brown County,2200 N Dakota St,Aberdeen,SD,57401,1469,(605)725-7700,33,Town: Remote,No,†,–,–,540,33.2,16.3,120,48
465982000550,SD-51004-07,4659820,SD-51004,KG,5,Horace Mann Elementary - 07,Rapid City Area School District 51-4,Pennington County,902 Anamosa St,Rapid City,SD,57701,530,(605)394-1847,13,City: Small,No,†,Yes,Yes,318,22.2,14.3,318,0
463135001375,SD-41002-09,4631350,SD-41002,PK,5,Horizon Elementary - 09,Harrisburg School District 41-2,Lincoln County,5800 S Bahnson Ave,Sioux Falls,SD,57108,,(605)743-2567,41,Rural: Fringe,No,†,Yes,No,256,22.95,11.2,34,14
463448000287,SD-23002-02,4634480,SD-23002,PK,5,Hot Springs Elementary - 02,Hot Springs School District 23-2,Fall River County,1747 Lincoln Ave,Hot Springs,SD,57747,2126,(605)745-4149,33,Town: Remote,No,†,Yes,Yes,358,22.66,15.8,119,55
463448000288,SD-23002-01,4634480,SD-23002,9,12,Hot Springs High School - 01,Hot Springs School District 23-2,Fall River County,1747 Lincoln Ave,Hot Springs,SD,57747,2126,(605)745-4147,33,Town: Remote,No,†,Yes,No,244,18.69,13.1,50,10
463448000911,SD-23002-06,4634480,SD-23002,6,8,Hot Springs Middle School - 06,Hot Springs School District 23-2,Fall River County,1747 Lincoln Ave,Hot Springs,SD,57747,2126,(605)745-4146,33,Town: Remote,No,†,Yes,Yes,177,13.69,12.9,47,12
463460000297,SD-53002-02,4634600,SD-53002,PK,6,Hoven Elementary - 02,Hoven School District 53-2,Potter County,PO Box 128,Hoven,SD,57450,128,(605)948-2252,43,Rural: Remote,No,†,Yes,Yes,64,9.89,6.5,15,8
463460000298,SD-53002-01,4634600,SD-53002,9,12,Hoven High School - 01,Hoven School District 53-2,Potter County,PO Box 128,Hoven,SD,57450,128,(605)948-2252,43,Rural: Remote,No,†,Yes,No,34,5.98,5.7,9,1
463460000912,SD-53002-03,4634600,SD-53002,7,8,Hoven Jr. High - 03,Hoven School District 53-2,Potter County,PO Box 128,Hoven,SD,57450,128,(605)948-2252,43,Rural: Remote,No,†,Yes,No,17,2.92,5.8,6,5
460002500304,SD-48003-02,4600025,SD-48003,KG,6,Howard Elementary - 02,Howard School District 48-3,Miner County,201 N Minnie St,Howard,SD,57349,,(605)772-4443,43,Rural: Remote,No,†,Yes,No,173,17.02,10.2,28,15
460002500305,SD-48003-01,4600025,SD-48003,9,12,Howard High School - 01,Howard School District 48-3,Miner County,500 N Section Line St,Howard,SD,57349,,(605)772-5515,43,Rural: Remote,No,†,Yes,No,96,11.8,8.1,16,7
460002500913,SD-48003-05,4600025,SD-48003,7,8,Howard Jr. High - 05,Howard School District 48-3,Miner County,500 N Section Line St,Howard,SD,57349,,(605)772-5515,43,Rural: Remote,No,†,Yes,No,63,3.99,15.8,11,3
463548000312,SD-02002-13,4635480,SD-02002,KG,8,Huron Colony Elementary - 13,Huron School District 02-2,Beadle County,PO Box 949,Huron,SD,57350,949,(605)353-6900,43,Rural: Remote,No,†,–,–,19,2,9.5,0,0
463548000313,SD-02002-01,4635480,SD-02002,9,12,Huron High School - 01,Huron School District 02-2,Beadle County,PO Box 949,Huron,SD,57350,949,(605)353-7800,33,Town: Remote,No,†,Yes,Yes,707,41.34,17.1,273,60
463548000314,SD-02002-02,4635480,SD-02002,6,8,Huron Middle School - 02,Huron School District 02-2,Beadle County,PO Box 949,Huron,SD,57350,949,(605)353-6900,33,Town: Remote,No,†,Yes,Yes,551,34.25,16.1,265,48
460740000060,SD-04002-18,4607400,SD-04002,KG,8,Hutterische Colony Elementary - 18,Bon Homme School District 04-2,Bon Homme County,31232 The Colony Rd,Tabor,SD,57063,,(605)589-3389,43,Rural: Remote,No,†,Yes,Yes,49,4.06,12.1,0,0
468043701245,SD-35002-09,4680437,SD-35002,KG,8,Interior Elementary - 09,Kadoka Area School District 35-2,Jackson County,PO Box 99,Kadoka,SD,57543,99,(605)837-2173,43,Rural: Remote,No,†,Yes,Yes,50,5.45,9.2,26,5
463606000332,SD-22006-02,4636060,SD-22006,PK,5,Ipswich Elementary - 02,Ipswich Public School District 22-6,Edmunds County,PO Box 306,Ipswich,SD,57451,306,(605)426-6832,43,Rural: Remote,No,†,Yes,No,193,14.72,13.1,40,24
463606000333,SD-22006-01,4636060,SD-22006,9,12,Ipswich High School - 01,Ipswich Public School District 22-6,Edmunds County,PO Box 306,Ipswich,SD,57451,306,(605)426-6571,43,Rural: Remote,No,†,Yes,No,107,7.93,13.5,13,10
463606000914,SD-22006-04,4636060,SD-22006,6,8,Ipswich Middle School - 04,Ipswich Public School District 22-6,Edmunds County,PO Box 306,Ipswich,SD,57451,306,(605)426-6571,43,Rural: Remote,No,†,Yes,No,85,5.48,15.5,13,11
468043901255,SD-13003-02,4680439,SD-13003,PK,6,Irene - Wakonda Elementary - 02,Irene - Wakonda School District 13-3,Clay County,PO Box 268,Wakonda,SD,57073,268,(605)267-2644,43,Rural: Remote,No,†,Yes,No,185,13.6,13.6,41,23
468043901254,SD-13003-01,4680439,SD-13003,9,12,Irene - Wakonda High School - 01,Irene - Wakonda School District 13-3,Turner County,PO Box 5,Irene,SD,57037,5,(605)263-3313,43,Rural: Remote,No,†,Yes,No,80,8.71,9.2,16,4
468043901253,SD-13003-04,4680439,SD-13003,7,8,Irene - Wakonda Jr. High - 04,Irene - Wakonda School District 13-3,Turner County,PO Box 5,Irene,SD,57037,5,(605)263-3313,43,Rural: Remote,No,†,Yes,No,47,3.15,14.9,12,3
463615001144,SD-02003-04,4636150,SD-02003,PK,5,Iroquois Elementary - 04,Iroquois School District 02-3,Kingsbury County,111 E Washita St,Iroquois,SD,57353,,(605)546-2210,43,Rural: Remote,No,†,Yes,Yes,109,9.85,11.1,53,6
463615000339,SD-02003-01,4636150,SD-02003,9,12,Iroquois High School - 01,Iroquois School District 02-3,Kingsbury County,111 E Washita St,Iroquois,SD,57353,,(605)546-2426,43,Rural: Remote,No,†,Yes,No,58,5.83,9.9,17,2
463615000916,SD-02003-02,4636150,SD-02003,6,8,Iroquois Middle School - 02,Iroquois School District 02-3,Kingsbury County,111 E Washita St,Iroquois,SD,57353,,(605)546-2426,43,Rural: Remote,No,†,Yes,Yes,58,4.92,11.8,24,5
465175001391,SD-56007-92,4651750,SD-56007,9,12,iSucceed - 92,Northwestern Area School District 56-7,Spink County,221 3rd St,Mellette,SD,57461,,(605)887-3467,43,Rural: Remote,No,†,–,–,6,0.35,17.1,†,†
464710000417,SD-33002-03,4647100,SD-33002,KG,8,Jamesville Colony Elementary - 03,Menno School District 33-2,Yankton County,PO Box 346,Menno,SD,57045,346,(605)387-5161,43,Rural: Remote,No,†,Yes,No,19,3.24,5.9,0,0
465982001072,SD-51004-64,4659820,SD-51004,PK,12,Jefferson Building - 64,Rapid City Area School District 51-4,Pennington County,21 St Joseph St,Rapid City,SD,57701,,(605)394-1813,13,City: Small,No,†,–,–,25,7.5,3.3,3,0
465526000495,SD-32002-06,4655260,SD-32002,KG,5,Jefferson Elementary - 06,Pierre School District 32-2,Hughes County,900 N Poplar Ave,Pierre,SD,57501,1643,(605)773-7320,33,Town: Remote,No,†,Yes,No,440,28,15.7,126,32
467662001083,SD-14004-09,4676620,SD-14004,KG,4,Jefferson Elementary - 09,Watertown School District 14-4,Codington County,1701 N Maple St,Watertown,SD,57201,1615,(605)882-6390,33,Town: Remote,No,†,–,–,404,22.04,18.3,63,16
466627000976,SD-49005-57,4666270,SD-49005,KG,5,John F. Kennedy Elementary - 57,Sioux Falls School District 49-5,Minnehaha County,4501 S Holbrook Ave,Sioux Falls,SD,57106,1926,(605)362-2784,12,City: Midsize,No,†,–,–,606,37.67,16.1,154,41
466627001064,SD-49005-23,4666270,SD-49005,PK,5,John Harris Elementary - 23,Sioux Falls School District 49-5,Minnehaha County,3501 E 49th St,Sioux Falls,SD,57103,5849,(605)371-4111,12,City: Midsize,No,†,–,–,674,35.3,19.1,83,20
467437000301,SD-13001-04,4674370,SD-13001,2,5,Jolley Elementary - 04,Vermillion School District 13-1,Clay County,224 S University,Vermillion,SD,57069,3226,(605)677-7015,32,Town: Distant,No,†,Yes,Yes,355,23.05,15.4,104,21
461958000358,SD-37003-02,4619580,SD-37003,KG,4,Jones County Elementary - 02,Jones County School District 37-3,Jones County,305 Jefferson Ave,Murdo,SD,57559,109,(605)669-2297,43,Rural: Remote,No,†,Yes,Yes,70,7.32,9.6,25,6
461958000803,SD-37003-01,4619580,SD-37003,9,12,Jones County High School - 01,Jones County School District 37-3,Jones County,404 Jackson Ave,Murdo,SD,57559,109,(605)669-2258,43,Rural: Remote,No,†,Yes,Yes,47,7.05,6.7,16,4
461958000955,SD-37003-04,4619580,SD-37003,5,8,Jones County Middle School - 04,Jones County School District 37-3,Jones County,404 Jackson Ave,Murdo,SD,57559,109,(605)669-2258,43,Rural: Remote,No,†,Yes,Yes,61,5.13,11.9,20,4
463135001288,SD-41002-05,4631350,SD-41002,KG,5,Journey Elementary - 05,Harrisburg School District 41-2,Lincoln County,6801 S Grange Ave,Sioux Falls,SD,57108,,(605)743-2567,12,City: Midsize,No,†,–,–,386,25.93,14.9,23,5
468043701247,SD-35002-01,4680437,SD-35002,9,12,Kadoka Area High School - 01,Kadoka Area School District 35-2,Jackson County,PO Box 99,Kadoka,SD,57543,99,(605)837-2172,43,Rural: Remote,No,†,Yes,Yes,73,9.53,7.7,25,4
468043701249,SD-35002-02,4680437,SD-35002,PK,5,Kadoka Elementary - 02,Kadoka Area School District 35-2,Jackson County,PO Box 99,Kadoka,SD,57543,99,(605)837-2173,43,Rural: Remote,No,†,Yes,Yes,113,12.81,8.8,37,12
468043701382,SD-35002-03,4680437,SD-35002,6,8,Kadoka Middle School - 03,Kadoka Area School District 35-2,Jackson County,PO Box 99,Kadoka,SD,57543,99,(605)837-2174,43,Rural: Remote,No,†,Yes,Yes,42,1.56,26.9,19,4
464477000728,SD-42001-04,4644770,SD-42001,KG,5,Kennebec Elementary - 04,Lyman School District 42-1,Lyman County,PO Box 188,Kennebec,SD,57568,1000,(605)869-2213,43,Rural: Remote,No,†,Yes,Yes,105,10.96,9.6,64,11
465526001353,SD-32002-08,4655260,SD-32002,KG,5,Kennedy Elementary - 08,Pierre School District 32-2,Hughes County,2306 Brookstone Loop,Pierre,SD,57501,,(605)773-7370,41,Rural: Fringe,No,†,Yes,No,413,26,15.9,127,26
463822000354,SD-07002-02,4638220,SD-07002,PK,4,Kimball Elementary - 02,Kimball School District 07-2,Brule County,PO Box 479,Kimball,SD,57355,479,(605)778-6231,43,Rural: Remote,No,†,Yes,Yes,121,8.33,14.5,23,15
463822000355,SD-07002-01,4638220,SD-07002,9,12,Kimball High School - 01,Kimball School District 07-2,Brule County,PO Box 479,Kimball,SD,57355,479,(605)778-6232,43,Rural: Remote,No,†,Yes,Yes,69,9.27,7.4,20,11
463822000142,SD-07002-04,4638220,SD-07002,5,8,Kimball Middle School - 04,Kimball School District 07-2,Brule County,PO Box 479,Kimball,SD,57355,479,(605)778-6231,43,Rural: Remote,No,†,Yes,Yes,85,5.42,15.7,19,11
467209000503,SD-66001-08,4672090,SD-66001,KG,8,Klein Elementary - 08,Todd County School District 66-1,Todd County,PO Box 87,Mission,SD,57555,87,(605)378-3854,43,Rural: Remote,No,†,–,–,23,2.6,8.8,23,0
465982000539,SD-51004-08,4659820,SD-51004,KG,5,Knollwood Heights Elementary - 08,Rapid City Area School District 51-4,Pennington County,1701 Downing St,Rapid City,SD,57701,701,(605)394-1851,13,City: Small,No,†,Yes,Yes,432,33.3,13,432,0
460000200423,SD-25004-03,4600002,SD-25004,PK,5,Koch Elementary - 03,Milbank School District 25-4,Grant County,410 E 10th Ave,Milbank,SD,57252,1190,(605)432-6615,33,Town: Remote,No,†,Yes,Yes,447,31.25,14.3,137,22
464839000520,SD-17002-03,4648390,SD-17002,KG,5,L. B. Williams Elementary - 03,Mitchell School District 17-2,Davison County,1420 W University Ave,Mitchell,SD,57301,7760,(605)995-3090,33,Town: Remote,No,†,Yes,Yes,482,33.5,14.4,142,41
463999000367,SD-38003-02,4639990,SD-38003,PK,5,Lake Preston Elementary - 02,Lake Preston School District 38-3,Kingsbury County,300 1st St NE,Lake Preston,SD,57249,38,(605)847-4464,43,Rural: Remote,No,†,Yes,Yes,86,10.34,8.3,22,7
463999000368,SD-38003-01,4639990,SD-38003,9,12,Lake Preston High School - 01,Lake Preston School District 38-3,Kingsbury County,300 1st St NE,Lake Preston,SD,57249,38,(605)847-4455,43,Rural: Remote,No,†,Yes,No,59,9.01,6.5,11,8
463999000918,SD-38003-03,4639990,SD-38003,6,8,Lake Preston Middle School - 03,Lake Preston School District 38-3,Kingsbury County,300 1st St NE,Lake Preston,SD,57249,38,(605)847-4455,43,Rural: Remote,No,†,Yes,Yes,33,3.91,8.4,10,7
463954001080,SD-11001-05,4639540,SD-11001,KG,8,Lakeview Colony Elementary - 05,Andes Central School District 11-1,Charles Mix County,RR 1 Box 83,Lake Andes,SD,57356,,(605)487-7655,43,Rural: Remote,No,†,Yes,Yes,33,1.98,16.7,30,0
467209000504,SD-66001-09,4672090,SD-66001,KG,8,Lakeview Elementary - 09,Todd County School District 66-1,Todd County,26886 299th St,Crookston,NE,69212,,(605)429-3339,43,Rural: Remote,No,†,Yes,Yes,39,3.83,10.2,39,0
464086000369,SD-45005-02,4640860,SD-45005,PK,5,Langford Area Elementary - 02,Langford Area 45-5,Marshall County,PO Box 127,Langford,SD,57454,127,(605)493-6454,43,Rural: Remote,No,†,Yes,Yes,88,7.89,11.2,28,8
464086000370,SD-45005-01,4640860,SD-45005,9,12,Langford Area High School - 01,Langford Area 45-5,Marshall County,PO Box 127,Langford,SD,57454,127,(605)493-6454,43,Rural: Remote,No,†,Yes,Yes,68,6.15,11.1,14,10
464086000851,SD-45005-03,4640860,SD-45005,6,8,Langford Area Middle School - 03,Langford Area 45-5,Marshall County,PO Box 127,Langford,SD,57454,127,(605)493-6454,43,Rural: Remote,No,†,Yes,Yes,38,3.99,9.5,14,6
466627000597,SD-49005-10,4666270,SD-49005,PK,5,Laura B. Anderson Elementary - 10,Sioux Falls School District 49-5,Minnehaha County,1600 N Wayland Ave,Sioux Falls,SD,57103,447,(605)367-6130,12,City: Midsize,No,†,Yes,Yes,376,26.09,14.4,270,28
461785000162,SD-38002-02,4617850,SD-38002,PK,5,Laura Ingalls Wilder Elementary - 02,De Smet School District 38-2,Kingsbury County,PO Box 157,De Smet,SD,57231,157,(605)854-3963,43,Rural: Remote,No,†,Yes,No,158,12.9,12.2,21,19
466627000598,SD-49005-31,4666270,SD-49005,KG,5,Laura Wilder Elementary - 31,Sioux Falls School District 49-5,Minnehaha County,2300 S Lyndale Ave,Sioux Falls,SD,57105,3417,(605)367-4570,12,City: Midsize,No,†,Yes,Yes,536,32.05,16.7,244,46
461056000108,SD-41001-02,4610560,SD-41001,KG,5,Lawrence Elementary - 02,Canton School District 41-1,Lincoln County,724 N Sanborn,Canton,SD,57013,1406,(605)764-2579,32,Town: Distant,No,†,Yes,No,401,28.72,14,79,28
464130001145,SD-40001-10,4641300,SD-40001,9,12,Lead-Deadwood Career & Technical Education - 10,Lead-Deadwood School District 40-1,Lawrence County,PO Box 110,Nemo,SD,57759,,(605)578-2371,42,Rural: Distant,No,†,–,–,89,16.5,5.4,79,0
464130000372,SD-40001-03,4641300,SD-40001,KG,5,Lead-Deadwood Elementary - 03,Lead-Deadwood School District 40-1,Lawrence County,716 Main St,Deadwood,SD,57732,,(605)717-3884,32,Town: Distant,No,†,Yes,Yes,302,28.5,10.6,124,22
464130000374,SD-40001-01,4641300,SD-40001,9,12,Lead-Deadwood High School - 01,Lead-Deadwood School District 40-1,Lawrence County,320 S Main St,Lead,SD,57754,1548,(605)717-3899,32,Town: Distant,No,†,Yes,Yes,194,17.97,10.8,63,15
464130000373,SD-40001-02,4641300,SD-40001,6,8,Lead-Deadwood Middle School - 02,Lead-Deadwood School District 40-1,Lawrence County,234 S Main St,Lead,SD,57754,,(605)717-3898,32,Town: Distant,No,†,Yes,Yes,194,16.03,12.1,66,16
464152000381,SD-52004-02,4641520,SD-52004,KG,6,Lemmon Elementary - 02,Lemmon School District 52-4,Perkins County,905 5th Ave W,Lemmon,SD,57638,,(605)374-3784,43,Rural: Remote,No,†,Yes,Yes,140,9.5,14.7,19,22
464152000382,SD-52004-01,4641520,SD-52004,9,12,Lemmon High School - 01,Lemmon School District 52-4,Perkins County,209 3rd St W,Lemmon,SD,57638,1137,(605)374-3762,43,Rural: Remote,No,†,Yes,No,67,8.32,8.1,13,3
464152000852,SD-52004-06,4641520,SD-52004,7,8,Lemmon Jr. High - 06,Lemmon School District 52-4,Perkins County,209 3rd St W,Lemmon,SD,57638,1137,(605)374-3762,43,Rural: Remote,No,†,Yes,Yes,34,2.81,12.1,8,3
464155000386,SD-41004-02,4641550,SD-41004,PK,4,Lennox Elementary - 02,Lennox School District 41-4,Lincoln County,PO Box 38,Lennox,SD,57039,38,(605)647-2203,42,Rural: Distant,No,†,Yes,No,421,24.19,17.4,48,22
464155000387,SD-41004-01,4641550,SD-41004,9,12,Lennox High School - 01,Lennox School District 41-4,Lincoln County,PO Box 38,Lennox,SD,57039,38,(605)647-2203,42,Rural: Distant,No,†,–,–,293,19.87,14.7,30,10
464155001363,SD-41004-09,4641550,SD-41004,5,6,Lennox Intermediate - 09,Lennox School District 41-4,Lincoln County,PO Box 38,Lennox,SD,57039,,(605)647-2203,42,Rural: Distant,No,†,Yes,No,175,11.99,14.6,21,10
464155000963,SD-41004-08,4641550,SD-41004,7,8,Lennox Jr. High - 08,Lennox School District 41-4,Lincoln County,PO Box 38,Lennox,SD,57039,38,(605)647-2203,42,Rural: Distant,No,†,Yes,No,188,12.01,15.7,18,7
464164001397,SD-44002-07,4641640,SD-44002,9,12,Leola Alternative School - 07,Leola School District 44-2,McPherson County,PO Box 350,Leola,SD,57456,350,(605)439-3142,43,Rural: Remote,No,†,†,†,†,†,†,†,†
464164000390,SD-44002-02,4641640,SD-44002,PK,5,Leola Elementary - 02,Leola School District 44-2,McPherson County,PO Box 350,Leola,SD,57456,350,(605)439-3477,43,Rural: Remote,No,†,Yes,Yes,75,7.7,9.7,25,10
464164000391,SD-44002-01,4641640,SD-44002,9,12,Leola High School - 01,Leola School District 44-2,McPherson County,PO Box 350,Leola,SD,57456,350,(605)439-3477,43,Rural: Remote,No,†,Yes,Yes,33,6.9,4.8,10,4
464164000919,SD-44002-03,4641640,SD-44002,6,8,Leola Jr. High - 03,Leola School District 44-2,McPherson County,PO Box 350,Leola,SD,57456,350,(605)439-3477,43,Rural: Remote,No,†,Yes,Yes,22,2.93,7.5,7,3
463135000263,SD-41002-02,4631350,SD-41002,PK,5,Liberty Elementary - 02,Harrisburg School District 41-2,Lincoln County,PO Box 187,Harrisburg,SD,57032,187,(605)743-2567,41,Rural: Fringe,No,†,Yes,No,539,35.67,15.1,56,19
465982001341,SD-51004-44,4659820,SD-51004,12,12,Lincoln Building - 44,Rapid City Area School District 51-4,Pennington County,21 St Joseph St,Rapid City,SD,57701,,(605)394-1813,13,City: Small,No,†,–,–,31,2,15.5,7,0
468043000793,SD-63003-04,4680430,SD-63003,KG,5,Lincoln Elementary - 04,Yankton School District 63-3,Yankton County,PO Box 738,Yankton,SD,57078,738,(605)665-7392,33,Town: Remote,No,†,Yes,No,358,20.89,17.1,110,51
467662000944,SD-14004-05,4676620,SD-14004,KG,4,Lincoln Elementary - 05,Watertown School District 14-4,Codington County,1100 13th St NE,Watertown,SD,57201,5749,(605)882-6340,33,Town: Remote,No,†,–,–,395,23.21,17,41,28
460207000007,SD-06001-08,4602070,SD-06001,PK,5,Lincoln Elementary - 08,Aberdeen School District 06-1,Brown County,414 S 10th St,Aberdeen,SD,57401,3848,(605)725-7200,33,Town: Remote,No,†,Yes,Yes,328,35.4,9.3,124,35
466627000600,SD-49005-02,4666270,SD-49005,9,12,Lincoln High School - 02,Sioux Falls School District 49-5,Minnehaha County,2900 S Cliff Ave,Sioux Falls,SD,57105,5125,(605)367-7990,12,City: Midsize,No,†,–,–,2048,121.18,16.9,515,122
467209000506,SD-66001-12,4672090,SD-66001,KG,8,Littleburg Elementary - 12,Todd County School District 66-1,Todd County,28406 300 1st St,Valentine,NE,69201,,(605)378-3881,43,Rural: Remote,No,†,Yes,Yes,37,3.59,10.3,37,0
464164000393,SD-44002-05,4641640,SD-44002,KG,8,Long Lake Colony Elementary - 05,Leola School District 44-2,McPherson County,PO Box 350,Leola,SD,57456,350,(605)439-3477,43,Rural: Remote,No,†,Yes,Yes,24,2.42,9.9,21,0
464839000441,SD-17002-05,4648390,SD-17002,KG,5,Longfellow Elementary - 05,Mitchell School District 17-2,Davison County,110 N Mentzer St,Mitchell,SD,57301,7760,(605)995-3092,33,Town: Remote,No,†,Yes,Yes,336,27.9,12,124,25
468043701256,SD-35002-10,4680437,SD-35002,KG,8,Longvalley Elementary - 10,Kadoka Area School District 35-2,Jackson County,PO Box 99,Kadoka,SD,57543,99,(605)837-2173,43,Rural: Remote,No,†,Yes,Yes,35,4.58,7.6,7,0
466627000602,SD-49005-28,4666270,SD-49005,PK,5,Lowell Elementary - 28,Sioux Falls School District 49-5,Minnehaha County,710 W 18th St,Sioux Falls,SD,57104,4724,(605)367-8378,12,City: Midsize,No,†,Yes,Yes,470,30.43,15.4,470,0
460930000667,SD-31001-06,4609300,SD-31001,KG,8,Ludlow Elementary - 06,Harding County School District 31-1,Harding County,PO Box 367,Buffalo,SD,57720,367,(605)375-3241,43,Rural: Remote,No,†,Yes,No,10,1.11,9,3,0
464477000398,SD-42001-01,4644770,SD-42001,9,12,Lyman High School - 01,Lyman School District 42-1,Lyman County,PO Box 1000,Presho,SD,57568,1000,(605)895-2662,43,Rural: Remote,No,†,Yes,No,97,10.99,8.8,29,14
464477000812,SD-42001-02,4644770,SD-42001,6,8,Lyman Middle School - 02,Lyman School District 42-1,Lyman County,PO Box 188,Kennebec,SD,57568,1000,(605)869-2213,43,Rural: Remote,No,†,Yes,Yes,81,7.55,10.7,27,17
463548001369,SD-02002-19,4635480,SD-02002,2,3,Madison 2-3 Center - 19,Huron School District 02-2,Beadle County,PO Box 949,Huron,SD,57350,949,(605)353-7885,33,Town: Remote,No,†,Yes,Yes,464,28.24,16.4,274,42
463960001189,SD-39002-07,4639600,SD-39002,KG,5,Madison Elementary - 07,Madison Central School District 39-2,Lake County,700 NW 9th St,Madison,SD,57042,,(605)256-7721,32,Town: Distant,No,†,Yes,No,556,34.82,16,139,38
463960000363,SD-39002-01,4639600,SD-39002,9,12,Madison High School - 01,Madison Central School District 39-2,Lake County,800 NE 9th St,Madison,SD,57042,1199,(605)256-7706,32,Town: Distant,No,†,Yes,No,371,25.89,14.3,66,20
463960000364,SD-39002-02,4639600,SD-39002,6,8,Madison Middle School - 02,Madison Central School District 39-2,Lake County,830 NE 9th St,Madison,SD,57042,1104,(605)256-7717,32,Town: Distant,No,†,Yes,No,270,20.12,13.4,63,19
464545000407,SD-60003-02,4645450,SD-60003,PK,5,Marion Elementary - 02,Marion School District 60-3,Turner County,PO Box 207,Marion,SD,57043,207,(605)648-3615,42,Rural: Distant,No,†,Yes,No,90,9.66,9.3,19,16
464545000408,SD-60003-01,4645450,SD-60003,9,12,Marion High School - 01,Marion School District 60-3,Turner County,PO Box 207,Marion,SD,57043,207,(605)648-3615,42,Rural: Distant,No,†,Yes,No,52,7.06,7.4,13,5
464545001050,SD-60003-03,4645450,SD-60003,6,8,Marion Middle School - 03,Marion School District 60-3,Turner County,PO Box 207,Marion,SD,57043,207,(605)648-3615,42,Rural: Distant,No,†,Yes,Yes,37,5.27,7,7,7
460624000045,SD-03001-03,4606240,SD-03001,PK,5,Martin Elementary - 03,Bennett County School District 03-1,Bennett County,PO Box 580,Martin,SD,57551,580,(605)685-6717,43,Rural: Remote,No,†,Yes,Yes,241,23.42,10.3,240,0
462294000412,SD-46002-04,4622940,SD-46002,KG,8,Maurine Elementary - 04,Faith School District 46-2,Meade County,17291 US Hwy 212,Faith,SD,57626,,(605)967-2152,43,Rural: Remote,No,†,Yes,No,21,2.1,10,0,0
464710000418,SD-33002-04,4647100,SD-33002,KG,8,Maxwell Colony Elementary - 04,Menno School District 33-2,Hutchinson County,PO Box 346,Menno,SD,57045,346,(605)387-5161,43,Rural: Remote,No,†,Yes,No,53,3.29,16.1,50,0
460207000008,SD-06001-09,4602070,SD-06001,KG,5,May Overby Elementary - 09,Aberdeen School District 06-1,Brown County,612 14th Ave SE,Aberdeen,SD,57401,7608,(605)725-7300,33,Town: Remote,No,†,Yes,Yes,407,27.21,15,141,35
467935001067,SD-12003-04,4679350,SD-12003,KG,8,Mayfield Colony Elementary - 04,Willow Lake School District 12-3,Clark County,PO Box 170,Willow Lake,SD,57278,170,(605)625-5945,43,Rural: Remote,No,†,Yes,No,19,1.5,12.7,0,0
460102600404,SD-43007-02,4601026,SD-43007,PK,4,McCook Central Elementary - 02,McCook Central School District 43-7,McCook County,PO Box 310,Salem,SD,57058,310,(605)425-2264,43,Rural: Remote,No,†,Yes,No,173,10.43,16.6,34,12
460102601026,SD-43007-01,4601026,SD-43007,9,12,McCook Central High School - 01,McCook Central School District 43-7,McCook County,PO Box 310,Salem,SD,57058,310,(605)425-2264,43,Rural: Remote,No,†,Yes,No,103,9.3,11.1,12,6
460102601034,SD-43007-03,4601026,SD-43007,5,8,McCook Central Middle School - 03,McCook Central School District 43-7,McCook County,PO Box 310,Salem,SD,57058,310,(605)425-2264,43,Rural: Remote,No,†,Yes,No,109,7.34,14.9,20,10
464626000410,SD-15001-02,4646260,SD-15001,PK,6,McIntosh Elementary - 02,McIntosh School District 15-1,Corson County,PO Box 80,McIntosh,SD,57641,80,(605)273-4227,43,Rural: Remote,No,†,Yes,Yes,97,10.76,9,94,0
464626000411,SD-15001-01,4646260,SD-15001,9,12,McIntosh High School - 01,McIntosh School District 15-1,Corson County,PO Box 80,McIntosh,SD,57641,80,(605)273-4227,43,Rural: Remote,No,†,Yes,Yes,57,7.81,7.3,54,0
464626000921,SD-15001-03,4646260,SD-15001,7,8,McIntosh Jr. High - 03,McIntosh School District 15-1,Corson County,PO Box 80,McIntosh,SD,57641,80,(605)273-4298,43,Rural: Remote,No,†,Yes,Yes,31,2.38,13,28,0
467662000713,SD-14004-06,4676620,SD-14004,PK,4,McKinley Elementary - 06,Watertown School District 14-4,Codington County,5 12th St SW,Watertown,SD,57201,3250,(605)882-6350,33,Town: Remote,No,†,Yes,Yes,249,18.25,13.6,125,41
464638000415,SD-15002-02,4646380,SD-15002,PK,5,McLaughlin Elementary - 02,McLaughlin School District 15-2,Corson County,PO Box 880,McLaughlin,SD,57642,880,(605)823-4484,43,Rural: Remote,No,†,Yes,Yes,204,18,11.3,204,0
464638000416,SD-15002-01,4646380,SD-15002,9,12,McLaughlin High School - 01,McLaughlin School District 15-2,Corson County,PO Box 880,McLaughlin,SD,57642,880,(605)823-4484,43,Rural: Remote,No,†,Yes,Yes,161,12.39,13,161,0
464638000922,SD-15002-03,4646380,SD-15002,6,8,McLaughlin Middle School - 03,McLaughlin School District 15-2,Corson County,PO Box 880,McLaughlin,SD,57642,880,(605)823-4484,43,Rural: Remote,No,†,Yes,Yes,109,5.59,19.5,109,0
465982000549,SD-51004-10,4659820,SD-51004,KG,5,Meadowbrook Elementary - 10,Rapid City Area School District 51-4,Pennington County,3125 W Flormann St,Rapid City,SD,57702,5081,(605)394-1821,13,City: Small,No,†,–,–,513,32.65,15.7,83,11
460852000086,SD-05001-05,4608520,SD-05001,KG,3,Medary Elementary - 05,Brookings School District 05-1,Brookings County,718 5th St S,Brookings,SD,57006,3398,(605)696-4300,33,Town: Remote,No,†,Yes,Yes,345,27.3,12.6,99,28
467662000714,SD-14004-07,4676620,SD-14004,KG,4,Mellette Elementary - 07,Watertown School District 14-4,Codington County,619 2nd St NW,Watertown,SD,57201,,(605)882-6385,33,Town: Remote,No,†,Yes,Yes,246,15.3,16.1,63,36
466627001070,SD-49005-04,4666270,SD-49005,6,8,Memorial Middle School - 04,Sioux Falls School District 49-5,Minnehaha County,1401 S Sertoma Ave,Sioux Falls,SD,57106,4817,(605)362-2785,12,City: Midsize,No,†,–,–,1357,83.5,16.3,216,89
464710000419,SD-33002-02,4647100,SD-33002,PK,5,Menno Elementary - 02,Menno School District 33-2,Hutchinson County,PO Box 346,Menno,SD,57045,346,(605)387-5161,43,Rural: Remote,No,†,Yes,Yes,82,10.01,8.2,26,13
464710000420,SD-33002-01,4647100,SD-33002,9,12,Menno High School - 01,Menno School District 33-2,Hutchinson County,PO Box 346,Menno,SD,57045,346,(605)387-5161,43,Rural: Remote,No,†,Yes,No,68,8.97,7.6,11,7
464710000965,SD-33002-05,4647100,SD-33002,6,8,Menno Middle School - 05,Menno School District 33-2,Hutchinson County,PO Box 346,Menno,SD,57045,346,(605)387-5161,43,Rural: Remote,No,†,Yes,Yes,57,4.21,13.5,13,10
468043701257,SD-35002-11,4680437,SD-35002,KG,8,Midland Elementary - 11,Kadoka Area School District 35-2,Haakon County,PO Box 99,Kadoka,SD,57543,99,(605)837-2171,43,Rural: Remote,No,†,Yes,Yes,24,3.2,7.5,12,0
460207001367,SD-06001-07,4602070,SD-06001,KG,5,Mike Miller Elementary - 07,Aberdeen School District 06-1,Brown County,3010 Milwaukee Ave NE,Aberdeen,SD,57401,,(605)725-7800,33,Town: Remote,No,†,Yes,Yes,247,18.11,13.6,77,19
460000200424,SD-25004-01,4600002,SD-25004,9,12,Milbank High School - 01,Milbank School District 25-4,Grant County,1001 E Park Ave,Milbank,SD,57252,1190,(605)432-5546,33,Town: Remote,No,†,Yes,No,322,22.3,14.4,52,13
460000200425,SD-25004-02,4600002,SD-25004,6,8,Milbank Middle School - 02,Milbank School District 25-4,Grant County,1001 E Park Ave,Milbank,SD,57252,1190,(605)432-5519,33,Town: Remote,No,†,Yes,No,239,14.27,16.7,59,16
463049000647,SD-27001-08,4630490,SD-27001,KG,8,Milesville Elementary - 08,Haakon School District 27-1,Haakon County,PO Box 730,Philip,SD,57567,730,(605)859-2001,43,Rural: Remote,No,†,Yes,No,8,1.1,7.3,0,0
460264000015,SD-30001-04,4602640,SD-30001,KG,8,Millbrook Colony Elementary - 04,Hanson School District 30-1,Hanson County,PO Box 490,Alexandria,SD,57311,490,(605)239-4387,42,Rural: Distant,No,†,Yes,No,9,1.17,7.7,0,0
464794200429,SD-29004-02,4647942,SD-29004,KG,6,Miller Elementary - 02,Miller 29-4,Hand County,PO Box 257,Miller,SD,57362,257,(605)853-2711,43,Rural: Remote,No,†,Yes,No,258,22.1,11.7,37,14
464794200430,SD-29004-01,4647942,SD-29004,9,12,Miller High School - 01,Miller 29-4,Hand County,PO Box 257,Miller,SD,57362,257,(605)853-2455,43,Rural: Remote,No,†,Yes,No,110,10.5,10.5,4,10
464794201051,SD-29004-04,4647942,SD-29004,7,8,Miller Jr. High - 04,Miller 29-4,Hand County,PO Box 257,Miller,SD,57362,257,(605)853-2455,43,Rural: Remote,No,†,Yes,No,65,4.88,13.3,6,8
464794200431,SD-29004-11,4647942,SD-29004,KG,8,Millerdale Colony Elementary - 11,Miller 29-4,Hand County,PO Box 257,Miller,SD,57362,257,(605)853-2711,43,Rural: Remote,No,†,Yes,Yes,20,2.22,9,0,0
464839000442,SD-17002-01,4648390,SD-17002,9,12,Mitchell High School - 01,Mitchell School District 17-2,Davison County,920 N Capital St,Mitchell,SD,57301,7760,(605)995-3034,33,Town: Remote,No,†,Yes,No,801,48.01,16.7,137,54
464839000437,SD-17002-02,4648390,SD-17002,6,8,Mitchell Middle School - 02,Mitchell School District 17-2,Davison County,800 W 10th Ave,Mitchell,SD,57301,7760,(605)995-3051,41,Rural: Fringe,No,†,Yes,No,674,40.08,16.8,174,64
468044100449,SD-62006-01,4680441,SD-62006,9,12,Mobridge High School - 01,Mobridge-Pollock 62-6,Walworth County,1107 1st Ave E,Mobridge,SD,57601,,(605)845-9202,33,Town: Remote,No,†,Yes,Yes,197,13.9,14.2,54,6
468044100450,SD-62006-02,4680441,SD-62006,6,8,Mobridge Middle School - 02,Mobridge-Pollock 62-6,Walworth County,1107 1st Ave E,Mobridge,SD,57601,,(605)845-9210,33,Town: Remote,No,†,Yes,Yes,149,10.22,14.6,51,4
468044100493,SD-62006-04,4680441,SD-62006,3,5,Mobridge Upper Elementary - 04,Mobridge-Pollock 62-6,Walworth County,1107 1st Ave E,Mobridge,SD,57601,,(605)845-9210,33,Town: Remote,No,†,Yes,Yes,143,8.4,17,58,7
464878000451,SD-43002-02,4648780,SD-43002,PK,5,Montrose Elementary - 02,Montrose School District 43-2,McCook County,309 S Church Ave,Montrose,SD,57048,9528,(605)363-5025,42,Rural: Distant,No,†,Yes,No,105,8.04,13.1,15,9
464878000452,SD-43002-01,4648780,SD-43002,9,12,Montrose High School - 01,Montrose School District 43-2,McCook County,309 S Church Ave,Montrose,SD,57048,9528,(605)363-5025,42,Rural: Distant,No,†,Yes,No,66,6.35,10.4,3,5
464878000966,SD-43002-03,4648780,SD-43002,6,8,Montrose Middle School - 03,Montrose School District 43-2,McCook County,309 S Church Ave,Montrose,SD,57048,9528,(605)363-5025,42,Rural: Distant,No,†,Yes,No,41,3.55,11.5,4,3
464965000454,SD-17003-02,4649650,SD-17003,PK,5,Mount Vernon Elementary - 02,Mount Vernon School District 17-3,Davison County,Box 46,Mount Vernon,SD,57363,46,(605)236-5237,42,Rural: Distant,No,†,Yes,Yes,109,9.45,11.5,24,21
464965000455,SD-17003-01,4649650,SD-17003,9,12,Mount Vernon High School- 01,Mount Vernon School District 17-3,Davison County,Box 46,Mount Vernon,SD,57363,46,(605)236-5237,42,Rural: Distant,No,†,Yes,No,63,7.32,8.6,15,5
464965000967,SD-17003-03,4649650,SD-17003,6,8,Mount Vernon Middle School - 03,Mount Vernon School District 17-3,Davison County,Box 46,Mount Vernon,SD,57363,46,(605)236-5237,42,Rural: Distant,No,†,Yes,No,55,4.55,12.1,15,5
466693001342,SD-40002-08,4666930,SD-40002,KG,KG,Mountain View Elementary - 08,Spearfish School District 40-2,Lawrence County,525 E Illinois,Spearfish,SD,57783,,(605)717-1209,32,Town: Distant,No,†,Yes,Yes,154,14,11,36,10
460207001130,SD-06001-89,4602070,SD-06001,5,12,New Beginnings - 89,Aberdeen School District 06-1,Brown County,1601 Milwaukee Ave NE,Aberdeen,SD,57401,,(605)725-8100,33,Town: Remote,No,†,–,–,13,2.1,6.2,3,0
465430000490,SD-33003-08,4654300,SD-33003,PK,8,New Elm Spring Colony Elementary - 08,Parkston School District 33-3,Hutchinson County,41844 269th St,Ethan,SD,57334,,(605)928-3040,43,Rural: Remote,No,†,Yes,Yes,27,2.03,13.3,3,0
466627001303,SD-49005-30,4666270,SD-49005,9,12,New Technology High School - 30,Sioux Falls School District 49-5,Minnehaha County,2205 N Career Ave,Sioux Falls,SD,57107,,(605)367-5850,41,Rural: Fringe,No,†,–,–,327,18.52,17.7,81,37
465067000463,SD-51003-02,4650670,SD-51003,KG,5,New Underwood Elementary - 02,New Underwood School District 51-3,Pennington County,PO Box 128,New Underwood,SD,57761,128,(605)754-6485,42,Rural: Distant,No,†,Yes,Yes,112,8.42,13.3,29,13
465067000464,SD-51003-01,4650670,SD-51003,9,12,New Underwood High School - 01,New Underwood School District 51-3,Pennington County,PO Box 128,New Underwood,SD,57761,128,(605)754-6485,42,Rural: Distant,No,†,Yes,No,91,5.93,15.3,16,6
465067000456,SD-51003-04,4650670,SD-51003,6,8,New Underwood Jr. High - 04,New Underwood School District 51-3,Pennington County,PO Box 128,New Underwood,SD,57761,128,(605)754-6485,42,Rural: Distant,No,†,Yes,No,33,2.47,13.4,8,4
462139001078,SD-05003-04,4621390,SD-05003,KG,8,Newdale Colony Elementary - 04,Elkton School District 05-3,Brookings County,21336 484th Ave,Elkton,SD,57026,6628,(605)542-2541,43,Rural: Remote,No,†,Yes,No,21,1,21,0,0
465085000468,SD-09002-02,4650850,SD-09002,PK,5,Newell Elementary - 02,Newell School District 09-2,Butte County,PO Box 99,Newell,SD,57760,99,(605)456-0102,43,Rural: Remote,No,†,Yes,Yes,132,10.94,12.1,54,13
465085000469,SD-09002-01,4650850,SD-09002,9,12,Newell High School - 01,Newell School District 09-2,Butte County,PO Box 99,Newell,SD,57760,99,(605)456-0102,43,Rural: Remote,No,†,Yes,No,92,10.11,9.1,32,17
465085000968,SD-09002-04,4650850,SD-09002,6,8,Newell Middle School - 04,Newell School District 09-2,Butte County,PO Box 99,Newell,SD,57760,99,(605)456-0102,43,Rural: Remote,No,†,Yes,Yes,77,7.49,10.3,34,10
464086001097,SD-45005-04,4640860,SD-45005,KG,8,Newport Colony Elementary - 04,Langford Area 45-5,Marshall County,PO Box 127,Langford,SD,57454,127,(605)493-6454,43,Rural: Remote,No,†,Yes,Yes,32,2.15,14.9,29,0
467830001154,SD-05006-07,4678300,SD-05006,KG,8,Norfeld Colony Elementary - 07,Deubrook Area School District 05-6,Brookings County,PO Box 346,White,SD,57276,346,(605)794-1152,43,Rural: Remote,No,†,Yes,Yes,22,2.25,9.8,0,0
467857000749,SD-47001-08,4678570,SD-47001,KG,5,Norris Elementary - 08,White River School District 47-1,Mellette County,PO Box 273,White River,SD,57579,273,(605)462-6455,43,Rural: Remote,No,†,Yes,Yes,39,6.5,6,39,0
465982000532,SD-51004-35,4659820,SD-51004,6,8,North Middle School - 35,Rapid City Area School District 51-4,Pennington County,1501 N Maple St,Rapid City,SD,57701,657,(605)394-4042,13,City: Small,No,†,Yes,Yes,569,43.84,13,569,0
460561000289,SD-09001-08,4605610,SD-09001,KG,KG,North Park Elementary - 08,Belle Fourche School District 09-1,Butte County,2305 13th Ave,Belle Fourche,SD,57717,,(605)723-3379,33,Town: Remote,No,†,Yes,Yes,112,8.14,13.8,46,11
465175000820,SD-56007-04,4651750,SD-56007,PK,5,Northwestern Elementary - 04,Northwestern Area School District 56-7,Spink County,221 3rd St,Mellette,SD,57461,,(605)887-3467,43,Rural: Remote,No,†,Yes,No,129,9.29,13.9,21,8
465175000475,SD-56007-01,4651750,SD-56007,9,12,Northwestern High School - 01,Northwestern Area School District 56-7,Spink County,221 3rd St,Mellette,SD,57461,,(605)887-3467,43,Rural: Remote,No,†,Yes,No,94,7.75,12.1,9,10
465175000924,SD-56007-02,4651750,SD-56007,6,8,Northwestern Middle School - 02,Northwestern Area School District 56-7,Spink County,221 3rd St,Mellette,SD,57461,,(605)887-3467,43,Rural: Remote,No,†,Yes,No,51,4.18,12.2,4,3
460207000009,SD-06001-11,4602070,SD-06001,KG,5,O M Tiffany Elementary - 11,Aberdeen School District 06-1,Brown County,819 8th Ave NE,Aberdeen,SD,57401,2540,(605)725-7400,33,Town: Remote,No,†,Yes,Yes,332,26.68,12.4,115,23
467209000509,SD-66001-14,4672090,SD-66001,KG,8,O'Kreek Elementary - 14,Todd County School District 66-1,Todd County,PO Box 180,O'Kreek,SD,57563,180,(605)856-3507,43,Rural: Remote,No,†,Yes,Yes,36,3.98,9,36,0
460264000875,SD-30001-05,4602640,SD-30001,KG,8,Oaklane Colony Elementary - 05,Hanson School District 30-1,Hanson County,PO Box 490,Alexandria,SD,57311,490,(605)239-4387,43,Rural: Remote,No,†,Yes,Yes,33,2.14,15.4,0,0
466627001396,SD-49005-47,4666270,SD-49005,6,8,Odyssey - 47,Sioux Falls School District 49-5,Minnehaha County,201 N West Ave,Sioux Falls,SD,57104,,(605)367-4266,12,City: Midsize,No,†,†,†,†,†,†,†,†
465277000481,SD-23003-02,4652770,SD-23003,PK,5,Oelrichs Elementary - 02,Oelrichs School District 23-3,Fall River County,PO Box 65,Oelrichs,SD,57763,65,(605)535-2631,43,Rural: Remote,No,†,Yes,Yes,43,4.92,8.7,43,0
465277000482,SD-23003-01,4652770,SD-23003,9,12,Oelrichs High School - 01,Oelrichs School District 23-3,Fall River County,PO Box 65,Oelrichs,SD,57763,65,(605)535-2631,43,Rural: Remote,No,†,Yes,Yes,60,8.71,6.9,60,0
465277000608,SD-23003-03,4652770,SD-23003,6,8,Oelrichs Jr. High - 03,Oelrichs School District 23-3,Fall River County,PO Box 65,Oelrichs,SD,57763,65,(605)535-2631,43,Rural: Remote,No,†,Yes,Yes,38,4.39,8.7,38,0
466546001262,SD-65001-92,4665460,SD-65001,9,12,Oglala Lakota County Virtual High School - 92,Oglala Lakota County 65-1,Oglala Lakota County,PO Box 109,Batesland,SD,57716,,(605)455-6702,43,Rural: Remote,No,†,–,–,96,4.52,21.2,93,0
465430000489,SD-33003-03,4654300,SD-33003,PK,8,Old Elm Spring Colony Elementary - 03,Parkston School District 33-3,Hutchinson County,42021 268th St,Parkston,SD,57366,,(605)928-3368,43,Rural: Remote,No,†,Yes,Yes,29,2.03,14.3,3,0
460102701030,SD-39005-02,4601027,SD-39005,PK,6,Oldham-Ramona Elementary - 02,Oldham - Ramona School District 39-5,Lake County,220 W 2nd St,Ramona,SD,57054,,(605)482-8244,42,Rural: Distant,No,†,Yes,Yes,95,9.14,10.4,28,7
460102701027,SD-39005-01,4601027,SD-39005,9,12,Oldham-Ramona High School - 01,Oldham - Ramona School District 39-5,Lake County,220 W 2nd St,Ramona,SD,57054,,(605)482-8244,42,Rural: Distant,No,†,Yes,No,38,5.82,6.5,6,4
460102701035,SD-39005-03,4601027,SD-39005,7,8,Oldham-Ramona Jr. High - 03,Oldham - Ramona School District 39-5,Lake County,220 W 2nd St,Ramona,SD,57054,,(605)482-8244,42,Rural: Distant,No,†,Yes,No,22,1.97,11.2,5,6
460004200655,SD-58003-04,4600042,SD-58003,KG,5,Onida Elementary - 04,Agar-Blunt-Onida School District 58-3,Sully County,PO Box 205,Onida,SD,57564,205,(605)258-2617,43,Rural: Remote,No,†,Yes,No,111,9.36,11.9,12,5
466993000741,SD-46001-15,4669930,SD-46001,KG,8,Opal Elementary - 15,Meade School District 46-1,Meade County,PO Box 16,Whitewood,SD,57793,16,(605)269-2264,43,Rural: Remote,No,†,–,–,12,2.47,4.9,0,3
464878001095,SD-43002-04,4648780,SD-43002,KG,8,Orland Colony Elementary - 04,Montrose School District 43-2,McCook County,45050 246th St,Montrose,SD,57048,,(605)363-5025,43,Rural: Remote,No,†,Yes,Yes,29,2,14.5,0,0
466627000813,SD-49005-58,4666270,SD-49005,KG,5,Oscar Howe Elementary - 58,Sioux Falls School District 49-5,Minnehaha County,2801 Valley View Rd,Sioux Falls,SD,57106,536,(605)362-2752,12,City: Midsize,No,†,Yes,No,556,30.81,18,178,35
465430001132,SD-33003-88,4654300,SD-33003,5,12,Our Home,Parkston School District 33-3,Hutchinson County,102A S Chapman Dr,Parkston,SD,57366,,(605)928-3368,43,Rural: Remote,No,†,–,–,22,2.75,8,19,0
463548000570,SD-02002-12,4635480,SD-02002,5,12,Our Home ASAP - 12,Huron School District 02-2,Beadle County,PO Box 949,Huron,SD,57350,,(605)353-6900,41,Rural: Fringe,No,†,–,–,26,2.76,9.4,3,0
463548001279,SD-02002-77,4635480,SD-02002,5,12,Our Home Rediscovery - 77,Huron School District 02-2,Beadle County,PO Box 949,Huron,SD,57350,949,(605)353-6900,41,Rural: Fringe,No,†,†,†,0,1.24,†,–,–
465427000487,SD-60004-02,4654270,SD-60004,PK,6,Parker Elementary - 02,Parker School District 60-4,Turner County,PO Box 517,Parker,SD,57053,517,(605)297-3237,42,Rural: Distant,No,†,Yes,No,232,19.17,12.1,51,13
465427000488,SD-60004-01,4654270,SD-60004,9,12,Parker High School - 01,Parker School District 60-4,Turner County,PO Box 517,Parker,SD,57053,517,(605)297-3456,42,Rural: Distant,No,†,Yes,No,133,10.72,12.4,19,5
465427000925,SD-60004-03,4654270,SD-60004,7,8,Parker Jr. High - 03,Parker School District 60-4,Turner County,PO Box 517,Parker,SD,57053,517,(605)297-3456,42,Rural: Distant,No,†,Yes,No,78,4.9,15.9,8,4
465430000491,SD-33003-02,4654300,SD-33003,PK,6,Parkston Elementary - 02,Parkston School District 33-3,Hutchinson County,102C S Chapman Dr,Parkston,SD,57366,,(605)928-3368,43,Rural: Remote,No,†,Yes,No,273,20.44,13.4,51,28
465430000492,SD-33003-01,4654300,SD-33003,9,12,Parkston High School - 01,Parkston School District 33-3,Hutchinson County,102A S Chapman Dr,Parkston,SD,57366,,(605)928-3368,43,Rural: Remote,No,†,Yes,Yes,130,12.56,10.4,20,12
465430000926,SD-33003-05,4654300,SD-33003,7,8,Parkston Jr. High - 05,Parkston School District 33-3,Hutchinson County,102A S Chapman Dr,Parkston,SD,57366,,(605)928-3368,43,Rural: Remote,No,†,Yes,No,74,4.34,17.1,11,1
465430001395,SD-33003-92,4654300,SD-33003,9,12,Parkston Virtual School - 92,Parkston School District 33-3,Hutchinson County,102A S Chapman Dr,Parkston,SD,57331,,(605)928-3368,43,Rural: Remote,No,†,–,–,10,0.36,27.8,0,0
466627000604,SD-49005-07,4666270,SD-49005,6,8,Patrick Henry Middle School - 07,Sioux Falls School District 49-5,Minnehaha County,2200 S 5th Ave,Sioux Falls,SD,57105,4002,(605)367-7639,12,City: Midsize,No,†,–,–,1128,72.3,15.6,233,80
461941001384,SD-51001-06,4619410,SD-51001,KG,3,Patriot Elementary -06,Douglas School District 51-1,Pennington County,421 Don Williams Dr,Box Elder,SD,57719,9749,(605)923-0080,31,Town: Fringe,No,†,Yes,Yes,978,67.12,14.6,288,73
463615000340,SD-02003-05,4636150,SD-02003,4,8,Pearl Creek Colony Elementary - 05,Iroquois School District 02-3,Beadle County,21085 415th Ave,Iroquois,SD,57353,,(605)546-2210,43,Rural: Remote,No,†,Yes,No,10,1,10,0,0
463606001086,SD-22006-06,4636060,SD-22006,PK,8,Pembrook Colony Elementary - 06,Ipswich Public School District 22-6,Edmunds County,PO Box 306,Ipswich,SD,57451,306,(605)426-6832,43,Rural: Remote,No,†,Yes,No,25,2.3,10.9,0,0
463049000255,SD-27001-02,4630490,SD-27001,KG,6,Philip Elementary - 02,Haakon School District 27-1,Haakon County,PO Box 730,Philip,SD,57567,730,(605)859-2001,43,Rural: Remote,No,†,Yes,Yes,155,10.67,14.5,32,12
463049000256,SD-27001-01,4630490,SD-27001,9,12,Philip High School - 01,Haakon School District 27-1,Haakon County,PO Box 730,Philip,SD,57567,730,(605)859-2680,43,Rural: Remote,No,†,Yes,No,97,8.02,12.1,7,7
463049000247,SD-27001-03,4630490,SD-27001,7,8,Philip Jr. High - 03,Haakon School District 27-1,Haakon County,PO Box 730,Philip,SD,57567,730,(605)859-2680,43,Rural: Remote,No,†,Yes,Yes,48,3.7,13,5,3
466993000644,SD-46001-05,4669930,SD-46001,KG,4,Piedmont Valley Elementary - 05,Meade School District 46-1,Meade County,16159 2nd St,Piedmont,SD,57769,9801,(605)787-5295,41,Rural: Fringe,No,†,–,–,485,29.05,16.7,98,31
465982000547,SD-51004-11,4659820,SD-51004,KG,5,Pinedale Elementary - 11,Rapid City Area School District 51-4,Pennington County,4901 W Chicago St,Rapid City,SD,57702,2313,(605)394-1805,13,City: Small,No,†,–,–,425,23.2,18.3,43,13
465571000507,SD-01001-02,4655710,SD-01001,PK,6,Plankinton Elementary - 02,Plankinton School District 01-1,Aurora County,PO Box 190,Plankinton,SD,57368,190,(605)942-7743,43,Rural: Remote,No,†,Yes,Yes,180,12.71,14.2,50,24
465571000508,SD-01001-01,4655710,SD-01001,9,12,Plankinton High School - 01,Plankinton School District 01-1,Aurora County,PO Box 190,Plankinton,SD,57368,190,(605)942-7743,43,Rural: Remote,No,†,Yes,Yes,99,7.66,12.9,28,11
465571000927,SD-01001-03,4655710,SD-01001,7,8,Plankinton Jr. High - 03,Plankinton School District 01-1,Aurora County,PO Box 190,Plankinton,SD,57368,190,(605)942-7743,43,Rural: Remote,No,†,Yes,Yes,42,2.72,15.4,10,12
468043801244,SD-11005-02,4680438,SD-11005,KG,5,Platte - Geddes Elementary - 02,Platte - Geddes School District 11-5,Charles Mix County,PO Box 140,Platte,SD,57369,140,(605)337-2468,43,Rural: Remote,No,†,Yes,No,247,19.76,12.5,33,24
468043801248,SD-11005-01,4680438,SD-11005,9,12,Platte - Geddes High School - 01,Platte - Geddes School District 11-5,Charles Mix County,PO Box 140,Platte,SD,57369,140,(605)337-3391,43,Rural: Remote,No,†,Yes,No,120,12.93,9.3,7,8
468043801250,SD-11005-03,4680438,SD-11005,6,8,Platte - Geddes Jr. High - 03,Platte - Geddes School District 11-5,Charles Mix County,PO Box 140,Platte,SD,57369,140,(605)337-3391,43,Rural: Remote,No,†,Yes,No,68,4.72,14.4,6,5
468043801267,SD-11005-10,4680438,SD-11005,KG,8,Platte Colony Elementary - 10,Platte - Geddes School District 11-5,Charles Mix County,PO Box 140,Platte,SD,57369,140,(605)337-3391,43,Rural: Remote,No,†,Yes,Yes,26,2.09,12.4,23,0
462439001119,SD-50003-06,4624390,SD-50003,KG,8,Pleasant Valley Colony Elementary - 06,Flandreau School District 50-3,Moody County,22941 487th Ave,Flandreau,SD,57028,,(605)997-2780,42,Rural: Distant,No,†,Yes,No,32,2,16,0,0
464477000397,SD-42001-03,4644770,SD-42001,PK,5,Presho Elementary - 03,Lyman School District 42-1,Lyman County,PO Box 1000,Presho,SD,57568,1000,(605)895-2662,43,Rural: Remote,No,†,Yes,Yes,99,9.76,10.1,18,16
460002701399,SD-49203-07,4600027,SD-49203,12,12,Project Search - Avera McKennan 07,East Dakota Educational Cooperative,Minnehaha County,715 E 14th St,Sioux Falls,SD,57104,5151,(605)367-7680,12,City: Midsize,No,†,†,†,†,†,†,†,†
465982001340,SD-51004-45,4659820,SD-51004,9,12,Rapid City High School - 45,Rapid City Area School District 51-4,Pennington County,601 Columbus St,Rapid City,SD,57701,,(605)394-4048,13,City: Small,No,†,Yes,No,367,35,10.5,161,16
465982000823,SD-51004-12,4659820,SD-51004,PK,5,Rapid Valley Elementary - 12,Rapid City Area School District 51-4,Pennington County,2601 Covington St,Rapid City,SD,57703,6355,(605)393-2221,23,Suburb: Small,No,†,Yes,Yes,560,34.9,16,136,67
466546000575,SD-65001-04,4665460,SD-65001,PK,8,Red Shirt School - 04,Oglala Lakota County 65-1,Oglala Lakota County,PO Box 109,Batesland,SD,57716,109,(605)255-4859,43,Rural: Remote,No,†,Yes,Yes,82,6,13.7,79,0
467830001320,SD-05006-09,4678300,SD-05006,KG,8,Red Willow Colony School - 09,Deubrook Area School District 05-6,Brookings County,PO Box 346,White,SD,57275,346,(605)629-1152,43,Rural: Remote,No,†,Yes,Yes,16,1.25,12.8,0,0
466045000551,SD-56004-03,4660450,SD-56004,PK,5,Redfield Elementary - 03,Redfield School District 56-4,Spink County,PO Box 560,Redfield,SD,57469,560,(605)472-4520,43,Rural: Remote,No,†,Yes,Yes,320,21.66,14.8,79,36
466045000552,SD-56004-01,4660450,SD-56004,9,12,Redfield High School - 01,Redfield School District 56-4,Spink County,PO Box 560,Redfield,SD,57469,560,(605)472-4520,43,Rural: Remote,No,†,Yes,No,168,14.03,12,21,16
466045000858,SD-56004-02,4660450,SD-56004,6,8,Redfield Middle School - 02,Redfield School District 56-4,Spink County,PO Box 560,Redfield,SD,57469,560,(605)472-4520,43,Rural: Remote,No,†,Yes,No,133,9.69,13.7,26,16
466627000606,SD-49005-42,4666270,SD-49005,KG,5,Renberg Elementary - 42,Sioux Falls School District 49-5,Minnehaha County,47260 258th St,Renner,SD,57055,6517,(605)543-5273,41,Rural: Fringe,No,†,–,–,189,12.12,15.6,69,14
467209000864,SD-66001-11,4672090,SD-66001,KG,12,Resource Center - 11,Todd County School District 66-1,Todd County,PO Box 519,Mission,SD,57555,519,(605)856-3513,43,Rural: Remote,No,†,†,†,0,5,†,–,–
466627001300,SD-49005-17,4666270,SD-49005,PK,5,RF Pettigrew Elementary - 17,Sioux Falls School District 49-5,Minnehaha County,7900 W 53rd St,Sioux Falls,SD,57106,,(605)362-3560,12,City: Midsize,No,†,–,–,969,50.35,19.2,152,45
463548000318,SD-02002-15,4635480,SD-02002,KG,8,Riverside Colony Elementary - 15,Huron School District 02-2,Beadle County,PO Box 949,Huron,SD,57350,949,(605)353-6900,42,Rural: Distant,No,†,–,–,15,2,7.5,0,0
465982000541,SD-51004-14,4659820,SD-51004,PK,5,Robbinsdale Elementary - 14,Rapid City Area School District 51-4,Pennington County,424 E Indiana St,Rapid City,SD,57701,5675,(605)394-1825,13,City: Small,No,†,Yes,Yes,506,32.9,15.4,506,0
460795001237,SD-49002-05,4607950,SD-49002,KG,4,Robert Bennis Elementary - 05,Brandon Valley School District 49-2,Minnehaha County,2001 S Sioux Blvd,Brandon,SD,57005,,(605)582-8010,41,Rural: Fringe,No,†,–,–,530,29.45,18,39,18
466627000607,SD-49005-18,4666270,SD-49005,PK,5,Robert Frost Elementary - 18,Sioux Falls School District 49-5,Minnehaha County,3101 S 4th Ave,Sioux Falls,SD,57105,5809,(605)367-6170,12,City: Midsize,No,†,–,–,480,26.15,18.4,112,42
464839000444,SD-17002-10,4648390,SD-17002,KG,8,Rockport Colony Elementary- 10,Mitchell School District 17-2,Hanson County,25209 Rockport Rd,Alexandria,SD,57311,,(605)239-4214,43,Rural: Remote,No,†,Yes,Yes,17,1.35,12.6,0,0
466546000576,SD-65001-03,4665460,SD-65001,PK,8,Rockyford School - 03,Oglala Lakota County 65-1,Oglala Lakota County,14 BIA 33,Porcupine,SD,57772,9602,(605)455-2438,43,Rural: Remote,No,†,Yes,Yes,388,29,13.4,385,0
462139001168,SD-05003-05,4621390,SD-05003,KG,8,Rolland Colony Elementary - 05,Elkton School District 05-3,Brookings County,48088 210th St,White,SD,57276,6613,(605)542-2541,42,Rural: Distant,No,†,Yes,No,16,1,16,0,0
467662000716,SD-14004-08,4676620,SD-14004,PK,4,Roosevelt Elementary - 08,Watertown School District 14-4,Codington County,412 2nd St SE,Watertown,SD,57201,4366,(605)882-6360,33,Town: Remote,No,†,Yes,Yes,250,20,12.5,97,40
466627001063,SD-49005-03,4666270,SD-49005,9,12,Roosevelt High School - 03,Sioux Falls School District 49-5,Minnehaha County,6600 W 41st St,Sioux Falls,SD,57106,1287,(605)362-2860,12,City: Midsize,No,†,–,–,2404,131.95,18.2,572,161
466627001275,SD-49005-15,4666270,SD-49005,KG,5,Rosa Parks Elementary - 15,Sioux Falls School District 49-5,Minnehaha County,5701 E Red Oak Dr,Sioux Falls,SD,57710,,(605)371-4170,12,City: Midsize,No,†,Yes,Yes,631,37.03,17,299,73
467209000675,SD-66001-04,4672090,SD-66001,KG,5,Rosebud Elementary - 04,Todd County School District 66-1,Todd County,PO Box 310,Rosebud,SD,57570,310,(605)747-2411,43,Rural: Remote,No,†,Yes,Yes,267,17.83,15,267,0
464839000445,SD-17002-11,4648390,SD-17002,KG,8,Rosedale Colony Elementary - 11,Mitchell School District 17-2,Hanson County,25986 Rosedale Rd,Mitchell,SD,57301,,(605)239-4215,42,Rural: Distant,No,†,Yes,Yes,25,1.35,18.5,0,0
463606000334,SD-22006-03,4636060,SD-22006,PK,8,Rosette Colony Elementary - 03,Ipswich Public School District 22-6,Edmunds County,PO Box 306,Ipswich,SD,57451,306,(605)426-6832,43,Rural: Remote,No,†,Yes,No,20,2.8,7.1,0,0
466336000556,SD-54004-02,4663360,SD-54004,KG,5,Rosholt Elementary - 02,Rosholt School District 54-4,Roberts County,PO Box 106,Rosholt,SD,57260,106,(605)537-4283,43,Rural: Remote,No,†,Yes,Yes,117,10.53,11.1,27,21
466336000557,SD-54004-01,4663360,SD-54004,9,12,Rosholt High School - 01,Rosholt School District 54-4,Roberts County,PO Box 106,Rosholt,SD,57260,106,(605)537-4278,43,Rural: Remote,No,†,Yes,No,75,6.18,12.1,13,9
466336001053,SD-54004-04,4663360,SD-54004,6,8,Rosholt Middle School - 04,Rosholt School District 54-4,Roberts County,PO Box 106,Rosholt,SD,57260,106,(605)537-4278,43,Rural: Remote,No,†,Yes,No,37,4.13,9,5,2
461230001092,SD-39001-04,4612300,SD-39001,KG,8,Rustic Acres Elementary - 04,Chester Area School District 39-1,Lake County,PO Box 159,Chester,SD,57016,159,(605)489-2411,42,Rural: Distant,No,†,Yes,No,25,2,12.5,0,0
466414000562,SD-39004-02,4664140,SD-39004,PK,5,Rutland Elementary - 02,Rutland School District 39-4,Lake County,102 School St,Rutland,SD,57057,,(605)586-4352,42,Rural: Distant,No,†,Yes,Yes,88,7.7,11.4,25,4
466414000563,SD-39004-01,4664140,SD-39004,9,12,Rutland High School - 01,Rutland School District 39-4,Lake County,102 School St,Rutland,SD,57057,,(605)586-4352,42,Rural: Distant,No,†,Yes,No,45,6.77,6.6,9,6
466414000932,SD-39004-03,4664140,SD-39004,6,8,Rutland Jr. High - 03,Rutland School District 39-4,Lake County,102 School St,Rutland,SD,57057,,(605)586-4352,42,Rural: Distant,No,†,Yes,No,32,4.57,7,12,6
460393201162,SD-55005-06,4603932,SD-55005,PK,5,Sanborn Central Elementary - 06,Sanborn Central School District 55-5,Sanborn County,40405 SD Hwy 34,Forestburg,SD,57314,,(605)495-4183,43,Rural: Remote,No,†,Yes,Yes,101,7.88,12.8,25,4
460393200099,SD-55005-01,4603932,SD-55005,9,12,Sanborn Central High School - 01,Sanborn Central School District 55-5,Sanborn County,40405 SD Hwy 34,Forestburg,SD,57314,,(605)495-4183,43,Rural: Remote,No,†,Yes,Yes,44,5.41,8.1,6,5
460393200102,SD-55005-02,4603932,SD-55005,6,8,Sanborn Central Middle School - 02,Sanborn Central School District 55-5,Sanborn County,40405 SD Hwy 34,Forestburg,SD,57314,,(605)495-4183,43,Rural: Remote,No,†,Yes,Yes,35,4.43,7.9,5,2
466518000568,SD-04003-02,4665180,SD-04003,PK,5,Scotland Elementary - 02,Scotland School District 04-3,Bon Homme County,711 4th St,Scotland,SD,57059,,(605)583-2717,43,Rural: Remote,No,†,Yes,Yes,127,10.37,12.2,25,17
466518000569,SD-04003-01,4665180,SD-04003,9,12,Scotland High School - 01,Scotland School District 04-3,Bon Homme County,711 4th St,Scotland,SD,57059,,(605)583-2237,43,Rural: Remote,No,†,Yes,No,74,8.02,9.2,11,5
466518000933,SD-04003-05,4665180,SD-04003,6,8,Scotland Middle School - 05,Scotland School District 04-3,Bon Homme County,711 4th St,Scotland,SD,57059,,(605)583-2237,43,Rural: Remote,No,†,Yes,No,68,5.43,12.5,13,5
460002900253,SD-06302-01,4600029,SD-06302,PK,8,SDSBVI Elementary - 01,SD SCH FOR THE BLIND & VISUALLY IMPAIRED,Brown County,423 17th Ave SE,Aberdeen,SD,57401,7699,(605)626-2580,33,Town: Remote,No,†,–,–,11,8.88,1.2,0,0
460002900258,SD-06302-02,4600029,SD-06302,9,12,SDSBVI High School - 02,SD SCH FOR THE BLIND & VISUALLY IMPAIRED,Brown County,423 17th Ave SE,Aberdeen,SD,57401,7699,(605)626-2580,33,Town: Remote,No,†,–,–,12,5.16,2.3,3,0
460102801032,SD-62005-02,4601028,SD-62005,PK,5,Selby Elementary - 02,Selby Area School District 62-5,Walworth County,PO Box 324,Selby,SD,57472,324,(605)649-7818,43,Rural: Remote,No,†,Yes,No,106,9.65,11,28,10
460102801028,SD-62005-01,4601028,SD-62005,9,12,Selby High School - 01,Selby Area School District 62-5,Walworth County,PO Box 324,Selby,SD,57472,324,(605)649-7818,43,Rural: Remote,No,†,Yes,No,59,7.57,7.8,6,4
460102801036,SD-62005-03,4601028,SD-62005,6,8,Selby Middle School - 03,Selby Area School District 62-5,Walworth County,PO Box 324,Selby,SD,57472,324,(605)649-7818,43,Rural: Remote,No,†,Yes,No,28,2.3,12.2,5,3
463171001343,SD-49007-07,4631710,SD-49007,8,12,Sequel Transition Academy - 07,West Central School District 49-7,Minnehaha County,PO Box 730,Hartford,SD,57033,730,(605)528-3799,41,Rural: Fringe,No,†,–,–,23,3.4,6.8,3,0
467935001137,SD-12003-05,4679350,SD-12003,KG,8,Shamrock Colony Elementary - 05,Willow Lake School District 12-3,Beadle County,PO Box 170,Willow Lake,SD,57278,170,(605)625-5945,43,Rural: Remote,No,†,Yes,No,12,1.25,9.6,0,0
460002501161,SD-48003-08,4600025,SD-48003,KG,8,Shannon Colony Elementary - 08,Howard School District 48-3,Miner County,43945 235th St,Winfred,SD,57076,,(605)772-4443,43,Rural: Remote,No,†,Yes,No,29,2.12,13.7,0,0
461294001319,SD-12002-07,4612940,SD-12002,KG,8,Silver Lake Colony - 07,Clark School District 12-2,Clark County,17354 430th Ave,Clark,SD,57225,,(605)532-3606,43,Rural: Remote,No,†,Yes,Yes,41,3,13.7,38,0
460207000010,SD-06001-10,4602070,SD-06001,KG,5,Simmons Elementary - 10,Aberdeen School District 06-1,Brown County,1500 S 3rd St,Aberdeen,SD,57401,7401,(605)725-7600,33,Town: Remote,No,†,Yes,Yes,385,29.85,12.9,115,29
460207000011,SD-06001-03,4602070,SD-06001,6,8,Simmons Middle School - 03,Aberdeen School District 06-1,Brown County,1300 S 3rd St,Aberdeen,SD,57401,6921,(605)725-7900,33,Town: Remote,No,†,Yes,Yes,525,32.47,16.2,159,41
466630000614,SD-05005-02,4666300,SD-05005,KG,5,Sioux Valley Elementary - 02,Sioux Valley School District 05-5,Brookings County,PO Box 278,Volga,SD,57071,278,(605)627-5657,42,Rural: Distant,No,†,Yes,No,331,20.97,15.8,38,13
466630000612,SD-05005-01,4666300,SD-05005,9,12,Sioux Valley High School - 01,Sioux Valley School District 05-5,Brookings County,PO Box 278,Volga,SD,57071,278,(605)627-5657,42,Rural: Distant,No,†,Yes,No,197,12.44,15.8,20,3
466630000613,SD-05005-04,4666300,SD-05005,6,8,Sioux Valley Middle School - 04,Sioux Valley School District 05-5,Brookings County,PO Box 278,Volga,SD,57071,278,(605)627-5657,42,Rural: Distant,No,†,Yes,No,148,7.44,19.9,20,3
460005301239,SD-54002-01,4600053,SD-54002,9,12,Sisseton High School - 01,Sisseton School District 54-2,Roberts County,516 8th Ave W,Sisseton,SD,57262,1262,(605)698-7613,43,Rural: Remote,No,†,Yes,Yes,222,20.12,11,97,21
460005301258,SD-54002-02,4600053,SD-54002,6,8,Sisseton Middle School - 02,Sisseton School District 54-2,Roberts County,516 8th Ave W,Sisseton,SD,57262,1262,(605)698-7613,43,Rural: Remote,No,†,Yes,Yes,196,16.11,12.2,105,21
466627001344,SD-49005-65,4666270,SD-49005,PK,5,Sonia Sotomayor Elementary - 65,Sioux Falls School District 49-5,Minnehaha County,1510 S Lake Ave,Sioux Falls,SD,57105,,(605)367-4655,12,City: Midsize,No,†,–,–,689,17.23,40,44,37
465982000527,SD-51004-15,4659820,SD-51004,KG,5,South Canyon Elementary - 15,Rapid City Area School District 51-4,Pennington County,218 Nordbye Ln,Rapid City,SD,57702,2160,(605)394-1801,13,City: Small,No,†,Yes,Yes,268,20.43,13.1,72,14
460767000882,SD-26005-03,4607670,SD-26005,PK,5,South Central Elementary - 03,South Central 26-5,Gregory County,401 Birdsell St,Bonesteel,SD,57317,2101,(605)654-2314,43,Rural: Remote,No,†,Yes,Yes,61,7.35,8.3,33,3
465982000533,SD-51004-36,4659820,SD-51004,6,8,South Middle School - 36,Rapid City Area School District 51-4,Pennington County,2 Indiana St,Rapid City,SD,57701,5512,(605)394-4024,13,City: Small,No,†,Yes,Yes,674,42.24,16,212,15
460561000269,SD-09001-03,4605610,SD-09001,1,4,South Park Elementary - 03,Belle Fourche School District 09-1,Butte County,2305 13th Ave,Belle Fourche,SD,57717,,(605)723-3382,33,Town: Remote,No,†,Yes,Yes,411,30.5,13.5,143,46
465982000824,SD-51004-16,4659820,SD-51004,KG,5,South Park Elementary - 16,Rapid City Area School District 51-4,Pennington County,207 E Flormann St,Rapid City,SD,57701,5644,(605)394-1833,13,City: Small,No,†,Yes,Yes,326,22.94,14.2,326,0
465982000457,SD-51004-38,4659820,SD-51004,6,8,Southwest Middle School - 38,Rapid City Area School District 51-4,Pennington County,4501 Park Dr,Rapid City,SD,57702,6926,(605)394-6792,13,City: Small,No,†,–,–,699,39,17.9,89,24
466693001346,SD-40002-09,4666930,SD-40002,4,8,Spearfish Academy at Canyon Hills Elementary - 09,Spearfish School District 40-2,Lawrence County,2519 Windmill Dr,Spearfish,SD,57783,,(605)717-1229,32,Town: Distant,No,†,–,–,7,1.82,3.8,†,†
466693001347,SD-40002-10,4666930,SD-40002,9,12,Spearfish Academy at Canyon Hills High School - 10,Spearfish School District 40-2,Lawrence County,2519 Windmill Dr,Spearfish,SD,57783,,(605)717-1229,32,Town: Distant,No,†,–,–,14,1.91,7.3,3,0
466693000623,SD-40002-01,4666930,SD-40002,9,12,Spearfish High School - 01,Spearfish School District 40-2,Lawrence County,525 E Illinois,Spearfish,SD,57783,,(605)717-1212,32,Town: Distant,No,†,Yes,No,654,40.86,16,94,25
466693000622,SD-40002-05,4666930,SD-40002,6,8,Spearfish Middle School - 05,Spearfish School District 40-2,Lawrence County,525 E Illinois,Spearfish,SD,57783,,(605)717-1215,32,Town: Distant,No,†,Yes,No,596,38.36,15.5,102,35
460004601165,SD-56006-03,4600046,SD-56006,KG,8,Spink Colony Elementary - 03,Hitchcock Tulare School District 56-6,Spink County,PO Box 108,Tulare,SD,57476,108,(605)266-2151,43,Rural: Remote,No,†,Yes,No,32,2.6,12.3,0,0
464164000394,SD-44002-04,4641640,SD-44002,KG,8,Spring Creek Colony Elementary - 04,Leola School District 44-2,McPherson County,PO Box 350,Leola,SD,57456,350,(605)439-3477,43,Rural: Remote,No,†,Yes,Yes,29,2.43,11.9,26,0
467209000677,SD-66001-07,4672090,SD-66001,KG,8,Spring Creek Elementary - 07,Todd County School District 66-1,Todd County,HC59 Box 4,St Francis,SD,57572,,(605)747-2541,43,Rural: Remote,No,†,Yes,Yes,62,5.17,12,62,0
460102701112,SD-39005-04,4601027,SD-39005,KG,8,Spring Lake Colony Elementary - 04,Oldham - Ramona School District 39-5,Kingsbury County,21727 452nd Ave,Arlington,SD,57212,,(605)482-8244,43,Rural: Remote,No,†,Yes,Yes,29,2.07,14,0,0
460102701339,SD-39005-05,4601027,SD-39005,9,12,Spring Lake Colony High School - 05,Oldham - Ramona School District 39-5,Kingsbury County,21727 452nd Ave,Arlington,SD,57212,,(605)482-8244,43,Rural: Remote,No,†,Yes,Yes,9,0.12,75,0,0
467746000731,SD-36002-05,4677460,SD-36002,KG,8,Spring Valley Colony Elementary - 05,Wessington Springs School District 36-2,Jerauld County,PO Box 449,Wessington Springs,SD,57382,,(605)539-1754,43,Rural: Remote,No,†,Yes,No,32,2.25,14.2,0,0
460740000061,SD-04002-03,4607400,SD-04002,KG,5,Springfield Elementary - 03,Bon Homme School District 04-2,Bon Homme County,PO Box 548,Springfield,SD,57062,548,(605)369-2282,43,Rural: Remote,No,†,Yes,Yes,59,5.36,11,13,5
466993001392,SD-46001-10,4669930,SD-46001,5,8,Stagebarn Middle School - 10,Meade School District 46-1,Meade County,12500 Sturgis Rd,Summerset,SD,57769,,(605)787-4172,41,Rural: Fringe,No,†,–,–,313,19.63,15.9,55,14
462485000213,SD-57001-08,4624850,SD-57001,KG,5,Stanley County Elementary - 08,Stanley County School District 57-1,Stanley County,PO Box 370,Fort Pierre,SD,57532,370,(605)223-7745,33,Town: Remote,No,†,Yes,Yes,189,16.58,11.4,55,19
462485000217,SD-57001-01,4624850,SD-57001,9,12,Stanley County High School - 01,Stanley County School District 57-1,Stanley County,PO Box 370,Fort Pierre,SD,57532,370,(605)223-7743,33,Town: Remote,No,†,Yes,No,133,10.65,12.5,21,7
462485000841,SD-57001-02,4624850,SD-57001,6,8,Stanley County Middle School - 02,Stanley County School District 57-1,Stanley County,PO Box 370,Fort Pierre,SD,57532,370,(605)223-7743,33,Town: Remote,No,†,Yes,No,99,7.43,13.3,22,5
465982000525,SD-51004-42,4659820,SD-51004,9,12,Stevens High School - 42,Rapid City Area School District 51-4,Pennington County,4215 Raider Rd,Rapid City,SD,57702,,(605)394-4051,13,City: Small,No,†,–,–,1682,79.94,21,153,69
468043000795,SD-63003-05,4680430,SD-63003,KG,5,Stewart Elementary - 05,Yankton School District 63-3,Yankton County,PO Box 738,Yankton,SD,57078,738,(605)665-5765,33,Town: Remote,No,†,Yes,No,270,20.09,13.4,64,24
466627001138,SD-49005-12,4666270,SD-49005,6,12,Structured Teaching - 12,Sioux Falls School District 49-5,Minnehaha County,201 N West Ave,Sioux Falls,SD,57104,,(605)367-7647,12,City: Midsize,No,†,–,–,18,5.66,3.2,18,0
466993000633,SD-46001-01,4669930,SD-46001,9,12,Sturgis Brown High School - 01,Meade School District 46-1,Meade County,12930 E Hwy 34,Sturgis,SD,57785,6400,(605)347-2686,41,Rural: Fringe,No,†,–,–,691,40.49,17.1,121,62
466993000637,SD-46001-03,4669930,SD-46001,KG,4,Sturgis Elementary - 03,Meade School District 46-1,Meade County,1121 Ballpark Rd,Sturgis,SD,57785,1800,(605)347-2386,32,Town: Distant,No,†,Yes,Yes,545,44.38,12.3,161,47
466993001383,SD-46001-06,4669930,SD-46001,5,5,Sturgis Intermediate School - 06,Meade School District 46-1,Meade County,1230 Douglas St,Sturgis,SD,57785,,(605)347-5232,32,Town: Distant,No,†,Yes,Yes,129,9,14.3,37,12
466993000653,SD-46001-02,4669930,SD-46001,6,8,Sturgis Williams Middle School - 02,Meade School District 46-1,Meade County,1425 Cedar St,Sturgis,SD,57785,1869,(605)347-5232,32,Town: Distant,No,†,Yes,Yes,498,33.11,15,145,45
466627001121,SD-49005-39,4666270,SD-49005,6,12,Success Academy - 39,Sioux Falls School District 49-5,Minnehaha County,201 N West Ave,Sioux Falls,SD,57104,,(605)367-7647,12,City: Midsize,No,†,–,–,17,6.29,2.7,17,0
460004200656,SD-58003-07,4600042,SD-58003,9,12,Sully Buttes High School - 07,Agar-Blunt-Onida School District 58-3,Sully County,PO Box 205,Onida,SD,57564,205,(605)258-2617,43,Rural: Remote,No,†,Yes,No,75,8.78,8.5,5,4
460004200939,SD-58003-06,4600042,SD-58003,6,8,Sully Buttes Middle School - 06,Agar-Blunt-Onida School District 58-3,Sully County,PO Box 205,Onida,SD,57564,205,(605)258-2618,43,Rural: Remote,No,†,Yes,No,44,4.35,10.1,7,1
467014000662,SD-54006-02,4670140,SD-54006,PK,8,Summit Elementary - 02,Summit School District 54-6,Roberts County,PO Box 791,Summit,SD,57266,791,(605)398-6211,43,Rural: Remote,No,†,Yes,Yes,114,11.03,10.3,41,19
467014000663,SD-54006-01,4670140,SD-54006,9,12,Summit High School - 01,Summit School District 54-6,Roberts County,PO Box 791,Summit,SD,57266,791,(605)398-6211,43,Rural: Remote,No,†,Yes,Yes,53,5.15,10.3,15,9
466627000609,SD-49005-40,4666270,SD-49005,KG,12,Summit Oaks-Day,Sioux Falls School District 49-5,Minnehaha County,621 E Presentation Ave,Sioux Falls,SD,57104,,(605)367-7647,12,City: Midsize,No,†,–,–,20,2.5,8,3,0
466627001133,SD-49005-48,4666270,SD-49005,KG,12,Summit Oaks-Residential,Sioux Falls School District 49-5,Minnehaha County,621 E Presentation Ave,Sioux Falls,SD,57104,,(605)367-7647,12,City: Midsize,No,†,–,–,11,1.5,7.3,2,2
460004101143,SD-45004-04,4600041,SD-45004,KG,8,Sunset Colony Elementary - 04,Britton-Hecla School District 45-4,Marshall County,PO Box 190,Britton,SD,57430,,(605)448-2234,43,Rural: Remote,No,†,Yes,Yes,22,1.1,20,19,0
460004101364,SD-45004-06,4600041,SD-45004,9,12,Sunset Colony High School - 06,Britton-Hecla School District 45-4,Marshall County,PO Box 190,Britton,SD,57430,,(605)448-2234,43,Rural: Remote,No,†,Yes,Yes,12,1.6,7.5,9,0
466627001351,SD-49005-66,4666270,SD-49005,KG,5,Susan B. Anthony Elementary - 66,Sioux Falls School District 49-5,Minnehaha County,2000 S Dakota Ave,Sioux Falls,SD,57105,,(605)367-4560,12,City: Midsize,No,†,Yes,Yes,479,35.73,13.4,184,42
465526000500,SD-32002-01,4655260,SD-32002,9,12,T F Riggs High School - 01,Pierre School District 32-2,Hughes County,1010 E Broadway Ave,Pierre,SD,57501,2604,(605)773-7350,33,Town: Remote,No,†,–,–,727,47.81,15.2,106,36
460740000063,SD-04002-05,4607400,SD-04002,KG,5,Tabor Elementary - 05,Bon Homme School District 04-2,Bon Homme County,227 N Lidice St,Tabor,SD,57063,2005,(605)463-2271,43,Rural: Remote,No,†,Yes,Yes,45,4.86,9.3,16,3
460005201358,SD-41005-05,4600052,SD-41005,KG,5,Tea Area Frontier Elementary - 05,Tea Area School District 41-5,Minnehaha County,PO Box 488,Tea,SD,57064,,(605)498-2700,41,Rural: Fringe,No,†,Yes,Yes,141,12.6,11.2,34,6
460005201235,SD-41005-03,4600052,SD-41005,9,12,Tea Area High School - 03,Tea Area School District 41-5,Lincoln County,PO Box 488,Tea,SD,57064,,(605)498-2700,41,Rural: Fringe,No,†,–,–,461,28.05,16.4,49,23
460005200388,SD-41005-01,4600052,SD-41005,KG,5,Tea Area Legacy Elementary - 01,Tea Area School District 41-5,Lincoln County,PO Box 488,Tea,SD,57064,,(605)498-2700,41,Rural: Fringe,No,†,–,–,710,43.24,16.4,71,30
460005200853,SD-41005-02,4600052,SD-41005,6,8,Tea Area Middle School - 02,Tea Area School District 41-5,Lincoln County,PO Box 488,Tea,SD,57064,,(605)498-2700,41,Rural: Fringe,No,†,Yes,No,579,34.37,16.8,74,41
460005201400,SD-41005-06,4600052,SD-41005,KG,5,Tea Area Venture Elementary - 06,Tea Area School District 41-5,Lincoln County,PO Box 488,Tea,SD,57064,,(605)498-2700,31,Town: Fringe,No,†,†,†,†,†,†,†,†
460002700983,SD-49203-01,4600027,SD-49203,9,12,Teachwell Academy High School - 01,East Dakota Educational Cooperative,Minnehaha County,715 E 14th St,Sioux Falls,SD,57104,5151,(605)367-7680,12,City: Midsize,No,†,–,–,37,4.59,8.1,14,3
460002701361,SD-49203-04,4600027,SD-49203,5,8,Teachwell Academy Middle School - 04,East Dakota Educational Cooperative,Minnehaha County,715 E 14th St,Sioux Falls,SD,57104,5151,(605)367-7680,12,City: Midsize,No,†,–,–,11,1.61,6.8,5,1
460002701316,SD-49203-03,4600027,SD-49203,12,12,Teachwell Transitions - 03,East Dakota Educational Cooperative,Minnehaha County,715 E 14th St,Sioux Falls,SD,57104,5151,(605)367-7680,12,City: Midsize,No,†,–,–,25,2,12.5,2,1
460002701398,SD-49203-92,4600027,SD-49203,9,12,Teachwell Virtual Academy - 92,East Dakota Educational Cooperative,Minnehaha County,715 E 14th St,Sioux Falls,SD,57104,5151,(605)367-7680,12,City: Midsize,No,†,†,†,†,†,†,†,†
466627000579,SD-49005-11,4666270,SD-49005,PK,5,Terry Redlin Elementary - 11,Sioux Falls School District 49-5,Minnehaha County,1721 E Austin St,Sioux Falls,SD,57103,,(605)367-6140,12,City: Midsize,No,†,Yes,Yes,541,40.81,13.3,541,0
462403001160,SD-24004-10,4624030,SD-24004,KG,8,Thunderbird Colony Elementary - 10,Faulkton Area Schools 24-4,Faulk County,15185 346th Ave,Faulkton,SD,57438,,(605)598-6266,43,Rural: Remote,No,†,Yes,Yes,28,2,14,0,0
467188000664,SD-20003-02,4671880,SD-20003,PK,5,Timber Lake Elementary - 02,Timber Lake School District 20-3,Dewey County,PO Box 1000,Timber Lake,SD,57656,1000,(605)865-3654,43,Rural: Remote,No,†,Yes,Yes,182,15.93,11.4,66,9
467188000665,SD-20003-01,4671880,SD-20003,9,12,Timber Lake High School - 01,Timber Lake School District 20-3,Dewey County,PO Box 1000,Timber Lake,SD,57656,1000,(605)865-3654,43,Rural: Remote,No,†,Yes,Yes,95,11.21,8.5,28,4
467188000940,SD-20003-03,4671880,SD-20003,6,8,Timber Lake Middle School - 03,Timber Lake School District 20-3,Dewey County,PO Box 1000,Timber Lake,SD,57656,1000,(605)865-3654,43,Rural: Remote,No,†,Yes,Yes,77,8.45,9.1,26,4
467209001376,SD-66001-17,4672090,SD-66001,9,12,Todd County Achievement High School - 17,Todd County School District 66-1,Todd County,PO Box 87,Mission,SD,57555,,(605)856-3544,43,Rural: Remote,No,†,Yes,Yes,11,2.27,4.8,11,0
467209001386,SD-66001-18,4672090,SD-66001,6,8,Todd County Achievement Middle School - 18,Todd County School District 66-1,Todd County,PO Box 87,Mission,SD,57555,,(605)856-3544,43,Rural: Remote,No,†,Yes,Yes,7,1.73,4,†,†
467209001349,SD-66001-16,4672090,SD-66001,KG,5,Todd County Elementary - 16,Todd County School District 66-1,Todd County,PO Box 308,Mission,SD,57555,,(605)856-3506,43,Rural: Remote,No,†,Yes,Yes,561,40.72,13.8,561,0
467209000678,SD-66001-01,4672090,SD-66001,9,12,Todd County High School - 01,Todd County School District 66-1,Todd County,PO Box 726,Mission,SD,57555,726,(605)856-3503,43,Rural: Remote,No,†,Yes,Yes,492,35,14.1,492,0
467209000814,SD-66001-10,4672090,SD-66001,6,8,Todd County Middle School - 10,Todd County School District 66-1,Todd County,PO Box 248,Mission,SD,57555,248,(605)856-3504,43,Rural: Remote,No,†,Yes,Yes,399,28,14.3,399,0
464494000776,SD-49006-02,4644940,SD-49006,KG,6,Tri-Valley Elementary - 02,Tri-Valley School District 49-6,Minnehaha County,46450 252nd St,Colton,SD,57018,5712,(605)446-3538,42,Rural: Distant,No,†,Yes,No,551,33.16,16.6,97,39
464494000405,SD-49006-01,4644940,SD-49006,9,12,Tri-Valley High School - 01,Tri-Valley School District 49-6,Minnehaha County,46450 252nd St,Colton,SD,57018,5712,(605)446-3538,42,Rural: Distant,No,†,Yes,No,270,17.58,15.4,43,19
464494000406,SD-49006-03,4644940,SD-49006,7,8,Tri-Valley Jr. High School - 03,Tri-Valley School District 49-6,Minnehaha County,46450 252nd St,Colton,SD,57018,5712,(605)446-3538,42,Rural: Distant,No,†,Yes,No,143,10.77,13.3,23,12
467245000062,SD-33005-03,4672450,SD-33005,PK,6,Tripp Elementary - 03,Tripp-Delmont School District 33-5,Hutchinson County,PO Box 430,Tripp,SD,57376,430,(605)935-6766,43,Rural: Remote,No,†,Yes,Yes,72,9.52,7.6,37,6
467245000050,SD-33005-01,4672450,SD-33005,9,12,Tripp-Delmont High School - 01,Tripp-Delmont School District 33-5,Hutchinson County,PO Box 430,Tripp,SD,57376,430,(605)935-6766,43,Rural: Remote,No,†,Yes,No,31,5.77,5.4,9,4
467245000059,SD-33005-02,4672450,SD-33005,7,8,Tripp-Delmont Jr. High - 02,Tripp-Delmont School District 33-5,Hutchinson County,PO Box 430,Tripp,SD,57367,430,(605)935-6766,43,Rural: Remote,No,†,Yes,Yes,20,2.36,8.5,5,0
462550000221,SD-33001-03,4625500,SD-33001,KG,8,Tschetter Colony Elementary - 03,Freeman School District 33-1,Hutchinson County,PO Box 220,Freeman,SD,57029,220,(605)925-4216,43,Rural: Remote,No,†,Yes,Yes,26,2.3,11.3,0,0
460740000064,SD-04002-04,4607400,SD-04002,KG,5,Tyndall Elementary - 04,Bon Homme School District 04-2,Bon Homme County,PO Box 28,Tyndall,SD,57066,28,(605)589-3389,43,Rural: Remote,No,†,Yes,Yes,129,9.34,13.8,31,8
460393200120,SD-55005-05,4603932,SD-55005,KG,8,Upland Colony Elementary - 05,Sanborn Central School District 55-5,Sanborn County,40405 SD Hwy 34,Forestburg,SD,57314,,(605)495-4183,42,Rural: Distant,No,†,Yes,Yes,26,3.07,8.5,0,0
460795000073,SD-49002-04,4607950,SD-49002,KG,4,Valley Springs Elementary - 04,Brandon Valley School District 49-2,Minnehaha County,PO Box 130,Valley Springs,SD,57068,9336,(605)757-6285,42,Rural: Distant,No,†,Yes,No,100,8.23,12.2,8,6
465982000969,SD-51004-13,4659820,SD-51004,KG,5,Valley View Elementary - 13,Rapid City Area School District 51-4,Pennington County,4840 Homestead St,Rapid City,SD,57703,2724,(605)393-2812,41,Rural: Fringe,No,†,Yes,Yes,622,34.9,17.8,225,45
461941000436,SD-51001-02,4619410,SD-51001,4,5,Vandenberg Elementary - 02,Douglas School District 51-1,Pennington County,561 Briggs St,Box Elder,SD,57719,2012,(605)923-0060,31,Town: Fringe,No,†,Yes,Yes,471,30.78,15.3,120,35
467437000691,SD-13001-01,4674370,SD-13001,9,12,Vermillion High School - 01,Vermillion School District 13-1,Clay County,1001 E Main St,Vermillion,SD,57069,3314,(605)677-7035,32,Town: Distant,No,†,Yes,No,374,26.49,14.1,62,15
467437000690,SD-13001-02,4674370,SD-13001,6,8,Vermillion Middle School - 02,Vermillion School District 13-1,Clay County,422 Princeton St,Vermillion,SD,57069,1952,(605)677-7025,32,Town: Distant,No,†,Yes,Yes,289,21.64,13.4,79,16
467452000692,SD-60006-02,4674520,SD-60006,PK,4,Viborg-Hurley Elementary - 02,Viborg-Hurley School District 60-6,Turner County,PO Box 397,Viborg,SD,57070,,(605)766-5418,43,Rural: Remote,No,†,Yes,Yes,152,9.57,15.9,26,12
467452000693,SD-60006-01,4674520,SD-60006,9,12,Viborg-Hurley High School - 01,Viborg-Hurley School District 60-6,Turner County,PO Box 397,Viborg,SD,57070,,(605)766-5418,43,Rural: Remote,No,†,Yes,No,103,9.45,10.9,18,10
467452000961,SD-60006-03,4674520,SD-60006,5,8,Viborg-Hurley Middle School - 03,Viborg-Hurley School District 60-6,Turner County,PO Box 397,Viborg,SD,57070,,(605)766-5418,42,Rural: Distant,No,†,Yes,Yes,92,6.48,14.2,15,7
466627001284,SD-49005-73,4666270,SD-49005,KG,12,VOA - Adolescent Treatment - 73,Sioux Falls School District 49-5,Minnehaha County,1310 W 51st St,Sioux Falls,SD,57105,,(605)367-7647,12,City: Midsize,No,†,†,†,0,1,†,–,–
467542000694,SD-11004-02,4675420,SD-11004,KG,4,Wagner Elementary - 02,Wagner Community School District 11-4,Charles Mix County,101 Walnut Ave SW,Wagner,SD,57380,,(605)384-3393,43,Rural: Remote,No,†,Yes,Yes,305,25.95,11.8,302,0
467542000695,SD-11004-01,4675420,SD-11004,9,12,Wagner High School - 01,Wagner Community School District 11-4,Charles Mix County,101 Walnut Ave SW,Wagner,SD,57380,,(605)384-5426,43,Rural: Remote,No,†,Yes,Yes,181,17.95,10.1,178,0
467542000942,SD-11004-03,4675420,SD-11004,5,8,Wagner Middle School - 03,Wagner Community School District 11-4,Charles Mix County,101 Walnut Ave SW,Wagner,SD,57380,,(605)384-3913,43,Rural: Remote,No,†,Yes,Yes,254,19.25,13.2,251,0
467560000698,SD-15003-02,4675600,SD-15003,KG,5,Wakpala Elementary - 02,Smee School District 15-3,Corson County,PO Box B,Wakpala,SD,57658,111,(605)845-3040,42,Rural: Distant,No,†,Yes,Yes,77,10.6,7.3,77,0
467560000699,SD-15003-01,4675600,SD-15003,9,12,Wakpala High School - 01,Smee School District 15-3,Corson County,PO Box B,Wakpala,SD,57658,111,(605)845-3040,42,Rural: Distant,No,†,Yes,Yes,53,6.38,8.3,53,0
467560001326,SD-15003-04,4675600,SD-15003,6,8,Wakpala Middle School - 04,Smee School District 15-3,Corson County,PO Box B,Wakpala,SD,57658,111,(605)845-3040,42,Rural: Distant,No,†,Yes,Yes,48,4.25,11.3,48,0
467566000704,SD-51005-02,4675660,SD-51005,KG,5,Wall Elementary - 02,Wall School District 51-5,Pennington County,PO Box 414,Wall,SD,57790,414,(605)279-2156,43,Rural: Remote,No,†,Yes,Yes,118,8.68,13.6,22,12
467566000705,SD-51005-01,4675660,SD-51005,9,12,Wall High School - 01,Wall School District 51-5,Pennington County,PO Box 414,Wall,SD,57790,414,(605)279-2156,43,Rural: Remote,No,†,Yes,No,81,9.03,9,16,5
467566001057,SD-51005-06,4675660,SD-51005,6,8,Wall Middle School - 06,Wall School District 51-5,Pennington County,PO Box 414,Wall,SD,57790,414,(605)279-2156,43,Rural: Remote,No,†,Yes,Yes,65,4.14,15.7,16,6
467602000708,SD-06005-02,4676020,SD-06005,KG,5,Warner Elementary - 02,Warner School District 06-5,Brown County,PO Box 20,Warner,SD,57479,20,(605)225-6194,42,Rural: Distant,No,†,Yes,No,147,10.17,14.5,8,1
467602000709,SD-06005-01,4676020,SD-06005,9,12,Warner High School - 01,Warner School District 06-5,Brown County,PO Box 20,Warner,SD,57479,20,(605)225-6194,42,Rural: Distant,No,†,Yes,No,92,7.55,12.2,6,1
467602000710,SD-06005-03,4676020,SD-06005,6,8,Warner Middle School - 03,Warner School District 06-5,Brown County,PO Box 20,Warner,SD,57479,20,(605)225-6194,42,Rural: Distant,No,†,Yes,No,71,4.63,15.3,5,3
463548001373,SD-02002-20,4635480,SD-02002,4,5,Washington 4-5 Center - 20,Huron School District 02-2,Beadle County,PO Box 949,Huron,SD,57350,949,(605)353-7895,33,Town: Remote,No,†,Yes,Yes,405,25.44,15.9,200,35
466627000610,SD-49005-01,4666270,SD-49005,9,12,Washington High School - 01,Sioux Falls School District 49-5,Minnehaha County,501 N Sycamore Ave,Sioux Falls,SD,57110,6654,(605)367-7970,12,City: Midsize,No,†,Yes,Yes,1920,112.97,17,653,176
467662000717,SD-14004-01,4676620,SD-14004,9,12,Watertown High School - 01,Watertown School District 14-4,Codington County,PO Box 730,Watertown,SD,57201,730,(605)882-6316,33,Town: Remote,No,†,Yes,No,1207,73.97,16.3,184,98
467662001378,SD-14004-13,4676620,SD-14004,5,6,Watertown Intermediate School - 13,Watertown School District 14-4,Codington County,601 11th St NE,Watertown,SD,57201,,(605)882-6355,33,Town: Remote,No,†,Yes,No,604,42.1,14.3,148,63
467662000718,SD-14004-02,4676620,SD-14004,7,8,Watertown Middle School - 02,Watertown School District 14-4,Codington County,PO Box 730,Watertown,SD,57201,730,(605)882-6370,41,Rural: Fringe,No,†,Yes,No,617,38.51,16,121,60
467668000719,SD-18003-02,4676680,SD-18003,PK,5,Waubay Elementary - 02,Waubay School District 18-3,Day County,202 W School Rd,Waubay,SD,57273,2134,(605)947-4529,43,Rural: Remote,No,†,Yes,Yes,100,10.08,9.9,39,26
467668000720,SD-18003-01,4676680,SD-18003,9,12,Waubay High School - 01,Waubay School District 18-3,Day County,202 W School Rd,Waubay,SD,57273,2134,(605)947-4529,43,Rural: Remote,No,†,Yes,Yes,44,5.17,8.5,18,9
467668000945,SD-18003-03,4676680,SD-18003,6,8,Waubay Middle School - 03,Waubay School District 18-3,Day County,202 W School Rd,Waubay,SD,57273,2134,(605)947-4529,43,Rural: Remote,No,†,Yes,Yes,33,4.14,8,14,5
467674000721,SD-14005-02,4676740,SD-14005,PK,5,Waverly-South Shore Elementary - 02,Waverly School District 14-5,Codington County,319 Mary Pl,Waverly,SD,57201,9700,(605)886-9174,42,Rural: Distant,No,†,Yes,Yes,128,10.02,12.8,37,13
467674000722,SD-14005-01,4676740,SD-14005,9,12,Waverly-South Shore High School - 01,Waverly School District 14-5,Codington County,319 Mary Pl,Waverly,SD,57201,9700,(605)886-9174,42,Rural: Distant,No,†,Yes,No,75,7.03,10.7,10,5
467674000946,SD-14005-03,4676740,SD-14005,6,8,Waverly-South Shore Middle School - 03,Waverly School District 14-5,Codington County,319 Mary Pl,Waverly,SD,57201,9700,(605)886-9174,42,Rural: Distant,No,†,Yes,Yes,52,4.93,10.5,10,5
467699000723,SD-18005-03,4676990,SD-18005,PK,5,Webster Area Elementary - 03,Webster Area 18-5,Day County,102 E 9th Ave,Webster,SD,57274,,(605)345-4651,43,Rural: Remote,No,†,Yes,No,278,18.56,15,60,23
467699000724,SD-18005-01,4676990,SD-18005,9,12,Webster Area High School - 01,Webster Area 18-5,Day County,102 E 9th Ave,Webster,SD,57274,,(605)345-3548,43,Rural: Remote,No,†,Yes,No,158,12.26,12.9,17,8
467699000947,SD-18005-02,4676990,SD-18005,6,8,Webster Area Middle School - 02,Webster Area 18-5,Day County,102 E 9th Ave,Webster,SD,57274,,(605)345-4651,43,Rural: Remote,No,†,Yes,No,117,8.34,14,17,7
468043001009,SD-63003-06,4680430,SD-63003,PK,5,Webster Elementary - 06,Yankton School District 63-3,Yankton County,PO Box 738,Yankton,SD,57078,738,(605)665-2484,33,Town: Remote,No,†,Yes,Yes,376,17.3,21.7,100,17
467746000732,SD-36002-02,4677460,SD-36002,PK,6,Wessington Springs Elementary - 02,Wessington Springs School District 36-2,Jerauld County,PO Box 449,Wessington Springs,SD,57382,449,(605)539-1754,43,Rural: Remote,No,†,Yes,Yes,162,15.41,10.5,37,15
467746001380,SD-36002-94,4677460,SD-36002,KG,6,Wessington Springs Elementary Cyber School - 94,Wessington Springs School District 36-2,Jerauld County,904 2nd St NE,Wessington Springs,SD,57382,,(605)539-9500,43,Rural: Remote,No,†,†,†,0,0.01,†,–,–
467746000733,SD-36002-01,4677460,SD-36002,9,12,Wessington Springs High School - 01,Wessington Springs School District 36-2,Jerauld County,PO Box 449,Wessington Springs,SD,57382,449,(605)539-9391,43,Rural: Remote,No,†,Yes,No,72,6.53,11,10,2
467746001374,SD-36002-92,4677460,SD-36002,9,12,Wessington Springs High School Cyber School - 92,Wessington Springs School District 36-2,Jerauld County,302 Dakota Ave N,Wessington Springs,SD,57382,,(605)539-9391,43,Rural: Remote,No,†,–,–,23,1.03,22.3,3,0
467746000076,SD-36002-04,4677460,SD-36002,7,8,Wessington Springs Jr. High - 04,Wessington Springs School District 36-2,Jerauld County,PO Box 449,Wessington Springs,SD,57382,449,(605)539-9311,43,Rural: Remote,No,†,Yes,No,38,3.13,12.1,6,3
467746001372,SD-36002-93,4677460,SD-36002,7,8,Wessington Springs Middle School Cyber School - 93,Wessington Springs School District 36-2,Jerauld County,302 Dakota Ave N,Wessington Springs,SD,57382,,(605)539-9311,43,Rural: Remote,No,†,–,–,2,0.11,18.2,0,0
463171000777,SD-49007-05,4631710,SD-49007,KG,2,West Central Hartford Elementary - 05,West Central School District 49-7,Minnehaha County,PO Box 730,Hartford,SD,57033,730,(605)528-3215,42,Rural: Distant,No,†,Yes,No,265,19.59,13.5,31,18
463171000274,SD-49007-01,4631710,SD-49007,9,12,West Central High School - 01,West Central School District 49-7,Minnehaha County,PO Box 730,Hartford,SD,57033,730,(605)528-6236,42,Rural: Distant,No,†,–,–,399,23.16,17.2,28,16
463171000273,SD-49007-02,4631710,SD-49007,KG,5,West Central Humboldt Elementary - 02,West Central School District 49-7,Minnehaha County,PO Box 730,Hartford,SD,57033,730,(605)363-3131,42,Rural: Distant,No,†,Yes,No,372,22.67,16.4,47,27
463171000909,SD-49007-04,4631710,SD-49007,6,8,West Central Middle School - 04,West Central School District 49-7,Minnehaha County,PO Box 730,Hartford,SD,57033,730,(605)528-3799,42,Rural: Distant,No,†,–,–,321,20.3,15.8,30,18
466693000392,SD-40002-03,4666930,SD-40002,1,2,West Elementary - 03,Spearfish School District 40-2,Lawrence County,525 E Illinois,Spearfish,SD,57783,,(605)717-1205,32,Town: Distant,No,†,Yes,Yes,342,29.95,11.4,86,21
465982000822,SD-51004-37,4659820,SD-51004,6,8,West Middle School - 37,Rapid City Area School District 51-4,Pennington County,1003 Soo San Dr,Rapid City,SD,57702,3100,(605)394-4033,13,City: Small,No,†,–,–,645,40.75,15.8,135,52
460005301241,SD-54002-03,4600053,SD-54002,PK,5,Westside Elementary - 03,Sisseton School District 54-2,Roberts County,516 8th Ave W,Sisseton,SD,57262,1262,(605)698-7613,43,Rural: Remote,No,†,Yes,Yes,496,35.17,14.1,280,52
460004101180,SD-45004-05,4600041,SD-45004,KG,8,Westwood Rural Elementary - 05,Britton-Hecla School District 45-4,Marshall County,499 Westwood Rd,Britton,SD,57430,,(605)448-2234,43,Rural: Remote,No,†,Yes,Yes,22,1,22,19,0
467851000745,SD-01003-02,4678510,SD-01003,PK,6,White Lake Elementary - 02,White Lake School District 01-3,Aurora County,PO Box 246,White Lake,SD,57383,246,(605)249-2251,43,Rural: Remote,No,†,Yes,Yes,81,6.21,13,17,19
467851000746,SD-01003-01,4678510,SD-01003,9,12,White Lake High School - 01,White Lake School District 01-3,Aurora County,PO Box 246,White Lake,SD,57383,246,(605)249-2251,43,Rural: Remote,No,†,Yes,Yes,31,5.95,5.2,11,4
467851000950,SD-01003-03,4678510,SD-01003,7,8,White Lake Jr. High - 03,White Lake School District 01-3,Aurora County,PO Box 246,White Lake,SD,57383,246,(605)249-2251,43,Rural: Remote,No,†,Yes,Yes,17,1.31,13,7,2
467857000753,SD-47001-02,4678570,SD-47001,PK,5,White River Elementary - 02,White River School District 47-1,Mellette County,PO Box 273,White River,SD,57579,273,(605)259-3137,43,Rural: Remote,No,†,Yes,Yes,168,16.5,10.2,168,0
467857000754,SD-47001-01,4678570,SD-47001,9,12,White River High School - 01,White River School District 47-1,Mellette County,PO Box 273,White River,SD,57579,273,(605)259-3136,43,Rural: Remote,No,†,Yes,Yes,110,13.36,8.2,110,0
467857000951,SD-47001-04,4678570,SD-47001,6,8,White River Middle School - 04,White River School District 47-1,Mellette County,PO Box 273,White River,SD,57579,273,(605)259-3135,43,Rural: Remote,No,†,Yes,Yes,112,9.03,12.4,112,0
466336000558,SD-54004-03,4663360,SD-54004,KG,8,White Rock Colony Elementary - 03,Rosholt School District 54-4,Roberts County,PO Box 106,Rosholt,SD,57260,106,(605)537-4790,43,Rural: Remote,No,†,Yes,Yes,20,2,10,17,0
466993000652,SD-46001-04,4669930,SD-46001,KG,6,Whitewood Elementary - 04,Meade School District 46-1,Lawrence County,603 Garfield St,Whitewood,SD,57793,,(605)269-2264,42,Rural: Distant,No,†,Yes,Yes,90,9.75,9.2,28,9
466627000611,SD-49005-08,4666270,SD-49005,6,8,Whittier Middle School - 08,Sioux Falls School District 49-5,Minnehaha County,930 E 6th St,Sioux Falls,SD,57103,1306,(605)367-7620,12,City: Midsize,No,†,Yes,Yes,962,68.03,14.1,529,136
460767001394,SD-26005-04,4607670,SD-26005,6,12,Whole Grade Sharing with Burke - 04,South Central 26-5,Gregory County,PO Box 382,Burke,SD,57523,382,(605)775-2645,43,Rural: Remote,No,†,†,†,0,0,†,–,–
467935000755,SD-12003-02,4679350,SD-12003,PK,5,Willow Lake Elementary - 02,Willow Lake School District 12-3,Clark County,PO Box 170,Willow Lake,SD,57278,170,(605)625-5945,43,Rural: Remote,No,†,Yes,Yes,111,9,12.3,23,16
467935000756,SD-12003-01,4679350,SD-12003,9,12,Willow Lake High School - 01,Willow Lake School District 12-3,Clark County,PO Box 170,Willow Lake,SD,57278,170,(605)625-5945,43,Rural: Remote,No,†,Yes,No,63,6.21,10.1,9,9
467935000952,SD-12003-03,4679350,SD-12003,6,8,Willow Lake Middle School - 03,Willow Lake School District 12-3,Clark County,PO Box 170,Willow Lake,SD,57278,170,(605)625-5945,43,Rural: Remote,No,†,Yes,Yes,41,3.78,10.8,10,7
460000300757,SD-54007-02,4600003,SD-54007,PK,6,Wilmot Elementary - 02,Wilmot School District 54-7,Roberts County,PO Box 100,Wilmot,SD,57279,100,(605)938-4647,43,Rural: Remote,No,†,Yes,Yes,134,10.72,12.5,68,13
460000300758,SD-54007-01,4600003,SD-54007,9,12,Wilmot High School - 01,Wilmot School District 54-7,Roberts County,PO Box 100,Wilmot,SD,57279,100,(605)938-4647,43,Rural: Remote,No,†,Yes,Yes,68,6.46,10.5,25,8
460000300872,SD-54007-03,4600003,SD-54007,7,8,Wilmot Jr. High - 03,Wilmot School District 54-7,Roberts County,PO Box 100,Wilmot,SD,57279,100,(605)938-4647,43,Rural: Remote,No,†,Yes,Yes,33,2.61,12.6,14,5
467971000479,SD-59002-04,4679710,SD-59002,KG,5,Winner Elementary - 04,Winner School District 59-2,Tripp County,825 W 3rd St,Winner,SD,57580,,(605)842-8170,33,Town: Remote,No,†,Yes,Yes,355,27.14,13.1,174,15
467971000781,SD-59002-01,4679710,SD-59002,9,12,Winner High School - 01,Winner School District 59-2,Tripp County,431 E 7th St,Winner,SD,57580,,(605)842-8125,33,Town: Remote,No,†,Yes,No,195,13.62,14.3,50,5
467971000782,SD-59002-02,4679710,SD-59002,6,8,Winner Middle School - 02,Winner School District 59-2,Tripp County,431 E 7th St,Winner,SD,57580,,(605)842-8125,33,Town: Remote,No,†,Yes,No,159,9.21,17.3,62,7
462550000222,SD-33001-04,4625500,SD-33001,KG,8,Wolf Creek Colony Elementary - 04,Freeman School District 33-1,Hutchinson County,PO Box 220,Freeman,SD,57029,220,(605)925-4216,43,Rural: Remote,No,†,Yes,Yes,29,2.7,10.7,0,0
466546000574,SD-65001-02,4665460,SD-65001,PK,8,Wolf Creek School - 02,Oglala Lakota County 65-1,Oglala Lakota County,PO Box 469,Pine Ridge,SD,57770,469,(605)867-5174,42,Rural: Distant,No,†,Yes,Yes,660,45.36,14.6,657,0
468010000783,SD-02006-02,4680100,SD-02006,PK,4,Wolsey Wessington Elementary - 02,Wolsey Wessington School District 02-6,Beadle County,375 Ash St SE,Wolsey,SD,57384,2238,(605)883-4221,43,Rural: Remote,No,†,Yes,Yes,158,12.73,12.4,40,13
468010000784,SD-02006-01,4680100,SD-02006,9,12,Wolsey Wessington High School - 01,Wolsey Wessington School District 02-6,Beadle County,375 Ash St SE,Wolsey,SD,57384,2238,(605)883-4221,43,Rural: Remote,No,†,Yes,Yes,106,6.88,15.4,12,8
468010000546,SD-02006-03,4680100,SD-02006,5,8,Wolsey Wessington Middle School - 03,Wolsey Wessington School District 02-6,Beadle County,375 Ash St SE,Wolsey,SD,57384,2238,(605)883-4221,43,Rural: Remote,No,†,Yes,Yes,113,7.45,15.2,25,15
461413000787,SD-59003-05,4614130,SD-59003,KG,8,Wood Elementary - 05,Colome Consolidated 59-3,Mellette County,PO Box 458,Wood,SD,57585,458,(605)842-1624,43,Rural: Remote,No,†,Yes,Yes,13,2.15,6,8,2
465982000530,SD-51004-17,4659820,SD-51004,KG,5,Woodrow Wilson Elementary - 17,Rapid City Area School District 51-4,Pennington County,827 Franklin St,Rapid City,SD,57701,4520,(605)394-1837,13,City: Small,No,†,Yes,No,358,19.84,18,115,15
468019000789,SD-55004-03,4680190,SD-55004,PK,8,Woonsocket Elementary - 03,Woonsocket School District 55-4,Sanborn County,PO Box 428,Woonsocket,SD,57385,428,(605)796-4431,43,Rural: Remote,No,†,Yes,Yes,219,14.35,15.3,51,21
468019000790,SD-55004-01,4680190,SD-55004,9,12,Woonsocket High School - 01,Woonsocket School District 55-4,Sanborn County,PO Box 428,Woonsocket,SD,57385,428,(605)796-4431,43,Rural: Remote,No,†,Yes,Yes,70,7.39,9.5,10,10
464155000389,SD-41004-05,4641550,SD-41004,PK,4,Worthing Elementary - 05,Lennox School District 41-4,Lincoln County,PO Box 38,Lennox,SD,57039,38,(605)372-4114,42,Rural: Distant,No,†,–,–,116,6.37,18.2,11,4
468043000798,SD-63003-01,4680430,SD-63003,9,12,Yankton High School - 01,Yankton School District 63-3,Yankton County,PO Box 738,Yankton,SD,57078,738,(605)665-2073,33,Town: Remote,No,†,–,–,900,49.31,18.3,187,65
468043010799,SD-63003-02,4680430,SD-63003,6,8,Yankton Middle School - 02,Yankton School District 63-3,Yankton County,PO Box 738,Yankton,SD,57078,738,(605)665-2419,33,Town: Remote,No,†,Yes,No,639,34.7,18.4,167,56
