NCES School ID,State School ID,NCES District ID,State District ID,Low Grade*,High Grade*,School Name,District,County Name*,Street Address,City,State,ZIP,ZIP 4-digit,Phone,Locale Code*,Locale*,Charter,Magnet*,Title I School*,Title 1 School Wide*,Students*,Teachers*,Student Teacher Ratio*,Free Lunch*,Reduced Lunch*
330249000043,NH-113-10911311327010,3302490,NH-113,7,8,A. Crosby Kennett Middle School,Conway School District,Carroll County,176 Main St.,Conway,NH,3818,6164,(603)447-6364,41,Rural: Fringe,No,No,Yes,No,296,23.3,12.7,102,19
330246000054,NH-111-60811111120240,3302460,NH-111,KG,5,Abbot-Downing School,Concord School District,Merrimack County,152 South St.,Concord,NH,3301,2705,(603)225-0827,31,Town: Fringe,No,No,Yes,Yes,383,26.6,14.4,128,15
330004000684,NH-725-672572528615,3300040,NH-725,9,12,Academy for Science and Design Charter (H),Academy for Science and Design Charter School,Hillsborough County,486 Amherst Street,Nashua,NH,3063,1282,(603)595-4705,13,City: Small,Yes,No,Yes,No,241,10.6,22.7,7,–
330004000678,NH-725-672572528580,3300040,NH-725,6,8,Academy for Science and Design Charter (M),Academy for Science and Design Charter School,Hillsborough County,486 Amherst Street,Nashua,NH,3063,1282,(603)595-4705,13,City: Small,Yes,No,Yes,No,291,19.5,14.9,7,–
330299000112,NH-174-96017400322960,3302990,NH-174,1,4,Acworth Elementary School,Fall Mountain Regional School District,Sullivan County,PO Box 69,Acworth,NH,3601,69,(603)835-2270,42,Rural: Distant,No,No,–,–,38,3.3,11.5,19,2
330351000470,NH-225-72122522520795,3303510,NH-225,3,5,Adeline C. Marston School,Hampton School District,Rockingham County,4 Marston Way,Hampton,NH,3842,2055,(603)926-8708,23,Suburb: Small,No,No,Yes,No,324,30.5,10.6,44,7
330138000001,NH-009-65300900922580,3301380,NH-009,KG,4,Allenstown Elementary School,Allenstown School District,Merrimack County,30 S. Main St.,Allenstown,NH,3275,2197,(603)485-9574,22,Suburb: Midsize,No,No,Yes,Yes,197,17.3,11.4,78,14
330299000113,NH-174-26017401122965,3302990,NH-174,PK,4,Alstead Primary School,Fall Mountain Regional School District,Cheshire County,PO Box 670,Alstead,NH,3602,98,(603)835-2482,42,Rural: Distant,No,No,Yes,Yes,84,9.4,8.9,39,2
330144000003,NH-015-07201501522480,3301440,NH-015,PK,8,Alton Central School (Elem),Alton School District,Belknap County,PO Box 910,Alton,NH,3809,910,(603)875-7500,42,Rural: Distant,No,No,Yes,No,426,40.1,10.6,94,17
330393000179,NH-267-58126726721050,3303930,NH-267,9,12,Alvirne High School,Hudson School District,Hillsborough County,200 Derry Rd.,Hudson,NH,3051,3320,(603)886-1260,22,Suburb: Midsize,No,No,Yes,No,1143,95,12,111,23
330147000007,NH-017-53901701721745,3301470,NH-017,5,8,Amherst Middle School,Amherst School District,Hillsborough County,PO Box 966,Amherst,NH,3031,966,(603)673-8944,22,Suburb: Midsize,No,No,Yes,No,637,49,13,24,6
330498000310,NH-371-54237137121940,3304980,NH-371,KG,5,Amherst Street School,Nashua School District,Hillsborough County,71 Amherst St.,Nashua,NH,3064,2597,(603)966-1700,13,City: Small,No,No,Yes,Yes,291,30,9.7,171,35
330150000008,NH-019-64601901922130,3301500,NH-019,KG,8,Andover Elementary School,Andover School District,Merrimack County,20 School St.,Andover,NH,3216,3651,(603)735-5494,42,Rural: Distant,No,No,Yes,No,234,24,9.8,45,11
330248000065,NH-112-50111202122215,3302480,NH-112,PK,4,Antrim Elementary School,Contoocook Valley School District,Hillsborough County,10 School St.,Antrim,NH,3440,3607,(603)588-6371,42,Rural: Distant,No,No,Yes,Yes,160,18.6,8.6,47,16
330138000002,NH-009-65300900922575,3301380,NH-009,5,8,Armand R. Dupont School,Allenstown School District,Merrimack County,10 1/2 School St.,Allenstown,NH,3275,1998,(603)485-4474,22,Suburb: Midsize,No,No,Yes,No,158,13.8,11.4,62,7
330156000010,NH-023-40202302320010,3301560,NH-023,KG,8,Ashland Elementary School,Ashland School District,Grafton County,16 Education Dr.,Ashland,NH,3217,4210,(603)968-7622,42,Rural: Distant,No,No,Yes,Yes,150,19.1,7.9,65,2
330672000434,NH-534-75553402722740,3306720,NH-534,PK,5,Atkinson Academy,Timberlane Regional School District,Rockingham County,17 Academy Ave.,Atkinson,NH,3811,2298,(603)362-5521,21,Suburb: Large,No,No,–,–,340,26.5,12.8,12,1
330159000011,NH-029-71502902920530,3301590,NH-029,KG,8,Auburn Village School,Auburn School District,Rockingham County,11 Eaton Hill Rd.,Auburn,NH,3032,1228,(603)483-2769,41,Rural: Fringe,No,No,Yes,No,618,41.6,14.9,22,11
330459000240,NH-335-53733533521545,3304590,NH-335,PK,5,Bakersville School,Manchester School District,Hillsborough County,20 Elm St.,Manchester,NH,3101,2702,(603)624-6312,12,City: Midsize,No,No,Yes,Yes,391,30.4,12.9,280,30
330162000012,NH-031-08603103122485,3301620,NH-031,PK,8,Barnstead Elementary School,Barnstead School District,Belknap County,PO Box 289,Ctr. Barnstead,NH,3225,289,(603)269-5161,42,Rural: Distant,No,No,Yes,No,481,47.4,10.1,143,26
330165000013,NH-033-87403303322045,3301650,NH-033,1,4,Barrington Elementary School,Barrington School District,Strafford County,570 Calef Highway,Barrington,NH,3825,3630,(603)664-2641,41,Rural: Fringe,No,No,Yes,No,393,33,11.9,66,2
330165000014,NH-033-87403303322030,3301650,NH-033,5,8,Barrington Middle School,Barrington School District,Strafford County,51 Haley Dr.,Barrington,NH,3825,3403,(603)664-2127,41,Rural: Fringe,No,No,Yes,No,414,35,11.8,40,3
330324000138,NH-199-51919919920695,3303240,NH-199,1,4,Bartlett Elementary School,Goffstown School District,Hillsborough County,689 Mast Rd.,Manchester,NH,3102,1448,(603)623-8088,22,Suburb: Midsize,No,No,Yes,No,212,18.6,11.4,50,12
330171000016,NH-039-42303903920860,3301710,NH-039,KG,6,Bath Village School,Bath School District,Grafton County,PO Box 141,Bath,NH,3740,141,(603)747-2004,43,Rural: Remote,No,No,Yes,No,76,8.6,8.8,11,3
330246000496,NH-111-60811111126490,3302460,NH-111,PK,5,Beaver Meadow School,Concord School District,Merrimack County,40 Sewalls Fall Rd.,Concord,NH,3301,4649,(603)225-0853,31,Town: Fringe,No,No,Yes,Yes,350,27.7,12.6,108,26
330174000680,NH-041-52504104128555,3301740,NH-041,9,12,Bedford High School,Bedford School District,Hillsborough County,47B Nashua Rd.,Bedford,NH,3110,5527,(603)310-9000,22,Suburb: Midsize,No,No,Yes,No,1525,103,14.8,54,8
330459000241,NH-335-53733533521600,3304590,NH-335,KG,5,Beech Street School,Manchester School District,Hillsborough County,333 Beech St.,Manchester,NH,3103,5499,(603)624-6314,12,City: Midsize,No,No,Yes,Yes,563,41.5,13.6,496,30
330618000490,NH-486-08048604322135,3306180,NH-486,PK,4,Belmont Elementary School,Shaker Regional School District,Belknap County,26 Best St.,Belmont,NH,3220,4201,(603)267-6568,42,Rural: Distant,No,No,Yes,Yes,414,33.9,12.2,147,14
330618000411,NH-486-08048604322145,3306180,NH-486,9,12,Belmont High School,Shaker Regional School District,Belknap County,255 Seavey Rd.,Belmont,NH,3220,3905,(603)267-6525,41,Rural: Fringe,No,No,Yes,No,391,32.2,12.1,104,11
330618000413,NH-486-08048604322150,3306180,NH-486,5,8,Belmont Middle School,Shaker Regional School District,Belknap County,38 School St.,Belmont,NH,3220,4511,(603)267-9220,42,Rural: Distant,No,No,Yes,No,368,33.6,11,119,13
330186000163,NH-051-30305105127035,3301860,NH-051,PK,5,Berlin Elementary School,Berlin School District,Coos County,200 State Street,Berlin,NH,3570,1899,(603)752-5311,33,Town: Remote,No,No,Yes,Yes,241,15.8,15.3,125,8
330186000024,NH-051-30305105120045,3301860,NH-051,6,8,Berlin Middle School,Berlin School District,Coos County,550 Willard Street,Berlin,NH,3570,1499,(603)752-4122,33,Town: Remote,No,No,Yes,No,264,22.9,11.5,140,15
330186000027,NH-051-30305105120050,3301860,NH-051,9,12,Berlin Senior High School,Berlin School District,Coos County,550 Willard St.,Berlin,NH,3570,1499,(603)752-4122,41,Rural: Fringe,No,No,Yes,No,383,34.7,11,153,22
330360000155,NH-233-47023323320830,3303600,NH-233,KG,5,Bernice A. Ray School,Hanover School District,Grafton County,26 Reservoir Rd.,Hanover,NH,3755,1323,(603)643-6655,41,Rural: Fringe,No,No,Yes,No,458,43.4,10.6,22,–
330189000028,NH-053-43505305321400,3301890,NH-053,PK,6,Bethlehem Elementary School,Bethlehem School District,Grafton County,2297 Main St.,Bethlehem,NH,3574,430,(603)869-5842,42,Rural: Distant,No,No,Yes,Yes,139,13,10.7,39,7
330498000312,NH-371-54237137121865,3304980,NH-371,PK,5,Bicentennial Elementary School,Nashua School District,Hillsborough County,296 E. Dunstable Rd.,Nashua,NH,3062,2396,(603)966-1760,13,City: Small,No,No,–,–,620,37,16.8,42,20
330498000313,NH-371-54237137121895,3304980,NH-371,PK,5,Birch Hill Elementary School,Nashua School District,Hillsborough County,17 Birch Hill Dr.,Nashua,NH,3063,2541,(603)966-1820,13,City: Small,No,No,–,–,390,32,12.2,113,17
330234000038,NH-101-90610110120145,3302340,NH-101,KG,5,Bluff School,Claremont School District,Sullivan County,1 Summit Rd.,Claremont,NH,3743,2467,(603)543-4273,33,Town: Remote,No,No,Yes,Yes,192,21,9.1,124,8
330476000281,NH-352-64635205522155,3304760,NH-352,PK,5,Boscawen Elementary School,Merrimack Valley School District,Merrimack County,1 BEST Ave.,Boscawen,NH,3303,1100,(603)753-6512,41,Rural: Fringe,No,No,Yes,Yes,250,20.8,12,86,14
330195000480,NH-057-66705705720680,3301950,NH-057,PK,4,Bow Elementary School,Bow School District,Merrimack County,22 Bow Center Rd.,Bow,NH,3304,3410,(603)225-3049,31,Town: Fringe,No,No,Yes,No,529,32,16.5,40,2
330195000563,NH-057-66705705727375,3301950,NH-057,9,12,Bow High School,Bow School District,Merrimack County,55 Falcon Way,Bow,NH,3304,4219,(603)228-2210,41,Rural: Fringe,No,No,Yes,No,654,50.2,13,25,6
330195000029,NH-057-66705705720675,3301950,NH-057,5,8,Bow Memorial School,Bow School District,Merrimack County,20 Bow Center Rd.,Bow,NH,3304,3410,(603)225-3212,31,Town: Fringe,No,No,Yes,No,499,36.8,13.6,25,4
330467000515,NH-342-58734239326685,3304670,NH-342,5,8,Boynton Middle School,Mascenic Regional School District,Hillsborough County,500 Turnpike Rd.,New Ipswich,NH,3071,9665,(603)878-4800,42,Rural: Distant,No,No,Yes,No,289,27.5,10.5,62,27
330522000590,NH-388-40438806527685,3305220,NH-388,PK,5,Bridgewater-Hebron Village School,Newfound Area School District,Grafton County,25 Schoolhouse Road,Bristol,NH,3222,5338,(603)744-6969,42,Rural: Distant,No,No,Yes,No,134,10.8,12.4,28,4
330522000332,NH-388-40438806720090,3305220,NH-388,KG,5,Bristol Elementary School,Newfound Area School District,Grafton County,55 School St.,Bristol,NH,3222,1216,(603)744-2761,42,Rural: Distant,No,No,Yes,Yes,226,17.2,13.1,95,12
330498000314,NH-371-54237137121925,3304980,NH-371,PK,5,Broad Street Elementary School,Nashua School District,Hillsborough County,390 Broad St.,Nashua,NH,3063,3040,(603)966-1880,13,City: Small,No,No,–,–,341,28,12.2,90,13
330246000053,NH-111-60811111120260,3302460,NH-111,3,5,Broken Ground School,Concord School District,Merrimack County,51 South Curtisville Road,Concord,NH,3301,,(603)225-0855,31,Town: Fringe,No,No,Yes,Yes,345,24.6,14,149,15
330594000694,NH-461-85446146122675,3305940,NH-461,9,12,Bud Carlson Academy,Rochester School District,Strafford County,Rochester School Department,Rochester,NH,3867,1348,(603)332-3678,23,Suburb: Small,No,No,Yes,No,70,6.2,11.3,43,4
330435000674,NH-315-52731531527715,3304350,NH-315,9,12,Campbell High School,Litchfield School District,Hillsborough County,1 Highlander Ct.,Litchfield,NH,3052,8401,(603)546-0300,22,Suburb: Midsize,No,No,Yes,No,433,36.6,11.8,23,–
330210000032,NH-075-44807507522335,3302100,NH-075,PK,8,Campton Elementary School,Campton School District,Grafton County,1110 NH Rte. 175,Campton,NH,3223,9743,(603)726-3931,42,Rural: Distant,No,No,Yes,Yes,309,29.5,10.5,98,11
330468000273,NH-343-46234307721315,3304680,NH-343,PK,4,Canaan Elementary School,Mascoma Valley Reg School District,Grafton County,PO Box 18,Canaan,NH,3741,18,(603)523-4312,42,Rural: Distant,No,No,Yes,Yes,258,26,9.9,107,10
330618000412,NH-486-68048608122165,3306180,NH-486,KG,5,Canterbury Elementary School,Shaker Regional School District,Merrimack County,15 Baptist Rd.,Canterbury,NH,3224,2515,(603)783-9944,42,Rural: Distant,No,No,–,–,117,9.6,12.2,25,6
330331300729,NH-710-40171029194,3303313,NH-710,6,8,Capital City Public Charter School (E),Capital City Public Charter School,Merrimack County,270 Loudon Road,Concord,NH,3301,,(603)369-9000,31,Town: Fringe,Yes,No,Yes,Yes,33,1,33,6,–
330331300728,NH-710-40171029195,3303313,NH-710,9,11,Capital City Public Charter School (H),Capital City Public Charter School,Merrimack County,270 Loudon Road,Concord,NH,3301,,(603)369-9000,31,Town: Fringe,Yes,No,†,†,0,2.8,†,0,0
330207000670,NH-071-54107107127765,3302070,NH-071,4,6,Captain Samuel Douglass Academy,Brookline School District,Hillsborough County,PO Box 480,Brookline,NH,3033,480,(603)673-0122,41,Rural: Fringe,No,No,–,–,244,18.2,13.4,12,1
330333000144,NH-208-14920858322430,3303330,NH-208,KG,3,Carpenter Elementary School,Governor Wentworth Reg School District,Carroll County,PO Box 659,Wolfeboro,NH,3894,659,(603)569-3457,42,Rural: Distant,No,No,–,–,255,23,11.1,61,9
330693000025,NH-555-52455555526810,3306930,NH-555,PK,5,Center Woods School,Weare School District,Hillsborough County,14 Center Rd.,Weare,NH,3281,4605,(603)529-4500,42,Rural: Distant,No,No,Yes,No,636,47.1,13.5,101,14
330594000388,NH-461-85446146122695,3305940,NH-461,KG,5,Chamberlain Street School,Rochester School District,Strafford County,65 Chamberlain St.,Rochester,NH,3867,3300,(603)332-5258,23,Suburb: Small,No,No,Yes,Yes,393,29.1,13.5,162,24
330299000114,NH-174-96017408922975,3302990,NH-174,6,8,Charlestown Middle School,Fall Mountain Regional School District,Sullivan County,PO Box 325,Charlestown,NH,3603,325,(603)826-7711,33,Town: Remote,No,No,Yes,No,150,14.3,10.5,52,12
330299000115,NH-174-96017408922985,3302990,NH-174,PK,5,Charlestown Primary School,Fall Mountain Regional School District,Sullivan County,PO Box 325,Charlestown,NH,3603,325,(603)826-3694,41,Rural: Fringe,No,No,Yes,Yes,244,21.3,11.5,88,2
330498000315,NH-371-54237137121930,3304980,NH-371,KG,5,Charlotte Ave Elementary School,Nashua School District,Hillsborough County,48 Charlotte Ave.,Nashua,NH,3064,1499,(603)966-1940,13,City: Small,No,No,–,–,467,34,13.7,86,26
330225000035,NH-093-78209309320500,3302250,NH-093,PK,8,Chester Academy,Chester School District,Rockingham County,22 Murphy Dr.,Chester,NH,3036,8108,(603)887-3621,41,Rural: Fringe,No,No,Yes,No,495,43.6,11.4,30,–
330228000036,NH-095-22909509521140,3302280,NH-095,KG,8,Chesterfield Central School,Chesterfield School District,Cheshire County,PO Box 205,Chesterfield,NH,3443,205,(603)363-8301,42,Rural: Distant,No,No,Yes,No,281,25.5,11,42,9
330231000037,NH-099-65309909922590,3302310,NH-099,KG,8,Chichester Central School,Chichester School District,Merrimack County,219 Main St.,Chichester,NH,3258,6513,(603)798-5651,42,Rural: Distant,No,No,Yes,No,211,16.7,12.6,28,8
330246000060,NH-111-60811111120305,3302460,NH-111,KG,5,Christa McAuliffe School,Concord School District,Merrimack County,17 North Spring Street,Concord,NH,3301,,(603)225-0840,31,Town: Fringe,No,No,Yes,Yes,406,27.4,14.8,143,12
330234000039,NH-101-90610110120115,3302340,NH-101,6,8,Claremont Middle School,Claremont School District,Sullivan County,107 South St.,Claremont,NH,3743,3186,(603)543-4250,33,Town: Remote,No,No,Yes,No,400,32,12.5,198,20
330234000724,NH-101-90610110129184,3302340,NH-101,PK,PK,Claremont Preschool Center,Claremont School District,Sullivan County,111 South Street,Claremont,NH,3743,3186,(603)543-4220,41,Rural: Fringe,No,No,Yes,No,59,4,14.8,32,3
330147000006,NH-017-53901701721750,3301470,NH-017,PK,4,Clark-Wilkins School,Amherst School District,Hillsborough County,PO Box 420,Amherst,NH,3031,420,(603)673-4411,22,Suburb: Midsize,No,No,Yes,No,681,48.8,14,34,5
330003600614,NH-707-870770728455,3300036,NH-707,9,12,Cocheco Academy for the Arts,Cocheco Arts And Technology Academy,Strafford County,40 Hampshire Cir,Dover,NH,3820,2961,(603)742-0700,23,Suburb: Small,Yes,No,Yes,No,59,4,14.8,13,7
330733000519,NH-998-720199841122025,3307330,NH-998,9,12,Coe-Brown Northwood Academy,Coe Brown Academy School District,Rockingham County,907 First NH Tpke.,Northwood,NH,3261,3201,(603)942-5531,42,Rural: Distant,No,No,Yes,No,692,61.8,11.2,30,–
330240000050,NH-105-30710510520195,3302400,NH-105,PK,8,Colebrook Academy and Elementary School (E),Colebrook School District,Coos County,27 Dumont Street,Colebrook,NH,3576,1205,(603)237-4801,43,Rural: Remote,No,No,Yes,No,219,25.5,8.6,87,10
330240000049,NH-105-30710510520185,3302400,NH-105,9,12,Colebrook Academy and Elementary School (H),Colebrook School District,Coos County,27 Dumont Street,Colebrook,NH,3576,1198,(603)237-4801,43,Rural: Remote,No,No,Yes,No,106,15.1,7,37,9
330330100718,NH-743-640174374329166,3303301,NH-743,KG,8,Compass Classical Academy Charter School (E),Compass Classical Academy Charter School,Merrimack County,15 Elkins Street,Franklin,NH,3235,,(603)729-3370,32,Town: Distant,Yes,No,Yes,No,143,12,11.9,65,6
330330100739,NH-743-640174374329224,3303301,NH-743,9,9,Compass Classical Academy Charter School (H),Compass Classical Academy Charter School,†,15 Elkins Street,Franklin,NH,3235,,(603)729-3370,†,N,Yes,†,†,†,†,†,†,†,†
330403000188,NH-274-24727427322265,3304030,NH-274,9,12,Conant High School,Jaffrey-Rindge Coop School District,Cheshire County,3 Conant Way,Jaffrey,NH,3452,1599,(603)532-8131,31,Town: Fringe,No,No,Yes,No,379,32,11.8,67,23
330246000055,NH-111-60811111120285,3302460,NH-111,9,13,Concord High School,Concord School District,Merrimack County,170 Warren St.,Concord,NH,3301,2999,(603)225-0800,31,Town: Fringe,No,No,Yes,No,1594,109,14.6,426,60
330248000067,NH-112-50111243122290,3302480,NH-112,9,12,Conval Regional High School,Contoocook Valley School District,Hillsborough County,184 Hancock Rd.,Peterborough,NH,3458,2196,(603)924-3869,41,Rural: Fringe,No,No,Yes,No,711,56.6,12.6,113,21
330249000077,NH-113-10911311320340,3302490,NH-113,KG,6,Conway Elementary School,Conway School District,Carroll County,160 Main St.,Conway,NH,3818,6164,(603)447-3369,41,Rural: Fringe,No,No,Yes,Yes,214,22.4,9.6,108,19
330001700107,NH-172-71617251120590,3300017,NH-172,6,8,Cooperative Middle School,Exeter Region Coop School District,Rockingham County,100 Academic Way,Stratham,NH,3885,2581,(603)775-8700,41,Rural: Fringe,No,No,Yes,No,1217,98,12.4,100,21
330252000080,NH-115-90611511520175,3302520,NH-115,PK,8,Cornish Elementary School,Cornish School District,Sullivan County,274 Town House Rd.,Cornish,NH,3745,,(603)675-5891,41,Rural: Fringe,No,No,Yes,No,96,8,12,17,2
330333000565,NH-208-14920858327515,3303330,NH-208,4,6,Crescent Lake School,Governor Wentworth Reg School District,Carroll County,75 McManus Rd.,Wolfeboro,NH,3894,4451,(603)569-0223,42,Rural: Distant,No,No,–,–,222,17.3,12.8,39,8
330255000081,NH-117-94311711721960,3302550,NH-117,KG,4,Croydon Village School,Croydon School District,Sullivan County,889 NH Rt. 10,Croydon,NH,3773,6102,(603)863-2080,42,Rural: Distant,No,No,Yes,No,32,2.6,12.3,13,2
330004100677,NH-723-672372328575,3300041,NH-723,11,12,CSI Charter School,CSI Charter School,Merrimack County,26 Washington Street,Penacook,NH,3303,1519,(603)753-0194,31,Town: Fringe,Yes,No,Yes,No,38,2.6,14.6,5,–
330489000298,NH-363-23836352321715,3304890,NH-363,3,6,Cutler Elementary School,Monadnock Regional School District,Cheshire County,31 S. Winchester St.,W. Swanzey,NH,3446,3213,(603)352-3383,42,Rural: Distant,No,No,Yes,Yes,278,20.5,13.6,94,23
330438000231,NH-317-48431731721440,3304380,NH-317,7,8,Daisy Bronson Junior High School,Littleton School District,Grafton County,159 Oak Hill Ave,Littleton,NH,3561,1236,(603)444-3361,33,Town: Remote,No,No,Yes,No,120,11.3,10.6,46,4
330522000334,NH-388-60438812320095,3305220,NH-388,KG,5,Danbury Elementary School,Newfound Area School District,Merrimack County,20 Daffodil Ln.,Danbury,NH,3230,4230,(603)768-3434,42,Rural: Distant,No,No,Yes,No,53,5.3,10,13,6
330608000478,NH-476-71747628320625,3306080,NH-476,PK,5,Daniel J. Bakie School,Sanborn Regional School District,Rockingham County,179 Main St.,Kingston,NH,3848,3247,(603)642-5272,21,Suburb: Large,No,No,Yes,No,342,35,9.8,51,–
330672000435,NH-534-75553412522745,3306720,NH-534,PK,5,Danville Elementary School,Timberlane Regional School District,Rockingham County,23 School St.,Danville,NH,3819,3233,(603)382-5554,21,Suburb: Large,No,No,Yes,No,255,25.5,10,32,5
330387000618,NH-261-61526126128050,3303870,NH-261,6,8,David R. Cawley Middle School,Hooksett School District,Merrimack County,89 Whitehall Rd.,Hooksett,NH,3106,2107,(603)518-5047,41,Rural: Fringe,No,No,Yes,No,496,39.9,12.4,67,14
330258000082,NH-127-75312712722595,3302580,NH-127,PK,8,Deerfield Community School,Deerfield School District,Rockingham County,66 North Rd.,Deerfield,NH,3037,1325,(603)463-7422,42,Rural: Distant,No,No,Yes,No,541,43.5,12.4,48,23
330261000716,NH-131-71013113129156,3302610,NH-131,PK,KG,Derry Early Education Program,Derry School District,Rockingham County,5 Hood Road,Derry,NH,3038,,(603)845-1202,22,Suburb: Midsize,No,No,Yes,No,113,3,37.7,19,2
330261000083,NH-131-71013113520380,3302610,NH-131,KG,5,Derry Village School,Derry School District,Rockingham County,28 S. Main St.,Derry,NH,3038,2199,(603)432-1233,22,Suburb: Midsize,No,No,–,–,419,30,14,78,16
330234000488,NH-101-90610110120165,3302340,NH-101,KG,5,Disnard Elementary School,Claremont School District,Sullivan County,160 Hanover St.,Claremont,NH,3743,2314,(603)543-4260,33,Town: Remote,No,No,Yes,Yes,284,33,8.6,145,15
330264000089,NH-141-81114114120435,3302640,NH-141,5,8,Dover Middle School,Dover School District,Strafford County,16 Daley Dr.,Dover,NH,3820,302,(603)516-7200,23,Suburb: Small,No,No,Yes,No,1173,73.5,16,292,68
330264000088,NH-141-81114114120455,3302640,NH-141,9,12,Dover Senior High School,Dover School District,Strafford County,25 Alumni Dr.,Dover,NH,3820,4365,(603)516-6900,23,Suburb: Small,No,No,Yes,No,1399,101.4,13.8,277,62
330489000299,NH-363-23836317721665,3304890,NH-363,PK,6,Dr. George S. Emerson Elementary School,Monadnock Regional School District,Cheshire County,27 Rhododendron Rd.,Fitzwilliam,NH,3447,3054,(603)585-6611,42,Rural: Distant,No,No,Yes,Yes,180,13.6,13.2,58,17
330393000180,NH-267-58126726721045,3303930,NH-267,PK,1,Dr. H. O. Smith Elementary School,Hudson School District,Hillsborough County,33 School St.,Hudson,NH,3051,4151,(603)886-1248,22,Suburb: Midsize,No,No,Yes,No,459,30,15.3,68,10
330606000401,NH-473-75747347322895,3306060,NH-473,KG,5,Dr. L. F. Soule School,Salem School District,Rockingham County,173 South Policy St.,Salem,NH,3079,3734,(603)893-7053,21,Suburb: Large,No,No,Yes,No,241,20.5,11.8,64,11
330498000486,NH-371-54237137121835,3304980,NH-371,KG,5,Dr. Norman W. Crisp School,Nashua School District,Hillsborough County,50 Arlington St.,Nashua,NH,3060,4074,(603)966-2100,13,City: Small,No,No,Yes,Yes,409,32.4,12.6,266,25
330248000068,NH-112-20111214322230,3302480,NH-112,KG,4,Dublin Consolidated School,Contoocook Valley School District,Cheshire County,PO Box 1006,Dublin,NH,3444,1006,(603)563-8332,42,Rural: Distant,No,No,Yes,No,51,5.4,9.4,6,5
330276000098,NH-149-61914914920685,3302760,NH-149,KG,6,Dunbarton Elementary School,Dunbarton School District,Merrimack County,20 Robert Rogers Rd.,Dunbarton,NH,3046,4808,(603)774-3181,41,Rural: Fringe,No,No,Yes,No,242,18.6,13,25,2
330165000700,NH-033-87403303329010,3301650,NH-033,PK,KG,Early Childhood Learning Center,Barrington School District,Strafford County,77 Ramsdell Lane,Barrington,NH,3825,7427,(603)664-5586,41,Rural: Fringe,No,No,–,–,147,9,16.3,9,1
330261000497,NH-131-71013113720370,3302610,NH-131,KG,5,East Derry Memorial Elementary School,Derry School District,Rockingham County,18 Dubeau Dr.,Derry,NH,3038,4807,(603)432-1260,41,Rural: Fringe,No,No,–,–,414,30.5,13.6,42,19
330279000100,NH-153-71615315320565,3302790,NH-153,KG,5,East Kingston Elementary School,East Kingston School District,Rockingham County,5 Andrews Ln.,East Kingston,NH,3827,2134,(603)642-3511,41,Rural: Fringe,No,No,Yes,No,132,12,11,7,–
330594000392,NH-461-85446146122650,3305940,NH-461,PK,5,East Rochester School,Rochester School District,Strafford County,773 Portland St.,E. Rochester,NH,3868,8413,(603)332-2146,23,Suburb: Small,No,No,Yes,No,284,26.1,10.9,109,15
330003500141,NH-203-32020320120745,3300035,NH-203,KG,5,Edward Fenn School,Gorham Randolph Shelburne Coop School District,Coos County,169 Main St.,Gorham,NH,3581,1691,(603)466-3334,33,Town: Remote,No,No,Yes,No,159,12.5,12.7,47,10
330333000145,NH-208-14920816122395,3303330,NH-208,KG,6,Effingham Elementary School,Governor Wentworth Reg School District,Carroll County,6 Partridge Cove Rd.,Effingham,NH,3882,8100,(603)539-6032,42,Rural: Distant,No,No,Yes,Yes,114,10.1,11.3,49,15
330315000132,NH-189-78318918920525,3303150,NH-189,PK,8,Ellis School,Fremont School District,Rockingham County,432 Main St.,Fremont,NH,3044,3416,(603)895-2511,41,Rural: Fringe,No,No,Yes,No,406,33,12.3,49,14
330498000317,NH-371-54237137121890,3304980,NH-371,6,8,Elm Street Middle School,Nashua School District,Hillsborough County,117 Elm St.,Nashua,NH,3060,6473,(603)966-3900,13,City: Small,No,No,–,–,1092,86.5,12.6,431,70
330414000209,NH-285-03028528521290,3304140,NH-285,PK,5,Elm Street School,Laconia School District,Belknap County,478 Elm St.,Laconia,NH,3246,2381,(603)524-4113,32,Town: Distant,No,No,Yes,Yes,307,22.3,13.8,152,19
330468000274,NH-343-46234316321325,3304680,NH-343,PK,4,Enfield Village School,Mascoma Valley Reg School District,Grafton County,PO Box 329,Enfield,NH,3748,329,(603)632-4231,41,Rural: Fringe,No,No,Yes,No,202,20,10.1,72,14
330288000102,NH-165-71416516526510,3302880,NH-165,PK,5,Epping Elementary School,Epping School District,Rockingham County,17 Prospect St.,Epping,NH,3042,907,(603)679-8018,41,Rural: Fringe,No,No,Yes,No,477,36.6,13,109,15
330288000103,NH-165-71416516520515,3302880,NH-165,9,12,Epping High School,Epping School District,Rockingham County,21 Academy St.,Epping,NH,3042,2911,(603)679-5472,41,Rural: Fringe,No,No,Yes,No,274,26.3,10.4,40,14
330288000540,NH-165-71416516526505,3302880,NH-165,6,8,Epping Middle School,Epping School District,Rockingham County,33 Prescott Rd.,Epping,NH,3042,2913,(603)679-2544,41,Rural: Fringe,No,No,Yes,No,213,18.1,11.8,44,10
330291000104,NH-167-65316716722600,3302910,NH-167,KG,8,Epsom Central School,Epsom School District,Merrimack County,282 Black Hall Rd.,Epsom,NH,3234,9701,(603)736-9331,42,Rural: Distant,No,No,Yes,No,422,36.5,11.6,101,8
330261000607,NH-131-71013113728465,3302610,NH-131,KG,5,Ernest P. Barka Elementary School,Derry School District,Rockingham County,21 Eastgate Rd.,Derry,NH,3038,3816,(603)434-2430,22,Suburb: Midsize,No,No,Yes,No,489,36.7,13.3,121,15
330294000105,NH-171-32017117120735,3302940,NH-171,3,8,Errol Consolidated Elementary School,Errol School District,Coos County,PO Box 129,Errol,NH,3579,129,(603)482-3341,43,Rural: Remote,No,No,Yes,No,15,2.8,5.4,†,3
330001700106,NH-172-71617217320600,3300017,NH-172,9,13,Exeter High School,Exeter Region Coop School District,Rockingham County,1 Blue Hawk Dr.,Exeter,NH,3833,,(603)775-8400,41,Rural: Fringe,No,No,Yes,No,1658,108,15.4,109,28
330498000508,NH-371-54237137121840,3304980,NH-371,KG,5,Fairgrounds Elementary School,Nashua School District,Hillsborough County,37 Blanchard St.,Nashua,NH,3060,4396,(603)966-2220,13,City: Small,No,No,Yes,Yes,505,38.8,13,274,61
330498000319,NH-371-54237137121875,3304980,NH-371,6,8,Fairgrounds Middle School,Nashua School District,Hillsborough County,27 Cleveland St.,Nashua,NH,3060,4482,(603)594-4393,13,City: Small,No,No,Yes,No,695,56.1,12.4,249,43
330299000259,NH-174-96017429327395,3302990,NH-174,PK,PK,Fall Mountain Regional -Pre School Program,Fall Mountain Regional School District,Sullivan County,144 FMRHS Rd.,Langdon,NH,3602,9612,(603)835-6314,41,Rural: Fringe,No,No,Yes,No,17,1,17,4,–
330299000116,NH-174-96017429322990,3302990,NH-174,9,12,Fall Mountain Regional High School,Fall Mountain Regional School District,Sullivan County,134 FMRHS Rd.,Langdon,NH,3602,9612,(603)835-6318,41,Rural: Fringe,No,No,Yes,No,486,42.7,11.4,119,31
330300000123,NH-175-86117517522050,3303000,NH-175,9,12,Farmington Senior High School,Farmington School District,Strafford County,40 Thayer Dr.,Farmington,NH,3835,1299,(603)755-2811,41,Rural: Fringe,No,No,Yes,No,267,24,11.1,96,15
330711500456,NH-572-56357157123060,3307115,NH-572,1,5,Florence Rideout Elementary School,Wilton-Lyndeboro School District,Hillsborough County,PO Box 430,Wilton,NH,3086,430,(603)732-9929,22,Suburb: Midsize,No,No,Yes,No,211,19.3,10.9,44,9
330267000095,NH-142-47014223320825,3302670,NH-142,6,8,Frances C. Richmond School,Dresden School District,Grafton County,63 Lyme Rd.,Hanover,NH,3755,1205,(603)643-6040,41,Rural: Fringe,No,No,Yes,No,374,38.7,9.7,17,–
330248000069,NH-112-50111217922245,3302480,NH-112,KG,4,Francestown Elementary School,Contoocook Valley School District,Hillsborough County,PO Box 179,Francestown,NH,3043,179,(603)547-2976,42,Rural: Distant,No,No,–,–,54,5.4,10,9,4
330405000200,NH-279-22927927921190,3304050,NH-279,KG,5,Franklin Elementary School,Keene School District,Cheshire County,217 Washington St.,Keene,NH,3431,3110,(603)352-1712,32,Town: Distant,No,No,Yes,Yes,249,21.7,11.5,147,12
330309000128,NH-185-61818518520660,3303090,NH-185,9,12,Franklin High School,Franklin School District,Merrimack County,115 Central St.,Franklin,NH,3235,1135,(603)934-5441,32,Town: Distant,No,No,Yes,No,297,24.4,12.2,153,6
330309000511,NH-185-61818518526755,3303090,NH-185,4,8,Franklin Middle School,Franklin School District,Merrimack County,200 Sanborn St.,Franklin,NH,3235,1366,(603)934-5828,32,Town: Distant,No,No,Yes,No,345,32.1,10.7,181,10
330387000173,NH-261-61526126120550,3303870,NH-261,PK,2,Fred C. Underhill School,Hooksett School District,Merrimack County,2 Sherwood Dr.,Hooksett,NH,3106,1092,(603)623-7233,22,Suburb: Midsize,No,No,Yes,No,387,26.9,14.4,61,8
330312000131,NH-187-11318718720350,3303120,NH-187,PK,6,Freedom Elementary School,Freedom School District,Carroll County,40 Loon Lake Rd.,Freedom,NH,3836,4912,(603)539-2077,43,Rural: Remote,No,No,Yes,Yes,67,8.8,7.6,20,10
330405000201,NH-279-22927927921165,3304050,NH-279,KG,5,Fuller Elementary School,Keene School District,Cheshire County,422 Elm St.,Keene,NH,3431,1820,(603)352-1245,32,Town: Distant,No,No,Yes,Yes,344,26.3,13.1,106,22
330264000090,NH-141-81114114120430,3302640,NH-141,KG,4,Garrison School,Dover School District,Strafford County,50 Garrison Rd.,Dover,NH,3820,4599,(603)516-6752,23,Suburb: Small,No,No,–,–,421,29,14.5,45,11
330329900712,NH-742-774274229151,3303299,NH-742,KG,8,Gate City Charter School for the Arts,Gate City Charter School For the Arts District,Hillsborough County,7 Henry Clay Dr,Merrimack,NH,3054,4847,(603)943-5273,22,Suburb: Midsize,Yes,No,Yes,No,163,12,13.6,22,25
330261000086,NH-131-71013113720420,3302610,NH-131,6,8,Gilbert H. Hood Middle School,Derry School District,Rockingham County,5 Hood Rd.,Derry,NH,3038,2099,(603)432-1224,22,Suburb: Midsize,No,No,–,–,617,45,13.7,146,27
330318000133,NH-191-07319119121245,3303180,NH-191,KG,4,Gilford Elementary School,Gilford School District,Belknap County,76 Belknap Mountain Rd.,Gilford,NH,3249,6826,(603)524-1661,32,Town: Distant,No,No,Yes,No,343,34,10.1,51,14
330318000135,NH-191-07319119121240,3303180,NH-191,9,12,Gilford High School,Gilford School District,Belknap County,88 Alvah Wilson Rd.,Gilford,NH,3249,7504,(603)524-7135,41,Rural: Fringe,No,No,Yes,No,475,43,11,57,11
330318000044,NH-191-07319119126995,3303180,NH-191,5,8,Gilford Middle School,Gilford School District,Belknap County,72 Alvah Wilson Rd.,Gilford,NH,3249,7504,(603)527-2460,41,Rural: Fringe,No,No,Yes,No,311,28,11.1,57,12
330321000136,NH-195-07919519521250,3303210,NH-195,KG,8,Gilmanton Elementary School,Gilmanton School District,Belknap County,1386 NH Rte. 140,Gilmanton IW,NH,3837,9715,(603)364-5681,42,Rural: Distant,No,No,Yes,No,407,31,13.1,59,10
330489000300,NH-363-23836319721670,3304890,NH-363,KG,6,Gilsum STEAM Academy,Monadnock Regional School District,Cheshire County,PO Box 38,Gilsum,NH,3448,38,(603)352-2226,42,Rural: Distant,No,No,–,–,57,4.2,13.6,23,2
330324000620,NH-199-51919919928525,3303240,NH-199,PK,KG,Glen Lake School,Goffstown School District,Hillsborough County,251 Elm St.,Goffstown,NH,3045,2228,(603)497-3550,22,Suburb: Midsize,No,No,–,–,214,9.3,23,25,5
330324000137,NH-199-51919919920700,3303240,NH-199,9,12,Goffstown High School,Goffstown School District,Hillsborough County,27 Wallace Rd.,Goffstown,NH,3045,1830,(603)497-4841,22,Suburb: Midsize,No,No,Yes,No,1124,87.6,12.8,121,54
330717000461,NH-575-72857557521130,3307170,NH-575,PK,4,Golden Brook Elementary School,Windham School District,Rockingham County,112B Lowell Rd.,Windham,NH,3087,1837,(603)898-9586,41,Rural: Fringe,No,No,–,–,579,40.6,14.3,17,2
330594000389,NH-461-85446146122725,3305940,NH-461,KG,5,Gonic School,Rochester School District,Strafford County,10 Railroad Ave.,Gonic,NH,3839,5227,(603)332-6487,23,Suburb: Small,No,No,–,–,226,17.4,13,73,16
330003500142,NH-203-32020320120750,3300035,NH-203,9,12,Gorham High School,Gorham Randolph Shelburne Coop School District,Coos County,120 Main St.,Gorham,NH,3581,1657,(603)466-2776,33,Town: Remote,No,No,Yes,No,134,14.7,9.1,27,7
330003500047,NH-203-32020320127005,3300035,NH-203,6,8,Gorham Middle School,Gorham Randolph Shelburne Coop School District,Coos County,120 Main St.,Gorham,NH,3581,1657,(603)466-2776,33,Town: Remote,No,No,Yes,No,107,9.9,10.8,20,8
330459000246,NH-335-53733533521530,3304590,NH-335,KG,4,Gossler Park School,Manchester School District,Hillsborough County,145 Parkside Ave,Manchester,NH,3102,3603,(603)624-6327,12,City: Midsize,No,No,Yes,Yes,455,31.8,14.3,345,27
330329600711,NH-702-770270229153,3303296,NH-702,9,12,Granite State Arts Academy Charter School,Granite State Arts Academy Charter School,Rockingham County,19 Keewaydin Drive,Salem,NH,3079,4891,(603)912-4944,21,Suburb: Large,Yes,No,Yes,No,124,11,11.3,7,13
330336000151,NH-211-97521121121330,3303360,NH-211,PK,6,Grantham Village School,Grantham School District,Sullivan County,75 Learning Dr.,Grantham,NH,3753,3406,(603)863-1681,42,Rural: Distant,No,No,Yes,No,217,19,11.4,24,2
330004800609,NH-709-770970928445,3300048,NH-709,9,12,Great Bay Charter School (H),Great Bay Elearning Charter School,Rockingham County,30 Linden St.,Exeter,NH,3833,2622,(603)775-8638,23,Suburb: Small,Yes,No,Yes,No,106,7.4,14.3,21,–
330004800688,NH-709-770970928620,3300048,NH-709,6,8,Great Bay Charter School (M),Great Bay Elearning Charter School,Rockingham County,30 Linden St.,Exeter,NH,3833,2622,(603)775-8638,23,Suburb: Small,Yes,No,Yes,No,36,2.6,13.8,13,3
330248000066,NH-112-50111202122210,3302480,NH-112,5,8,Great Brook School,Contoocook Valley School District,Hillsborough County,16 School St.,Antrim,NH,3440,3607,(603)588-6630,42,Rural: Distant,No,No,Yes,No,268,28.6,9.4,65,20
330459000248,NH-335-53733533521610,3304590,NH-335,PK,5,Green Acres School,Manchester School District,Hillsborough County,100 Jack Lovering Drive,Manchester,NH,3109,4901,(603)624-6330,12,City: Midsize,No,No,–,–,461,33,14,102,12
330248000070,NH-112-50111221322250,3302480,NH-112,PK,4,Greenfield Elementary School,Contoocook Valley School District,Hillsborough County,860 Forest Rd.,Greenfield,NH,3047,4301,(603)547-3334,42,Rural: Distant,No,No,–,–,82,7,11.7,18,2
330342000152,NH-215-75021521522450,3303420,NH-215,KG,8,Greenland Central School,Greenland School District,Rockingham County,70 Post Rd.,Greenland,NH,3840,2339,(603)431-6723,23,Suburb: Small,No,No,Yes,No,413,35.8,11.5,22,13
330435000228,NH-315-52731531521095,3304350,NH-315,PK,4,Griffin Memorial School,Litchfield School District,Hillsborough County,229 Chs Bancroft Hwy.,Litchfield,NH,3052,2344,(603)424-0078,41,Rural: Fringe,No,No,Yes,No,459,33.3,13.8,39,1
330261000085,NH-131-71013113720390,3302610,NH-131,KG,5,Grinnell School,Derry School District,Rockingham County,6 Grinnell Rd.,Derry,NH,3038,2098,(603)432-1238,22,Suburb: Midsize,No,No,Yes,No,376,27.2,13.8,127,19
330540000346,NH-407-35840740722905,3305400,NH-407,KG,5,Groveton Elementary School,Northumberland School District,Coos County,36 Church St.,Groveton,NH,3582,1399,(603)636-1806,43,Rural: Remote,No,No,Yes,Yes,118,12.5,9.4,47,16
330540000347,NH-407-35840740722900,3305400,NH-407,9,12,Groveton High School,Northumberland School District,Coos County,65 State St.,Groveton,NH,3582,1499,(603)636-1619,43,Rural: Remote,No,No,Yes,No,125,13.2,9.5,47,10
330540000529,NH-407-35840740726600,3305400,NH-407,6,8,Groveton High School (Middle),Northumberland School District,Coos County,65 State St.,Groveton,NH,3582,1499,(603)636-1619,43,Rural: Remote,No,No,–,–,81,9.3,8.7,34,4
330459000249,NH-335-53733533521625,3304590,NH-335,KG,5,Hallsville School,Manchester School District,Hillsborough County,275 Jewett St.,Manchester,NH,3103,2898,(603)624-6332,12,City: Midsize,No,No,Yes,Yes,275,17.4,15.8,135,26
330348000153,NH-223-75522322322755,3303480,NH-223,PK,4,Hampstead Central School,Hampstead School District,Rockingham County,21 Emerson Ave.,Hampstead,NH,3841,2264,(603)329-6326,21,Suburb: Large,No,No,Yes,No,468,35.8,13.1,45,11
330348000468,NH-223-75522322322750,3303480,NH-223,5,8,Hampstead Middle School,Hampstead School District,Rockingham County,28 School St.,Hampstead,NH,3841,5102,(603)329-6743,21,Suburb: Large,No,No,Yes,No,382,35,10.9,29,3
330351000471,NH-225-72122522520790,3303510,NH-225,6,8,Hampton Academy,Hampton School District,Rockingham County,29 Academy Ave.,Hampton,NH,3842,2279,(603)926-2000,23,Suburb: Small,No,No,–,–,399,35.5,11.2,66,4
330351000469,NH-225-72122522520770,3303510,NH-225,PK,2,Hampton Centre School,Hampton School District,Rockingham County,53 Winnacunnet Rd.,Hampton,NH,3842,2110,(603)926-8706,23,Suburb: Small,No,No,Yes,No,326,31,10.5,45,8
330248000071,NH-112-50111223122260,3302480,NH-112,KG,4,Hancock Elementary School,Contoocook Valley School District,Hillsborough County,10 Elementary Ln.,Hancock,NH,3449,69,(603)525-3303,42,Rural: Distant,No,No,–,–,49,5.9,8.3,11,–
330267000096,NH-142-47014223320820,3302670,NH-142,9,12,Hanover High School,Dresden School District,Grafton County,41 Lebanon St. Suite 1,Hanover,NH,3755,2147,(603)643-3431,33,Town: Remote,No,No,Yes,No,749,61.8,12.1,31,–
330423000217,NH-295-48829529521335,3304230,NH-295,KG,4,Hanover Street School,Lebanon School District,Grafton County,193 Hanover St.,Lebanon,NH,3766,1090,(603)448-2945,33,Town: Remote,No,No,Yes,No,333,33.2,10,82,15
330390000176,NH-263-66626326320975,3303900,NH-263,PK,3,Harold Martin School,Hopkinton School District,Merrimack County,271 Main St.,Hopkinton,NH,3229,2630,(603)746-3473,42,Rural: Distant,No,No,Yes,No,315,22.1,14.3,23,4
330366000020,NH-238-42323823726875,3303660,NH-238,4,8,Haverhill Cooperative Middle School,Haverhill Cooperative School District,Grafton County,175 Morrill Dr.,North Haverhill,NH,3774,5960,(603)787-2100,43,Rural: Remote,No,No,Yes,No,272,24.6,11.1,80,10
330369000161,NH-245-62424524520935,3303690,NH-245,PK,8,Henniker Community School,Henniker School District,Merrimack County,51 Western Avenue,Henniker,NH,3242,7390,(603)428-3476,42,Rural: Distant,No,No,Yes,No,406,28.6,14.2,96,2
330459000576,NH-335-53733533527595,3304590,NH-335,6,8,Henry J. McLaughlin Jr. Middle School,Manchester School District,Hillsborough County,201 Jack Lovering Drive,Manchester,NH,3109,4909,(603)628-6247,12,City: Midsize,No,No,–,–,713,58,12.3,350,37
330213000033,NH-079-71507907920535,3302130,NH-079,KG,8,Henry W. Moore School,Candia School District,Rockingham County,12 Deerfield Rd.,Candia,NH,3034,2701,(603)483-2251,41,Rural: Fringe,No,No,Yes,No,298,26,11.5,61,7
330459000263,NH-335-53733533521640,3304590,NH-335,KG,5,Henry Wilson Elementary School,Manchester School District,Hillsborough County,555 Cedar Street,Manchester,NH,3103,4899,(603)624-6350,12,City: Midsize,No,No,Yes,Yes,435,29.2,14.9,348,21
330300000124,NH-175-86117517522055,3303000,NH-175,4,8,Henry Wilson Memorial School,Farmington School District,Strafford County,51 School St.,Farmington,NH,3835,1299,(603)755-2181,41,Rural: Fringe,No,No,Yes,Yes,321,25.1,12.8,150,29
330483000595,NH-357-54035735727895,3304830,NH-357,2,5,Heron Pond Elementary School,Milford School District,Hillsborough County,80 Heron Pond Rd.,Milford,NH,3055,3245,(603)673-1811,22,Suburb: Midsize,No,No,Yes,No,630,44,14.3,113,14
330467000697,NH-342-58734228990393,3304670,NH-342,PK,4,Highbridge Hill Elementary School,Mascenic Regional School District,Hillsborough County,171 Turnpike Road,New Ipswich,NH,3071,3525,(603)878-4387,41,Rural: Fringe,No,No,Yes,No,408,28.4,14.4,82,36
330459000250,NH-335-53733533521560,3304590,NH-335,PK,5,Highland-Goffes Falls School,Manchester School District,Hillsborough County,2021 Goffs Falls Rd.,Manchester,NH,3103,6133,(603)624-6334,12,City: Midsize,No,No,–,–,423,31.2,13.6,180,23
330393000593,NH-267-58126726727900,3303930,NH-267,2,5,Hills Garrison Elementary School,Hudson School District,Hillsborough County,190 Derry Rd.,Hudson,NH,3051,3320,(603)881-3930,22,Suburb: Midsize,No,No,Yes,No,394,28,14.1,71,13
330375000165,NH-251-53425124920955,3303750,NH-251,PK,5,Hillsboro-Deering Elementary School,Hillsboro Deering Coop School District,Hillsborough County,4 Hillcat Dr.,Hillsborough,NH,3244,4847,(603)464-1110,32,Town: Distant,No,No,Yes,Yes,483,44.2,10.9,181,38
330375000166,NH-251-53425124920950,3303750,NH-251,9,12,Hillsboro-Deering High School,Hillsboro Deering Coop School District,Hillsborough County,12 Hillcat Dr.,Hillsborough,NH,3244,4847,(603)464-1130,32,Town: Distant,No,No,Yes,No,349,35,10,94,29
330375000481,NH-251-53425124920960,3303750,NH-251,6,8,Hillsboro-Deering Middle School,Hillsboro Deering Coop School District,Hillsborough County,6 Hillcat Dr.,Hillsborough,NH,3244,4847,(603)464-1120,32,Town: Distant,No,No,Yes,No,292,25,11.7,111,16
330459000251,NH-335-53733533521520,3304590,NH-335,6,8,Hillside Middle School,Manchester School District,Hillsborough County,112 Reservoir Ave.,Manchester,NH,3104,4498,(603)624-6352,12,City: Midsize,No,No,–,–,808,66.6,12.1,459,34
330378000167,NH-255-23825525521680,3303780,NH-255,PK,5,Hinsdale Elementary School,Hinsdale School District,Cheshire County,12 School St.,Hinsdale,NH,3451,2389,(603)336-5332,42,Rural: Distant,No,No,Yes,Yes,293,27.3,10.7,133,24
330378000168,NH-255-23825525521675,3303780,NH-255,9,12,Hinsdale High School,Hinsdale School District,Cheshire County,49 School St.,Hinsdale,NH,3451,2388,(603)336-5984,42,Rural: Distant,No,No,Yes,No,152,15.5,9.8,54,7
330378000048,NH-255-23825525526985,3303780,NH-255,6,8,Hinsdale Middle High School,Hinsdale School District,Cheshire County,49 School St.,Hinsdale,NH,3451,2388,(603)336-5984,42,Rural: Distant,No,No,Yes,No,115,19.3,6,34,13
330381000169,NH-257-44825725722345,3303810,NH-257,KG,8,Holderness Central School,Holderness School District,Grafton County,3 School Rd.,Holderness,NH,3245,5300,(603)536-2538,41,Rural: Fringe,No,No,Yes,No,145,19.6,7.4,21,5
330384000171,NH-259-54125925921815,3303840,NH-259,PK,3,Hollis Primary School,Hollis School District,Hillsborough County,36 Silver Lake Rd.,Hollis,NH,3049,6286,(603)324-5995,41,Rural: Fringe,No,No,–,–,346,31,11.2,14,–
330384000566,NH-259-54125925927530,3303840,NH-259,4,6,Hollis Upper Elementary School,Hollis School District,Hillsborough County,12 Drury Ln.,Hollis,NH,3049,5900,(603)465-9182,41,Rural: Fringe,No,No,–,–,327,19,17.2,8,1
330385000170,NH-260-54126025921810,3303850,NH-260,9,12,Hollis-Brookline High School,Hollis/Brookline Coop School District,Hillsborough County,24 Cavalier Ct.,Hollis,NH,3049,6583,(603)465-2269,41,Rural: Fringe,No,No,Yes,No,857,61,14,26,17
330385000172,NH-260-54126025921805,3303850,NH-260,7,8,Hollis-Brookline Middle School,Hollis/Brookline Coop School District,Hillsborough County,25 Main St.,Hollis,NH,3049,6544,(603)324-5997,41,Rural: Fringe,No,No,Yes,No,392,34,11.5,16,2
330387000175,NH-261-61526126120540,3303870,NH-261,3,5,Hooksett Memorial School,Hooksett School District,Merrimack County,5 Memorial Dr.,Hooksett,NH,3106,1716,(603)485-9890,22,Suburb: Midsize,No,No,Yes,No,435,29.6,14.7,84,14
330390000177,NH-263-66626326320970,3303900,NH-263,9,12,Hopkinton High School,Hopkinton School District,Merrimack County,297 Park Ave.,Contoocook,NH,3229,3091,(603)746-4167,42,Rural: Distant,No,No,Yes,No,308,24.4,12.6,18,5
330390000052,NH-263-66626326327000,3303900,NH-263,7,8,Hopkinton Middle School,Hopkinton School District,Merrimack County,297 Park Ave.,Contoocook,NH,3229,3091,(603)746-4167,42,Rural: Distant,No,No,Yes,No,167,12.9,12.9,11,4
330264000091,NH-141-81114114120445,3302640,NH-141,KG,4,Horne Street School,Dover School District,Strafford County,78 Horne St.,Dover,NH,3820,2699,(603)516-6756,23,Suburb: Small,No,No,–,–,478,33,14.5,104,18
330393000181,NH-267-58126726721060,3303930,NH-267,6,8,Hudson Memorial School,Hudson School District,Hillsborough County,1 Memorial Dr.,Hudson,NH,3051,4658,(603)886-1240,22,Suburb: Midsize,No,No,Yes,No,802,59,13.6,133,36
330588000521,NH-453-73345345326525,3305880,NH-453,5,8,Iber Holmes Gove Middle School,Raymond School District,Rockingham County,1 Stephen Batchelder Pkwy.,Raymond,NH,3077,,(603)895-3394,21,Suburb: Large,No,No,Yes,No,380,33,11.5,91,29
330624000732,NH-491-85649149129202,3306240,NH-491,PK,2,Idlehurst Elementary School,Somersworth School District,Strafford County,46 Stackpole Road,Somersworth,NH,3878,1610,(603)692-2435,23,Suburb: Small,No,No,Yes,Yes,376,27,13.9,182,16
330468000498,NH-343-46234307726405,3304680,NH-343,5,8,Indian River School,Mascoma Valley Reg School District,Grafton County,45 Royal Rd.,Canaan,NH,3741,9763,(603)632-4357,42,Rural: Distant,No,No,Yes,No,362,35,10.3,105,23
330396000734,NH-269-00226934729200,3303960,NH-269,PK,6,Inter-Lakes Elementary School,Inter-lakes School District,Belknap County,21 Laker Ln,Meredith,NH,3253,6321,(603)279-7947,42,Rural: Distant,No,No,Yes,No,471,43.3,10.9,149,14
330396000185,NH-269-00226934720035,3303960,NH-269,9,13,Inter-Lakes High School,Inter-lakes School District,Belknap County,1 Laker Ln.,Meredith,NH,3253,6322,(603)279-6162,42,Rural: Distant,No,No,Yes,No,325,29.9,10.9,49,5
330396000731,NH-269-00226934729201,3303960,NH-269,7,8,Inter-Lakes Middle School,Inter-lakes School District,Belknap County,1 Laker Ln,Meredith,NH,3253,6321,(603)279-7947,42,Rural: Distant,No,No,Yes,No,152,13.5,11.3,31,3
330399000187,NH-271-10927127120355,3303990,NH-271,KG,6,Jackson Grammar School,Jackson School District,Carroll County,PO Box 809,Jackson,NH,3846,809,(603)383-6861,42,Rural: Distant,No,No,Yes,No,49,5.8,8.4,8,2
330483000507,NH-357-54035735726580,3304830,NH-357,PK,1,Jacques Memorial Elementary School,Milford School District,Hillsborough County,9 Elm St.,Milford,NH,3055,4810,(603)673-4434,22,Suburb: Midsize,No,No,Yes,No,311,22.3,13.9,55,8
330403000189,NH-274-24727427322275,3304030,NH-274,PK,5,Jaffrey Grade School,Jaffrey-Rindge Coop School District,Cheshire County,18 School St.,Jaffrey,NH,3452,1319,(603)532-8355,31,Town: Fringe,No,No,Yes,Yes,318,30.5,10.4,115,19
330403000190,NH-274-24727427322280,3304030,NH-274,6,8,Jaffrey-Rindge Middle School,Jaffrey-Rindge Coop School District,Cheshire County,1 Conant Way,Jaffrey,NH,3452,1599,(603)532-8122,31,Town: Fringe,No,No,Yes,No,318,27,11.8,82,22
330639000426,NH-503-22450350320980,3306390,NH-503,KG,5,James Faulkner Elementary School,Stoddard School District,Cheshire County,PO Box 365,Stoddard,NH,3464,365,(603)446-3348,42,Rural: Distant,No,No,Yes,No,65,7.3,8.9,15,4
330404000687,NH-276-66527605926565,3304040,NH-276,PK,PK,James House Preschool,Kearsarge Regional School District,Merrimack County,114 Cougar Ct.,New London,NH,3257,5192,(603)526-8604,42,Rural: Distant,No,No,Yes,No,39,2,19.5,7,–
330474000276,NH-351-52635135121020,3304740,NH-351,PK,4,James Mastricola Elementary School,Merrimack School District,Hillsborough County,7 School St.,Merrimack,NH,3054,3685,(603)424-6218,22,Suburb: Midsize,No,No,–,–,405,33,12.3,30,6
330474000277,NH-351-52635135121025,3304740,NH-351,5,6,James Mastricola Upper Elementary School,Merrimack School District,Hillsborough County,26 Baboosic Lake Rd.,Merrimack,NH,3054,3697,(603)424-6221,22,Suburb: Midsize,No,No,Yes,No,554,40,13.9,47,15
330372000164,NH-247-61824724720670,3303720,NH-247,KG,6,Jennie D. Blake School,Hill School District,Merrimack County,32 Crescent St,Hill,NH,3243,3405,(603)934-2245,42,Rural: Distant,No,No,Yes,No,61,7.1,8.6,13,3
330459000252,NH-335-53733533521590,3304590,NH-335,PK,5,Jewett School,Manchester School District,Hillsborough County,130 S. Jewett St.,Manchester,NH,3103,3897,(603)624-6336,12,City: Midsize,No,No,Yes,Yes,429,24.5,17.5,179,23
330465000266,NH-341-22934134123000,3304650,NH-341,PK,6,John D. Perkins Academy,Marlow School District,Cheshire County,919 NH RTE 10,Marlow,NH,3456,9802,(603)446-3307,43,Rural: Remote,No,No,Yes,No,43,5.4,8,13,2
330249000078,NH-113-10911311320335,3302490,NH-113,KG,6,John H. Fuller School,Conway School District,Carroll County,51 Pine St.,North Conway,NH,3860,5211,(603)356-5381,32,Town: Distant,No,No,Yes,Yes,194,19.9,9.7,61,7
330000300500,NH-275-52427555526380,3300003,NH-275,9,12,John Stark Regional High School,John Stark Regional School District,Hillsborough County,618 N. Stark Hwy.,Weare,NH,3281,4239,(603)529-7675,42,Rural: Distant,No,No,Yes,No,643,63.5,10.1,88,17
330405000723,NH-279-22927927929180,3304050,NH-279,PK,PK,Jonathan Daniels School,Keene School District,Cheshire County,227 Maple Avenue,Keene,NH,3431,,(603)354-2106,32,Town: Distant,No,No,Yes,No,94,4.6,20.4,39,4
330168000015,NH-035-10903503520325,3301680,NH-035,PK,8,Josiah Bartlett Elementary School,Bartlett School District,Carroll County,PO Box 396,Bartlett,NH,3812,396,(603)374-2331,42,Rural: Distant,No,No,Yes,No,198,21.6,9.2,42,12
330404000195,NH-276-66527639521980,3304040,NH-276,KG,5,Kearsarge Reg. Elem. School at New London,Kearsarge Regional School District,Merrimack County,64 Cougar Ct,New London,NH,3257,5191,(603)526-4737,42,Rural: Distant,No,No,–,–,319,26.3,12.1,27,4
330404000192,NH-276-66527605926530,3304040,NH-276,KG,5,Kearsarge Reg. Elementary School - Bradford,Kearsarge Regional School District,Merrimack County,PO Box 435,Bradford,NH,3221,435,(603)938-5959,42,Rural: Distant,No,No,Yes,No,173,16.2,10.7,29,10
330404000193,NH-276-66527652122015,3304040,NH-276,9,13,Kearsarge Regional High School,Kearsarge Regional School District,Merrimack County,PO Box 182,North Sutton,NH,3260,182,(603)927-4261,42,Rural: Distant,No,No,Yes,No,512,49.2,10.4,78,9
330404000503,NH-276-66527639526535,3304040,NH-276,6,8,Kearsarge Regional Middle School,Kearsarge Regional School District,Merrimack County,PO Box 269,North Sutton,NH,3260,269,(603)927-2100,43,Rural: Remote,No,No,Yes,No,424,40,10.6,59,10
330405000202,NH-279-22927927921195,3304050,NH-279,9,12,Keene High School,Keene School District,Cheshire County,43 Arch St.,Keene,NH,3431,2298,(603)352-0640,32,Town: Distant,No,No,Yes,No,1386,114.6,12.1,333,49
330405000203,NH-279-22927927921185,3304050,NH-279,6,8,Keene Middle School,Keene School District,Cheshire County,167 Maple Ave.,Keene,NH,3431,3126,(603)357-9023,32,Town: Distant,No,No,Yes,No,714,55.6,12.8,222,37
330660000432,NH-525-11352552520365,3306600,NH-525,KG,8,Kenneth A. Brett School,Tamworth School District,Carroll County,881 Tamworth Rd.,Tamworth,NH,3886,4320,(603)323-7271,43,Rural: Remote,No,No,Yes,Yes,185,23.9,7.7,85,14
330249000076,NH-113-10911311320345,3302490,NH-113,9,12,Kennett High School,Conway School District,Carroll County,409 Eagles Way,North Conway,NH,3860,5800,(603)356-4343,32,Town: Distant,No,No,Yes,No,745,62.3,12,166,43
330408000208,NH-281-71628128120605,3304080,NH-281,KG,5,Kensington Elementary School,Kensington School District,Rockingham County,122 Amesbury Rd.,Kensington,NH,3833,5621,(603)772-5705,41,Rural: Fringe,No,No,Yes,No,118,11.1,10.6,12,–
330333000146,NH-208-14920858322425,3303330,NH-208,9,12,Kingswood Regional High School,Governor Wentworth Reg School District,Carroll County,396 S. Main St.,Wolfeboro,NH,3894,9718,(603)569-2055,42,Rural: Distant,No,No,Yes,No,748,63.4,11.8,179,56
330333000512,NH-208-14920858322440,3303330,NH-208,7,8,Kingswood Regional Middle School,Governor Wentworth Reg School District,Carroll County,404 S. Main St.,Wolfeboro,NH,3894,9792,(603)569-3689,42,Rural: Distant,No,No,Yes,No,400,37.1,10.8,119,18
330330800727,NH-708-40170829192,3303308,NH-708,9,12,Kreiva Academy Public Charter School (H),Kreiva Academy Public Charter School District,Hillsborough County,470 Pine St.,Manchester,NH,3104,,(603)232-7974,12,City: Midsize,Yes,No,Yes,No,27,2.5,10.8,4,–
330330800726,NH-708-40170829191,3303308,NH-708,6,8,Kreiva Academy Public Charter School (M),Kreiva Academy Public Charter School District,Hillsborough County,470 Pine St.,Manchester,NH,3104,,(603)232-7974,12,City: Midsize,Yes,No,Yes,No,64,5.5,11.6,18,–
330414000210,NH-285-03028528521255,3304140,NH-285,9,13,Laconia High School,Laconia School District,Belknap County,345 Union Ave.,Laconia,NH,3246,2898,(603)524-3350,32,Town: Distant,No,No,Yes,No,548,44,12.5,242,23
330414000211,NH-285-03028528521275,3304140,NH-285,6,8,Laconia Middle School,Laconia School District,Belknap County,150 McGrath St.,Laconia,NH,3246,2688,(603)524-4632,32,Town: Distant,No,No,Yes,No,445,36,12.4,234,25
330415000215,NH-288-43528818321405,3304150,NH-288,KG,6,Lafayette Regional School,Lafayette Regional School District,Grafton County,149 Main St.,Franconia,NH,3580,4802,(603)823-7741,42,Rural: Distant,No,No,Yes,No,114,9.1,12.5,22,7
330588000384,NH-453-73345345321385,3305880,NH-453,PK,4,Lamprey River Elementary School,Raymond School District,Rockingham County,33 Old Manchester Rd.,Raymond,NH,3077,2345,(603)895-3117,21,Suburb: Large,No,No,Yes,No,494,39,12.7,129,20
330705000453,NH-568-33656828721475,3307050,NH-568,PK,8,Lancaster Elementary School,White Mountain Regional School District,Coos County,51 Bridge St.,Lancaster,NH,3584,1737,(603)788-4924,43,Rural: Remote,No,No,Yes,Yes,427,35.3,12.1,178,22
330417000216,NH-291-43529129121410,3304170,NH-291,PK,3,Landaff Blue School,Landaff School District,Grafton County,813 Millbrook Rd.,Landaff,NH,3585,9705,(603)838-6416,43,Rural: Remote,No,No,Yes,No,23,1.6,14.4,5,2
330330500722,NH-706-40170629189,3303305,NH-706,9,12,LEAF Charter School,LEAF Charter School,Cheshire County,6A Baine Road,Alstead,NH,3602,3956,(603)352-1829,42,Rural: Distant,Yes,No,Yes,No,46,2.5,18.4,9,–
330423000218,NH-295-48829529521360,3304230,NH-295,9,12,Lebanon High School,Lebanon School District,Grafton County,195 Hanover St.,Lebanon,NH,3766,1091,(603)448-2055,33,Town: Remote,No,No,Yes,No,584,51.2,11.4,70,19
330423000219,NH-295-48829529521370,3304230,NH-295,5,8,Lebanon Middle School,Lebanon School District,Grafton County,3 Moulton Avenue,Lebanon,NH,3766,,(603)448-3056,33,Town: Remote,No,No,Yes,No,469,48,9.8,92,27
330498000320,NH-371-54237137121915,3304980,NH-371,KG,5,Ledge Street School,Nashua School District,Hillsborough County,139 Ledge St.,Nashua,NH,3060,3098,(603)966-2120,13,City: Small,No,No,Yes,Yes,499,39.2,12.7,350,30
330004300695,NH-719-471971928565,3300043,NH-719,9,12,Ledyard Charter School,Ledyard Charter Academy,Grafton County,PO Box 327,Lebanon,NH,3766,327,(603)727-4772,33,Town: Remote,Yes,No,Yes,No,35,4,8.8,11,12
330330300719,NH-299-97129929929169,3303303,NH-299,KG,8,Lempster Community School,Lempster School District,Sullivan County,29 School Rd,Lempster,NH,3605,7706,(603)863-1080,42,Rural: Distant,No,No,Yes,No,100,12.8,7.8,23,8
330426000493,NH-305-46830530320880,3304260,NH-305,KG,5,Lin-Wood Public School (Elem),Lincoln-Woodstock School District,Grafton County,PO Box 97,Lincoln,NH,3251,97,(603)745-2214,43,Rural: Remote,No,No,Yes,No,156,43.2,3.6,40,15
330426000532,NH-305-46830530323110,3304260,NH-305,9,13,Lin-Wood Public School (High),Lincoln-Woodstock School District,Grafton County,PO Box 97,Lincoln,NH,3251,97,(603)745-2214,43,Rural: Remote,No,No,Yes,No,75,42.4,1.8,26,7
330426000531,NH-305-46830530323105,3304260,NH-305,6,8,Lin-Wood Public School (Middle),Lincoln-Woodstock School District,Grafton County,PO Box 97,Lincoln,NH,3251,97,(603)745-2214,43,Rural: Remote,No,No,Yes,No,57,43.2,1.3,16,2
330354000154,NH-227-72122722720800,3303540,NH-227,KG,8,Lincoln Akerman School,Hampton Falls School District,Rockingham County,8 Exeter Rd.,Hampton Falls,NH,3844,2028,(603)926-2539,21,Suburb: Large,No,No,Yes,No,220,25.5,8.6,10,3
330297000108,NH-173-71617317320595,3302970,NH-173,3,5,Lincoln Street Elementary School,Exeter School District,Rockingham County,25 Lincoln St.,Exeter,NH,3833,3298,(603)775-8860,23,Suburb: Small,No,No,Yes,No,497,39,12.7,72,9
330429000533,NH-306-43530630721420,3304290,NH-306,KG,6,Lisbon Regional School (Elem),Lisbon Regional School District,Grafton County,24 Highland Ave.,Lisbon,NH,3585,1399,(603)838-5506,42,Rural: Distant,No,No,Yes,Yes,184,20.4,9,90,9
330429000227,NH-306-43530630723100,3304290,NH-306,9,12,Lisbon Regional School (High),Lisbon Regional School District,Grafton County,24 Highland Ave.,Lisbon,NH,3585,1399,(603)838-5506,42,Rural: Distant,No,No,Yes,No,117,12.7,9.2,45,11
330429000534,NH-306-43530630723095,3304290,NH-306,7,8,Lisbon Regional School (Middle),Lisbon Regional School District,Grafton County,24 Highland Ave.,Lisbon,NH,3585,1399,(603)838-5506,42,Rural: Distant,No,No,Yes,No,50,6.2,8.1,22,3
330435000514,NH-315-52731531526640,3304350,NH-315,5,8,Litchfield Middle School,Litchfield School District,Hillsborough County,19 McElwain Dr.,Litchfield,NH,3052,2328,(603)424-0566,41,Rural: Fringe,No,No,Yes,No,404,31.8,12.7,34,1
330582000376,NH-449-75244944922515,3305820,NH-449,KG,5,Little Harbour School,Portsmouth School District,Rockingham County,50 Clough Dr.,Portsmouth,NH,3801,5297,(603)436-1708,23,Suburb: Small,No,No,–,–,434,35.2,12.3,52,6
330438000229,NH-317-48431731721445,3304380,NH-317,9,12,Littleton High School,Littleton School District,Grafton County,159 Oak Hill Ave.,Littleton,NH,3561,1238,(603)444-5601,33,Town: Remote,No,No,Yes,No,213,25.1,8.5,57,18
330441000232,NH-319-71231931920480,3304410,NH-319,6,8,Londonderry Middle School,Londonderry School District,Rockingham County,313 Mammoth Rd.,Londonderry,NH,3053,3037,(603)432-6925,22,Suburb: Midsize,No,No,Yes,No,948,75,12.6,94,27
330441000484,NH-319-71231931920490,3304410,NH-319,9,12,Londonderry Senior High School,Londonderry School District,Rockingham County,295 Mammoth Rd.,Londonderry,NH,3053,3095,(603)432-6941,22,Suburb: Midsize,No,No,Yes,No,1444,116.7,12.4,126,33
330476000282,NH-352-64635232122180,3304760,NH-352,KG,5,Loudon Elementary School,Merrimack Valley School District,Merrimack County,7039 School St.,Loudon,NH,3307,9803,(603)783-4400,42,Rural: Distant,No,No,–,–,252,18,14,49,11
330450000236,NH-327-47632732720835,3304500,NH-327,KG,8,Lyme Elementary School,Lyme School District,Grafton County,35 Union Street,Lyme,NH,3768,,(603)795-2125,42,Rural: Distant,No,No,Yes,No,184,21.4,8.6,12,2
330711500237,NH-572-56332932923035,3307115,NH-572,PK,KG,Lyndeborough Central School,Wilton-Lyndeboro School District,Hillsborough County,192 Forest Rd.,Lyndeborough,NH,3082,6210,(603)654-9381,41,Rural: Fringe,No,No,Yes,No,67,4,16.8,18,6
330456000238,NH-333-11333333320360,3304560,NH-333,KG,6,Madison Elementary School,Madison School District,Carroll County,2069 Village Rd.,Madison,NH,3849,5472,(603)367-4642,42,Rural: Distant,No,No,Yes,Yes,134,14,9.6,38,16
330498000321,NH-371-54237137121935,3304980,NH-371,KG,5,Main Dunstable School,Nashua School District,Hillsborough County,20 Whitford Rd.,Nashua,NH,3062,1440,(603)966-2320,13,City: Small,No,No,–,–,465,34,13.7,54,15
330297000109,NH-173-71617317320575,3302970,NH-173,PK,2,Main Street School,Exeter School District,Rockingham County,40 Main St.,Exeter,NH,3833,2497,(603)775-8946,23,Suburb: Small,No,No,Yes,No,476,39.2,12.1,85,6
330328900705,NH-733-40173329060,3303289,NH-733,9,12,Making Community Connections Charter School (H),Making Community Connections Charter School,Hillsborough County,100 William Loeb Drive,Manchester,NH,3109,5309,(603)935-7488,12,City: Midsize,Yes,No,Yes,No,53,3,17.7,28,3
330328900710,NH-733-573333529100,3303289,NH-733,6,8,Making Community Connections Charter School (M),Making Community Connections Charter School,Hillsborough County,100 William Loeb Drive,Manchester,NH,3109,5309,(603)935-7488,12,City: Midsize,Yes,No,Yes,No,30,2.5,12,26,1
330328900720,NH-733-540173373329160,3303289,NH-733,9,12,Making Community Connections Charter School - Monadnock,Making Community Connections Charter School,Cheshire County,149 Emerald Sreet,Keene,NH,3431,,(603)283-0844,32,Town: Distant,Yes,No,–,–,69,4.5,15.3,19,2
330459000244,NH-335-53733533521510,3304590,NH-335,9,12,Manchester Central High School,Manchester School District,Hillsborough County,535 Beech Street,Manchester,NH,3104,4915,(603)624-6363,12,City: Midsize,No,No,–,–,1430,98.2,14.6,713,62
330459000253,NH-335-53733533521505,3304590,NH-335,9,12,Manchester Memorial High School,Manchester School District,Hillsborough County,1 Crusader Way,Manchester,NH,3103,3099,(603)624-6378,12,City: Midsize,No,No,–,–,1395,89.3,15.6,493,59
330459000708,NH-335-53733533529085,3304590,NH-335,9,12,Manchester School of Technology (High School),Manchester School District,Hillsborough County,100 Gerald Connors Circle,Manchester,NH,3103,3198,(603)624-6490,12,City: Midsize,No,No,–,–,387,22.5,17.2,180,20
330459000261,NH-335-53733533521555,3304590,NH-335,9,12,Manchester West High School,Manchester School District,Hillsborough County,9 Notre Dame Ave.,Manchester,NH,3102,3999,(603)624-6384,12,City: Midsize,No,No,–,–,757,65.8,11.5,402,39
330324000139,NH-199-51919919920690,3303240,NH-199,1,4,Maple Avenue School,Goffstown School District,Hillsborough County,16 Maple Ave.,Goffstown,NH,3045,1941,(603)497-3330,22,Suburb: Midsize,No,No,–,–,466,35.2,13.2,48,15
330234000040,NH-101-90610110120160,3302340,NH-101,KG,5,Maple Avenue School,Claremont School District,Sullivan County,210 Maple Ave.,Claremont,NH,3743,2833,(603)543-4270,33,Town: Remote,No,No,Yes,Yes,291,27,10.8,124,21
330390000178,NH-263-66626326320965,3303900,NH-263,4,6,Maple Street Elementary School,Hopkinton School District,Merrimack County,194 Maple St.,Contoocook,NH,3229,3338,(603)746-4195,42,Rural: Distant,No,No,–,–,212,16.7,12.7,11,5
330594000709,NH-461-85446146129080,3305940,NH-461,KG,5,Maple Street Magnet School,Rochester School District,Strafford County,27 Maple Street,Rochester,NH,3867,2209,(603)332-6481,23,Suburb: Small,No,Yes,–,–,118,9,13.1,36,–
330624000733,NH-491-85649149129203,3306240,NH-491,3,5,Maple Wood Elementary School,Somersworth School District,Strafford County,184 Maple Street,Somersworth,NH,3878,1593,(603)692-3331,23,Suburb: Small,No,No,Yes,Yes,363,26.5,13.7,158,20
330462000264,NH-339-22933933921210,3304620,NH-339,PK,8,Marlborough Elementary School,Marlborough School District,Cheshire County,41 Fitch Court,Marlborough,NH,3455,2437,(603)876-4465,32,Town: Distant,No,No,Yes,Yes,168,17.1,9.8,65,11
330606000404,NH-473-75747347322875,3306060,NH-473,KG,5,Mary A. Fisk Elementary School,Salem School District,Rockingham County,14 Main St.,Salem,NH,3079,1954,(603)893-7051,21,Suburb: Large,No,No,Yes,No,293,23.6,12.4,40,8
330582000373,NH-449-75244944922545,3305820,NH-449,KG,5,Mary C. Dondero Elementary School,Portsmouth School District,Rockingham County,32 Van Buren Ave.,Portsmouth,NH,3801,5898,(603)436-2231,23,Suburb: Small,No,No,Yes,No,306,28.3,10.8,54,15
330467000270,NH-342-58734239323050,3304670,NH-342,9,12,Mascenic Regional High School,Mascenic Regional School District,Hillsborough County,175 Turnpike Rd.,New Ipswich,NH,3071,9670,(603)878-1113,41,Rural: Fringe,No,No,Yes,No,328,29.1,11.3,62,24
330468000275,NH-343-46234307721305,3304680,NH-343,9,12,Mascoma Valley Regional High School,Mascoma Valley Reg School District,Grafton County,27 Royal Rd.,Canaan,NH,3741,9736,(603)632-4308,42,Rural: Distant,No,No,Yes,No,320,30,10.7,75,15
330327610027,NH-345-58934534523040,3303276,NH-345,PK,5,Mason Elementary School,Mason School District,Hillsborough County,13 Darling Hill Rd.,Mason,NH,3048,4616,(603)878-2962,41,Rural: Fringe,No,No,Yes,No,74,8,9.3,9,3
330552000352,NH-423-80542329722805,3305520,NH-423,KG,4,Mast Way School,Oyster River Coop School District,Strafford County,23 Mast Rd.,Lee,NH,3861,6567,(603)659-3001,41,Rural: Fringe,No,No,Yes,No,365,25.5,14.3,20,9
330441000233,NH-319-71231931920485,3304410,NH-319,1,5,Matthew Thornton Elementary School,Londonderry School District,Rockingham County,275 Mammoth Rd.,Londonderry,NH,3053,3099,(603)432-6937,22,Suburb: Midsize,No,No,–,–,536,38.9,13.8,54,6
330507000330,NH-381-75038138122455,3305070,NH-381,KG,6,Maude H. Trefethen School,New Castle School District,Rockingham County,PO Box 228,New Castle,NH,3854,228,(603)436-5416,23,Suburb: Small,No,No,Yes,No,45,5.4,8.3,–,4
330594000391,NH-461-85446146122665,3305940,NH-461,KG,5,McClelland School,Rochester School District,Strafford County,59 Brock St.,Rochester,NH,3867,4404,(603)332-2180,23,Suburb: Small,No,No,–,–,377,28.7,13.1,156,12
330459000485,NH-335-53733533521565,3304590,NH-335,KG,5,McDonough School,Manchester School District,Hillsborough County,550 Lowell St.,Manchester,NH,3104,5200,(603)624-6373,12,City: Midsize,No,No,Yes,Yes,505,36,14,324,25
330174000017,NH-041-52504104121005,3301740,NH-041,5,6,McKelvie Intermediate School,Bedford School District,Hillsborough County,108 Liberty Hill Rd.,Bedford,NH,3110,5625,(603)472-3951,22,Suburb: Midsize,No,No,Yes,No,708,52,13.6,40,3
330174000018,NH-041-52504104120990,3301740,NH-041,PK,4,Memorial School,Bedford School District,Hillsborough County,55 Old Bedford Rd.,Bedford,NH,3110,5929,(603)627-1776,22,Suburb: Midsize,No,No,Yes,No,447,29.9,14.9,43,10
330608000477,NH-476-71747640320635,3306080,NH-476,PK,5,Memorial School,Sanborn Regional School District,Rockingham County,31 W. Main St.,Newton,NH,3858,3532,(603)382-5251,21,Suburb: Large,No,No,Yes,No,275,31,8.9,40,1
330474000278,NH-351-52635135121040,3304740,NH-351,9,12,Merrimack High School,Merrimack School District,Hillsborough County,38 McElwain St.,Merrimack,NH,3054,3698,(603)424-6204,22,Suburb: Midsize,No,No,Yes,No,1206,98.8,12.2,80,23
330474000602,NH-351-52635135128375,3304740,NH-351,7,8,Merrimack Middle School,Merrimack School District,Hillsborough County,31 Madeline Bennett Ln.,Merrimack,NH,3054,2954,(603)424-6289,41,Rural: Fringe,No,No,Yes,No,559,51,11,51,8
330476000284,NH-352-64635242922195,3304760,NH-352,9,12,Merrimack Valley High School,Merrimack Valley School District,Merrimack County,106 Village St.,Penacook,NH,3303,1953,(603)753-4311,31,Town: Fringe,No,No,Yes,No,819,60,13.7,154,31
330476000506,NH-352-64635242926585,3304760,NH-352,6,8,Merrimack Valley Middle School,Merrimack Valley School District,Merrimack County,14 Allen St.,Penacook,NH,3303,1645,(603)753-6336,31,Town: Fringe,No,No,Yes,No,545,46,11.8,113,29
330330200721,NH-744-640174474429167,3303302,NH-744,KG,8,MicroSociety Academy Charter School Foundation,MicroSociety Academy Charter School of Southern NH,Hillsborough County,591 West Hollis Street,Nashua,NH,3062,1323,(603)595-7877,13,City: Small,Yes,No,Yes,No,213,12.5,17,28,2
330459000255,NH-335-53733533521525,3304590,NH-335,5,8,Middle School At Parkside,Manchester School District,Hillsborough County,75 Parkside Ave.,Manchester,NH,3102,3699,(603)624-6356,12,City: Midsize,No,No,Yes,No,654,60.1,10.9,399,50
330477000725,NH-353-86935335329178,3304770,NH-353,PK,6,Middleton Elementary School,Middleton School District,Strafford County,116 Kings Highway,Middleton,NH,3887,,(603)473-5000,41,Rural: Fringe,No,No,Yes,No,137,13,10.5,43,10
330480000289,NH-355-32035535520760,3304800,NH-355,PK,6,Milan Village Elementary School,Milan School District,Coos County,11 Bridge St.,Milan,NH,3588,9702,(603)449-3306,42,Rural: Distant,No,No,Yes,No,129,9.7,13.3,51,12
330438000230,NH-317-48431731721450,3304380,NH-317,KG,6,Mildred C. Lakeway School,Littleton School District,Grafton County,325 Union St.,Littleton,NH,3561,5619,(603)444-2831,41,Rural: Fringe,No,No,Yes,Yes,348,36.1,9.6,172,15
330483000294,NH-357-54035735721765,3304830,NH-357,9,12,Milford High School,Milford School District,Hillsborough County,100 West St.,Milford,NH,3055,4873,(603)673-4201,22,Suburb: Midsize,No,No,Yes,No,809,64.9,12.5,115,20
330483000293,NH-357-54035735721760,3304830,NH-357,6,8,Milford Middle School,Milford School District,Hillsborough County,33 Osgood Rd.,Milford,NH,3055,4832,(603)673-5221,22,Suburb: Midsize,No,No,Yes,No,563,41,13.7,80,19
330246000056,NH-111-60811111120250,3302460,NH-111,PK,2,Mill Brook School,Concord School District,Merrimack County,53 South Curtisville Road,Concord,NH,3301,,(603)225-0830,31,Town: Fringe,No,No,Yes,Yes,395,29.8,13.3,159,14
330328000699,NH-729-572972929040,3303280,NH-729,KG,6,Mill Falls Charter School,Mill Falls Charter School District,Hillsborough County,100 William Loeb Dr,Manchester,NH,3109,5309,(603)232-5176,12,City: Midsize,Yes,No,Yes,No,168,7,24,26,6
330061600295,NH-359-86435935922075,3300616,NH-359,PK,5,Milton Elementary School,Milton School District,Strafford County,8 School St.,Milton,NH,3851,4524,(603)652-4539,23,Suburb: Small,No,No,Yes,Yes,244,20.6,11.8,77,18
330552000520,NH-423-80542333126660,3305520,NH-423,KG,4,Moharimet School,Oyster River Coop School District,Strafford County,11 Lee Rd.,Madbury,NH,3823,7553,(603)742-2900,41,Rural: Fringe,No,No,–,–,316,26.5,11.9,18,3
330489000301,NH-363-23836352321700,3304890,NH-363,9,12,Monadnock Regional High School,Monadnock Regional School District,Cheshire County,580 Old Homestead Hwy.,E. Swanzey,NH,3446,2308,(603)352-6575,41,Rural: Fringe,No,No,Yes,No,482,38.5,12.5,116,25
330489000061,NH-363-23836352326980,3304890,NH-363,7,8,Monadnock Regional Middle School,Monadnock Regional School District,Cheshire County,580 Old Homestead Hwy.,E. Swanzey,NH,3446,2308,(603)352-6575,41,Rural: Fringe,No,No,Yes,No,225,20.1,11.2,89,13
330492000307,NH-365-47736536520885,3304920,NH-365,PK,8,Monroe Consolidated School,Monroe School District,Grafton County,PO Box 130,Monroe,NH,3771,130,(603)638-2800,42,Rural: Distant,No,No,Yes,No,77,9.8,7.9,20,1
330495000309,NH-367-53936736721790,3304950,NH-367,KG,6,Mont Vernon Village School,Mont Vernon School District,Hillsborough County,PO Box 359,Mont Vernon,NH,3057,98,(603)673-5141,41,Rural: Fringe,No,No,Yes,No,189,18,10.5,11,–
330441000594,NH-319-71231931927905,3304410,NH-319,PK,KG,Moose Hill School,Londonderry School District,Rockingham County,150 Pillsbury Rd.,Londonderry,NH,3053,3224,(603)437-5855,22,Suburb: Midsize,No,No,–,–,349,22.4,15.6,19,–
330496000527,NH-369-14536936922120,3304960,NH-369,9,12,Moultonborough Academy,Moultonborough School District,Carroll County,PO Box 228,Moultonborough,NH,3254,228,(603)476-5517,43,Rural: Remote,No,No,Yes,No,158,20.1,7.9,34,16
330496000147,NH-369-14536936922115,3304960,NH-369,PK,4,Moultonborough Central School,Moultonborough School District,Carroll County,PO Box 149,Moultonborough,NH,3254,149,(603)476-5535,43,Rural: Remote,No,No,Yes,No,252,27.5,9.2,58,13
330496000092,NH-369-14536936926960,3304960,NH-369,5,8,Moultonborough Middle Level,Moultonborough School District,Carroll County,PO Box 228,Moultonborough,NH,3254,288,(603)476-5517,43,Rural: Remote,No,No,Yes,No,73,10.1,7.2,13,4
330324000536,NH-199-51919919926820,3303240,NH-199,5,8,Mountain View Middle School,Goffstown School District,Hillsborough County,41 Lauren Ln.,Goffstown,NH,3045,2935,(603)497-8288,41,Rural: Fringe,No,No,Yes,No,878,68.4,12.8,126,44
330329700715,NH-704-770470429154,3303297,NH-704,1,8,Mountain Village Charter School,Mountain Village Charter School,Grafton County,13 NH Route 25,Plymouth,NH,3264,999,(603)536-3900,41,Rural: Fringe,Yes,No,Yes,No,91,4,22.8,8,9
330489000302,NH-363-23836352321695,3304890,NH-363,PK,2,Mt. Caesar Elementary School,Monadnock Regional School District,Cheshire County,585 Old Homstead Hwy.,E. Swanzey,NH,3446,2309,(603)352-4797,41,Rural: Fringe,No,No,Yes,Yes,267,22,12.1,87,14
330423000220,NH-295-48829529521355,3304230,NH-295,PK,4,Mt. Lebanon School,Lebanon School District,Grafton County,5 White Ave.,W. Lebanon,NH,3784,1498,(603)298-8202,33,Town: Remote,No,No,Yes,No,237,17,13.9,75,13
330498000322,NH-371-54237137121885,3304980,NH-371,PK,5,Mt. Pleasant School,Nashua School District,Hillsborough County,10 Manchester St.,Nashua,NH,3060,2107,(603)966-2400,13,City: Small,No,No,Yes,Yes,359,26.2,13.7,246,29
330299000117,NH-174-96017408922980,3302990,NH-174,1,5,N. Charlestown Community School,Fall Mountain Regional School District,Sullivan County,509 River Rd.,Charlestown,NH,3603,9650,(603)826-3986,41,Rural: Fringe,No,No,Yes,Yes,77,7.6,10.1,32,8
330594000522,NH-461-85446146122660,3305940,NH-461,KG,4,Nancy Loud School,Rochester School District,Strafford County,5 Cocheco Ave.,E. Rochester,NH,3868,5816,(603)332-6486,23,Suburb: Small,No,No,Yes,No,74,6.8,10.9,29,5
330498000598,NH-371-54237137127960,3304980,NH-371,9,12,Nashua High School North,Nashua School District,Hillsborough County,8 Titan Way,Nashua,NH,3063,,(603)966-2500,13,City: Small,No,No,–,–,1701,119.6,14.2,586,110
330498000323,NH-371-54237137121860,3304980,NH-371,9,12,Nashua High School South,Nashua School District,Hillsborough County,36 Riverside Dr.,Nashua,NH,3062,1395,(603)966-1100,13,City: Small,No,No,–,–,1842,136,13.5,566,113
330498000714,NH-371-54237137129152,3304980,NH-371,PK,PK,Nashua Title I Preschool,Nashua School District,Hillsborough County,One Concord St,Nashua,NH,3064,2303,(603)966-1510,13,City: Small,No,No,–,–,42,2.3,18.3,11,–
330501000328,NH-375-22937537521215,3305010,NH-375,KG,5,Nelson Elementary School,Nelson School District,Cheshire County,441 Granite Lake Rd.,Nelson,NH,3457,5116,(603)847-3408,42,Rural: Distant,No,No,Yes,No,74,6.8,10.9,22,4
330504000329,NH-377-51937737720715,3305040,NH-377,PK,6,New Boston Central School,New Boston School District,Hillsborough County,15 Central School Rd.,New Boston,NH,3070,3725,(603)487-2211,41,Rural: Fringe,No,No,Yes,No,556,35,15.9,43,8
330333000148,NH-208-84920838322400,3303330,NH-208,PK,6,New Durham Elementary School,Governor Wentworth Reg School District,Strafford County,PO Box 212,New Durham,NH,3855,2215,(603)859-2061,42,Rural: Distant,No,No,–,–,154,16.4,9.4,33,11
330582000377,NH-449-75244944922525,3305820,NH-449,KG,5,New Franklin School,Portsmouth School District,Rockingham County,1 Franklin Dr.,Portsmouth,NH,3801,3699,(603)436-0910,23,Suburb: Small,No,No,Yes,Yes,259,24.7,10.5,66,3
330522000337,NH-388-00438838920105,3305220,NH-388,KG,5,New Hampton Community School,Newfound Area School District,Belknap County,191 Main St.,New Hampton,NH,3256,4210,(603)744-3221,42,Rural: Distant,No,No,–,–,93,8.8,10.6,28,3
330498000324,NH-371-54237137121845,3304980,NH-371,PK,5,New Searles School,Nashua School District,Hillsborough County,39 Shady Ln.,Nashua,NH,3062,2327,(603)966-3620,13,City: Small,No,No,–,–,380,30,12.7,70,9
330519000331,NH-387-71638738720610,3305190,NH-387,KG,5,Newfields Elementary School,Newfields School District,Rockingham County,9 Piscassic Rd.,Newfields,NH,3856,8206,(603)772-5555,41,Rural: Fringe,No,No,Yes,No,104,10,10.4,4,–
330522000517,NH-388-40438806726680,3305220,NH-388,6,8,Newfound Memorial Middle School,Newfound Area School District,Grafton County,155 N. Main St.,Bristol,NH,3222,1402,(603)744-8162,42,Rural: Distant,No,No,Yes,No,291,27.1,10.7,67,18
330522000336,NH-388-40438806720085,3305220,NH-388,9,12,Newfound Regional High School,Newfound Area School District,Grafton County,150 Newfound Rd.,Bristol,NH,3222,1900,(603)744-6006,42,Rural: Distant,No,No,Yes,No,385,32,12,81,26
330525000339,NH-391-75039139122465,3305250,NH-391,KG,6,Newington Public School,Newington School District,Rockingham County,133 Nimble Hill Rd.,Newington,NH,3801,2799,(603)436-1482,41,Rural: Fringe,No,No,Yes,No,52,5.7,9.1,5,–
330528000340,NH-399-73139939921300,3305280,NH-399,PK,5,Newmarket Elementary School,Newmarket School District,Rockingham County,243 S. Main St.,Newmarket,NH,3857,1800,(603)659-2192,23,Suburb: Small,No,No,Yes,No,538,40,13.5,111,7
330528000542,NH-399-73139939926560,3305280,NH-399,6,8,Newmarket Jr.-Sr. High (Elem),Newmarket School District,Rockingham County,213 S. Main St.,Newmarket,NH,3857,1898,(603)659-3271,23,Suburb: Small,No,No,–,–,230,21,11,39,3
330528000518,NH-399-73139939923115,3305280,NH-399,9,13,Newmarket Jr.-Sr. High School,Newmarket School District,Rockingham County,213 S. Main St.,Newmarket,NH,3857,1898,(603)659-3271,23,Suburb: Small,No,No,Yes,No,291,26,11.2,38,10
330531000342,NH-401-94340140121985,3305310,NH-401,9,13,Newport Middle High School (High),Newport School District,Sullivan County,245 N. Main St.,Newport,NH,3773,3027,(603)863-2414,41,Rural: Fringe,No,No,Yes,No,325,29.2,11.1,129,12
330531000093,NH-401-94340140126970,3305310,NH-401,6,8,Newport Middle School,Newport School District,Sullivan County,245 N. Main St.,Newport,NH,3773,3027,(603)863-2414,41,Rural: Fringe,No,No,Yes,Yes,198,19.3,10.3,94,12
330329100707,NH-740-774074029105,3303291,NH-740,9,12,Next Charter School,Next Charter School District,Rockingham County,5 Hood Road,Derry,NH,3038,2012,(603)437-6398,22,Suburb: Midsize,Yes,No,Yes,No,70,6.5,10.8,16,2
330003000605,NH-703-470370328395,3300030,NH-703,9,12,North Country Charter Academy (H),North Country Charter Academy,Grafton County,260 Cottage St. Suite A,Littleton,NH,3561,4137,(603)444-1535,33,Town: Remote,Yes,No,Yes,No,39,3.6,10.8,30,1
330003000613,NH-703-470370328505,3300030,NH-703,8,8,North Country Charter Academy (M),North Country Charter Academy,Grafton County,260 Cottage St. Suite A,Littleton,NH,3561,4137,(603)444-1535,33,Town: Remote,Yes,No,Yes,No,2,0.1,20,†,†
330003000738,NH-703-440170370329223,3300030,NH-703,9,12,North Country Charter Academy Lancaster (H),North Country Charter Academy,†,4 Mayberry Lane,Lancaster,NH,3584,,(603)788-2805,†,N,Yes,†,†,†,†,†,†,†,†
330003000737,NH-703-440170370329222,3300030,NH-703,7,8,North Country Charter Academy Lancaster (M),North Country Charter Academy,†,4 Mayberry Lane,Lancaster,NH,3584,,(603)788-2805,†,N,Yes,†,†,†,†,†,†,†,†
330537000345,NH-405-72140540520805,3305370,NH-405,PK,8,North Hampton School,North Hampton School District,Rockingham County,201 Atlantic Ave.,North Hampton,NH,3862,2342,(603)964-5501,41,Rural: Fringe,No,No,Yes,No,341,39,8.7,23,4
330441000234,NH-319-71231931920470,3304410,NH-319,1,5,North Londonderry Elementary School,Londonderry School District,Rockingham County,19 Sanborn Rd.,Londonderry,NH,3053,2318,(603)432-6933,41,Rural: Fringe,No,No,–,–,490,35,14,42,12
330606000406,NH-473-75747347322890,3306060,NH-473,KG,5,North Salem Elementary School,Salem School District,Rockingham County,140 Zion Hill Rd.,Salem,NH,3079,1520,(603)893-7062,21,Suburb: Large,No,No,Yes,No,362,27.5,13.2,45,9
330299000118,NH-174-26017454523005,3302990,NH-174,2,4,North Walpole School,Fall Mountain Regional School District,Cheshire County,17 Cray Rd.,North Walpole,NH,3609,1118,(603)445-5450,32,Town: Distant,No,No,–,–,80,7.3,11,21,2
330459000505,NH-335-53733533526435,3304590,NH-335,KG,4,Northwest Elementary School,Manchester School District,Hillsborough County,300 Youville St.,Manchester,NH,3102,2700,(603)624-6321,12,City: Midsize,No,No,Yes,Yes,686,44.4,15.5,378,39
330543000348,NH-411-74441141122085,3305430,NH-411,KG,8,Northwood Elementary School,Northwood School District,Rockingham County,511 First NH Tpke.,Northwood,NH,3261,3411,(603)942-5488,42,Rural: Distant,No,No,Yes,No,370,30,12.3,75,12
330546000349,NH-413-74441341322095,3305460,NH-413,KG,8,Nottingham Elementary School,Nottingham School District,Rockingham County,245 Stage Rd.,Nottingham,NH,3290,6206,(603)679-5632,42,Rural: Distant,No,No,Yes,No,503,40,12.6,40,7
330393000513,NH-267-58126726726765,3303930,NH-267,2,5,Nottingham West Elementary School,Hudson School District,Hillsborough County,10 Pelham Rd.,Hudson,NH,3051,4830,(603)595-1570,22,Suburb: Midsize,No,No,Yes,No,531,35,15.2,92,16
330061600544,NH-359-86435935922070,3300616,NH-359,9,12,Nute High School,Milton School District,Strafford County,22 Elm St.,Milton,NH,3851,4503,(603)652-4591,23,Suburb: Small,No,No,Yes,No,153,14.8,10.3,43,2
330061600296,NH-359-86435935926540,3300616,NH-359,6,8,Nute Junior High School,Milton School District,Strafford County,22 Elm St.,Milton,NH,3851,4503,(603)652-4591,23,Suburb: Small,No,No,Yes,Yes,117,11.2,10.4,38,7
330333000149,NH-208-14920841922405,3303330,NH-208,PK,6,Ossipee Central School,Governor Wentworth Reg School District,Carroll County,PO Box 68,Ctr. Ossipee,NH,3814,68,(603)539-4589,42,Rural: Distant,No,No,Yes,Yes,317,36.8,8.6,175,22
330552000354,NH-423-80542315122800,3305520,NH-423,9,12,Oyster River High School,Oyster River Coop School District,Strafford County,55 Coe Dr.,Durham,NH,3824,2232,(603)868-2375,23,Suburb: Small,No,No,Yes,No,809,65.5,12.4,36,10
330552000355,NH-423-80542315122790,3305520,NH-423,5,8,Oyster River Middle School,Oyster River Coop School District,Strafford County,1 Coe Dr.,Durham,NH,3824,2248,(603)868-2155,23,Suburb: Small,No,No,Yes,No,667,61.6,10.8,38,5
330552000735,NH-423-80542315129210,3305520,NH-423,PK,PK,Oyster River Preschool Education Program,Oyster River Coop School District,Strafford County,55 Coe Dr.,Durham,NH,3824,2232,(603)868-2375,23,Suburb: Small,No,No,Yes,No,33,2,16.5,3,†
330329200701,NH-728-65342742729035,3303292,NH-728,9,12,PACE Career Academy Charter School,PACE Career Academy Charter School,Merrimack County,716 Riverwood Drive,Pembroke,NH,3275,3700,(603)210-1882,41,Rural: Fringe,Yes,No,Yes,No,43,5,8.6,9,20
330459000254,NH-335-53733533521540,3304590,NH-335,PK,4,Parker-Varney School,Manchester School District,Hillsborough County,223 James Pollack Dr.,Manchester,NH,3102,4900,(603)624-6338,12,City: Midsize,No,No,Yes,Yes,551,31.7,17.4,321,32
330309000130,NH-185-61818518520650,3303090,NH-185,PK,3,Paul A. Smith School,Franklin School District,Merrimack County,41 Daniel Webster Dr.,W. Franklin,NH,3235,1039,(603)934-4144,32,Town: Distant,No,No,Yes,Yes,289,26,11.1,173,9
330678000442,NH-543-16454354322110,3306780,NH-543,PK,8,Paul Elementary School,Wakefield School District,Carroll County,60 Taylor Way,Sanbornville,NH,3872,4350,(603)522-8891,42,Rural: Distant,No,No,Yes,No,470,36,13.1,176,26
330582000547,NH-449-75244944922560,3305820,NH-449,PK,PK,PEEP School - Pre School Program,Portsmouth School District,Rockingham County,100 Campus Dr.,Portsmouth,NH,3801,5892,(603)422-8228,23,Suburb: Small,No,No,Yes,No,14,1.8,7.8,4,–
330555000600,NH-425-52842542527970,3305550,NH-425,PK,5,Pelham Elementary School,Pelham School District,Hillsborough County,61 Marsh Rd.,Pelham,NH,3076,,(603)635-8875,21,Suburb: Large,No,No,Yes,No,772,51.5,15,81,25
330555000358,NH-425-52842542521105,3305550,NH-425,9,12,Pelham High School,Pelham School District,Hillsborough County,85 Marsh Rd.,Pelham,NH,3076,3159,(603)635-2115,21,Suburb: Large,No,No,Yes,No,617,50.6,12.2,34,22
330555000357,NH-425-52842542521110,3305550,NH-425,6,8,Pelham Memorial School,Pelham School District,Hillsborough County,59 Marsh Rd.,Pelham,NH,3076,3160,(603)635-2321,21,Suburb: Large,No,No,–,–,489,36.5,13.4,32,14
330558000359,NH-427-65342742722620,3305580,NH-427,9,12,Pembroke Academy,Pembroke School District,Merrimack County,209 Academy Rd.,Pembroke,NH,3275,1343,(603)485-7881,22,Suburb: Midsize,No,No,Yes,No,760,56.5,13.5,111,28
330558000361,NH-427-65342742722615,3305580,NH-427,KG,4,Pembroke Hill School,Pembroke School District,Merrimack County,300 Belanger Dr.,Pembroke,NH,3275,3202,(603)485-9000,41,Rural: Fringe,No,No,Yes,No,187,19,9.8,43,8
330476000283,NH-352-64635242922185,3304760,NH-352,PK,5,Penacook Elementary School,Merrimack Valley School District,Merrimack County,60 Village St.,Penacook,NH,3303,,(603)753-4891,31,Town: Fringe,No,No,Yes,Yes,352,32.9,10.7,98,15
330498000325,NH-371-54237137121825,3304980,NH-371,6,8,Pennichuck Middle School,Nashua School District,Hillsborough County,207 Manchester St.,Nashua,NH,3060,8112,(603)966-4140,13,City: Small,No,No,Yes,No,627,52,12.1,276,60
330174000019,NH-041-52504104121000,3301740,NH-041,KG,4,Peter Woodbury School,Bedford School District,Hillsborough County,180 County Rd.,Bedford,NH,3110,6208,(603)622-0431,22,Suburb: Midsize,No,No,–,–,533,35.5,15,20,1
330248000072,NH-112-50111243122310,3302480,NH-112,PK,4,Peterborough Elementary School,Contoocook Valley School District,Hillsborough County,17 High St.,Peterborough,NH,3458,2404,(603)924-3828,31,Town: Fringe,No,No,Yes,Yes,269,29.8,9,74,15
330248000074,NH-112-50111204522225,3302480,NH-112,KG,4,Pierce Elementary School,Contoocook Valley School District,Hillsborough County,PO Box 149,Bennington,NH,3442,149,(603)588-2131,42,Rural: Distant,No,No,Yes,Yes,77,7.9,9.7,22,4
330567000362,NH-435-42343543520895,3305670,NH-435,PK,8,Piermont Village School,Piermont School District,Grafton County,PO Box 98,Piermont,NH,3779,98,(603)272-5881,43,Rural: Remote,No,No,Yes,No,62,7.6,8.2,6,3
330249000079,NH-113-10911311320330,3302490,NH-113,KG,6,Pine Tree Elementary School,Conway School District,Carroll County,183 Mill St.,Ctr. Conway,NH,3813,4407,(603)447-2882,41,Rural: Fringe,No,No,Yes,Yes,267,21.9,12.2,79,23
330736000510,NH-999-720299913520395,3307360,NH-999,9,13,Pinkerton Academy,Pinkerton Academy School District,Rockingham County,5 Pinkerton St.,Derry,NH,3038,1501,(603)437-5200,22,Suburb: Midsize,No,No,Yes,No,3230,242.8,13.3,327,63
330570000363,NH-437-30743743720205,3305700,NH-437,PK,8,Pittsburg School (Elem),Pittsburg School District,Coos County,12 School St,Pittsburg,NH,3592,9720,(603)538-6536,43,Rural: Remote,No,No,Yes,No,54,8.7,6.2,20,5
330570000528,NH-437-30743743726500,3305700,NH-437,9,12,Pittsburg School (High),Pittsburg School District,Coos County,12 School St,Pittsburg,NH,3592,9720,(603)538-6536,43,Rural: Remote,No,No,Yes,No,29,7.6,3.8,9,2
330573000509,NH-439-65143943926595,3305730,NH-439,PK,6,Pittsfield Elementary School,Pittsfield School District,Merrimack County,34 Bow St.,Pittsfield,NH,3263,3405,(603)435-8432,42,Rural: Distant,No,No,Yes,Yes,328,30,10.9,158,14
330573000366,NH-439-65143943922500,3305730,NH-439,9,12,Pittsfield High School,Pittsfield School District,Merrimack County,23 Oneida St.,Pittsfield,NH,3263,3403,(603)435-6701,42,Rural: Distant,No,No,Yes,No,154,18,8.6,64,11
330573000539,NH-439-65143943926550,3305730,NH-439,7,8,Pittsfield Middle School,Pittsfield School District,Merrimack County,23 Oneida St.,Pittsfield,NH,3263,3403,(603)435-6701,42,Rural: Distant,No,No,Yes,No,91,8.4,10.8,47,6
330576000368,NH-441-93244144121375,3305760,NH-441,KG,8,Plainfield Elementary School,Plainfield School District,Sullivan County,92 Bonner Rd.,Meriden,NH,3770,7701,(603)469-3250,42,Rural: Distant,No,No,Yes,No,208,17,12.2,21,2
330414000212,NH-285-03028528521260,3304140,NH-285,PK,5,Pleasant Street School,Laconia School District,Belknap County,350 Pleasant St.,Laconia,NH,3246,3099,(603)524-2168,32,Town: Distant,No,No,Yes,Yes,299,23,13,134,21
330579000370,NH-447-44844744722355,3305790,NH-447,PK,8,Plymouth Elementary School,Plymouth School District,Grafton County,43 Old Ward Brg. Rd.,Plymouth,NH,3264,1238,(603)536-1152,41,Rural: Fringe,No,No,Yes,Yes,418,40.4,10.3,134,22
339996500369,NH-428-44842844722350,3399965,NH-428,9,12,Plymouth Regional High School,Pemi-baker Regional School District,Grafton County,86 Old Ward Brg. Rd.,Plymouth,NH,3264,1299,(603)536-1444,41,Rural: Fringe,No,No,Yes,No,664,50.8,13.1,150,58
330329000706,NH-735-40173529065,3303290,NH-735,1,6,Polaris Charter School,Polaris Charter School,Hillsborough County,100 Coolidge Ave,Manchester,NH,3102,3208,(603)634-0034,12,City: Midsize,Yes,No,Yes,No,111,7.6,14.6,22,–
330672000436,NH-534-75553444322765,3306720,NH-534,PK,5,Pollard Elementary School,Timberlane Regional School District,Rockingham County,120 Main St.,Plaistow,NH,3865,3014,(603)382-7146,21,Suburb: Large,No,No,Yes,No,471,39,12.1,62,23
330582000379,NH-449-75244944922565,3305820,NH-449,9,12,Portsmouth High School,Portsmouth School District,Rockingham County,50 Andrew Jarvis Dr.,Portsmouth,NH,3801,5474,(603)436-7100,23,Suburb: Small,No,No,Yes,No,1127,86.9,13,126,18
330582000378,NH-449-75244944922510,3305820,NH-449,6,8,Portsmouth Middle School,Portsmouth School District,Rockingham County,155 Parrott Ave.,Portsmouth,NH,3801,4498,(603)436-5781,23,Suburb: Small,No,No,Yes,No,531,49.8,10.7,93,17
330583000097,NH-450-43545005326990,3305830,NH-450,7,8,Profile Junior High School,Profile School District,Grafton County,691 Profile Rd.,Bethlehem,NH,3574,5803,(603)823-7411,41,Rural: Fringe,No,No,Yes,No,92,8.7,10.6,20,1
330583000382,NH-450-43545005321395,3305830,NH-450,9,12,Profile Senior High School,Profile School District,Grafton County,691 Profile Rd.,Bethlehem,NH,3574,5803,(603)823-7411,41,Rural: Fringe,No,No,Yes,No,134,17.4,7.7,27,3
330004900619,NH-970-030197097028215,3300049,NH-970,9,12,Prospect Mountain High School,Prospect Mountain School District,Belknap County,242 Suncook Valley Rd.,Alton,NH,3809,4629,(603)875-3800,42,Rural: Distant,No,No,Yes,No,463,43.6,10.6,79,9
330498000682,NH-371-54237137128610,3304980,NH-371,PK,PK,Purple Panthers Preschool,Nashua School District,Hillsborough County,36 Riverside Dr.,Nashua,NH,3060,1395,(603)966-1141,13,City: Small,No,No,–,–,30,1,30,3,†
330588000385,NH-453-73345345321390,3305880,NH-453,9,13,Raymond High School,Raymond School District,Rockingham County,45 Harriman Hill Rd.,Raymond,NH,3077,1509,(603)895-6616,21,Suburb: Large,No,No,Yes,No,367,33.5,11,55,13
330474000279,NH-351-52635135121015,3304740,NH-351,PK,4,Reeds Ferry School,Merrimack School District,Hillsborough County,15 Lyons Rd.,Merrimack,NH,3054,2821,(603)424-6215,22,Suburb: Midsize,No,No,Yes,No,485,38,12.8,59,14
330207000031,NH-071-54107107121800,3302070,NH-071,PK,3,Richard Maghakian Memorial School,Brookline School District,Hillsborough County,PO Box 68,Brookline,NH,3033,68,(603)673-4640,41,Rural: Fringe,No,No,–,–,329,26.7,12.3,11,3
330531000343,NH-401-94340140121995,3305310,NH-401,PK,5,Richards Elementary School,Newport School District,Sullivan County,21 School St.,Newport,NH,3773,1429,(603)863-3710,33,Town: Remote,No,No,Yes,Yes,439,35,12.5,242,27
330174000580,NH-041-52504104127680,3301740,NH-041,KG,4,Riddle Brook School,Bedford School District,Hillsborough County,230 New Boston Rd.,Bedford,NH,3110,4318,(603)471-1082,22,Suburb: Midsize,No,No,–,–,577,40.5,14.2,7,2
330403000191,NH-274-24727445922320,3304030,NH-274,PK,5,Rindge Memorial School,Jaffrey-Rindge Coop School District,Cheshire County,58 School St.,Rindge,NH,3461,9568,(603)899-3363,41,Rural: Fringe,No,No,–,–,380,35,10.9,72,22
330328700703,NH-737-40173729070,3303287,NH-737,KG,8,Robert Frost Charter School,Robert Frost Charter School,Carroll County,PO Box 1038,Conway,NH,3818,1038,(603)356-6332,41,Rural: Fringe,Yes,No,Yes,No,40,4,10,11,8
330594000395,NH-461-85446146122705,3305940,NH-461,6,8,Rochester Middle School,Rochester School District,Strafford County,47 Brock St.,Rochester,NH,3867,4404,(603)332-4090,23,Suburb: Small,No,No,Yes,Yes,922,79,11.7,352,45
330597000396,NH-463-85646346322810,3305970,NH-463,KG,6,Rollinsford Grade School,Rollinsford School District,Strafford County,487 Locust St.,Rollinsford,NH,3869,5631,(603)742-2351,23,Suburb: Small,No,No,Yes,No,156,12.7,12.3,22,3
330174000681,NH-041-52504104128560,3301740,NH-041,7,8,Ross A. Lurgio Middle School,Bedford School District,Hillsborough County,47A Nashua Rd.,Bedford,NH,3110,5527,(603)310-9100,22,Suburb: Midsize,No,No,Yes,No,731,61.4,11.9,35,8
330246000063,NH-111-60811111120270,3302460,NH-111,6,8,Rundlett Middle School,Concord School District,Merrimack County,144 South St.,Concord,NH,3301,2398,(603)225-0862,31,Town: Fringe,No,No,Yes,No,953,68.9,13.8,344,48
330600000397,NH-467-44846746722375,3306000,NH-467,KG,8,Russell Elementary School,Rumney School District,Grafton County,195 School St.,Rumney,NH,3266,3413,(603)786-9591,42,Rural: Distant,No,No,Yes,Yes,114,15.9,7.2,30,16
330603000398,NH-471-75047147122475,3306030,NH-471,PK,4,Rye Elementary School,Rye School District,Rockingham County,461 Sagamore Rd.,Rye,NH,3870,2028,(603)436-4731,23,Suburb: Small,No,No,–,–,272,25.8,10.5,11,–
330603000399,NH-471-75047147122470,3306030,NH-471,5,8,Rye Junior High School,Rye School District,Rockingham County,501 Washington Rd.,Rye,NH,3870,2315,(603)964-5591,23,Suburb: Small,No,No,–,–,127,16.4,7.7,11,–
330606000407,NH-473-75747347322880,3306060,NH-473,9,12,Salem High School,Salem School District,Rockingham County,44 Geremonty Dr.,Salem,NH,3079,3389,(603)893-7069,21,Suburb: Large,No,No,Yes,No,1160,101.8,11.4,87,–
330606000740,NH-473-75747347329225,3306060,NH-473,PK,PK,Salem Preschool,Salem School District,†,24 School Street,Salem,NH,3079,1,(603)893-7064,†,N,No,†,†,†,†,†,†,†,†
330476000285,NH-352-64635247522200,3304760,NH-352,KG,5,Salisbury Elementary School,Merrimack Valley School District,Merrimack County,6 Whittemore Rd.,Salisbury,NH,3268,59,(603)648-2206,42,Rural: Distant,No,No,–,–,80,7.4,10.8,6,3
330608000479,NH-476-71747628320620,3306080,NH-476,9,12,Sanborn Regional High School,Sanborn Regional School District,Rockingham County,17 Danville Rd.,Kingston,NH,3848,3405,(603)642-3341,21,Suburb: Large,No,No,Yes,No,670,54,12.4,65,9
330608000476,NH-476-71747640320630,3306080,NH-476,6,8,Sanborn Regional Middle School,Sanborn Regional School District,Rockingham County,31A West Main St.,Newton,NH,3858,3532,(603)382-6226,21,Suburb: Large,No,No,Yes,No,308,28.5,10.8,38,6
330730000464,NH-582-05958247722925,3307300,NH-582,KG,5,Sanbornton Central School,Winnisquam Regional School District,Belknap County,16 Hunkins Pond Rd.,Sanbornton,NH,3269,2425,(603)286-8223,41,Rural: Fringe,No,No,–,–,199,15.1,13.2,45,6
330672000438,NH-534-75553447922775,3306720,NH-534,PK,KG,Sandown Central School,Timberlane Regional School District,Rockingham County,295 Main St.,Sandown,NH,3873,2613,(603)887-3648,21,Suburb: Large,No,No,–,–,160,8,20,19,1
330672000596,NH-534-75553447927910,3306720,NH-534,1,5,Sandown North Elementary School,Timberlane Regional School District,Rockingham County,23 Stagecoach Rd.,Sandown,NH,3873,2123,(603)887-8505,41,Rural: Fringe,No,No,Yes,No,331,29,11.4,39,9
330396000183,NH-269-10226948320040,3303960,NH-269,KG,6,Sandwich Central School,Inter-lakes School District,Carroll County,28 Squam Lake Rd.,Ctr. Sandwich,NH,3227,9717,(603)284-7712,43,Rural: Remote,No,No,Yes,No,78,7.4,10.5,14,3
330299000119,NH-174-96017429322995,3302990,NH-174,1,4,Sarah Porter School,Fall Mountain Regional School District,Sullivan County,111 Village Rd.,Langdon,NH,3602,9619,(603)835-2260,42,Rural: Distant,No,No,–,–,18,2.8,6.4,4,2
330594000393,NH-461-85446146122720,3305940,NH-461,KG,4,School Street School,Rochester School District,Strafford County,13 School St.,Rochester,NH,3867,2824,(603)332-6483,23,Suburb: Small,No,No,Yes,Yes,79,6.7,11.8,45,2
330615000410,NH-485-72148548520810,3306150,NH-485,PK,4,Seabrook Elementary School,Seabrook School District,Rockingham County,256 Walton Rd.,Seabrook,NH,3874,4574,(603)474-2252,21,Suburb: Large,No,No,Yes,Yes,409,31,13.2,133,24
330615000601,NH-485-72148548527995,3306150,NH-485,5,8,Seabrook Middle School,Seabrook School District,Rockingham County,256 Walton Rd.,Seabrook,NH,3874,4574,(603)474-9221,21,Suburb: Large,No,No,Yes,No,305,27.5,11.1,102,17
330003100606,NH-705-770570528400,3300031,NH-705,KG,8,Seacoast Charter School,Seacoast Charter School,Strafford County,171 Watson Road,Dover,NH,3820,5820,(603)842-5764,23,Suburb: Small,Yes,No,Yes,No,299,19,15.7,18,10
330404000197,NH-276-66527654722020,3304040,NH-276,KG,5,Simonds Elementary School,Kearsarge Regional School District,Merrimack County,PO Box 250,Warner,NH,3278,250,(603)456-2241,42,Rural: Distant,No,No,Yes,No,162,17.6,9.2,47,4
330459000257,NH-335-53733533521605,3304590,NH-335,PK,5,Smyth Road School,Manchester School District,Hillsborough County,245 Bruce Rd.,Manchester,NH,3104,3499,(603)624-6340,12,City: Midsize,No,No,–,–,420,28.8,14.6,181,15
330624000418,NH-491-85649149122845,3306240,NH-491,9,13,Somersworth High School,Somersworth School District,Strafford County,11 Memorial Dr.,Somersworth,NH,3878,1897,(603)692-2431,23,Suburb: Small,No,No,Yes,No,413,40,10.3,124,20
330624000420,NH-491-85649149122830,3306240,NH-491,6,8,Somersworth Middle School,Somersworth School District,Strafford County,7 Memorial Dr.,Somersworth,NH,3878,1896,(603)692-2126,23,Suburb: Small,No,No,Yes,Yes,338,29.3,11.5,142,28
330626000034,NH-493-53949301726860,3306260,NH-493,9,12,Souhegan Coop High School,Souhegan Cooperative School District,Hillsborough County,PO Box 1152,Amherst,NH,3031,1152,(603)673-9940,22,Suburb: Midsize,No,No,Yes,No,740,70.8,10.5,25,10
330627000422,NH-495-72149549520815,3306270,NH-495,KG,8,South Hampton Barnard School,South Hampton School District,Rockingham County,219 Main Ave.,South Hampton,NH,3827,3527,(603)394-7744,41,Rural: Fringe,No,No,Yes,No,82,8,10.3,0,0
330441000473,NH-319-71231931920475,3304410,NH-319,1,5,South Londonderry Elementary School,Londonderry School District,Rockingham County,88 South Rd.,Londonderry,NH,3053,4083,(603)432-6956,22,Suburb: Midsize,No,No,Yes,No,478,37,12.9,81,8
330248000073,NH-112-50111243122295,3302480,NH-112,5,8,South Meadow School,Contoocook Valley School District,Hillsborough County,108 Hancock Rd.,Peterborough,NH,3458,1197,(603)924-7105,41,Rural: Fringe,No,No,–,–,399,35,11.4,98,19
330261000087,NH-131-71013113720405,3302610,NH-131,KG,5,South Range Elementary School,Derry School District,Rockingham County,1 Drury Ln.,Derry,NH,3038,7100,(603)432-1219,22,Suburb: Midsize,No,No,Yes,No,313,26,12,51,17
330459000258,NH-335-53733533521575,3304590,NH-335,6,8,Southside Middle School,Manchester School District,Hillsborough County,300 South Jewett St.,Manchester,NH,3103,3898,(603)624-6359,12,City: Midsize,No,No,–,–,741,63.5,11.7,410,53
330730000204,NH-582-65958240427070,3307300,NH-582,3,5,Southwick School,Winnisquam Regional School District,Merrimack County,50 Zion Hill Rd.,Northfield,NH,3276,4021,(603)286-3611,41,Rural: Fringe,No,No,Yes,Yes,211,16.9,12.5,79,11
330331500736,NH-714-40171429221,3303315,NH-714,9,9,Spark Academy of Advanced Technologies Charter School,Spark Academy of Advanced Technologies,†,5 Perimeter Road,Manchester,NH,3103,3305,(603)316-1170,†,N,Yes,†,†,†,†,†,†,†,†
330594000394,NH-461-85446146122700,3305940,NH-461,9,12,Spaulding High School,Rochester School District,Strafford County,130 Wakefield St.,Rochester,NH,3867,1399,(603)332-0757,23,Suburb: Small,No,No,–,–,1367,105,13,429,55
330633000423,NH-499-35849949922910,3306330,NH-499,KG,6,Stark Village School,Stark School District,Coos County,1192 Stark Hwy.,Stark,NH,3582,9739,(603)636-1092,43,Rural: Remote,No,No,Yes,No,26,3.6,7.2,9,–
330234000045,NH-101-90610110120140,3302340,NH-101,9,13,Stevens High School,Claremont School District,Sullivan County,175 Broad St.,Claremont,NH,3743,2628,(603)543-4220,33,Town: Remote,No,No,Yes,No,541,37,14.6,193,13
330636000579,NH-501-30750150127560,3306360,NH-501,PK,8,Stewartstown Community School,Stewartstown School District,Coos County,PO Box 120,W. Stewartstown,NH,3597,120,(603)246-7082,43,Rural: Remote,No,No,Yes,Yes,70,9.2,7.6,38,3
330642000427,NH-507-84450750722100,3306420,NH-507,KG,8,Strafford School,Strafford School District,Strafford County,22 Roller Coaster Rd.,Strafford,NH,3884,6662,(603)664-2842,42,Rural: Distant,No,No,Yes,No,411,33,12.5,42,15
330645000428,NH-509-35850950922915,3306450,NH-509,PK,8,Stratford Public School,Stratford School District,Coos County,19 School St.,North Stratford,NH,3590,9701,(603)922-3387,43,Rural: Remote,No,No,Yes,Yes,66,10.7,6.2,48,5
330648000429,NH-511-71651151120615,3306480,NH-511,PK,5,Stratham Memorial School,Stratham School District,Rockingham County,39 Gifford Farm Rd.,Stratham,NH,3885,2277,(603)772-5413,23,Suburb: Small,No,No,Yes,No,559,41.3,13.5,19,2
330004200683,NH-721-672172128570,3300042,NH-721,1,8,Strong Foundations Charter School,Strong Foundations Charter School,Merrimack County,715 Riverwood Dr.,Pembroke,NH,3275,3701,(603)225-2715,41,Rural: Fringe,Yes,No,Yes,No,269,26,10.3,48,7
330654000430,NH-515-98551551522005,3306540,NH-515,KG,5,Sunapee Central School,Sunapee School District,Sullivan County,22 School St.,Sunapee,NH,3782,2924,(603)763-5675,41,Rural: Fringe,No,No,Yes,No,148,18.7,7.9,28,1
330654000101,NH-515-98551551526965,3306540,NH-515,6,8,Sunapee Middle High School,Sunapee School District,Sullivan County,10 North Rd.,Sunapee,NH,3782,2805,(603)763-5615,41,Rural: Fringe,No,No,Yes,No,109,10.1,10.8,18,1
330654000431,NH-515-98551551522000,3306540,NH-515,9,13,Sunapee Sr. High School,Sunapee School District,Sullivan County,10 North Rd.,Sunapee,NH,3782,2805,(603)763-5615,41,Rural: Fringe,No,No,Yes,No,143,14.9,9.6,16,–
330498000326,NH-371-54237137121850,3304980,NH-371,KG,5,Sunset Heights School,Nashua School District,Hillsborough County,15 Osgood Rd.,Nashua,NH,3060,5310,(603)966-3680,13,City: Small,No,No,–,–,399,30,13.3,129,31
330003900617,NH-717-271771728515,3300039,NH-717,KG,8,Surry Village Charter School,Surry Village Charter School,Cheshire County,449 Route 12A,Surry,NH,3431,8106,(603)357-9700,41,Rural: Fringe,Yes,No,Yes,No,90,6.4,14.1,19,1
330404000198,NH-276-66527652122010,3304040,NH-276,KG,5,Sutton Central Elementary School,Kearsarge Regional School District,Merrimack County,RFD1 Box 159,Sutton Mills,NH,3221,9309,(603)927-4215,42,Rural: Distant,No,No,Yes,No,95,9.5,10,23,7
330201000030,NH-063-71606306320555,3302010,NH-063,PK,5,Swasey Central School,Brentwood School District,Rockingham County,355 Middle Rd.,Brentwood,NH,3833,6012,(603)642-3487,41,Rural: Fringe,No,No,Yes,No,308,24.2,12.7,18,2
330405000206,NH-279-22927927921170,3304050,NH-279,KG,5,Symonds Elementary School,Keene School District,Cheshire County,79 Park Ave.,Keene,NH,3431,2399,(603)352-3405,32,Town: Distant,No,No,–,–,326,26.3,12.4,70,11
330248000075,NH-112-50111252722330,3302480,NH-112,KG,4,Temple Elementary School,Contoocook Valley School District,Hillsborough County,830 NH Route 45,Temple,NH,3084,203,(603)878-1955,41,Rural: Fringe,No,No,–,–,48,4.4,10.9,4,3
330328600704,NH-731-40173129055,3303286,NH-731,KG,8,The Birches Academy of Academics - Art A Public Charter Sch,The Birches Academy for Academics & Art:A Public Charter Sch,Rockingham County,419 South Broadway 2nd Floor,Salem,NH,3079,4323,(603)458-6399,21,Suburb: Large,Yes,No,Yes,No,222,14,15.9,9,6
330329800713,NH-741-774174129150,3303298,NH-741,6,8,The Founders Academy Charter School (E),The Founders Academy Charter School District,Hillsborough County,5 Perimeter Rd,Manchester,NH,3103,3305,(603)952-4705,12,City: Midsize,Yes,No,Yes,No,221,18,12.3,23,–
330329800717,NH-741-540174174129149,3303298,NH-741,9,12,The Founders Academy Charter School (H),The Founders Academy Charter School District,Hillsborough County,5 Perimeter Rd,Manchester,NH,3103,3305,(603)952-4705,12,City: Midsize,Yes,No,Yes,No,116,13,8.9,5,–
330666000433,NH-531-44853153122380,3306660,NH-531,KG,8,Thornton Central School,Thornton School District,Grafton County,1886 NH Rte. 175,Thornton,NH,3285,,(603)726-8904,42,Rural: Distant,No,No,Yes,Yes,215,22,9.8,63,13
330474000280,NH-351-52635135121035,3304740,NH-351,PK,4,Thorntons Ferry School,Merrimack School District,Hillsborough County,134 Camp Sargent Rd.,Merrimack,NH,3054,4700,(603)889-1577,22,Suburb: Midsize,No,No,–,–,528,38,13.9,43,7
330558000042,NH-427-65342742726925,3305580,NH-427,5,8,Three Rivers School,Pembroke School District,Merrimack County,243 Academy Rd.,Pembroke,NH,3275,1343,(603)485-9539,22,Suburb: Midsize,No,No,Yes,No,357,33,10.8,57,23
330672000439,NH-534-75553444322770,3306720,NH-534,9,12,Timberlane Regional High School,Timberlane Regional School District,Rockingham County,36 Greenough Rd.,Plaistow,NH,3865,2799,(603)382-6541,21,Suburb: Large,No,No,Yes,No,1100,95.6,11.5,86,30
330672000440,NH-534-75553444322760,3306720,NH-534,6,8,Timberlane Regional Middle School,Timberlane Regional School District,Rockingham County,44 Greenough Rd.,Plaistow,NH,3865,2798,(603)382-7131,21,Suburb: Large,No,No,Yes,No,809,75.6,10.7,99,22
330489000305,NH-363-23836353521725,3304890,NH-363,PK,6,Troy Elementary School,Monadnock Regional School District,Cheshire County,44 School St.,Troy,NH,3465,2130,(603)242-7741,42,Rural: Distant,No,No,Yes,Yes,185,13.6,13.6,69,17
330333000150,NH-208-14920853722410,3303330,NH-208,KG,6,Tuftonboro Central School,Governor Wentworth Reg School District,Carroll County,PO Box 118,Ctr. Tuftonboro,NH,3816,118,(603)569-2050,42,Rural: Distant,No,No,–,–,123,12.3,10,40,6
330730000467,NH-582-05958253222945,3307300,NH-582,PK,2,Union Sanborn School,Winnisquam Regional School District,Merrimack County,5 Elm St.,Northfield,NH,3276,1560,(603)286-4332,32,Town: Distant,No,No,Yes,Yes,235,18.2,12.9,91,8
330675000441,NH-539-90653953920180,3306750,NH-539,PK,8,Unity Elementary School,Unity School District,Sullivan County,864 2nd NH Tpke.,Newport,NH,3773,8502,(603)542-5888,42,Rural: Distant,No,No,Yes,No,92,7,13.1,35,5
330300000597,NH-175-86117517527980,3303000,NH-175,PK,3,Valley View Community School,Farmington School District,Strafford County,79 Thayer Dr.,Farmington,NH,3835,,(603)755-4757,41,Rural: Fringe,No,No,Yes,Yes,275,28,9.8,135,10
330299000120,NH-174-26017401122970,3302990,NH-174,5,8,Vilas Elementary School,Fall Mountain Regional School District,Cheshire County,PO Box 670,Alstead,NH,3602,670,(603)835-6351,42,Rural: Distant,No,No,–,–,117,10.6,11,38,7
330327100693,NH-727-772772728650,3303271,NH-727,6,8,Virtual Learning Academy (E),Virtual Learning Academy Charter School,Rockingham County,30 Linden St.,Exeter,NH,3833,2622,(603)778-2500,23,Suburb: Small,Yes,No,Yes,No,45,11.1,4.1,9,–
330327100679,NH-727-772772728605,3303271,NH-727,9,12,Virtual Learning Academy (H),Virtual Learning Academy Charter School,Rockingham County,30 Linden St.,Exeter,NH,3833,2622,(603)778-2500,23,Suburb: Small,Yes,No,Yes,No,247,66.3,3.7,18,3
330299000122,NH-174-26017454523015,3302990,NH-174,5,8,Walpole Elementary School,Fall Mountain Regional School District,Cheshire County,PO Box 549,Walpole,NH,3608,549,(603)756-4728,41,Rural: Fringe,No,No,–,–,124,14.5,8.6,26,4
330299000121,NH-174-26017454523010,3302990,NH-174,PK,1,Walpole Primary School,Fall Mountain Regional School District,Cheshire County,PO Box 549,Walpole,NH,3608,549,(603)756-4241,41,Rural: Fringe,No,No,–,–,95,6.2,15.3,22,2
330687000444,NH-549-42354954920900,3306870,NH-549,PK,8,Warren Village School,Warren School District,Grafton County,11 School St.,Warren,NH,3279,4142,(603)764-5538,43,Rural: Remote,No,No,Yes,No,78,9.9,7.9,22,7
330690000445,NH-551-93455155120985,3306900,NH-551,KG,5,Washington Elementary School,Washington School District,Sullivan County,62 Wolf Way,Washington,NH,3280,465,(603)495-3463,42,Rural: Distant,No,No,Yes,No,41,5.1,8,16,–
330691000446,NH-553-44855355322385,3306910,NH-553,KG,8,Waterville Valley Elementary School,Waterville Valley School District,Grafton County,PO Box 275,Waterville Valley,NH,3215,275,(603)236-4700,43,Rural: Remote,No,No,Yes,No,22,4.2,5.2,5,–
330693000023,NH-555-52455555520720,3306930,NH-555,6,8,Weare Middle School,Weare School District,Hillsborough County,16 East Rd.,Weare,NH,3281,4623,(603)529-7555,42,Rural: Distant,No,No,Yes,No,339,31.9,10.6,54,11
330476000287,NH-352-64635255722205,3304760,NH-352,KG,5,Webster Elementary School,Merrimack Valley School District,Merrimack County,936 Battle St.,Webster,NH,3303,7305,(603)648-2467,42,Rural: Distant,No,No,–,–,90,7.4,12.2,22,1
330459000260,NH-335-53733533521635,3304590,NH-335,KG,5,Webster School,Manchester School District,Hillsborough County,2519 Elm St.,Manchester,NH,3104,2294,(603)624-6344,12,City: Midsize,No,No,Yes,No,443,32.5,13.6,209,18
330363000156,NH-235-22923523521155,3303630,NH-235,KG,6,Wells Memorial School,Harrisville School District,Cheshire County,235 Chesham Rd.,Harrisville,NH,3450,5515,(603)827-3272,41,Rural: Fringe,No,No,Yes,No,60,5.5,10.9,9,7
330699000449,NH-559-44855955922390,3306990,NH-559,KG,8,Wentworth Elementary School,Wentworth School District,Grafton County,PO Box 139,Wentworth,NH,3282,139,(603)764-5811,43,Rural: Remote,No,No,Yes,Yes,62,7.8,7.9,27,6
330261000194,NH-131-71013113727065,3302610,NH-131,6,8,West Running Brook Middle School,Derry School District,Rockingham County,1 W. Running Brook Ln.,Derry,NH,3038,4143,(603)432-1250,22,Suburb: Midsize,No,No,–,–,577,44,13.1,89,22
330702000450,NH-563-22956356321230,3307020,NH-563,KG,8,Westmoreland School,Westmoreland School District,Cheshire County,40 Glebe Rd.,Westmoreland,NH,3467,4616,(603)399-4421,42,Rural: Distant,No,No,Yes,No,135,13.4,10.1,18,4
330459000262,NH-335-53733533521515,3304590,NH-335,PK,5,Weston Elementary School,Manchester School District,Hillsborough County,7 Michigan Avenue,Manchester,NH,3104,5598,(603)624-6347,12,City: Midsize,No,No,Yes,Yes,530,33.5,15.8,227,32
330405000207,NH-279-22927927921200,3304050,NH-279,KG,5,Wheelock Elementary School,Keene School District,Cheshire County,24 Adams St.,Keene,NH,3431,4132,(603)352-2244,32,Town: Distant,No,No,Yes,Yes,211,19.7,10.7,101,21
330705000454,NH-568-33656856721480,3307050,NH-568,9,12,White Mountains Regional High School,White Mountain Regional School District,Coos County,PO Box 338,Whitefield,NH,3598,338,(603)837-2528,42,Rural: Distant,No,No,Yes,Yes,358,34.8,10.3,109,29
330705000004,NH-568-33656856726930,3307050,NH-568,PK,8,Whitefield Elementary School,White Mountain Regional School District,Coos County,PO Box 128,Whitefield,NH,3598,128,(603)837-3088,42,Rural: Distant,No,No,Yes,Yes,322,30.3,10.6,124,28
330594000386,NH-461-85446146122690,3305940,NH-461,KG,5,William Allen School,Rochester School District,Strafford County,23 Granite St.,Rochester,NH,3867,2993,(603)332-2280,23,Suburb: Small,No,No,Yes,Yes,307,23.8,12.9,164,14
330606000403,NH-473-75747347322860,3306060,NH-473,KG,5,William E. Lancaster School,Salem School District,Rockingham County,54 Millville St.,Salem,NH,3079,2200,(603)893-7059,21,Suburb: Large,No,No,Yes,No,252,31.6,8,50,9
330606000400,NH-473-75747347322865,3306060,NH-473,KG,5,William T. Barron Elementary School,Salem School District,Rockingham County,55 Butler St.,Salem,NH,3079,3968,(603)893-7067,21,Suburb: Large,No,No,–,–,391,26,15,37,11
330711500110,NH-572-56357257126955,3307115,NH-572,6,8,Wilton-Lyndeboro Middle School,Wilton-Lyndeboro School District,Hillsborough County,PO Box 255,Wilton,NH,3086,255,(603)732-9230,41,Rural: Fringe,No,No,Yes,No,123,13.6,9,24,4
330711500457,NH-572-56357257123070,3307115,NH-572,9,12,Wilton-Lyndeboro Senior High School,Wilton-Lyndeboro School District,Hillsborough County,57 School Rd.,Wilton,NH,3086,255,(603)732-9230,41,Rural: Fringe,No,No,Yes,No,152,18.4,8.3,30,4
330714000459,NH-573-23857357321735,3307140,NH-573,PK,8,Winchester School,Winchester School District,Cheshire County,85 Parker St.,Winchester,NH,3470,2904,(603)239-4721,42,Rural: Distant,No,No,Yes,Yes,419,35.5,11.8,233,–
330331400730,NH-712-40171229193,3303314,NH-712,KG,4,Windham Academy Public Charter School,Windham Academy Public Charter School,Rockingham County,1 Industrial Drive,Windham,NH,3087,2304,(603)236-7900,22,Suburb: Midsize,Yes,No,Yes,No,90,7,12.9,6,–
330717000460,NH-575-72857557521135,3307170,NH-575,5,6,Windham Center School,Windham School District,Rockingham County,2 Lowell Rd.,Windham,NH,3087,1814,(603)845-1554,41,Rural: Fringe,No,No,Yes,No,650,47,13.8,16,5
330717000692,NH-575-72857557528640,3307170,NH-575,9,13,Windham High School,Windham School District,Rockingham County,64 London Bridge Rd.,Windham,NH,3087,,(603)845-1558,41,Rural: Fringe,No,No,Yes,No,942,72.8,12.9,15,6
330717000495,NH-575-72857557521125,3307170,NH-575,7,8,Windham Middle School,Windham School District,Rockingham County,112A Lowell Rd.,Windham,NH,3087,1837,(603)893-2636,41,Rural: Fringe,No,No,–,–,786,52,15.1,18,4
330723000463,NH-581-72158122520780,3307230,NH-581,9,13,Winnacunnet High School,Winnacunnet Coop School District,Rockingham County,1 Alumni Dr.,Hampton,NH,3842,2282,(603)926-3395,23,Suburb: Small,No,No,Yes,No,1022,102.5,10,141,31
330730000465,NH-582-05958253222950,3307300,NH-582,9,12,Winnisquam Regional High School,Winnisquam Regional School District,Belknap County,435 W. Main St.,Tilton,NH,3276,5012,(603)286-4531,32,Town: Distant,No,No,Yes,No,440,34.6,12.7,98,21
330730000466,NH-582-05958253222955,3307300,NH-582,6,8,Winnisquam Regional Middle School,Winnisquam Regional School District,Belknap County,76 Winter St.,Tilton,NH,3276,5411,(603)286-7143,32,Town: Distant,No,No,Yes,Yes,356,28.7,12.4,97,22
330606000409,NH-473-75747347322850,3306060,NH-473,6,8,Woodbury School,Salem School District,Rockingham County,206 Main St.,Salem,NH,3079,3143,(603)893-7055,21,Suburb: Large,No,No,Yes,No,825,58.8,14,124,33
330414000213,NH-285-03028528521285,3304140,NH-285,PK,5,Woodland Heights Elementary School,Laconia School District,Belknap County,225 Winter St. Ext.,Laconia,NH,3246,3299,(603)524-8733,32,Town: Distant,No,No,Yes,Yes,362,31.8,11.4,233,27
330264000094,NH-141-81114114120460,3302640,NH-141,PK,4,Woodman Park School,Dover School District,Strafford County,11 Towle Ave.,Dover,NH,3820,3992,(603)516-6700,23,Suburb: Small,No,No,Yes,Yes,494,37,13.4,193,24
330366000159,NH-238-42323858720905,3303660,NH-238,PK,3,Woodsville Elementary School,Haverhill Cooperative School District,Grafton County,206 Central St.,Woodsville,NH,3785,1321,(603)747-3363,43,Rural: Remote,No,No,Yes,No,232,23.6,9.8,69,10
330366000160,NH-238-42323858720910,3303660,NH-238,9,12,Woodsville High School,Haverhill Cooperative School District,Grafton County,9 High St.,Woodsville,NH,3785,1209,(603)747-2781,43,Rural: Remote,No,No,Yes,No,197,24,8.2,42,10
