NCES School ID,State School ID,NCES District ID,State District ID,Low Grade*,High Grade*,School Name,District,County Name*,Street Address,City,State,ZIP,ZIP 4-digit,Phone,Locale Code*,Locale*,Charter,Magnet*,Title I School*,Title 1 School Wide*,Students*,Teachers*,Student Teacher Ratio*,Free Lunch*,Reduced Lunch*
320006000935,NV-02-02061,3200060,NV-02,PK,5,Abston Sandra B ES,CLARK COUNTY SCHOOL DISTRICT,Clark County,9950 W Tompkins Ave,Las Vegas,NV,89147,,(702)799-0000,21,Suburb: Large,No,†,†,†,†,†,†,†,†
320048000664,NV-16-16611,3200480,NV-16,9,12,Academy of Art Careers and Technology,WASHOE COUNTY SCHOOL DISTRICT,Washoe County,380 Edison Way,Reno,NV,89502,,(775)861-4418,12,City: Midsize,No,Yes,–,–,574,29,19.8,98,29
320048000562,NV-16-16608,3200480,NV-16,9,12,Academy of Career Education Charter School,WASHOE COUNTY SCHOOL DISTRICT,Washoe County,2800 Vassar Street,Reno,NV,89502,,(775)324-3900,12,City: Midsize,Yes,No,–,–,191,–,†,45,1
320006000458,NV-02-02161,3200060,NV-02,PK,5,Addeliar Guy Elementary School,CLARK COUNTY SCHOOL DISTRICT,Clark County,4028 La Madre Way,North Las Vegas,NV,89031,,(702)799-3150,21,Suburb: Large,No,No,Yes,Yes,550,32,17.2,523,24
320012000326,NV-04-04503,3200120,NV-04,5,8,Adobe Middle School,ELKO COUNTY SCHOOL DISTRICT,Elko County,3375 Jennings Way,Elko,NV,89801,,(775)738-7236,41,Rural: Fringe,No,No,Yes,Yes,708,12,59,203,41
320012000854,NV-04-04902,3200120,NV-04,AE,AE,Adult Education,ELKO COUNTY SCHOOL DISTRICT,Elko County,1020 Elm Street,Elko,NV,89801,,(775)753-2233,33,Town: Remote,No,No,–,–,2,–,†,†,†
320006000419,NV-02-02420,3200060,NV-02,9,12,Advanced Technologies Academy,CLARK COUNTY SCHOOL DISTRICT,Clark County,2501 Vegas Dr.,Las Vegas,NV,89106,,(702)799-7870,11,City: Large,No,Yes,Yes,Yes,1165,54,21.6,388,166
320006000436,NV-02-02150,3200060,NV-02,PK,5,Aggie Roberts Elementary School,CLARK COUNTY SCHOOL DISTRICT,Clark County,227 Charter Oak St,Henderson,NV,89074,,(702)799-1320,11,City: Large,No,No,Yes,Yes,675,29,23.3,645,30
320048000201,NV-16-16221,3200480,NV-16,PK,6,Agnes Risley Elementary School,WASHOE COUNTY SCHOOL DISTRICT,Washoe County,1900 Sullivan Lane,Sparks,NV,89431,,(775)353-5760,21,Suburb: Large,No,No,Yes,Yes,477,25,19.1,474,0
320039000282,NV-13-13207,3200390,NV-13,PK,5,Al Seeliger Elementary School,CARSON CITY SCHOOL DISTRICT,Carson City,2800 South Saliman Road,Carson City,NV,89706,,(775)283-2200,13,City: Small,No,No,Yes,Yes,580,35,16.6,215,41
320021000149,NV-07-07501,3200210,NV-07,9,12,Albert M Lowry High School,HUMBOLDT COUNTY SCHOOL DISTRICT,Humboldt County,5375 Kluncy Canyon Road,Winnemucca,NV,89445,,(775)623-8130,33,Town: Remote,No,No,–,–,934,67,13.9,297,75
320006000655,NV-02-02194,3200060,NV-02,PK,5,Aldeane Comito Ries Elementary,CLARK COUNTY SCHOOL DISTRICT,Clark County,9805 S. Lindell Rd.,Las Vegas,NV,89141,,(702)799-1240,21,Suburb: Large,No,No,Yes,Yes,856,45,19,300,70
320048000388,NV-16-16260,3200480,NV-16,PK,6,Alice L Smith Elementary School,WASHOE COUNTY SCHOOL DISTRICT,Washoe County,1070 Beckwourth Drive,Reno,NV,89506,,(775)677-5410,12,City: Midsize,No,No,Yes,Yes,766,41,18.7,428,52
320048000202,NV-16-16222,3200480,NV-16,PK,6,Alice Maxwell Elementary School,WASHOE COUNTY SCHOOL DISTRICT,Washoe County,2300 North Rock Boulevard,Sparks,NV,89431,,(775)353-5580,21,Suburb: Large,No,No,Yes,Yes,512,28,18.3,512,–
320000100800,NV-18-76412,3200001,NV-18,9,12,Alpine Academy High School,STATE-SPONSORED CHARTER SCHOOLS,Washoe County,605 Boxington Way Suite 112,Sparks,NV,89434,,(775)356-1166,21,Suburb: Large,Yes,No,–,–,113,7,16.1,15,16
320048000390,NV-16-16265,3200480,NV-16,PK,6,Alyce Savage Taylor Elementary School,WASHOE COUNTY SCHOOL DISTRICT,Washoe County,252 Egyptian Way,Sparks,NV,89431,,(775)425-7700,21,Suburb: Large,No,No,–,–,773,41,18.9,152,20
320036000564,NV-12-12316,3200360,NV-12,6,8,Amargosa Middle School,NYE COUNTY SCHOOL DISTRICT,Nye County,HC 15 Box 401Z,Amargosa,NV,89020,,(775)372-5324,43,Rural: Remote,No,No,Yes,Yes,51,3,17,51,–
320036000185,NV-12-12106,3200360,NV-12,PK,5,Amargosa Valley Elementary School,NYE COUNTY SCHOOL DISTRICT,Nye County,777 E. Farm Road,Amargosa,NV,89020,,(775)372-5324,43,Rural: Remote,No,No,Yes,Yes,116,6,19.3,108,8
320000100848,NV-18-50431,3200001,NV-18,KG,12,American Preparatory Academy LV,STATE-SPONSORED CHARTER SCHOOLS,Clark County,8377 West Patrick Lane,Las Vegas,NV,89113,,(702)970-6800,21,Suburb: Large,Yes,No,–,–,1657,30,55.2,232,7
320048000203,NV-16-16201,3200480,NV-16,PK,6,Anderson Elementary School,WASHOE COUNTY SCHOOL DISTRICT,Washoe County,1055 Berrum Lane,Reno,NV,89509,,(775)689-2500,12,City: Midsize,No,No,Yes,Yes,455,28,16.3,455,–
320006000012,NV-02-02250,3200060,NV-02,PK,5,Andrew Mitchell Elementary School,CLARK COUNTY SCHOOL DISTRICT,Clark County,900 Ave. B,Boulder City,NV,89005,,(702)799-8280,31,Town: Fringe,No,No,Yes,Yes,357,21,17,351,6
320006000371,NV-02-02115,3200060,NV-02,PK,5,Ann Lynch Elementary School,CLARK COUNTY SCHOOL DISTRICT,Clark County,4850 Kell Lane,Las Vegas,NV,89115,,(702)799-8820,21,Suburb: Large,No,No,Yes,Yes,643,31,20.7,639,4
320006000565,NV-02-02354,3200060,NV-02,6,8,Anthony Saville Middle School,CLARK COUNTY SCHOOL DISTRICT,Clark County,8101 N. Torrey Pines Dr.,Las Vegas,NV,89131,,(702)799-3460,21,Suburb: Large,No,No,–,–,1638,52,31.5,501,112
320006000661,NV-02-02618,3200060,NV-02,9,12,Arbor View High School,CLARK COUNTY SCHOOL DISTRICT,Clark County,7500 Whispering Sands Dr.,Las Vegas,NV,89131,,(702)799-6660,11,City: Large,No,No,–,–,3306,114,29,857,171
320048000204,NV-16-16301,3200480,NV-16,6,8,Archie Clayton PRE-AP Academy Middle School,WASHOE COUNTY SCHOOL DISTRICT,Washoe County,1295 Wyoming Avenue,Reno,NV,89503,,(775)746-5860,12,City: Midsize,No,Yes,Yes,Yes,776,38,20.4,339,50
320006000441,NV-02-02155,3200060,NV-02,PK,5,Arturo Cambeiro Elementary School,CLARK COUNTY SCHOOL DISTRICT,Clark County,2851 E. Harris Ave.,Las Vegas,NV,89101,,(702)799-1700,11,City: Large,No,No,Yes,Yes,641,39,16.4,618,23
320009000832,NV-03-03504,3200090,NV-03,9,12,ASPIRE Academy High School,DOUGLAS COUNTY SCHOOL DISTRICT,Douglas County,1680 Bently Parkway,Minden,NV,89423,,(775)392-1475,41,Rural: Fringe,No,No,–,–,77,8,9.6,31,2
320024000162,NV-08-08602,3200240,NV-08,PK,12,Austin School,LANDER COUNTY SCHOOL DISTRICT,Lander County,Box Butte 160,Austin,NV,89310,,(775)964-2467,43,Rural: Remote,No,No,–,–,9,1,9,3,†
320006000301,NV-02-02319,3200060,NV-02,6,8,B Mahlon Brown Junior High School,CLARK COUNTY SCHOOL DISTRICT,Clark County,307 N. Cannes St.,Henderson,NV,89015,,(702)799-8900,11,City: Large,No,Yes,Yes,Yes,1077,46,23.4,1035,42
320048000391,NV-16-16310,3200480,NV-16,6,8,B D Billinghurst Middle School,WASHOE COUNTY SCHOOL DISTRICT,Washoe County,6685 Chesterfield Lane,Reno,NV,89523,,(775)746-5870,12,City: Midsize,No,No,–,–,951,54,17.6,184,25
320048000544,NV-16-16278,3200480,NV-16,KG,6,Bailey Charter School,WASHOE COUNTY SCHOOL DISTRICT,Washoe County,210 Gentry Way,Reno,NV,89502,,(775)323-6767,12,City: Midsize,Yes,No,Yes,Yes,260,–,†,260,–
320051000254,NV-17-17103,3200510,NV-17,3,6,Baker Elementary School,WHITE PINE COUNTY SCHOOL DISTRICT,White Pine County,Box Butte 120,Baker,NV,89311,,(775)234-7333,43,Rural: Remote,No,No,–,–,16,1,16,3,†
320006000402,NV-02-02324,3200060,NV-02,6,8,Barbara and Hank Greenspun Junior High School,CLARK COUNTY SCHOOL DISTRICT,Clark County,140 N. Valley Verde Dr.,Henderson,NV,89074,,(702)799-0920,11,City: Large,No,No,Yes,Yes,1535,53,29,540,97
320006000007,NV-02-02406,3200060,NV-02,9,12,Basic Academy of Int'l Studies HS,CLARK COUNTY SCHOOL DISTRICT,Clark County,400 Palo Verde Dr.,Henderson,NV,89015,,(702)799-8000,11,City: Large,No,Yes,Yes,Yes,2569,102,25.2,1268,168
320024000165,NV-08-08201,3200240,NV-08,PK,5,Battle Mountain Elementary School,LANDER COUNTY SCHOOL DISTRICT,Lander County,Box Butte 1390,Battle Mountain,NV,89820,,(775)635-2889,33,Town: Remote,No,No,Yes,Yes,518,22,23.5,204,38
320024000163,NV-08-08601,3200240,NV-08,9,12,Battle Mountain High School,LANDER COUNTY SCHOOL DISTRICT,Lander County,Box Butte 1330,Battle Mountain,NV,89820,,(775)635-5436,33,Town: Remote,No,No,–,–,270,17,15.9,80,20
320000100751,NV-18-89409,3200001,NV-18,9,12,Beacon Academy of Nevada,STATE-SPONSORED CHARTER SCHOOLS,Clark County,7360 W. Flamingo Rd,Las Vegas,NV,89147,,(702)726-8600,21,Suburb: Large,Yes,No,–,–,405,9,45,241,25
320036000186,NV-12-12201,3200360,NV-12,PK,5,Beatty Elementary School,NYE COUNTY SCHOOL DISTRICT,Nye County,Box Butte 369,Beatty,NV,89003,,(775)553-2902,43,Rural: Remote,No,No,Yes,Yes,55,6,9.2,52,3
320036000187,NV-12-12601,3200360,NV-12,9,12,Beatty High School,NYE COUNTY SCHOOL DISTRICT,Nye County,Box Butte 806,Beatty,NV,89003,,(775)553-2595,43,Rural: Remote,No,No,Yes,Yes,105,10,10.5,105,–
320036000566,NV-12-12311,3200360,NV-12,6,8,Beatty Middle School,NYE COUNTY SCHOOL DISTRICT,Nye County,Box Butte 369,Beatty,NV,89003,,(775)553-2902,43,Rural: Remote,No,No,Yes,Yes,32,11,2.9,31,1
320006000469,NV-02-02163,3200060,NV-02,PK,5,Berkeley L Bunker Elementary School,CLARK COUNTY SCHOOL DISTRICT,Clark County,6350 Peak Dr.,Las Vegas,NV,89108,,(702)799-3420,11,City: Large,No,No,Yes,Yes,783,45,17.4,750,33
320048000466,NV-16-16273,3200480,NV-16,PK,5,Bernice Mathews Elementary School,WASHOE COUNTY SCHOOL DISTRICT,Washoe County,2750 Elementary Drive,Reno,NV,89512,,(775)353-5950,12,City: Midsize,No,No,Yes,Yes,543,40,13.6,543,–
320006000008,NV-02-02201,3200060,NV-02,PK,5,Bertha Ronzone Elementary School,CLARK COUNTY SCHOOL DISTRICT,Clark County,5701 Stacey Ave.,Las Vegas,NV,89108,,(702)799-4780,11,City: Large,No,No,Yes,Yes,905,47,19.3,887,18
320006000457,NV-02-02160,3200060,NV-02,PK,5,Betsy A Rhodes Elementary,CLARK COUNTY SCHOOL DISTRICT,Clark County,7350 Tealwood St.,Las Vegas,NV,89131,,(702)799-3450,11,City: Large,No,No,Yes,Yes,632,33,19.2,227,38
320006000009,NV-02-02265,3200060,NV-02,PK,5,Bill Y Tomiyasu Elementary School,CLARK COUNTY SCHOOL DISTRICT,Clark County,5445 S. Annie Oakley Dr.,Las Vegas,NV,89120,,(702)799-7770,12,City: Midsize,No,No,Yes,Yes,531,33,16.1,285,55
320006000877,NV-02-02069,3200060,NV-02,PK,5,Billy and Rosemary Vassiliadis Elementary School,CLARK COUNTY SCHOOL DISTRICT,Clark County,215 Antelope Ridge Drive,Las Vegas,NV,89138,,(702)799-5040,41,Rural: Fringe,No,No,–,–,836,39,21.4,76,12
320006000010,NV-02-02101,3200060,NV-02,PK,5,Blue Diamond Elementary School,CLARK COUNTY SCHOOL DISTRICT,Clark County,912 Village Lane,Blue Diamond,NV,89004,,(702)875-4226,42,Rural: Distant,No,No,–,–,37,4,9.3,37,–
320006000514,NV-02-02338,3200060,NV-02,6,8,Bob Miller Middle School,CLARK COUNTY SCHOOL DISTRICT,Clark County,2400 Cozy Hill Cir,Henderson,NV,89052,,(702)799-2260,11,City: Large,No,No,–,–,1629,56,29.1,303,61
320006000011,NV-02-02411,3200060,NV-02,9,12,Bonanza High School,CLARK COUNTY SCHOOL DISTRICT,Clark County,6665 W. Del Rey Ave.,Las Vegas,NV,89146,,(702)799-4000,11,City: Large,No,No,Yes,Yes,2085,83,25.1,1210,167
320006000013,NV-02-02601,3200060,NV-02,9,12,Boulder City High School,CLARK COUNTY SCHOOL DISTRICT,Clark County,1101 Fifth St.,Boulder City,NV,89005,,(702)799-8200,31,Town: Fringe,No,No,–,–,601,24,25,151,20
320006000535,NV-02-02342,3200060,NV-02,6,8,Brian & Teri Cram Middle School,CLARK COUNTY SCHOOL DISTRICT,Clark County,1900 W. Deer Springs Way,North Las Vegas,NV,89084,,(702)799-7020,21,Suburb: Large,No,No,Yes,Yes,1601,57,28.1,794,160
320048000205,NV-16-16229,3200480,NV-16,PK,5,Brown Elementary School,WASHOE COUNTY SCHOOL DISTRICT,Washoe County,13815 Spelling Court,Reno,NV,89511,,(775)851-5600,21,Suburb: Large,No,No,–,–,850,44,19.3,90,13
320048000432,NV-16-16271,3200480,NV-16,PK,6,Bud Beasley Elementary School,WASHOE COUNTY SCHOOL DISTRICT,Washoe County,2100 Canyon Parkway,Sparks,NV,89436,,(775)626-5250,21,Suburb: Large,No,No,–,–,873,48,18.2,185,21
320006000313,NV-02-02922,3200060,NV-02,9,12,Burk Horizon Southwest Sunset HS,CLARK COUNTY SCHOOL DISTRICT,Clark County,4560 W. Harmon Ave.,Las Vegas,NV,89103,,(702)799-8150,12,City: Midsize,No,No,–,–,43,†,†,22,–
320009000293,NV-03-03205,3200090,NV-03,PK,5,C C Meneley Elementary School,DOUGLAS COUNTY SCHOOL DISTRICT,Douglas County,1446 Muir Drive,Gardnerville,NV,89460,,(775)265-3154,32,Town: Distant,No,No,Yes,Yes,500,30,16.7,235,44
320006000014,NV-02-02203,3200060,NV-02,PK,5,C C Ronnow Elementary School,CLARK COUNTY SCHOOL DISTRICT,Clark County,1100 Lena St.,Las Vegas,NV,89101,,(702)799-7159,11,City: Large,No,No,Yes,Yes,761,37,20.6,736,25
320006000022,NV-02-02269,3200060,NV-02,PK,5,C H Decker Elementary School,CLARK COUNTY SCHOOL DISTRICT,Clark County,3850 S. Redwood,Las Vegas,NV,89103,,(702)799-5920,21,Suburb: Large,No,No,Yes,Yes,734,39,18.8,716,18
320027000169,NV-09-09602,3200270,NV-09,7,12,C O Bastian (Caliente Youth Center),LINCOLN COUNTY SCHOOL DISTRICT,Lincoln County,Box Butte 1088,Caliente,NV,89008,,(775)726-8250,43,Rural: Remote,No,No,–,–,107,13,8.2,105,–
320006000015,NV-02-02204,3200060,NV-02,PK,5,C P Squires Elementary School,CLARK COUNTY SCHOOL DISTRICT,Clark County,1312 E. Tonopah Ave.,North Las Vegas,NV,89030,,(702)799-7169,21,Suburb: Large,No,No,Yes,Yes,690,39,17.7,679,11
320006000019,NV-02-02251,3200060,NV-02,PK,5,C T Sewell Elementary School,CLARK COUNTY SCHOOL DISTRICT,Clark County,700 E. Lake Mead Dr.,Henderson,NV,89015,,(702)799-8940,11,City: Large,No,No,Yes,Yes,623,30,20.8,610,13
320006000016,NV-02-02206,3200060,NV-02,PK,5,C V T Gilbert Elementary School,CLARK COUNTY SCHOOL DISTRICT,Clark County,2101 W. Cartier Ave.,North Las Vegas,NV,89032,,(702)799-4730,21,Suburb: Large,No,Yes,Yes,Yes,450,29,15.5,212,52
320006000017,NV-02-02314,3200060,NV-02,6,8,C W Woodbury Middle School,CLARK COUNTY SCHOOL DISTRICT,Clark County,3875 E. Harmon Ave.,Las Vegas,NV,89121,,(702)799-7660,12,City: Midsize,No,No,Yes,Yes,904,39,23.2,672,75
320027000166,NV-09-09201,3200270,NV-09,PK,6,Caliente Elementary School,LINCOLN COUNTY SCHOOL DISTRICT,Lincoln County,Box Butte 767,Caliente,NV,89008,,(775)726-3772,43,Rural: Remote,No,No,Yes,Yes,93,10,9.3,39,17
320006000567,NV-02-02429,3200060,NV-02,9,12,Canyon Springs High School and the Leadership and Law Prepar,CLARK COUNTY SCHOOL DISTRICT,Clark County,350 E. Alexander Rd.,North Las Vegas,NV,89032,,(702)799-1870,21,Suburb: Large,No,Yes,Yes,Yes,2721,106,25.7,1964,189
320012000125,NV-04-04205,3200120,NV-04,PK,6,Carlin Elementary School,ELKO COUNTY SCHOOL DISTRICT,Elko County,Box Butte 730,Carlin,NV,89822,,(775)754-6317,43,Rural: Remote,No,No,–,–,211,10,21.1,92,7
320012000568,NV-04-04601,3200120,NV-04,9,12,Carlin High School,ELKO COUNTY SCHOOL DISTRICT,Elko County,Box Butte 730,Carlin,NV,89822,,(775)754-6317,43,Rural: Remote,No,No,–,–,72,1,72,25,2
320012000674,NV-04-04501,3200120,NV-04,7,8,Carlin Junior High School,ELKO COUNTY SCHOOL DISTRICT,Elko County,Box Butte 730,Carlin,NV,89822,,(775)754-6317,43,Rural: Remote,No,No,–,–,41,–,†,15,1
320006000757,NV-02-02084,3200060,NV-02,PK,5,Carolyn S Reedom Elementary School,CLARK COUNTY SCHOOL DISTRICT,Clark County,10025 Rumrill St.,Las Vegas,NV,89178,,(702)799-5702,41,Rural: Fringe,No,No,–,–,612,33,18.5,178,39
320006000672,NV-02-02359,3200060,NV-02,6,8,Carroll M Johnston Middle School,CLARK COUNTY SCHOOL DISTRICT,Clark County,5855 Lawrence St.,North Las Vegas,NV,89081,,(702)799-7001,21,Suburb: Large,No,No,Yes,Yes,1205,44,27.4,846,108
320039000792,NV-13-13202,3200390,NV-13,AE,AE,Carson Adult Education RG,CARSON CITY SCHOOL DISTRICT,Carson City,300 E. Corbett Street,Carson City,NV,89706,,(775)283-1350,13,City: Small,No,No,†,†,0,–,†,29,3
320039000569,NV-13-13212,3200390,NV-13,KG,6,Carson City Montessori Charter School,CARSON CITY SCHOOL DISTRICT,Carson City,2263 Mouton Drive,Carson City,NV,89706,,(775)887-9500,13,City: Small,Yes,No,–,–,281,–,†,64,13
320039000280,NV-13-13501,3200390,NV-13,9,12,Carson High School,CARSON CITY SCHOOL DISTRICT,Carson City,1111 North Saliman,Carson City,NV,89701,,(775)283-1600,13,City: Small,No,No,Yes,Yes,2271,141,16.1,926,104
320039000281,NV-13-13301,3200390,NV-13,6,8,Carson Middle School,CARSON CITY SCHOOL DISTRICT,Carson City,1140 West King Street,Carson City,NV,89701,,(775)283-2800,13,City: Small,No,No,Yes,Yes,1215,69,17.6,584,78
320009000119,NV-03-03301,3200090,NV-03,6,8,Carson Valley Middle School,DOUGLAS COUNTY SCHOOL DISTRICT,Douglas County,1477 Highway 395 South,Gardnerville,NV,89410,,(775)782-2265,32,Town: Distant,No,No,–,–,709,44,16.1,189,38
320048000389,NV-16-16261,3200480,NV-16,PK,6,Caughlin Ranch Elementary School,WASHOE COUNTY SCHOOL DISTRICT,Washoe County,4881 Village Green Parkway,Reno,NV,89509,,(775)689-2600,12,City: Midsize,No,Yes,–,–,574,27,21.3,58,5
320006000493,NV-02-02607,3200060,NV-02,9,12,Centennial High School,CLARK COUNTY SCHOOL DISTRICT,Clark County,10200 Centennial Pkwy,Las Vegas,NV,89149,,(702)799-3440,11,City: Large,No,No,Yes,Yes,3050,110,27.7,2949,101
320006000018,NV-02-02409,3200060,NV-02,9,12,Chaparral High School,CLARK COUNTY SCHOOL DISTRICT,Clark County,3850 Annie Oakley Dr.,Las Vegas,NV,89121,,(702)799-7580,12,City: Midsize,No,No,Yes,Yes,2384,91,26.2,1652,152
320006000586,NV-02-02272,3200060,NV-02,PK,5,Charles & Phyllis Frias Elementary School,CLARK COUNTY SCHOOL DISTRICT,Clark County,5800 Broken Top Ave.,Las Vegas,NV,89141,,(702)799-2298,21,Suburb: Large,No,No,–,–,697,36,19.4,179,50
320006000592,NV-02-02350,3200060,NV-02,6,8,Charles Arthur Hughes Middle School,CLARK COUNTY SCHOOL DISTRICT,Clark County,550 Hafen Ln.,Mesquite,NV,89027,,(702)346-3250,32,Town: Distant,No,No,Yes,Yes,607,29,20.9,306,62
320006000475,NV-02-02334,3200060,NV-02,6,8,Charles Silvestri Junior High School,CLARK COUNTY SCHOOL DISTRICT,Clark County,1055 Silverado Ranch Blvd,Las Vegas,NV,89123,,(702)799-2240,12,City: Midsize,No,No,Yes,Yes,1640,62,26.5,763,132
320006000801,NV-02-02079,3200060,NV-02,PK,5,Charlotte & Jerry Keller Elementary,CLARK COUNTY SCHOOL DISTRICT,Clark County,5445 Cedar Ave.,Las Vegas,NV,89110,,(702)799-2140,21,Suburb: Large,No,No,Yes,Yes,679,36,18.9,652,27
320006000378,NV-02-02122,3200060,NV-02,PK,5,Charlotte Hill Elementary School,CLARK COUNTY SCHOOL DISTRICT,Clark County,560 E Eldorado Ln,Las Vegas,NV,89123,,(702)799-5720,12,City: Midsize,No,No,Yes,Yes,571,32,17.8,542,26
320006000405,NV-02-02415,3200060,NV-02,9,12,Cheyenne High School,CLARK COUNTY SCHOOL DISTRICT,Clark County,3200 W. Alexander Rd.,North Las Vegas,NV,89032,,(702)799-4830,21,Suburb: Large,No,No,Yes,Yes,2091,88,23.8,1270,187
320006000676,NV-02-02938,3200060,NV-02,6,12,Child Haven 6-12,CLARK COUNTY SCHOOL DISTRICT,†,601 N. Pecos #70,Las Vegas,NV,89101,,(702)455-5230,†,N,No,†,†,†,†,†,†,†,†
320003000868,NV-01-01902,3200030,NV-01,AE,AE,Churchill County Adult,CHURCHILL COUNTY SCHOOL DISTRICT,Churchill County,280 S Russell Street,Fallon,NV,89406,,(775)423-1191,33,Town: Remote,No,No,†,†,0,–,†,3,–
320003000001,NV-01-01401,3200030,NV-01,9,12,Churchill County High School,CHURCHILL COUNTY SCHOOL DISTRICT,Churchill County,1222 S Taylor Street,Fallon,NV,89406,,(775)423-2181,33,Town: Remote,No,No,Yes,Yes,985,67,14.7,299,56
320003000003,NV-01-01301,3200030,NV-01,6,8,Churchill County Middle School,CHURCHILL COUNTY SCHOOL DISTRICT,Churchill County,650 S Maine Street,Fallon,NV,89406,,(775)423-7701,33,Town: Remote,No,No,Yes,Yes,704,48,14.7,303,37
320006000406,NV-02-02414,3200060,NV-02,9,12,Cimarron Memorial High School,CLARK COUNTY SCHOOL DISTRICT,Clark County,2301 N. Tenaya Way,Las Vegas,NV,89128,,(702)799-4400,11,City: Large,No,No,Yes,Yes,2525,94,26.9,1592,241
320006000795,NV-02-02941,3200060,NV-02,12,12,Clark Adult Program,CLARK COUNTY SCHOOL DISTRICT,Clark County,2701 E. St. Louis Ave.,Las Vegas,NV,89104,,(702)799-0338,11,City: Large,No,No,–,–,2,24,0.1,178,–
320006000294,NV-02-02777,3200060,NV-02,6,12,Clark County Detention Center,CLARK COUNTY SCHOOL DISTRICT,Clark County,601 N. Pecos #70,Las Vegas,NV,89101,,(702)455-5230,11,City: Large,No,No,–,–,49,–,†,14,–
320006000355,NV-02-02110,3200060,NV-02,PK,5,Claude & Stella Parson Elementary School,CLARK COUNTY SCHOOL DISTRICT,Clark County,4100 Thom Blvd,Las Vegas,NV,89130,,(702)799-4530,11,City: Large,No,No,Yes,Yes,389,23,16.9,370,16
320006000490,NV-02-02337,3200060,NV-02,6,8,Clifford J Lawrence Junior High School,CLARK COUNTY SCHOOL DISTRICT,Clark County,4410 S. Juliano St.,Las Vegas,NV,89147,,(702)799-2540,21,Suburb: Large,No,No,Yes,Yes,1348,42,32.1,747,155
320006000570,NV-02-02352,3200060,NV-02,6,8,Clifford O Findlay Middle,CLARK COUNTY SCHOOL DISTRICT,Clark County,333 W. Tropical Pkwy.,North Las Vegas,NV,89031,,(702)799-3160,21,Suburb: Large,No,No,Yes,Yes,1304,50,26.1,838,140
320006000337,NV-02-02293,3200060,NV-02,PK,5,Clyde C Cox Elementary School,CLARK COUNTY SCHOOL DISTRICT,Clark County,3855 Timberlake Dr.,Las Vegas,NV,89115,,(702)799-4990,21,Suburb: Large,No,No,Yes,Yes,802,42,19.1,757,42
320048000673,NV-16-16317,3200480,NV-16,5,8,Cold Springs Middle Schools,WASHOE COUNTY SCHOOL DISTRICT,Washoe County,18235 Cody Court,Reno,NV,89506,,(775)677-5433,21,Suburb: Large,No,No,Yes,Yes,993,48,20.7,331,86
320006000443,NV-02-02422,3200060,NV-02,11,12,College of So. NV HS East,CLARK COUNTY SCHOOL DISTRICT,Clark County,3200 E Cheyenne Ave,North Las Vegas,NV,89030,,(702)651-4070,21,Suburb: Large,No,No,–,–,149,5,29.8,23,–
320006000463,NV-02-02426,3200060,NV-02,11,12,College of So. NV HS South,CLARK COUNTY SCHOOL DISTRICT,Clark County,700 College Dr.,Henderson,NV,89002,,(702)651-3080,11,City: Large,No,No,–,–,156,5,31.2,12,–
320006000444,NV-02-02423,3200060,NV-02,11,12,College of So. NV HS West,CLARK COUNTY SCHOOL DISTRICT,Clark County,6375 W Charleston Blvd,Las Vegas,NV,89146,,(702)651-5030,11,City: Large,No,No,–,–,187,6,31.2,26,–
320048000682,NV-16-16318,3200480,NV-16,KG,4,Coral Academy Elementary,WASHOE COUNTY SCHOOL DISTRICT,Washoe County,1701 Valley Road,Reno,NV,89512,,(775)322-0274,12,City: Midsize,Yes,No,–,–,514,–,†,83,4
320048000525,NV-16-16312,3200480,NV-16,9,12,Coral Academy High School,WASHOE COUNTY SCHOOL DISTRICT,Washoe County,6275 Neil Rd.,Reno,NV,89511,,(775)829-4601,12,City: Midsize,Yes,No,–,–,295,–,†,54,2
320048000880,NV-16-16320,3200480,NV-16,5,8,Coral Academy Middle School,WASHOE COUNTY SCHOOL DISTRICT,Washoe County,1350 E Ninth Street,Reno,NV,89512,,(775)323-2332,12,City: Midsize,Yes,No,–,–,572,–,†,49,–
320000100908,NV-18-87310,3200001,NV-18,KG,8,Coral Academy of Science Las Vegas Centennial Hills,STATE-SPONSORED CHARTER SCHOOLS,Clark County,7951 Deer Springs,Las Vegas,NV,89131,,(702)685-4333,11,City: Large,Yes,No,–,–,633,33,19.2,77,14
320000100922,NV-18-87315,3200001,NV-18,KG,8,Coral Academy of Science Las Vegas Eastgate,STATE-SPONSORED CHARTER SCHOOLS,Clark County,7777 Eastgate Rd,Henderson,NV,89011,,(775)123-1234,11,City: Large,Yes,No,–,–,652,33,19.8,121,16
320000100907,NV-18-87311,3200001,NV-18,PK,8,Coral Academy of Science Las Vegas Nellis AFB,STATE-SPONSORED CHARTER SCHOOLS,Clark County,42 Baer Dr.,Las Vegas,NV,89115,,(702)643-5121,21,Suburb: Large,Yes,No,–,–,791,24,33,61,79
320000100742,NV-18-87312,3200001,NV-18,6,12,Coral Academy of Science Las Vegas Sandy Ridge,STATE-SPONSORED CHARTER SCHOOLS,Clark County,1051 Sandy Ridge Ave,Henderson,NV,89052,,(702)776-8800,11,City: Large,Yes,No,–,–,809,34,23.8,74,7
320000100890,NV-18-87313,3200001,NV-18,KG,3,Coral Academy of Science Las Vegas Tamarus,STATE-SPONSORED CHARTER SCHOOLS,Clark County,8185 Tamarus St,Las Vegas,NV,89123,,(702)269-8512,12,City: Midsize,Yes,No,–,–,394,21,18.8,35,9
320000100894,NV-18-87314,3200001,NV-18,4,6,Coral Academy of Science Las Vegas Windmill,STATE-SPONSORED CHARTER SCHOOLS,Clark County,2150 Windmill Pkwy,Henderson,NV,89704,,(702)485-3410,11,City: Large,Yes,No,–,–,403,23,17.5,39,7
320006000540,NV-02-02612,3200060,NV-02,9,12,Coronado High School,CLARK COUNTY SCHOOL DISTRICT,Clark County,1001 Coronado Center Dr.,Henderson,NV,89052,,(702)799-6800,11,City: Large,No,No,–,–,3450,115,30,461,100
320030000387,NV-10-10209,3200300,NV-10,PK,4,Cottonwood Elementary School,LYON COUNTY SCHOOL DISTRICT,Lyon County,925 Farm District Road,Fernley,NV,89408,,(775)575-3414,32,Town: Distant,No,No,Yes,Yes,652,39,16.7,340,62
320006000597,NV-02-02932,3200060,NV-02,6,12,Cowan Academic Center,CLARK COUNTY SCHOOL DISTRICT,Clark County,5300 E. Russell Rd.,Las Vegas,NV,89122,,(702)799-6380,11,City: Large,No,No,–,–,98,12,8.2,96,2
320006000329,NV-02-02924,3200060,NV-02,9,12,Cowan Sunset Southeast HS,CLARK COUNTY SCHOOL DISTRICT,Clark County,5300 E. Russell Rd.,Las Vegas,NV,89122,,(702)799-6370,11,City: Large,No,No,–,–,29,–,†,4,–
320018000146,NV-06-06101,3200180,NV-06,PK,6,Crescent Valley Elementary School,EUREKA COUNTY SCHOOL DISTRICT,Eureka County,Box Butte 249,Eureka,NV,89316,,(775)468-0213,43,Rural: Remote,No,No,–,–,46,4,11.5,16,4
320006000023,NV-02-02205,3200060,NV-02,PK,5,Crestwood Elementary School,CLARK COUNTY SCHOOL DISTRICT,Clark County,1300 Pauline Way,Las Vegas,NV,89104,,(702)799-7890,11,City: Large,No,No,Yes,Yes,706,34,20.8,536,49
320006000381,NV-02-02125,3200060,NV-02,PK,5,Cynthia Cunningham Elementary School,CLARK COUNTY SCHOOL DISTRICT,Clark County,4145 Jimmy Durante,Las Vegas,NV,89122,,(702)799-8780,21,Suburb: Large,No,No,Yes,Yes,776,46,16.9,752,24
320006000024,NV-02-02259,3200060,NV-02,PK,5,Cyril Wengert Elementary School,CLARK COUNTY SCHOOL DISTRICT,Clark County,2001 Winterwood Blvd.,Las Vegas,NV,89142,,(702)799-8600,21,Suburb: Large,No,No,Yes,Yes,659,33,20,627,29
320006000741,NV-02-02094,3200060,NV-02,PK,5,D L Dusty Dickens Elementary School,CLARK COUNTY SCHOOL DISTRICT,Clark County,5550 Milan Peak St.,North Las Vegas,NV,89081,,(702)799-3878,21,Suburb: Large,No,No,Yes,Yes,753,46,16.4,465,101
320006000509,NV-02-02283,3200060,NV-02,PK,5,D'Vorre & Hall Ober Elementary School,CLARK COUNTY SCHOOL DISTRICT,Clark County,3035 Desert Marigold Ln.,Las Vegas,NV,89135,,(702)799-6077,21,Suburb: Large,No,No,Yes,Yes,766,37,20.7,286,47
320048000602,NV-16-16609,3200480,NV-16,9,12,Damonte Ranch High School,WASHOE COUNTY SCHOOL DISTRICT,Washoe County,10500 Rio Wrangler Parkway,Reno,NV,89511,,(775)851-5656,12,City: Midsize,No,No,–,–,1813,83,21.8,371,49
320006000439,NV-02-02153,3200060,NV-02,PK,5,Dan Goldfarb Elementary School,CLARK COUNTY SCHOOL DISTRICT,Clark County,1651 Orchard Valley Dr,Las Vegas,NV,89142,,(702)799-1550,21,Suburb: Large,No,No,Yes,Yes,822,39,21.1,730,89
320048000206,NV-16-16303,3200480,NV-16,6,8,Darrell C Swope Middle School,WASHOE COUNTY SCHOOL DISTRICT,Washoe County,901 Keele Drive,Reno,NV,89509,,(775)333-5330,12,City: Midsize,No,Yes,–,–,765,27,28.3,169,14
320051000255,NV-17-17201,3200510,NV-17,PK,5,David E Norman Elementary School,WHITE PINE COUNTY SCHOOL DISTRICT,White Pine County,1001 E 11th St,Ely,NV,89301,,(775)289-4846,33,Town: Remote,No,No,Yes,Yes,385,24,16,164,35
320006000382,NV-02-02126,3200060,NV-02,PK,5,David M Cox Elementary School,CLARK COUNTY SCHOOL DISTRICT,Clark County,280 Clark Drive,Henderson,NV,89074,,(702)799-5730,11,City: Large,No,No,–,–,648,31,20.9,628,20
320030000174,NV-10-10201,3200300,NV-10,PK,6,Dayton Elementary School,LYON COUNTY SCHOOL DISTRICT,Lyon County,285 Dayton Valley Rd,Dayton,NV,89403,,(775)246-6262,31,Town: Fringe,No,No,Yes,Yes,508,32,15.9,253,51
320030000310,NV-10-10604,3200300,NV-10,9,12,Dayton High School,LYON COUNTY SCHOOL DISTRICT,Lyon County,335 Dayton Valley Road,Dayton,NV,89403,,(775)246-6240,31,Town: Fringe,No,No,Yes,Yes,682,34,20.1,231,53
320030000386,NV-10-10208,3200300,NV-10,7,8,Dayton Intermediate School,LYON COUNTY SCHOOL DISTRICT,Lyon County,315 Dayton Valley Road,Dayton,NV,89403,,(775)246-6250,31,Town: Fringe,No,No,Yes,Yes,346,20,17.3,151,33
320006000437,NV-02-02151,3200060,NV-02,PK,5,Dean LaMar Allen Elementary School,CLARK COUNTY SCHOOL DISTRICT,Clark County,8680 W. Hammer Ln.,Las Vegas,NV,89149,,(702)799-4580,21,Suburb: Large,No,No,–,–,517,29,17.8,168,20
320006000589,NV-02-02289,3200060,NV-02,PK,5,Dean Petersen Elementary School,CLARK COUNTY SCHOOL DISTRICT,Clark County,3650 Cambridge St.,Las Vegas,NV,89169,,(702)799-1120,12,City: Midsize,No,No,Yes,Yes,976,49,19.9,964,12
320006000659,NV-02-02355,3200060,NV-02,6,8,Del E Webb Middle School,CLARK COUNTY SCHOOL DISTRICT,Clark County,2200 Reunion Dr.,Henderson,NV,89052,,(702)799-1305,11,City: Large,No,No,–,–,1787,60,29.8,329,66
320006000571,NV-02-02430,3200060,NV-02,9,12,Del Sol Academy of the Performing Arts,CLARK COUNTY SCHOOL DISTRICT,Clark County,3100 E. Patrick Ln.,Las Vegas,NV,89120,,(702)799-6830,12,City: Midsize,No,Yes,Yes,Yes,2379,89,26.7,1527,153
320006000025,NV-02-02315,3200060,NV-02,6,8,Dell H Robison Middle School,CLARK COUNTY SCHOOL DISTRICT,Clark County,825 Marion Dr.,Las Vegas,NV,89110,,(702)799-7300,11,City: Large,No,No,Yes,Yes,1288,42,30.7,1007,88
320006000745,NV-02-02621,3200060,NV-02,6,12,Delta Academy,CLARK COUNTY SCHOOL DISTRICT,Clark County,818 West Brooks Ave.,North Las Vegas,NV,89030,,(702)396-2252,21,Suburb: Large,Yes,No,–,–,486,–,†,276,28
320002200883,NV-21-46100,3200022,NV-21,KG,5,Democracy Prep at Agassi Elementary,ACHIEVEMENT SCHOOL DISTRICT,Clark County,1201 W Lake Mead Blvd,Las Vegas,NV,89106,,(702)316-2410,11,City: Large,No,No,Yes,Yes,479,21,22.8,479,–
320002200882,NV-21-46300,3200022,NV-21,9,12,Democracy Prep at Agassi High,ACHIEVEMENT SCHOOL DISTRICT,Clark County,1201 W. Lake Mead BLVD,Las Vegas,NV,89106,,(702)316-2410,11,City: Large,No,No,Yes,Yes,237,–,†,234,3
320002200884,NV-21-46200,3200022,NV-21,6,8,Democracy Prep at Agassi Middle,ACHIEVEMENT SCHOOL DISTRICT,Clark County,1201 W. Lake Mead BLVD,Las Vegas,NV,89106,,(702)316-2410,11,City: Large,No,No,Yes,Yes,307,–,†,307,–
320021000150,NV-07-07101,3200210,NV-07,PK,8,Denio Elementary School,HUMBOLDT COUNTY SCHOOL DISTRICT,Humboldt County,Box Butte 76,Denio,NV,89404,,(775)941-0376,43,Rural: Remote,No,No,Yes,Yes,6,1,6,†,†
320006000915,NV-02-02065,3200060,NV-02,PK,5,Dennis Ortwein Elementary,CLARK COUNTY SCHOOL DISTRICT,Clark County,10926 Dean Martin Drive,Las Vegas,NV,89141,,(702)799-2680,21,Suburb: Large,No,No,–,–,680,36,18.9,242,37
320048000426,NV-16-16268,3200480,NV-16,PK,6,Desert Heights Elementary School,WASHOE COUNTY SCHOOL DISTRICT,Washoe County,13948 Mt. Bismark Street,Reno,NV,89506,,(775)677-5444,12,City: Midsize,No,No,Yes,Yes,507,35,14.5,507,–
320006000754,NV-02-02623,3200060,NV-02,9,12,Desert Oasis High School,CLARK COUNTY SCHOOL DISTRICT,Clark County,6600 W. Erie Ave.,Las Vegas,NV,89141,,(702)799-6881,41,Rural: Fringe,No,No,Yes,Yes,3169,104,30.5,941,243
320006000495,NV-02-02609,3200060,NV-02,9,12,Desert Pines High School,CLARK COUNTY SCHOOL DISTRICT,Clark County,3800 Harris Ave.,Las Vegas,NV,89110,,(702)799-2196,11,City: Large,No,Yes,Yes,Yes,2878,116,24.8,2062,144
320006000767,NV-02-02955,3200060,NV-02,9,12,Desert Rose High School,CLARK COUNTY SCHOOL DISTRICT,Clark County,444 W. Brook Ave.,North Las Vegas,NV,89030,,(702)799-6240,21,Suburb: Large,No,No,Yes,Yes,383,24,16,369,14
320048000932,NV-16-16321,3200480,NV-16,6,8,DESERT SKIES MIDDLE SCHOOL,WASHOE COUNTY SCHOOL DISTRICT,Washoe County,7550 DONATELLO DR,SUN VALLEY,NV,89433,,(775)674-4915,41,Rural: Fringe,No,†,†,†,†,†,†,†,†
320006000683,NV-02-02927,3200060,NV-02,6,12,Desert Willow Secondary,CLARK COUNTY SCHOOL DISTRICT,Clark County,245 N. Pecos Rd.,Las Vegas,NV,89101,,(702)799-5631,11,City: Large,No,No,–,–,16,–,†,7,–
320000100818,NV-18-61417,3200001,NV-18,KG,8,Discovery Charter School HillPointe,STATE-SPONSORED CHARTER SCHOOLS,Clark County,8941 Hillpointe Rd.,Las Vegas,NV,89134,,(702)240-0359,11,City: Large,Yes,No,–,–,253,9,28.1,65,2
320000100885,NV-18-61415,3200001,NV-18,KG,8,Discovery Charter School Mesa Vista,STATE-SPONSORED CHARTER SCHOOLS,Clark County,3883 E. Mesa Vista Way,Las Vegas,NV,89120,,(702)547-5682,12,City: Midsize,Yes,No,–,–,119,7,17,44,7
320006000872,NV-02-02074,3200060,NV-02,PK,5,Don and Dee Snyder Elementary School,CLARK COUNTY SCHOOL DISTRICT,Clark County,8951 West Ford Ave,Las Vegas,NV,89148,,(702)799-1360,21,Suburb: Large,No,No,Yes,Yes,834,42,19.9,336,62
320006000679,NV-02-02199,3200060,NV-02,PK,5,Don E Hayden Elementary School,CLARK COUNTY SCHOOL DISTRICT,Clark County,150 W. Rome Blvd.,North Las Vegas,NV,89084,,(702)799-3870,21,Suburb: Large,No,No,Yes,Yes,605,31,19.5,574,31
320048000452,NV-16-16272,3200480,NV-16,PK,6,Donner Springs Elementary School,WASHOE COUNTY SCHOOL DISTRICT,Washoe County,5125 Escuela Way,Reno,NV,89502,,(775)689-2626,12,City: Midsize,No,No,Yes,Yes,616,40,15.4,299,64
320000100888,NV-18-55200,3200001,NV-18,KG,8,Doral Academy Cactus,STATE-SPONSORED CHARTER SCHOOLS,Clark County,9025 W. Cactus Ave.,Las Vegas,NV,89178,,(702)960-7500,41,Rural: Fringe,Yes,No,–,–,1002,41,24.4,76,7
320000100893,NV-18-55201,3200001,NV-18,KG,8,Doral Academy Fire Mesa,STATE-SPONSORED CHARTER SCHOOLS,Clark County,2568 Fire Mesa Street,Las Vegas,NV,89128,,(702)901-4950,11,City: Large,Yes,No,–,–,981,45,21.8,242,33
320000100891,NV-18-66436,3200001,NV-18,KG,8,Doral Academy Northern Nevada,STATE-SPONSORED CHARTER SCHOOLS,Washoe County,200 DeSpain Lane,Reno,NV,89511,,(775)453-4239,41,Rural: Fringe,Yes,No,–,–,626,27,23.2,35,6
320000100830,NV-18-55202,3200001,NV-18,KG,12,Doral Academy Red Rock,STATE-SPONSORED CHARTER SCHOOLS,Clark County,626 Crossbridge Drive / 610 Cr,Las Vegas,NV,89138,,(702)776-8630,41,Rural: Fringe,Yes,No,–,–,1637,95,17.2,219,20
320000100906,NV-18-55203,3200001,NV-18,KG,8,Doral Academy Saddle,STATE-SPONSORED CHARTER SCHOOLS,Clark County,9625 W. Saddle Ave.,Las Vegas,NV,89147,,(702)776-6491,21,Suburb: Large,Yes,No,–,–,995,41,24.3,141,23
320000100892,NV-18-55204,3200001,NV-18,KG,8,Doral Academy West Pebble,STATE-SPONSORED CHARTER SCHOOLS,Clark County,6435 W. Pebble Road,Las Vegas,NV,89139,,(702)916-4320,21,Suburb: Large,Yes,No,–,–,920,43,21.4,160,49
320006000026,NV-02-02268,3200060,NV-02,PK,5,Doris French Elementary School,CLARK COUNTY SCHOOL DISTRICT,Clark County,3235 E. Hacienda,Las Vegas,NV,89120,,(702)799-7730,12,City: Midsize,No,No,Yes,Yes,530,31,17.1,513,14
320006000027,NV-02-02207,3200060,NV-02,PK,5,Doris Hancock Elementary School,CLARK COUNTY SCHOOL DISTRICT,Clark County,1661 Lindell Rd.,Las Vegas,NV,89146,,(702)799-4205,11,City: Large,No,No,Yes,Yes,606,38,15.9,590,16
320006000339,NV-02-02295,3200060,NV-02,PK,5,Doris M Reed Elementary School,CLARK COUNTY SCHOOL DISTRICT,Clark County,2501 Winwood St.,Las Vegas,NV,89108,,(702)799-4777,11,City: Large,No,No,Yes,Yes,754,43,17.5,735,19
320006000260,NV-02-02118,3200060,NV-02,PK,5,Dorothy Eisenberg Elementary School,CLARK COUNTY SCHOOL DISTRICT,Clark County,7770 Delhi Ave,Las Vegas,NV,89129,,(702)799-4680,11,City: Large,No,No,Yes,Yes,552,31,17.8,531,21
320048000834,NV-16-16231,3200480,NV-16,PK,6,Dorothy Lemelson STEM Academy Elementary School,WASHOE COUNTY SCHOOL DISTRICT,Washoe County,2001 Soaring Eagle Drive,Reno,NV,89512,,(775)333-5080,12,City: Midsize,No,No,–,–,379,26,14.6,379,–
320048000559,NV-16-16212,3200480,NV-16,PK,5,Double Diamond Elementary School,WASHOE COUNTY SCHOOL DISTRICT,Washoe County,1200 S. Meadows Parkway,Reno,NV,89511,,(775)850-6212,12,City: Midsize,No,No,–,–,868,48,18.1,194,31
320009000764,NV-03-03901,3200090,NV-03,4,12,Douglas Alternative School,DOUGLAS COUNTY SCHOOL DISTRICT,Douglas County,1680 Bently Parkway,Minden,NV,89423,,(775)392-1475,41,Rural: Fringe,No,No,–,–,5,–,†,†,†
320009000861,NV-03-03903,3200090,NV-03,AE,AE,Douglas County Adult School,DOUGLAS COUNTY SCHOOL DISTRICT,Douglas County,1680 Bently Parkway,Minden,NV,89423,,(775)392-1475,41,Rural: Fringe,No,No,†,†,0,–,†,4,–
320009000120,NV-03-03501,3200090,NV-03,9,12,Douglas County High School,DOUGLAS COUNTY SCHOOL DISTRICT,Douglas County,1670 Highway 88,Minden,NV,89423,,(775)782-5136,32,Town: Distant,No,No,–,–,1688,115,14.7,358,92
320006000876,NV-02-02072,3200060,NV-02,PK,5,Dr. Beverly S. Mathis Elementary School,CLARK COUNTY SCHOOL DISTRICT,Clark County,7950 Arville Street,Las Vegas,NV,89139,,(702)799-8170,21,Suburb: Large,No,No,Yes,Yes,955,49,19.5,441,79
320006000743,NV-02-02096,3200060,NV-02,PK,5,Dr. C Owen Roundy Elementary School,CLARK COUNTY SCHOOL DISTRICT,Clark County,2755 Mohawk St.,Las Vegas,NV,89146,,(702)799-5890,21,Suburb: Large,No,No,Yes,Yes,835,37,22.6,819,16
320006000733,NV-02-02091,3200060,NV-02,PK,5,Dr. Claude G Perkins Elementary School,CLARK COUNTY SCHOOL DISTRICT,Clark County,3700 Shadow Tree St.,North Las Vegas,NV,89032,,(702)799-1805,21,Suburb: Large,No,No,Yes,Yes,641,35,18.3,564,74
320006000663,NV-02-02357,3200060,NV-02,6,8,Dr. William (Bob) H Bailey Middle School,CLARK COUNTY SCHOOL DISTRICT,Clark County,2500 N. Hollywood Blvd.,Las Vegas,NV,89156,,(702)799-4811,21,Suburb: Large,No,No,Yes,Yes,1348,50,27,1283,65
320006000462,NV-02-02332,3200060,NV-02,6,8,Duane D Keller Middle School,CLARK COUNTY SCHOOL DISTRICT,Clark County,301 N. Fogg St.,Las Vegas,NV,89110,,(702)799-3220,21,Suburb: Large,No,No,Yes,Yes,1300,44,29.5,947,106
320036000188,NV-12-12101,3200360,NV-12,PK,5,Duckwater Elementary School,NYE COUNTY SCHOOL DISTRICT,Nye County,2 Duckwater Rd,Duckwater,NV,89314,,(775)863-0277,43,Rural: Remote,No,No,–,–,10,1,10,3,†
320036000729,NV-12-12317,3200360,NV-12,6,8,Duckwater Middle School,NYE COUNTY SCHOOL DISTRICT,Nye County,2 Duckwater Rd.,Duckwater,NV,89314,,(775)863-0277,43,Rural: Remote,No,No,–,–,3,1,3,†,†
320006000276,NV-02-02417,3200060,NV-02,9,12,Durango High School,CLARK COUNTY SCHOOL DISTRICT,Clark County,7100 W. Dewey Dr.,Las Vegas,NV,89113,,(702)799-5850,21,Suburb: Large,No,No,Yes,Yes,2390,88,27.2,1180,216
320015000143,NV-05-05101,3200150,NV-05,PK,8,Dyer Elementary School,ESMERALDA COUNTY SCHOOL DISTRICT,Esmeralda County,Box Butte 129,Dyer,NV,89010,,(775)572-3250,43,Rural: Remote,No,No,Yes,Yes,57,3,19,35,2
320003000004,NV-01-01205,3200030,NV-01,2,3,E C Best Elementary School,CHURCHILL COUNTY SCHOOL DISTRICT,Churchill County,750 E Williams Avenue,Fallon,NV,89406,,(775)423-3159,33,Town: Remote,No,No,Yes,Yes,491,27,18.2,242,38
320048000207,NV-16-16304,3200480,NV-16,7,8,E Otis Vaughn Middle School,WASHOE COUNTY SCHOOL DISTRICT,Washoe County,1200 Bresson Avenue,Reno,NV,89502,,(775)333-5160,12,City: Midsize,No,No,Yes,Yes,602,33,18.2,382,54
320006000028,NV-02-02208,3200060,NV-02,PK,5,E W Griffith Elementary School,CLARK COUNTY SCHOOL DISTRICT,Clark County,324 Essex Dr.,Las Vegas,NV,89107,,(702)799-4200,11,City: Large,No,No,Yes,Yes,628,33,19,600,25
320030000768,NV-10-10902,3200300,NV-10,7,12,Eagle Ridge High School,LYON COUNTY SCHOOL DISTRICT,Lyon County,3550 W. Graham Avenue,Silver Springs,NV,89429,,(775)577-4200,42,Rural: Distant,No,No,–,–,11,–,†,6,–
320039000315,NV-13-13302,3200390,NV-13,6,8,Eagle Valley Middle School,CARSON CITY SCHOOL DISTRICT,Carson City,4151 East 5th Street,Carson City,NV,89703,,(775)283-2600,13,City: Small,No,No,Yes,Yes,685,45,15.2,348,57
320006000080,NV-02-02103,3200060,NV-02,PK,5,Earl B Lundy Elementary School,CLARK COUNTY SCHOOL DISTRICT,Clark County,4405 Yellow Pine Ave,Mt Charleston,NV,89124,,(702)872-5438,42,Rural: Distant,No,No,–,–,16,2,8,2,1
320048000208,NV-16-16501,3200480,NV-16,9,12,Earl Wooster High School,WASHOE COUNTY SCHOOL DISTRICT,Washoe County,1331 E Plumb Lane,Reno,NV,89502,,(775)333-5100,12,City: Midsize,No,Yes,Yes,Yes,1624,87,18.7,758,103
320051000776,NV-17-17204,3200510,NV-17,PK,PK,Early Childhood,WHITE PINE COUNTY SCHOOL DISTRICT,White Pine County,1001 E 11th St,Ely,NV,89301,,(775)289-4846,33,Town: Remote,No,No,–,–,9,–,†,4,–
320006000797,NV-02-02227,3200060,NV-02,PK,KG,Early Childhood Program,CLARK COUNTY SCHOOL DISTRICT,Clark County,2625 E St Louis Ave,Las Vegas,NV,89104,,(702)799-7479,11,City: Large,No,No,–,–,39,2,19.5,3,†
320012000836,NV-04-04904,3200120,NV-04,PK,PK,Early Childhood School,ELKO COUNTY SCHOOL DISTRICT,Elko County,Box Butte 1012,Elko,NV,89803,,(775)753-8646,33,Town: Remote,No,No,–,–,94,–,†,4,–
320012000829,NV-04-04905,3200120,NV-04,PK,PK,Early Childhood School - GBC,ELKO COUNTY SCHOOL DISTRICT,†,Box Butte 1012,Elko,NV,89803,,(775)753-8646,†,N,No,†,†,†,†,†,†,†,†
320006000748,NV-02-02624,3200060,NV-02,9,12,East Career Technical Academy,CLARK COUNTY SCHOOL DISTRICT,Clark County,6705 Vegas Valley Dr.,Las Vegas,NV,89142,,(702)799-8888,41,Rural: Fringe,No,Yes,Yes,Yes,1912,74,25.8,929,279
320030000704,NV-10-10206,3200300,NV-10,PK,4,East Valley Elementary,LYON COUNTY SCHOOL DISTRICT,Lyon County,4180 Farm District Road,Fernley,NV,89408,,(775)575-3332,32,Town: Distant,No,No,Yes,Yes,525,29,18.1,250,44
320048000209,NV-16-16202,3200480,NV-16,PK,6,Echo Loder Elementary School,WASHOE COUNTY SCHOOL DISTRICT,Washoe County,600 Apple Street,Reno,NV,89502,,(775)689-2540,12,City: Midsize,No,No,Yes,Yes,542,33,16.4,538,1
320006000029,NV-02-02301,3200060,NV-02,6,8,Ed Von Tobel Middle School,CLARK COUNTY SCHOOL DISTRICT,Clark County,2436 N. Pecos Rd.,Las Vegas,NV,89115,,(702)799-7280,21,Suburb: Large,No,No,Yes,Yes,1166,48,24.3,1129,37
320006000030,NV-02-02401,3200060,NV-02,9,12,Ed W Clark High School,CLARK COUNTY SCHOOL DISTRICT,Clark County,4291 Pennwood Ave.,Las Vegas,NV,89102,,(702)799-5800,11,City: Large,No,Yes,Yes,Yes,3267,125,26.1,1840,201
320006000473,NV-02-02167,3200060,NV-02,PK,5,Edith Garehime Elementary School,CLARK COUNTY SCHOOL DISTRICT,Clark County,3850 Campbell Rd.,Las Vegas,NV,89129,,(702)799-6000,11,City: Large,No,No,Yes,Yes,765,41,18.7,340,42
320039000286,NV-13-13203,3200390,NV-13,PK,5,Edith West Fritsch Elementary School,CARSON CITY SCHOOL DISTRICT,Carson City,504 Bath Street,Carson City,NV,89701,,(775)283-1400,13,City: Small,No,No,Yes,Yes,528,29,18.2,223,17
320006000739,NV-02-02361,3200060,NV-02,6,8,Edmundo Eddie Escobedo SR Middle School,CLARK COUNTY SCHOOL DISTRICT,Clark County,9501 Echelon Point Dr.,Las Vegas,NV,89149,,(702)799-4560,11,City: Large,No,No,Yes,Yes,1195,39,30.6,451,100
320006000341,NV-02-02297,3200060,NV-02,PK,5,Edna F Hinman Elementary School,CLARK COUNTY SCHOOL DISTRICT,Clark County,450 Merlayne Dr.,Henderson,NV,89015,,(702)799-8990,11,City: Large,No,No,Yes,Yes,470,28,16.8,446,24
320048000210,NV-16-16505,3200480,NV-16,9,12,Edward C Reed High School,WASHOE COUNTY SCHOOL DISTRICT,Washoe County,1350 Baring Blvd,Sparks,NV,89434,,(775)353-5700,21,Suburb: Large,No,No,–,–,2093,94,22.3,456,90
320048000211,NV-16-16302,3200480,NV-16,6,8,Edward L Pine Middle School,WASHOE COUNTY SCHOOL DISTRICT,Washoe County,4800 Neil Road,Reno,NV,89502,,(775)689-2550,12,City: Midsize,No,Yes,Yes,Yes,1003,50,20.1,440,50
320048000316,NV-16-16258,3200480,NV-16,PK,6,Edwin S Dodson Elementary School,WASHOE COUNTY SCHOOL DISTRICT,Washoe County,4355 Houston,Reno,NV,89502,,(775)689-2530,12,City: Midsize,No,No,Yes,Yes,433,28,15.5,240,33
320006000265,NV-02-02134,3200060,NV-02,PK,5,Edythe & Lloyd Katz Elementary School,CLARK COUNTY SCHOOL DISTRICT,Clark County,1800 Rock Springs Dr.,Las Vegas,NV,89128,,(702)799-4330,11,City: Large,No,No,Yes,Yes,678,36,18.8,661,17
320006000548,NV-02-02179,3200060,NV-02,PK,5,Eileen Brookman Elementary School,CLARK COUNTY SCHOOL DISTRICT,Clark County,6225 E Washington Ave.,Las Vegas,NV,89110,,(702)799-7250,21,Suburb: Large,No,No,Yes,Yes,738,34,21.7,395,72
320006000573,NV-02-02184,3200060,NV-02,PK,5,Eileen Conners Elementary School,CLARK COUNTY SCHOOL DISTRICT,Clark County,3810 Shadow Peak St.,Las Vegas,NV,89129,,(702)799-1402,11,City: Large,No,No,Yes,Yes,674,37,18.2,292,60
320006000377,NV-02-02121,3200060,NV-02,PK,5,Elaine Wynn Elementary School,CLARK COUNTY SCHOOL DISTRICT,Clark County,5655 Edna Ave,Las Vegas,NV,89146,,(702)799-8160,21,Suburb: Large,No,No,Yes,Yes,919,42,21.9,888,31
320006000031,NV-02-02267,3200060,NV-02,PK,5,Elbert Edwards Elementary School,CLARK COUNTY SCHOOL DISTRICT,Clark County,4551 Diamond Head,Las Vegas,NV,89110,,(702)799-7320,11,City: Large,No,No,Yes,Yes,674,34,19.8,658,13
320006000032,NV-02-02410,3200060,NV-02,9,12,Eldorado High School,CLARK COUNTY SCHOOL DISTRICT,Clark County,1139 N. Linn Ln.,Las Vegas,NV,89110,,(702)799-7200,21,Suburb: Large,No,Yes,Yes,Yes,2043,76,26.9,1216,149
320024000866,NV-08-08302,3200240,NV-08,6,8,Eleanor Lemaire Junior High School,LANDER COUNTY SCHOOL DISTRICT,Lander County,Box Butte 1360,Battle Mountain,NV,89820,,(775)635-8114,41,Rural: Fringe,No,No,–,–,205,15,13.7,78,21
320006000513,NV-02-02287,3200060,NV-02,PK,5,Elise L. Wolff Elementary School,CLARK COUNTY SCHOOL DISTRICT,Clark County,1001 Seven Hills Dr.,Henderson,NV,89052,,(702)799-2230,11,City: Large,No,No,–,–,891,44,20.3,158,19
320048000317,NV-16-16257,3200480,NV-16,PK,6,Elizabeth Lenz Elementary School,WASHOE COUNTY SCHOOL DISTRICT,Washoe County,2500 Homeland Drive,Reno,NV,89511,,(775)851-5620,21,Suburb: Large,No,No,–,–,467,28,16.7,24,4
320006000435,NV-02-02149,3200060,NV-02,PK,5,Elizabeth Wilhelm Elementary School,CLARK COUNTY SCHOOL DISTRICT,Clark County,609 W Alexander Rd,North Las Vegas,NV,89032,,(702)799-1750,21,Suburb: Large,No,No,Yes,Yes,631,33,19.1,555,73
320012000791,NV-04-04903,3200120,NV-04,KG,12,Elko Alt,ELKO COUNTY SCHOOL DISTRICT,†,987 College Avenue,Elko,NV,89801,,(775)738-7281,†,N,No,†,†,†,†,†,†,†,†
320012000129,NV-04-04202,3200120,NV-04,PK,6,Elko Grammar School #2,ELKO COUNTY SCHOOL DISTRICT,Elko County,1055 7th Street,Elko,NV,89801,,(775)738-7161,33,Town: Remote,No,No,Yes,Yes,345,16,21.6,106,19
320012000130,NV-04-04603,3200120,NV-04,8,12,Elko High School,ELKO COUNTY SCHOOL DISTRICT,Elko County,987 College Avenue,Elko,NV,89801,,(775)738-7281,33,Town: Remote,No,No,–,–,1277,8,159.6,279,34
320000100784,NV-18-68410,3200001,NV-18,KG,8,Elko Institute for Academic Achievement,STATE-SPONSORED CHARTER SCHOOLS,Elko County,1031 Railroad St. Suite 107,Elko,NV,89801,,(775)738-3422,33,Town: Remote,Yes,No,–,–,189,11,17.2,39,22
320048000212,NV-16-16203,3200480,NV-16,PK,6,Elmcrest Elementary School,WASHOE COUNTY SCHOOL DISTRICT,Washoe County,855 McDonald Drive,Reno,NV,89503,,(775)746-5850,12,City: Midsize,No,No,Yes,Yes,376,25,15,223,31
320006000291,NV-02-02318,3200060,NV-02,6,8,Elton M Garrett Junior High School,CLARK COUNTY SCHOOL DISTRICT,Clark County,1200 Ave. G,Boulder City,NV,89005,,(702)799-8290,31,Town: Fringe,No,No,–,–,481,20,24.1,128,20
320039000364,NV-13-13209,3200390,NV-13,PK,5,Empire Elementary School,CARSON CITY SCHOOL DISTRICT,Carson City,1260 Monte Rosa,Carson City,NV,89703,,(775)283-1100,13,City: Small,No,No,Yes,Yes,548,36,15.2,523,22
320048000603,NV-16-16610,3200480,NV-16,9,12,enCompass Academy,WASHOE COUNTY SCHOOL DISTRICT,Washoe County,1300 Foster Drive,Reno,NV,89509,,(775)322-5566,12,City: Midsize,Yes,No,Yes,Yes,103,–,†,56,4
320000100856,NV-18-48433,3200001,NV-18,6,12,Equipo Academy,STATE-SPONSORED CHARTER SCHOOLS,Clark County,4131 E Bonanza Rd.,Las Vegas,NV,89110,,(702)907-0432,11,City: Large,Yes,No,Yes,Yes,753,–,†,638,112
320006000273,NV-02-02327,3200060,NV-02,6,8,Ernest Becker Middle School,CLARK COUNTY SCHOOL DISTRICT,Clark County,9151 Pinewood Hills Dr.,Las Vegas,NV,89134,,(702)799-4460,11,City: Large,No,No,Yes,Yes,1420,49,29,735,109
320006000400,NV-02-02132,3200060,NV-02,PK,5,Ernest May Elementary School,CLARK COUNTY SCHOOL DISTRICT,Clark County,6350 W. Washburn Rd.,Las Vegas,NV,89130,,(702)799-4690,11,City: Large,No,No,Yes,Yes,558,30,18.6,247,47
320015000943,NV-05-05501,3200150,NV-05,–,–,Esmeralda Virtual High School,ESMERALDA COUNTY SCHOOL DISTRICT,†,no street address,Goldfield,NV,89013,,(775)485-6382,†,N,No,†,†,†,†,†,†,†,†
320006000342,NV-02-02298,3200060,NV-02,PK,5,Estes M McDoniel Elementary School,CLARK COUNTY SCHOOL DISTRICT,Clark County,1831 Fox Ridge Dr.,Henderson,NV,89014,,(702)799-7788,11,City: Large,No,No,Yes,Yes,528,34,15.5,510,18
320048000481,NV-16-16275,3200480,NV-16,PK,6,Esther Bennett Elementary,WASHOE COUNTY SCHOOL DISTRICT,Washoe County,5900 Sidehill Drive,Sparks,NV,89433,,(775)674-4444,21,Suburb: Large,No,No,Yes,Yes,523,34,15.4,329,54
320006000512,NV-02-02286,3200060,NV-02,PK,5,Ethel W. Staton Elementary School,CLARK COUNTY SCHOOL DISTRICT,Clark County,1700 Sageberry Dr.,Las Vegas,NV,89144,,(702)799-6720,11,City: Large,No,No,–,–,785,42,18.7,140,31
320018000148,NV-06-06601,3200180,NV-06,7,12,Eureka County High School,EUREKA COUNTY SCHOOL DISTRICT,Eureka County,Box Butte 237,Eureka,NV,89316,,(775)237-5361,43,Rural: Remote,No,No,–,–,107,40,2.7,19,8
320018000147,NV-06-06103,3200180,NV-06,PK,6,Eureka Elementary School,EUREKA COUNTY SCHOOL DISTRICT,Eureka County,Box Butte 249,Eureka,NV,89316,,(775)237-5700,43,Rural: Remote,No,No,–,–,168,17,9.9,34,5
320006000574,NV-02-02189,3200060,NV-02,PK,5,Eva G Simmons Elementary School,CLARK COUNTY SCHOOL DISTRICT,Clark County,2328 Silver Clouds Dr.,North Las Vegas,NV,89031,,(702)799-1891,21,Suburb: Large,No,No,Yes,Yes,680,36,18.9,350,68
320006000438,NV-02-02152,3200060,NV-02,PK,5,Eva Wolfe Elementary School,CLARK COUNTY SCHOOL DISTRICT,Clark County,4027 W Washburn Rd,North Las Vegas,NV,89031,,(702)799-1860,21,Suburb: Large,No,No,Yes,Yes,509,31,16.4,484,22
320006000816,NV-02-02078,3200060,NV-02,PK,5,Evelyn Stuckey Elementary School,CLARK COUNTY SCHOOL DISTRICT,Clark County,4905 Chartan Ave,Las Vegas,NV,89141,,(702)799-2274,41,Rural: Fringe,No,No,–,–,682,36,18.9,164,26
320006000596,NV-02-02615,3200060,NV-02,PK,5,Explore Knowledge Academy Charter Elementary,CLARK COUNTY SCHOOL DISTRICT,Clark County,5871 Mountain Vista St.,Las Vegas,NV,89120,,(702)730-2933,12,City: Midsize,Yes,No,–,–,462,–,†,36,–
320006000707,NV-02-02616,3200060,NV-02,6,12,Explore Knowledge Academy Charter Secondary,CLARK COUNTY SCHOOL DISTRICT,Clark County,5871 Mountain Vista St.,Las Vegas,NV,89120,,(702)730-2933,12,City: Midsize,Yes,No,–,–,288,–,†,16,–
320006000290,NV-02-02276,3200060,NV-02,PK,5,Fay Galloway Elementary School,CLARK COUNTY SCHOOL DISTRICT,Clark County,701 Skyline Rd,Henderson,NV,89002,,(702)799-8920,11,City: Large,No,No,Yes,Yes,672,35,19.2,281,53
320006000033,NV-02-02209,3200060,NV-02,PK,5,Fay Herron Elementary School,CLARK COUNTY SCHOOL DISTRICT,Clark County,2421 N. Kenneth Way,North Las Vegas,NV,89030,,(702)799-7123,21,Suburb: Large,No,No,Yes,Yes,845,45,18.8,821,24
320030000175,NV-10-10203,3200300,NV-10,PK,4,Fernley Elementary School,LYON COUNTY SCHOOL DISTRICT,Lyon County,450 Hardie Lane,Fernley,NV,89408,,(775)575-3420,32,Town: Distant,No,No,Yes,Yes,504,30,16.8,309,43
320030000176,NV-10-10601,3200300,NV-10,9,12,Fernley High School,LYON COUNTY SCHOOL DISTRICT,Lyon County,1300 Hwy 95A South,Fernley,NV,89408,,(775)575-3400,32,Town: Distant,No,No,Yes,Yes,1096,47,23.3,439,69
320030000311,NV-10-10303,3200300,NV-10,5,8,Fernley Intermediate School,LYON COUNTY SCHOOL DISTRICT,Lyon County,320 Hwy 95A South,Fernley,NV,89408,,(775)575-3390,32,Town: Distant,No,No,Yes,Yes,662,36,18.4,318,61
320012000750,NV-04-04213,3200120,NV-04,5,8,Flagview Intermediate School,ELKO COUNTY SCHOOL DISTRICT,Elko County,777 Country Club Dr,Elko,NV,89801,,(775)738-7236,33,Town: Remote,No,No,Yes,Yes,781,9,86.8,265,61
320048000214,NV-16-16223,3200480,NV-16,PK,6,Florence Drake Elementary School,WASHOE COUNTY SCHOOL DISTRICT,Washoe County,2755 4th Street,Sparks,NV,89431,,(775)353-5510,21,Suburb: Large,No,No,Yes,Yes,279,20,14,169,29
320006000794,NV-02-02954,3200060,NV-02,AE,AE,Florence McClure Correctional Center,CLARK COUNTY SCHOOL DISTRICT,†,4370 Smiley Rd.,North Las Vegas,NV,89115,,(702)651-9327,†,N,No,†,†,†,†,†,†,†,†
320036000752,NV-12-12210,3200360,NV-12,PK,5,Floyd Elementary School,NYE COUNTY SCHOOL DISTRICT,Nye County,6181 S. Jane Avenue,Pahrump,NV,89061,,(775)751-4889,41,Rural: Fringe,No,No,Yes,Yes,524,30,17.5,504,20
320006000494,NV-02-02608,3200060,NV-02,9,12,Foothill High School,CLARK COUNTY SCHOOL DISTRICT,Clark County,800 College Dr.,Henderson,NV,89002,,(702)799-3500,11,City: Large,No,No,–,–,2720,98,27.8,714,155
320000100843,NV-18-51430,3200001,NV-18,KG,12,Founders Academy of Nevada,STATE-SPONSORED CHARTER SCHOOLS,Clark County,5730 W. Alexander Road,Las Vegas,NV,89130,,(702)998-8368,11,City: Large,Yes,No,–,–,714,24,29.8,79,43
320006000476,NV-02-02335,3200060,NV-02,6,8,Francis H Cortney Junior High School,CLARK COUNTY SCHOOL DISTRICT,Clark County,5301 E. Hacienda Ave.,Las Vegas,NV,89122,,(702)799-2400,21,Suburb: Large,No,No,Yes,Yes,1236,49,25.2,906,104
320006000034,NV-02-02302,3200060,NV-02,6,8,Frank F Garside Junior High School,CLARK COUNTY SCHOOL DISTRICT,Clark County,300 S. Torrey Pines Dr.,Las Vegas,NV,89107,,(702)799-4245,11,City: Large,No,No,Yes,Yes,1266,52,24.3,986,103
320006000345,NV-02-02107,3200060,NV-02,PK,5,Frank Kim Elementary School,CLARK COUNTY SCHOOL DISTRICT,Clark County,7600 Peace Way,Las Vegas,NV,89147,,(702)799-5990,21,Suburb: Large,No,No,Yes,Yes,528,25,21.1,315,51
320006000472,NV-02-02166,3200060,NV-02,PK,5,Frank S Lamping Elementary School,CLARK COUNTY SCHOOL DISTRICT,Clark County,2551 Summit Grove Dr.,Henderson,NV,89052,,(702)799-1330,11,City: Large,No,No,–,–,671,37,18.1,105,14
320048000215,NV-16-16305,3200480,NV-16,6,8,Fred W Traner Middle School,WASHOE COUNTY SCHOOL DISTRICT,Washoe County,1700 Carville Drive,Reno,NV,89512,,(775)333-5130,12,City: Midsize,No,No,Yes,Yes,781,40,19.5,781,–
320006000532,NV-02-02177,3200060,NV-02,PK,5,Fredric W Watson Elementary School,CLARK COUNTY SCHOOL DISTRICT,Clark County,5845 N. Commerce St.,Norrth Las Vegas,NV,89031,,(702)799-7040,21,Suburb: Large,No,No,Yes,Yes,703,39,18,661,42
320000100842,NV-18-38435,3200001,NV-18,KG,8,Freedom Classical Academy,STATE-SPONSORED CHARTER SCHOOLS,Clark County,777 E Ann Road,North Las Vegas,NV,89081,,(702)533-1896,21,Suburb: Large,Yes,No,–,–,987,–,†,164,115
320021000416,NV-07-07206,3200210,NV-07,5,6,French Ford Middle School,HUMBOLDT COUNTY SCHOOL DISTRICT,Humboldt County,5495 Palisade Drive,Winnemucca,NV,89445,,(775)623-8200,33,Town: Remote,No,No,Yes,Yes,504,27,18.7,210,42
320002200881,NV-21-43100,3200022,NV-21,KG,3,Futuro Academy Elementary,ACHIEVEMENT SCHOOL DISTRICT,Clark County,920 North Lamb Blvd,Las Vegas,NV,89110,,(702)546-9139,11,City: Large,No,No,Yes,Yes,259,10,25.9,189,36
320036000189,NV-12-12105,3200360,NV-12,PK,5,Gabbs Elementary School,NYE COUNTY SCHOOL DISTRICT,Nye County,Box Butte 147,Gabbs,NV,89409,,(775)285-2692,43,Rural: Remote,No,No,Yes,Yes,17,2,8.5,17,–
320036000190,NV-12-12602,3200360,NV-12,9,12,Gabbs High School,NYE COUNTY SCHOOL DISTRICT,Nye County,Box Butte 147,Gabbs,NV,89409,,(775)285-2692,43,Rural: Remote,No,No,Yes,Yes,11,1,11,11,–
320036000575,NV-12-12315,3200360,NV-12,6,8,Gabbs Middle School,NYE COUNTY SCHOOL DISTRICT,Nye County,Box Butte 147,Gabbs,NV,89409,,(775)285-2692,43,Rural: Remote,No,No,Yes,Yes,5,2,2.5,†,†
320048000257,NV-16-16509,3200480,NV-16,9,12,Galena High School,WASHOE COUNTY SCHOOL DISTRICT,Washoe County,3600 Butch Cassidy Way,Reno,NV,89511,,(775)851-5630,21,Suburb: Large,No,No,–,–,1455,74,19.7,358,48
320009000121,NV-03-03201,3200090,NV-03,PK,5,Gardnerville Elementary School,DOUGLAS COUNTY SCHOOL DISTRICT,Douglas County,1290 Toler Avenue,Gardnerville,NV,89410,,(775)782-5117,32,Town: Distant,No,No,Yes,Yes,371,23,16.1,123,27
320009000347,NV-03-03207,3200090,NV-03,PK,5,Gene Scarselli Elementary School,DOUGLAS COUNTY SCHOOL DISTRICT,Douglas County,699 Long Valley Road,Gardnerville,NV,89460,,(775)265-2222,32,Town: Distant,No,No,Yes,Yes,426,25,17,141,30
320006000035,NV-02-02258,3200060,NV-02,PK,5,Gene Ward Elementary School,CLARK COUNTY SCHOOL DISTRICT,Clark County,1555 E. Hacienda Ave.,Las Vegas,NV,89119,,(702)799-5650,12,City: Midsize,No,No,Yes,Yes,711,41,17.3,694,17
320006000036,NV-02-02262,3200060,NV-02,PK,5,George E Harris Elementary School,CLARK COUNTY SCHOOL DISTRICT,Clark County,3620 S. Sandhill,Las Vegas,NV,89121,,(702)799-7750,12,City: Midsize,No,No,Yes,Yes,676,38,17.8,653,23
320048000216,NV-16-16306,3200480,NV-16,6,8,George L Dilworth Middle School,WASHOE COUNTY SCHOOL DISTRICT,Washoe County,255 Prater Way,Sparks,NV,89431,,(775)353-5740,21,Suburb: Large,No,No,Yes,Yes,712,41,17.4,461,62
320048000368,NV-16-16264,3200480,NV-16,PK,5,George Westergard Elementary School,WASHOE COUNTY SCHOOL DISTRICT,Washoe County,1785 Ambassador Drive,Reno,NV,89523,,(775)746-5800,12,City: Midsize,No,No,–,–,633,35,18.1,102,13
320009000122,NV-03-03502,3200090,NV-03,7,12,George Whittell High School,DOUGLAS COUNTY SCHOOL DISTRICT,Douglas County,Box Butte 677,Zephyr Cove,NV,89448,,(775)588-2446,41,Rural: Fringe,No,No,–,–,162,34,4.8,34,9
320048000217,NV-16-16601,3200480,NV-16,PK,12,Gerlach K-12,WASHOE COUNTY SCHOOL DISTRICT,Washoe County,555 East Sunset Boulevard,Gerlach,NV,89412,,(775)557-2326,43,Rural: Remote,No,No,–,–,31,2,15.5,11,–
320006000583,NV-02-02230,3200060,NV-02,PK,5,Glen C. Taylor Elementary School,CLARK COUNTY SCHOOL DISTRICT,Clark County,2655 Siena Heights Dr.,Henderson,NV,89052,,(702)799-6892,11,City: Large,No,No,–,–,843,40,21.1,205,35
320048000218,NV-16-16204,3200480,NV-16,PK,5,Glenn Duncan STEM Academy,WASHOE COUNTY SCHOOL DISTRICT,Washoe County,1200 Montello Street,Reno,NV,89512,,(775)333-5190,12,City: Midsize,No,No,Yes,Yes,411,32,12.8,411,–
320006000328,NV-02-02923,3200060,NV-02,9,12,Global Community HS at Morris Hall,CLARK COUNTY SCHOOL DISTRICT,Clark County,3801 E. Washington Ave.,Las Vegas,NV,89110,,(702)799-8850,11,City: Large,No,No,–,–,157,16,9.8,152,2
320015000144,NV-05-05102,3200150,NV-05,PK,8,Goldfield Elementary School,ESMERALDA COUNTY SCHOOL DISTRICT,Esmeralda County,Box Butte 560,Goldfield,NV,89013,,(775)485-3215,43,Rural: Remote,No,No,Yes,Yes,32,2,16,16,1
320006000037,NV-02-02102,3200060,NV-02,PK,5,Goodsprings Elementary School,CLARK COUNTY SCHOOL DISTRICT,Clark County,Box Butte 747,Goodsprings,NV,89019,,(702)874-1378,42,Rural: Distant,No,No,Yes,Yes,22,2,11,22,–
320006000038,NV-02-02249,3200060,NV-02,PK,5,Gordon McCaw Elementary School,CLARK COUNTY SCHOOL DISTRICT,Clark County,330 Tin St.,Henderson,NV,89015,,(702)799-8930,11,City: Large,No,Yes,Yes,Yes,718,40,18,358,60
320039000288,NV-13-13201,3200390,NV-13,PK,5,Grace Bordewich Mildred Bray Elementary,CARSON CITY SCHOOL DISTRICT,Carson City,110 Thompson Street,Carson City,NV,89703,,(775)283-2400,13,City: Small,No,No,Yes,Yes,618,40,15.5,309,49
320048000219,NV-16-16205,3200480,NV-16,PK,6,Grace Warner Elementary School,WASHOE COUNTY SCHOOL DISTRICT,Washoe County,3075 Heights Drive,Reno,NV,89503,,(775)746-5830,12,City: Midsize,No,No,Yes,Yes,400,28,14.3,246,30
320006000302,NV-02-02279,3200060,NV-02,PK,5,Grant Bowler Elementary School,CLARK COUNTY SCHOOL DISTRICT,Clark County,1425 Whipple Rd.,Logandale,NV,89021,,(702)398-3233,41,Rural: Fringe,No,No,–,–,646,37,17.5,119,25
320006000274,NV-02-02328,3200060,NV-02,6,8,Grant Sawyer Middle School,CLARK COUNTY SCHOOL DISTRICT,Clark County,5450 Redwood St.,Las Vegas,NV,89118,,(702)799-5980,21,Suburb: Large,No,No,Yes,Yes,1202,48,25,1087,112
320021000325,NV-07-07205,3200210,NV-07,PK,4,Grass Valley Elementary School,HUMBOLDT COUNTY SCHOOL DISTRICT,Humboldt County,6465 Grass Valley Road,Winnemucca,NV,89445,,(775)623-8150,33,Town: Remote,No,No,Yes,Yes,514,35,14.7,215,66
320006000407,NV-02-02416,3200060,NV-02,9,12,Green Valley High School,CLARK COUNTY SCHOOL DISTRICT,Clark County,460 Arroyo Grande Blvd.,Henderson,NV,89014,,(702)799-0950,11,City: Large,No,No,Yes,Yes,3060,102,30,1015,180
320048000220,NV-16-16224,3200480,NV-16,PK,6,Greenbrae Elementary School,WASHOE COUNTY SCHOOL DISTRICT,Washoe County,1840 4th Street,Sparks,NV,89431,,(775)353-5530,21,Suburb: Large,No,No,Yes,Yes,368,23,16,368,–
320006000372,NV-02-02116,3200060,NV-02,PK,5,Gwendolyn Woolley Elementary School,CLARK COUNTY SCHOOL DISTRICT,Clark County,3955 Timberlake Dr,Las Vegas,NV,89115,,(702)799-4970,21,Suburb: Large,No,No,Yes,Yes,754,38,19.8,730,24
320006000269,NV-02-02143,3200060,NV-02,PK,5,H P Fitzgerald Elementary School,CLARK COUNTY SCHOOL DISTRICT,Clark County,2651 N. Revere St.,North Las Vegas,NV,89030,,(702)799-0600,21,Suburb: Large,No,No,Yes,Yes,437,26,16.8,434,3
320036000543,NV-12-12207,3200360,NV-12,PK,5,Hafen Elementary,NYE COUNTY SCHOOL DISTRICT,Nye County,7120 S. Hafen Ranch Road,Pahrump,NV,89061,,(775)751-4688,41,Rural: Fringe,No,No,Yes,Yes,385,24,16,380,5
320006000510,NV-02-02284,3200060,NV-02,PK,5,Hal Smith Elementary School,CLARK COUNTY SCHOOL DISTRICT,Clark County,5150 E. Desert Inn Rd.,Las Vegas,NV,89122,,(702)799-3700,21,Suburb: Large,No,No,Yes,Yes,990,49,20.2,976,14
320006000039,NV-02-02210,3200060,NV-02,PK,5,Halle Hewetson Elementary School,CLARK COUNTY SCHOOL DISTRICT,Clark County,701 N. 20th St.,Las Vegas,NV,89101,,(702)799-7896,11,City: Large,No,No,Yes,Yes,937,49,19.1,904,33
320006000040,NV-02-02261,3200060,NV-02,PK,5,Harley Harmon Elementary School,CLARK COUNTY SCHOOL DISTRICT,Clark County,5351 S. Hillsboro,Las Vegas,NV,89120,,(702)799-7740,12,City: Midsize,No,No,Yes,Yes,720,46,15.7,561,54
320006000383,NV-02-02127,3200060,NV-02,PK,5,Harriet Treem Elementary School,CLARK COUNTY SCHOOL DISTRICT,Clark County,1698 Patrick Ln.,Henderson,NV,89014,,(702)799-8760,11,City: Large,No,No,Yes,Yes,564,31,18.2,499,62
320006000099,NV-02-02104,3200060,NV-02,PK,5,Harry Reid Elementary School,CLARK COUNTY SCHOOL DISTRICT,Clark County,Box Butte 128,Searchlight,NV,89046,,(702)297-1224,43,Rural: Remote,No,No,Yes,Yes,28,4,7,28,–
320006000041,NV-02-02266,3200060,NV-02,PK,5,Harvey N Dondero Elementary School,CLARK COUNTY SCHOOL DISTRICT,Clark County,4450 S. Ridgeville St.,Las Vegas,NV,89103,,(702)799-5940,21,Suburb: Large,No,No,Yes,Yes,763,44,17.3,696,64
320033000811,NV-11-11201,3200330,NV-11,PK,6,Hawthorne Elementary School,MINERAL COUNTY SCHOOL DISTRICT,Mineral County,Box Butte 1060,Hawthorne,NV,89415,,(775)945-1000,33,Town: Remote,No,No,Yes,Yes,308,16,19.3,116,24
320033000479,NV-11-11203,3200330,NV-11,7,8,Hawthorne Junior High School,MINERAL COUNTY SCHOOL DISTRICT,Mineral County,Box Butte 938,Hawthorne,NV,89415,,(775)945-3332,33,Town: Remote,No,No,Yes,Yes,72,12,6,70,2
320006000042,NV-02-02316,3200060,NV-02,6,8,Helen C Cannon Junior High School,CLARK COUNTY SCHOOL DISTRICT,Clark County,5850 Euclid Ave.,Las Vegas,NV,89120,,(702)799-5600,12,City: Midsize,No,No,Yes,Yes,993,42,23.6,766,70
320006000397,NV-02-02129,3200060,NV-02,PK,5,Helen Herr Elementary School,CLARK COUNTY SCHOOL DISTRICT,Clark County,6475 Eagle Creek Ln.,Las Vegas,NV,89156,,(702)799-8860,21,Suburb: Large,No,No,Yes,Yes,718,35,20.5,528,61
320006000774,NV-02-02910,3200060,NV-02,PK,12,Helen J Stewart School,CLARK COUNTY SCHOOL DISTRICT,Clark County,2375 E. Viking,Las Vegas,NV,89169,,(702)799-5588,12,City: Midsize,No,No,Yes,Yes,145,25,5.8,134,8
320006000398,NV-02-02135,3200060,NV-02,PK,5,Helen Jydstrup Elementary School,CLARK COUNTY SCHOOL DISTRICT,Clark County,5150 Duneville St.,Las Vegas,NV,89118,,(702)799-8140,21,Suburb: Large,No,No,Yes,Yes,686,35,19.6,656,30
320006000044,NV-02-02264,3200060,NV-02,PK,5,Helen M Smith Elementary School,CLARK COUNTY SCHOOL DISTRICT,Clark County,7101 Pinedale Ave.,Las Vegas,NV,89145,,(702)799-4300,11,City: Large,No,No,Yes,Yes,542,28,19.4,503,36
320006000786,NV-02-02081,3200060,NV-02,PK,5,Henry & Evelyn Bozarth Elementary School,CLARK COUNTY SCHOOL DISTRICT,Clark County,7431 Egan Crest Dr.,Las Vegas,NV,89149,,(702)799-6608,11,City: Large,No,No,–,–,847,42,20.2,134,27
320006000380,NV-02-02124,3200060,NV-02,PK,5,Herbert A Derfelt Elementary School,CLARK COUNTY SCHOOL DISTRICT,Clark County,1900 S. Lisa Ln.,Las Vegas,NV,89117,,(702)799-4370,11,City: Large,No,No,Yes,Yes,612,32,19.1,345,54
320048000366,NV-16-16262,3200480,NV-16,PK,6,Hidden Valley Elementary School,WASHOE COUNTY SCHOOL DISTRICT,Washoe County,2115 Alphabet Drive,Reno,NV,89502,,(775)857-3150,21,Suburb: Large,No,No,Yes,Yes,401,26,15.4,174,35
320006000790,NV-02-02940,3200060,NV-02,9,12,High Desert Correctional Center,CLARK COUNTY SCHOOL DISTRICT,Clark County,22010 Cold Creek Rd.,Indian Springs,NV,89018,,(702)879-6682,42,Rural: Distant,No,No,†,†,0,7,†,–,–
320048000561,NV-16-16282,3200480,NV-16,PK,8,High Desert Montessori Charter School,WASHOE COUNTY SCHOOL DISTRICT,Washoe County,2590 Orovada Street,Reno,NV,89512,,(775)624-2800,12,City: Midsize,Yes,No,–,–,420,–,†,98,3
320045000413,NV-15-15102,3200450,NV-15,PK,5,Hillside Elementary School,STOREY COUNTY SCHOOL DISTRICT,Storey County,1250 Peri Ranch Road,Sparks,NV,89434,,(775)342-0400,41,Rural: Fringe,No,No,Yes,Yes,48,5,9.6,21,7
320006000798,NV-02-02915,3200060,NV-02,6,12,Homebound,CLARK COUNTY SCHOOL DISTRICT,†,2625 E. St. Louis Ave.,Las Vegas,NV,89104,,(702)799-8616,†,N,No,†,†,†,†,†,†,†,†
320000100826,NV-18-57424,3200001,NV-18,KG,8,Honors Academy of Literature,STATE-SPONSORED CHARTER SCHOOLS,Washoe County,195 N. Arlington Ave,Reno,NV,89501,,(775)737-4084,12,City: Midsize,Yes,No,–,–,211,–,†,22,17
320006000528,NV-02-02173,3200060,NV-02,PK,5,Howard E Heckethorn Elementary,CLARK COUNTY SCHOOL DISTRICT,Clark County,5150 Whispering Sands Dr.,Las Vegas,NV,89131,,(702)799-6690,11,City: Large,No,No,–,–,642,35,18.3,188,30
320006000587,NV-02-02273,3200060,NV-02,PK,5,Howard E Hollingsworth Elementary School,CLARK COUNTY SCHOOL DISTRICT,Clark County,1776 E. Ogden Ave.,Las Vegas,NV,89101,,(702)799-1660,11,City: Large,No,No,Yes,Yes,625,39,16,609,16
320006000046,NV-02-02247,3200060,NV-02,PK,5,Howard Wasden Elementary School,CLARK COUNTY SCHOOL DISTRICT,Clark County,2831 Palomino Ln.,Las Vegas,NV,89107,,(702)799-4239,11,City: Large,No,No,Yes,Yes,581,30,19.4,549,32
320048000222,NV-16-16230,3200480,NV-16,PK,6,Huffaker Elementary School,WASHOE COUNTY SCHOOL DISTRICT,Washoe County,980 Wheatland Road,Reno,NV,89511,,(775)689-2510,12,City: Midsize,No,No,–,–,481,29,16.6,133,8
320045000200,NV-15-15101,3200450,NV-15,PK,5,Hugh Gallagher Elementary School,STOREY COUNTY SCHOOL DISTRICT,Storey County,Box Butte C,Virginia City,NV,89440,,(775)847-0977,42,Rural: Distant,No,No,Yes,Yes,156,10,15.6,32,7
320021000858,NV-07-07903,3200210,NV-07,AE,AE,Humboldt Adult Program,HUMBOLDT COUNTY SCHOOL DISTRICT,Humboldt County,705 E 4th Street,Winnemucca,NV,89445,,(775)623-8100,33,Town: Remote,No,No,†,†,0,–,†,3,†
320048000223,NV-16-16206,3200480,NV-16,PK,6,Hunter Lake Elementary School,WASHOE COUNTY SCHOOL DISTRICT,Washoe County,909 Hunter Lake Drive,Reno,NV,89509,,(775)333-5040,12,City: Midsize,No,No,Yes,Yes,366,19,19.3,174,15
320006000047,NV-02-02303,3200060,NV-02,6,8,Hyde Park Middle School,CLARK COUNTY SCHOOL DISTRICT,Clark County,900 Hinson St.,Las Vegas,NV,89107,,(702)799-4260,11,City: Large,No,Yes,Yes,Yes,1606,61,26.3,766,149
320006000670,NV-02-02093,3200060,NV-02,PK,5,Imagine 100 Academy of Excellence,CLARK COUNTY SCHOOL DISTRICT,Clark County,2341 Comstock Dr.,North Las Vegas,NV,89032,,(702)636-2551,21,Suburb: Large,Yes,No,Yes,Yes,348,–,†,347,1
320006000756,NV-02-02364,3200060,NV-02,6,8,Imagine 100 Academy of Excellence,CLARK COUNTY SCHOOL DISTRICT,Clark County,2341 Comstock Dr.,North Las Vegas,NV,89032,,(702)636-2551,21,Suburb: Large,Yes,No,Yes,Yes,158,–,†,156,2
320000100821,NV-18-74418,3200001,NV-18,KG,6,Imagine School Mountain View,STATE-SPONSORED CHARTER SCHOOLS,Clark County,6610 Grand Montecito Parkway,Las Vegas,NV,89149,,(702)253-0251,11,City: Large,Yes,No,–,–,712,16,44.5,183,25
320042000196,NV-14-14101,3200420,NV-14,PK,5,Imlay Elementary School,PERSHING COUNTY SCHOOL DISTRICT,Pershing County,Box Butte 86,Lovelock,NV,89419,,(775)538-7360,43,Rural: Remote,No,No,Yes,Yes,23,1,23,23,–
320048000224,NV-16-16251,3200480,NV-16,PK,5,Incline Elementary School,WASHOE COUNTY SCHOOL DISTRICT,Washoe County,915 Northwood Boulevard,Incline Village,NV,89451,,(775)832-4250,32,Town: Distant,No,No,–,–,315,23,13.7,103,23
320048000225,NV-16-16602,3200480,NV-16,9,12,Incline High School,WASHOE COUNTY SCHOOL DISTRICT,Washoe County,499 Village Blvd.,Incline Village,NV,89451,,(775)832-4260,32,Town: Distant,No,No,–,–,302,32,9.4,63,12
320048000318,NV-16-16309,3200480,NV-16,6,8,Incline Middle School,WASHOE COUNTY SCHOOL DISTRICT,Washoe County,931 Southwood Blvd.,Incline Village,NV,89452,,(775)832-4220,32,Town: Distant,No,No,–,–,231,21,11,68,16
320002300808,NV-20-79903,3200023,NV-20,6,12,Independence High School,CORRECTIONAL SCHOOL DISTRICT,Elko County,Box Butte 459,Elko,NV,89803,,(775)748-6229,41,Rural: Fringe,No,No,–,–,60,–,†,–,–
320012000131,NV-04-04104,3200120,NV-04,KG,8,Independence Valley Elementary School,ELKO COUNTY SCHOOL DISTRICT,Elko County,HC 32 Box 110,Tuscarora,NV,89834,,(775)756-5597,43,Rural: Remote,No,No,–,–,9,–,†,4,–
320006000577,NV-02-02252,3200060,NV-02,PK,5,Indian Springs Elementary School,CLARK COUNTY SCHOOL DISTRICT,Clark County,Box Butte 1088,Indian Springs,NV,89018,,(702)799-0932,43,Rural: Remote,No,No,Yes,Yes,97,11,8.8,95,2
320006000686,NV-02-02604,3200060,NV-02,9,12,Indian Springs High School,CLARK COUNTY SCHOOL DISTRICT,Clark County,Box Butte 1088,Indian Springs,NV,89018,,(702)799-0932,43,Rural: Remote,No,No,Yes,Yes,67,9,7.4,67,–
320006000699,NV-02-02336,3200060,NV-02,6,8,Indian Springs Middle School,CLARK COUNTY SCHOOL DISTRICT,Clark County,Box Butte 1088,Indian Springs,NV,89018,,(702)799-0932,43,Rural: Remote,No,No,Yes,Yes,72,8,9,71,1
320048000869,NV-16-16510,3200480,NV-16,9,12,Innovations High School,WASHOE COUNTY SCHOOL DISTRICT,Washoe County,777 W 2nd Street,Reno,NV,89509,,(775)333-5150,12,City: Midsize,No,No,–,–,107,15,7.1,53,2
320006000717,NV-02-02092,3200060,NV-02,PK,5,Innovations International Charter School of NV,CLARK COUNTY SCHOOL DISTRICT,Clark County,1600 E. Oakey Blvd.,Las Vegas,NV,89104,,(702)216-4337,11,City: Large,Yes,No,Yes,Yes,542,–,†,364,19
320006000749,NV-02-02363,3200060,NV-02,6,12,Innovations International Charter School of NV,CLARK COUNTY SCHOOL DISTRICT,Clark County,950 E. Sahara Ave.,Las Vegas,NV,89104,,(702)216-4337,11,City: Large,Yes,No,Yes,Yes,325,–,†,203,4
320006000050,NV-02-02212,3200060,NV-02,PK,5,Ira J Earl Elementary School,CLARK COUNTY SCHOOL DISTRICT,Clark County,1463 Marion Dr.,Las Vegas,NV,89110,,(702)799-7310,11,City: Large,No,No,Yes,Yes,791,39,20.3,757,34
320006000474,NV-02-02333,3200060,NV-02,6,8,Irwin & Susan Molasky Junior High School,CLARK COUNTY SCHOOL DISTRICT,Clark County,7801 W. Gilmore Ave.,Las Vegas,NV,89129,,(702)799-3400,11,City: Large,No,No,Yes,Yes,1066,43,24.8,738,101
320006000053,NV-02-02306,3200060,NV-02,6,8,J Harold Brinley Middle School,CLARK COUNTY SCHOOL DISTRICT,Clark County,2480 Maverick St.,Las Vegas,NV,89108,,(702)799-4550,11,City: Large,No,No,Yes,Yes,1014,39,26,982,32
320039000285,NV-13-13204,3200390,NV-13,PK,5,J C Fremont Elementary School,CARSON CITY SCHOOL DISTRICT,Carson City,1511 Firebox Road,Carson City,NV,89701,,(775)283-1200,13,City: Small,No,No,Yes,Yes,531,33,16.1,307,65
320006000051,NV-02-02305,3200060,NV-02,6,8,J D Smith Middle School,CLARK COUNTY SCHOOL DISTRICT,Clark County,1301 E. Tonopah Ave.,North Las Vegas,NV,89030,,(702)799-7080,21,Suburb: Large,No,No,Yes,Yes,994,48,20.7,959,35
320036000351,NV-12-12108,3200360,NV-12,PK,5,J G Johnson Elementary School,NYE COUNTY SCHOOL DISTRICT,Nye County,900 E Jackrabbit,Pahrump,NV,89048,,(775)727-6619,33,Town: Remote,No,No,Yes,Yes,491,33,14.9,480,11
320006000054,NV-02-02214,3200060,NV-02,PK,5,J M Ullom Elementary School,CLARK COUNTY SCHOOL DISTRICT,Clark County,4869 E. Sun Valley Dr.,Las Vegas,NV,89121,,(702)799-7780,12,City: Midsize,No,No,Yes,Yes,662,33,20.1,630,32
320006000055,NV-02-02218,3200060,NV-02,PK,5,J T McWilliams Elementary School,CLARK COUNTY SCHOOL DISTRICT,Clark County,1315 Hiawatha Rd.,Las Vegas,NV,89108,,(702)799-4770,11,City: Large,No,No,Yes,Yes,846,39,21.7,821,25
320006000052,NV-02-02213,3200060,NV-02,PK,5,J. E. Manch Elementary School,CLARK COUNTY SCHOOL DISTRICT,Clark County,4351 Lamont St.,Las Vegas,NV,89115,,(702)799-4900,21,Suburb: Large,No,No,Yes,Yes,898,51,17.6,868,30
320006000578,NV-02-02353,3200060,NV-02,6,8,Jack & Terry Mannion Middle School,CLARK COUNTY SCHOOL DISTRICT,Clark County,155 E. Paradise Hills Dr.,Henderson,NV,89002,,(702)799-3020,11,City: Large,No,No,–,–,1583,58,27.3,384,96
320006000396,NV-02-02130,3200060,NV-02,PK,5,Jack Dailey Elementary School,CLARK COUNTY SCHOOL DISTRICT,Clark County,2001 E. Reno Ave.,Las Vegas,NV,89119,,(702)799-5690,12,City: Midsize,No,No,Yes,Yes,795,37,21.5,751,41
320006000537,NV-02-02344,3200060,NV-02,6,8,Jack Lund Schofield Middle School,CLARK COUNTY SCHOOL DISTRICT,Clark County,8625 Spencer St.,Las Vegas,NV,89123,,(702)799-2290,12,City: Midsize,No,No,Yes,Yes,1212,41,29.6,565,106
320012000132,NV-04-04105,3200120,NV-04,KG,6,Jackpot Elementary School,ELKO COUNTY SCHOOL DISTRICT,Elko County,Box Butte 463,Jackpot,NV,89825,,(775)755-2374,43,Rural: Remote,No,No,Yes,Yes,74,5,14.8,42,15
320012000579,NV-04-04605,3200120,NV-04,9,12,Jackpot High School,ELKO COUNTY SCHOOL DISTRICT,Elko County,Box Butte 463,Jackpot,NV,89825,,(775)755-2374,43,Rural: Remote,No,No,Yes,Yes,44,14,3.1,14,4
320012000692,NV-04-04505,3200120,NV-04,7,8,Jackpot Junior High School,ELKO COUNTY SCHOOL DISTRICT,Elko County,Box Butte 463,Jackpot,NV,89825,,(775)755-2374,43,Rural: Remote,No,No,Yes,Yes,22,–,†,11,4
320009000307,NV-03-03206,3200090,NV-03,PK,5,Jacks Valley Elementary School,DOUGLAS COUNTY SCHOOL DISTRICT,Douglas County,701 Jacks Valley Road,Carson City,NV,89705,,(775)267-3267,41,Rural: Fringe,No,No,Yes,Yes,428,24,17.8,161,38
320009000348,NV-03-03503,3200090,NV-03,7,12,Jacobsen High (China Spring YC),DOUGLAS COUNTY SCHOOL DISTRICT,Douglas County,225 China Springs Rd,Gardnerville,NV,89460,,(775)265-5433,42,Rural: Distant,No,No,–,–,44,11,4,11,1
320006000259,NV-02-02113,3200060,NV-02,PK,5,James B McMillan Elementary School,CLARK COUNTY SCHOOL DISTRICT,Clark County,7000 Walt Lott Drive,Las Vegas,NV,89128,,(702)799-4350,11,City: Large,No,No,Yes,Yes,621,29,21.4,599,22
320006000585,NV-02-02271,3200060,NV-02,PK,5,James Bilbray Elementary School,CLARK COUNTY SCHOOL DISTRICT,Clark County,9370 Brent Ln.,Las Vegas,NV,89143,,(702)799-4646,11,City: Large,No,No,–,–,723,40,18.1,702,21
320006000056,NV-02-02304,3200060,NV-02,6,8,James Cashman Middle School,CLARK COUNTY SCHOOL DISTRICT,Clark County,4622 W. Desert Inn Rd.,Las Vegas,NV,89102,,(702)799-5880,12,City: Midsize,No,Yes,Yes,Yes,1548,61,25.4,1103,100
320006000732,NV-02-02090,3200060,NV-02,PK,5,James E & A Rae Smalley Elementary School,CLARK COUNTY SCHOOL DISTRICT,Clark County,304 E Paradise Hills Dr,Henderson,NV,89015,,(702)199-8090,11,City: Large,No,No,–,–,816,41,19.9,92,23
320006000376,NV-02-02120,3200060,NV-02,PK,5,James Gibson Elementary School,CLARK COUNTY SCHOOL DISTRICT,Clark County,271 Leisure Circle,Henderson,NV,89074,,(702)799-8730,11,City: Large,No,No,Yes,Yes,519,30,17.3,501,18
320006000874,NV-02-02068,3200060,NV-02,PK,5,Jan Jones Blackhurst Elementary School,CLARK COUNTY SCHOOL DISTRICT,Clark County,11141 South Pioneer Way,Las Vegas,NV,89179,,(702)799-1252,21,Suburb: Large,No,No,–,–,793,36,22,189,29
320006000657,NV-02-02196,3200060,NV-02,PK,5,Jay W. Jeffers Elementary School,CLARK COUNTY SCHOOL DISTRICT,Clark County,2320 Clifford St.,Las Vegas,NV,89115,,(702)799-2100,21,Suburb: Large,No,No,Yes,Yes,809,42,19.3,787,22
320006000933,NV-02-02062,3200060,NV-02,PK,5,Jenkins Earl N ES,CLARK COUNTY SCHOOL DISTRICT,Clark County,6950 Vegas Valley Dr,Las Vegas,NV,89142,,(702)799-0000,21,Suburb: Large,No,†,†,†,†,†,†,†,†
320006000660,NV-02-02356,3200060,NV-02,6,8,Jerome Mack Middle School,CLARK COUNTY SCHOOL DISTRICT,Clark County,4250 Karen Ave.,Las Vegas,NV,89121,,(702)799-2005,21,Suburb: Large,No,No,Yes,Yes,1301,58,22.4,1273,28
320048000336,NV-16-16259,3200480,NV-16,PK,6,Jerry Whitehead Elementary School,WASHOE COUNTY SCHOOL DISTRICT,Washoe County,3570 Waterfall Drive,Sparks,NV,89434,,(775)626-5200,21,Suburb: Large,No,Yes,–,–,530,27,19.6,140,40
320006000753,NV-02-02086,3200060,NV-02,PK,5,Jesse D Scott ES,CLARK COUNTY SCHOOL DISTRICT,Clark County,5700 N. Bruce St.,North Las Vegas,NV,89081,,(702)799-1766,21,Suburb: Large,No,No,Yes,Yes,663,39,17,444,58
320048000723,NV-16-16241,3200480,NV-16,PK,6,Jesse Hall Elementery School,WASHOE COUNTY SCHOOL DISTRICT,Washoe County,185 Shelby Drive,Sparks,NV,89436,,(775)425-7755,41,Rural: Fringe,No,No,–,–,620,32,19.4,152,25
320048000226,NV-16-16207,3200480,NV-16,PK,6,Jessie Beck Elementary School,WASHOE COUNTY SCHOOL DISTRICT,Washoe County,1900 Sharon Way,Reno,NV,89509,,(775)689-2520,12,City: Midsize,No,No,–,–,572,29,19.7,140,12
320006000057,NV-02-02307,3200060,NV-02,6,8,Jim Bridger Middle School,CLARK COUNTY SCHOOL DISTRICT,Clark County,2505 N. Bruce St.,North Las Vegas,NV,89030,,(702)799-7185,21,Suburb: Large,No,Yes,Yes,Yes,1439,59,24.4,1122,113
320006000076,NV-02-02139,3200060,NV-02,PK,5,Jim Thorpe Elementary School,CLARK COUNTY SCHOOL DISTRICT,Clark County,1650 Patrick Ln.,Henderson,NV,89014,,(702)799-0740,11,City: Large,No,No,Yes,Yes,522,29,18,505,17
320006000058,NV-02-02217,3200060,NV-02,PK,5,Jo Mackey Elementary School,CLARK COUNTY SCHOOL DISTRICT,Clark County,2726 Englestad,North Las Vegas,NV,89030,,(702)799-7139,21,Suburb: Large,No,Yes,Yes,Yes,556,28,19.9,330,67
320048000942,NV-16-16244,3200480,NV-16,–,–,JOHN BOHACH ELEMENTARY SCHOOL,WASHOE COUNTY SCHOOL DISTRICT,†,1100 Windmill Farms Pkwy,Sparks,NV,89434,,(775)626-0062,†,N,No,†,†,†,†,†,†,†,†
320006000059,NV-02-02308,3200060,NV-02,6,8,John C Fremont MS,CLARK COUNTY SCHOOL DISTRICT,Clark County,1100 E. St Louis Ave.,Las Vegas,NV,89104,,(702)799-5558,11,City: Large,No,No,Yes,Yes,847,35,24.2,828,19
320006000506,NV-02-02280,3200060,NV-02,PK,5,John C. Bass Elementary School,CLARK COUNTY SCHOOL DISTRICT,Clark County,10377 Rancho Destino Rd.,Las Vegas,NV,89183,,(702)799-2220,21,Suburb: Large,No,No,Yes,Yes,664,38,17.5,635,29
320006000356,NV-02-02111,3200060,NV-02,PK,5,John Dooley Elementary School,CLARK COUNTY SCHOOL DISTRICT,Clark County,1940 Chickasaw Drive,Henderson,NV,89002,,(702)799-8060,11,City: Large,No,No,Yes,Yes,442,27,16.4,433,9
320006000357,NV-02-02112,3200060,NV-02,PK,5,John F Mendoza Elementary School,CLARK COUNTY SCHOOL DISTRICT,Clark County,2000 S. Sloan Lane,Las Vegas,NV,89142,,(702)799-8680,21,Suburb: Large,No,No,Yes,Yes,815,40,20.4,562,80
320006000384,NV-02-02215,3200060,NV-02,PK,12,John F Miller School,CLARK COUNTY SCHOOL DISTRICT,Clark County,3840 Pecos McLeod,Las Vegas,NV,89121,,(702)799-7401,12,City: Midsize,No,No,Yes,Yes,131,23,5.7,126,5
320006000346,NV-02-02108,3200060,NV-02,PK,5,John R Beatty Elementary School,CLARK COUNTY SCHOOL DISTRICT,Clark County,8685 Hidden Palms Pkwy,Las Vegas,NV,89123,,(702)799-5700,12,City: Midsize,No,No,Yes,Yes,634,39,16.3,618,16
320006000580,NV-02-02187,3200060,NV-02,PK,5,John R Hummel Elementary School,CLARK COUNTY SCHOOL DISTRICT,Clark County,9800 Placid St.,Las Vegas,NV,89183,,(702)799-6810,12,City: Midsize,No,No,Yes,Yes,711,35,20.3,681,30
320006000061,NV-02-02216,3200060,NV-02,PK,5,John S Park Elementary School,CLARK COUNTY SCHOOL DISTRICT,Clark County,931 Franklin Ave.,Las Vegas,NV,89104,,(702)799-7904,11,City: Large,No,No,Yes,Yes,741,42,17.6,728,13
320006000652,NV-02-02191,3200060,NV-02,PK,5,John Tartan Elementary School,CLARK COUNTY SCHOOL DISTRICT,Clark County,3030 E. Tropical Pkwy.,North Las Vegas,NV,89081,,(702)799-4701,21,Suburb: Large,No,No,Yes,Yes,533,27,19.7,512,21
320006000440,NV-02-02154,3200060,NV-02,PK,5,John Vanderburg Elementary School,CLARK COUNTY SCHOOL DISTRICT,Clark County,2040 Desert Shadow Trail,Henderson,NV,89012,,(702)799-0540,11,City: Large,No,No,–,–,951,43,22.1,119,24
320006000454,NV-02-02157,3200060,NV-02,PK,5,John W Bonner Elementary School,CLARK COUNTY SCHOOL DISTRICT,Clark County,765 Crestdale Ln.,Las Vegas,NV,89144,,(702)799-6050,11,City: Large,No,No,–,–,869,47,18.5,183,20
320006000653,NV-02-02192,3200060,NV-02,PK,5,Joseph E Thiriot Elementary School,CLARK COUNTY SCHOOL DISTRICT,Clark County,5700 W. Harmon Ave.,Las Vegas,NV,89103,,(702)799-2550,21,Suburb: Large,No,No,Yes,Yes,724,35,20.7,659,62
320006000456,NV-02-02159,3200060,NV-02,PK,5,Joseph L Bowler Sr Elementary School,CLARK COUNTY SCHOOL DISTRICT,Clark County,851 Vincent Leavitt Ave,Bunkerville,NV,89007,,(702)346-1900,41,Rural: Fringe,No,No,Yes,Yes,535,30,17.8,333,50
320006000487,NV-02-02170,3200060,NV-02,PK,5,Joseph M Neal Elementary School,CLARK COUNTY SCHOOL DISTRICT,Clark County,6651 W. Azure Dr.,Las Vegas,NV,89130,,(702)799-2200,11,City: Large,No,No,Yes,Yes,634,33,19.2,617,17
320006000875,NV-02-02071,3200060,NV-02,PK,5,Josh Stevens Elementary School,CLARK COUNTY SCHOOL DISTRICT,Clark County,550 Dave Wood Circle,Henderson,NV,89011,,(702)799-0220,41,Rural: Fringe,No,No,Yes,Yes,932,47,19.8,466,86
320006000722,NV-02-02098,3200060,NV-02,PK,5,Judith D Steele Elementary School,CLARK COUNTY SCHOOL DISTRICT,Clark County,6995 W Eldorado Ln,Las Vegas,NV,89113,,(702)799-2201,21,Suburb: Large,No,No,Yes,Yes,777,44,17.7,249,67
320006000581,NV-02-02186,3200060,NV-02,PK,5,Judy & John L Goolsby Elementary School,CLARK COUNTY SCHOOL DISTRICT,Clark County,11175 W. Desert Inn Rd.,Las Vegas,NV,89135,,(702)799-2520,21,Suburb: Large,No,No,–,–,824,41,20.1,193,28
320006000534,NV-02-02341,3200060,NV-02,6,8,Justice Myron E Leavitt Middle School,CLARK COUNTY SCHOOL DISTRICT,Clark County,4701 Quadrel St.,Las Vegas,NV,89129,,(702)799-4699,11,City: Large,No,No,Yes,Yes,1641,56,29.3,624,113
320006000020,NV-02-02912,3200060,NV-02,6,12,Juvenile Detention,CLARK COUNTY SCHOOL DISTRICT,Clark County,601 N. Pecos #70,Las Vegas,NV,89101,,(702)455-5230,11,City: Large,No,No,–,–,58,18,3.2,14,–
320006000807,NV-02-02939,3200060,NV-02,3,5,Juvenile Detention 3-5,CLARK COUNTY SCHOOL DISTRICT,Clark County,601 N. Pecos #70,Las Vegas,NV,89101,,(702)455-5230,11,City: Large,No,No,†,†,0,–,†,–,–
320006000062,NV-02-02309,3200060,NV-02,6,8,K O Knudson Junior High School,CLARK COUNTY SCHOOL DISTRICT,Clark County,2400 Atlantic St.,Las Vegas,NV,89104,,(702)799-7470,11,City: Large,No,Yes,Yes,Yes,1320,56,23.6,1207,110
320048000227,NV-16-16225,3200480,NV-16,PK,5,Kate M Smith Elementary School,WASHOE COUNTY SCHOOL DISTRICT,Washoe County,1925 F Street,Sparks,NV,89431,,(775)353-5720,21,Suburb: Large,No,No,Yes,Yes,308,23,13.4,308,–
320048000319,NV-16-16239,3200480,NV-16,PK,6,Katherine Dunn Elementary School,WASHOE COUNTY SCHOOL DISTRICT,Washoe County,1135 O'Callaghan Drive,Sparks,NV,89434,,(775)353-5520,21,Suburb: Large,No,No,Yes,Yes,563,31,18.2,280,41
320006000553,NV-02-02346,3200060,NV-02,6,8,Kathleen & Tim Harney Middle School,CLARK COUNTY SCHOOL DISTRICT,Clark County,1580 S. Hollywood Blvd.,Las Vegas,NV,89142,,(702)799-3240,21,Suburb: Large,No,No,Yes,Yes,1818,63,28.9,1617,198
320006000654,NV-02-02193,3200060,NV-02,PK,5,Kathy L. Batterman Elementary School,CLARK COUNTY SCHOOL DISTRICT,Clark County,10135 W. Quail Ave.,Las Vegas,NV,89148,,(702)799-1920,21,Suburb: Large,No,No,–,–,790,42,18.8,264,38
320006000526,NV-02-02171,3200060,NV-02,PK,5,Kay Carl Elementary School,CLARK COUNTY SCHOOL DISTRICT,Clark County,5625 Corbett St.,Las Vegas,NV,89130,,(702)799-6650,11,City: Large,No,No,Yes,Yes,788,43,18.3,748,40
320006000485,NV-02-02168,3200060,NV-02,PK,5,Keith C & Karen W Hayes Elementary,CLARK COUNTY SCHOOL DISTRICT,Clark County,9620 W. Twain Ave.,Las Vegas,NV,89147,,(702)799-6030,21,Suburb: Large,No,No,Yes,Yes,711,34,20.9,687,24
320048000678,NV-16-16315,3200480,NV-16,6,8,Kendyl Depoali Middle School,WASHOE COUNTY SCHOOL DISTRICT,Washoe County,9300 Wilbur May Parkwa,Reno,NV,89521,,(775)852-6700,12,City: Midsize,No,No,–,–,1278,59,21.7,214,36
320048000838,NV-16-16902,3200480,NV-16,PK,KG,Kendyl Depoali Preschool,WASHOE COUNTY SCHOOL DISTRICT,Washoe County,9300 Wilbur Way Pkwy,Reno,NV,89521,,(775)852-6700,12,City: Midsize,No,No,–,–,29,–,†,5,–
320006000927,NV-02-02067,3200060,NV-02,PK,5,Kenneth Divich Elementary,CLARK COUNTY SCHOOL DISTRICT,Clark County,9851 Donald Nelson Avenue,Las Vegas,NV,89149,,(702)799-4585,11,City: Large,No,No,–,–,766,39,19.6,192,51
320006000289,NV-02-02317,3200060,NV-02,6,8,Kenny C Guinn Middle School,CLARK COUNTY SCHOOL DISTRICT,Clark County,4150 S. Torrey Pines Dr.,Las Vegas,NV,89103,,(702)799-5900,21,Suburb: Large,No,Yes,Yes,Yes,1217,45,27,752,112
320006000063,NV-02-02211,3200060,NV-02,PK,5,Kermit R Booker Sr Elementary School,CLARK COUNTY SCHOOL DISTRICT,Clark County,2277 N. Martin Luther King Blv,Las Vegas,NV,89106,,(702)799-4720,11,City: Large,No,No,Yes,Yes,485,25,19.4,464,21
320021000151,NV-07-07103,3200210,NV-07,PK,8,Kings River Elementary School,HUMBOLDT COUNTY SCHOOL DISTRICT,Humboldt County,134 Kings River Road,Orovada,NV,89425,,(775)859-0352,43,Rural: Remote,No,No,Yes,Yes,14,1,14,7,–
320006000395,NV-02-02131,3200060,NV-02,PK,5,Kirk Adams Elementary School,CLARK COUNTY SCHOOL DISTRICT,Clark County,580 N. Fogg St.,Las Vegas,NV,89110,,(702)799-8800,21,Suburb: Large,No,No,Yes,Yes,485,26,18.7,265,49
320006000064,NV-02-02219,3200060,NV-02,PK,5,Kit Carson Elementary School,CLARK COUNTY SCHOOL DISTRICT,Clark County,1735 D St.,Las Vegas,NV,89106,,(702)799-7113,11,City: Large,No,Yes,Yes,Yes,405,21,19.3,383,22
320006000695,NV-02-02100,3200060,NV-02,PK,5,Kitty McDonough Ward Elementary School,CLARK COUNTY SCHOOL DISTRICT,Clark County,5555 Horse Drive,Las Vegas,NV,89131,,(702)799-4501,11,City: Large,No,No,–,–,793,40,19.8,205,59
320003000021,NV-01-01206,3200030,NV-01,KG,2,Lahontan Elementary School,CHURCHILL COUNTY SCHOOL DISTRICT,Churchill County,1099 Merton Drive,Fallon,NV,89406,,(775)423-1999,33,Town: Remote,No,No,Yes,Yes,501,29,17.3,226,34
320024000864,NV-08-08902,3200240,NV-08,AE,AE,Lander Adult,LANDER COUNTY SCHOOL DISTRICT,Lander County,625 Weaver Avenue,Battle Mountain,NV,89820,,(775)635-6105,33,Town: Remote,No,No,†,†,0,–,†,†,†
320006000277,NV-02-02418,3200060,NV-02,9,12,Las Vegas Academy of Arts,CLARK COUNTY SCHOOL DISTRICT,Clark County,315 S. 7th St.,Las Vegas,NV,89101,,(702)799-7800,11,City: Large,No,Yes,–,–,1722,72,23.9,367,138
320006000065,NV-02-02402,3200060,NV-02,9,12,Las Vegas High School,CLARK COUNTY SCHOOL DISTRICT,Clark County,6500 E. Sahara Ave.,Las Vegas,NV,89142,,(702)799-0180,21,Suburb: Large,No,No,Yes,Yes,2815,112,25.1,1555,212
320006000408,NV-02-02321,3200060,NV-02,6,12,Laughlin Jr/Sr High School,CLARK COUNTY SCHOOL DISTRICT,Clark County,1900 Cougar Dr.,Laughlin,NV,89029,,(702)298-1996,41,Rural: Fringe,No,No,Yes,Yes,379,20,19,379,–
320006000066,NV-02-02220,3200060,NV-02,PK,5,Laura Dearing Elementary School,CLARK COUNTY SCHOOL DISTRICT,Clark County,3046 S. Ferndale,Las Vegas,NV,89121,,(702)799-7710,21,Suburb: Large,No,No,Yes,Yes,856,43,19.9,841,15
320006000591,NV-02-02349,3200060,NV-02,6,8,Lawrence & Heidi Canarelli Middle School,CLARK COUNTY SCHOOL DISTRICT,Clark County,7808 S. Torrey Pines Dr.,Las Vegas,NV,89139,,(702)799-1340,21,Suburb: Large,No,No,Yes,Yes,1773,58,30.6,706,188
320000100886,NV-18-52429,3200001,NV-18,6,12,Leadership Academy of Nevada,STATE-SPONSORED CHARTER SCHOOLS,Clark County,7495 W. Azure Drive #209,Las Vegas,NV,89130,,(702)350-1472,11,City: Large,Yes,No,–,–,280,–,†,42,7
320000100833,NV-18-54428,3200001,NV-18,KG,8,Learning Bridge,STATE-SPONSORED CHARTER SCHOOLS,White Pine County,505 S. Pioche Hwy,Ely,NV,89301,,(775)289-3500,33,Town: Remote,Yes,No,–,–,181,8,22.6,12,16
320006000077,NV-02-02140,3200060,NV-02,PK,5,Lee Antonello Elementary School,CLARK COUNTY SCHOOL DISTRICT,Clark County,1101 W. Tropical Pkwy,North Las Vegas,NV,89031,,(702)799-8380,21,Suburb: Large,No,No,Yes,Yes,502,30,16.7,264,51
320006000714,NV-02-02619,3200060,NV-02,9,12,Legacy High School,CLARK COUNTY SCHOOL DISTRICT,Clark County,150 W. Deer Springs Way,North Las Vegas,NV,89084,,(702)799-1777,21,Suburb: Large,No,No,Yes,Yes,2774,105,26.4,1361,250
320000100912,NV-18-39439,3200001,NV-18,KG,8,Legacy Traditional Cadence,STATE-SPONSORED CHARTER SCHOOLS,Clark County,325 Inflection Street,Henderson,NV,89011,,(702)846-2310,11,City: Large,Yes,No,–,–,1205,51,23.6,389,122
320000100895,NV-18-39438,3200001,NV-18,KG,8,Legacy Traditional North Valley,STATE-SPONSORED CHARTER SCHOOLS,Clark County,5024 Valley Drive,North Las Vegas,NV,89031,,(702)342-0880,21,Suburb: Large,Yes,No,–,–,1300,48,27.1,385,140
320000100934,NV-18-39440,3200001,NV-18,KG,8,Legacy Traditional School Southwest Las Vegas,STATE-SPONSORED CHARTER SCHOOLS,Clark County,7077 W. Wigwam Avenue,Las Vegas,NV,89113,,(702)637-1776,21,Suburb: Large,Yes,†,†,†,†,†,†,†,†
320048000228,NV-16-16232,3200480,NV-16,PK,5,Lemmon Valley Elementary School,WASHOE COUNTY SCHOOL DISTRICT,Washoe County,255 West Patrician Drive,Reno,NV,89506,,(775)677-5460,21,Suburb: Large,No,No,Yes,Yes,601,35,17.2,295,52
320048000229,NV-16-16226,3200480,NV-16,PK,6,Lena Juniper Elementary School,WASHOE COUNTY SCHOOL DISTRICT,Washoe County,225 Queens Way,Sparks,NV,89431,,(775)353-5540,21,Suburb: Large,No,No,Yes,Yes,548,31,17.7,252,38
320006000067,NV-02-02221,3200060,NV-02,PK,5,Lewis E Rowe Elementary School,CLARK COUNTY SCHOOL DISTRICT,Clark County,4338 S. Bruce St.,Las Vegas,NV,89119,,(702)799-5540,12,City: Midsize,No,No,Yes,Yes,698,39,17.9,682,16
320048000230,NV-16-16208,3200480,NV-16,PK,6,Libby C Booth Elementary School,WASHOE COUNTY SCHOOL DISTRICT,Washoe County,1450 Stewart Street,Reno,NV,89502,,(775)333-5140,12,City: Midsize,No,No,Yes,Yes,420,24,17.5,420,–
320006000604,NV-02-02428,3200060,NV-02,9,12,Liberty High School,CLARK COUNTY SCHOOL DISTRICT,Clark County,2700 Liberty Heights Ave.,Henderson,NV,89052,,(702)799-2270,11,City: Large,No,No,Yes,Yes,2903,105,27.6,928,188
320012000931,NV-04-04120,3200120,NV-04,PK,5,Liberty Peak Elementary School,ELKO COUNTY SCHOOL DISTRICT,Elko County,250 Parkchester Drive,Spring Creek,NV,89815,,(775)738-5196,33,Town: Remote,No,†,†,†,†,†,†,†,†
320006000461,NV-02-02331,3200060,NV-02,6,8,Lied STEM Academy,CLARK COUNTY SCHOOL DISTRICT,Clark County,5350 W. Tropical Pkwy.,Las Vegas,NV,89130,,(702)799-4620,11,City: Large,No,Yes,Yes,Yes,1127,44,25.6,431,112
320006000656,NV-02-02195,3200060,NV-02,PK,5,Liliam Lujan Hickey Elementary School,CLARK COUNTY SCHOOL DISTRICT,Clark County,2450 N. Hollywood Blvd,Las Vegas,NV,89156,,(702)799-1899,21,Suburb: Large,No,No,Yes,Yes,765,32,23.9,749,16
320006000375,NV-02-02119,3200060,NV-02,PK,5,Lilly & Wing Fong Elementary School,CLARK COUNTY SCHOOL DISTRICT,Clark County,2200 James Bilbray Dr,Las Vegas,NV,89108,,(702)799-4890,11,City: Large,No,No,Yes,Yes,839,41,20.5,808,31
320027000865,NV-09-09603,3200270,NV-09,AE,AE,Lincoln Adult,LINCOLN COUNTY SCHOOL DISTRICT,Lincoln County,Box Butte 307,Panaca,NV,89042,,(775)728-4446,43,Rural: Remote,No,No,†,†,0,2,†,5,1
320027000850,NV-09-09903,3200270,NV-09,AE,AE,Lincoln County Adult Correction,LINCOLN COUNTY SCHOOL DISTRICT,Lincoln County,Box Butte 307,Panaca,NV,89042,,(775)728-4446,43,Rural: Remote,No,No,†,†,0,–,†,–,–
320027000168,NV-09-09501,3200270,NV-09,9,12,Lincoln County High School,LINCOLN COUNTY SCHOOL DISTRICT,Lincoln County,Box Butte 268,Panaca,NV,89042,,(775)728-4481,43,Rural: Remote,No,No,Yes,Yes,153,20,7.7,54,12
320006000068,NV-02-02222,3200060,NV-02,PK,5,Lincoln Elementary School,CLARK COUNTY SCHOOL DISTRICT,Clark County,3010 Berg St.,North Las Vegas,NV,89030,,(702)799-7133,21,Suburb: Large,No,No,Yes,Yes,779,37,21.1,738,41
320048000231,NV-16-16227,3200480,NV-16,PK,6,Lincoln Park Elementary School,WASHOE COUNTY SCHOOL DISTRICT,Washoe County,201 Lincoln Way,Sparks,NV,89431,,(775)353-5570,21,Suburb: Large,No,No,Yes,Yes,370,24,15.4,370,–
320006000605,NV-02-02185,3200060,NV-02,PK,5,Linda Rankin Givens Elementary School,CLARK COUNTY SCHOOL DISTRICT,Clark County,655 Park Vista Dr.,Las Vegas,NV,89138,,(702)799-1430,11,City: Large,No,No,–,–,748,38,19.7,99,17
320048000320,NV-16-16238,3200480,NV-16,PK,6,Lloyd Diedrichsen Elementary School,WASHOE COUNTY SCHOOL DISTRICT,Washoe County,1735 Del Rosa Way,Sparks,NV,89434,,(775)353-5730,21,Suburb: Large,No,No,Yes,Yes,407,21,19.4,129,40
320006000700,NV-02-02360,3200060,NV-02,6,8,Lois & Jerry Tarkanian Middle School,CLARK COUNTY SCHOOL DISTRICT,Clark County,5800 W. Pyle Ave.,Las Vegas,NV,89141,,(702)799-6801,21,Suburb: Large,No,No,Yes,Yes,2030,69,29.4,646,180
320048000414,NV-16-16266,3200480,NV-16,PK,6,Lois Allen Elementary School,WASHOE COUNTY SCHOOL DISTRICT,Washoe County,5155 McGuffy Road,Sparks,NV,89433,,(775)674-4430,21,Suburb: Large,No,No,Yes,Yes,532,33,16.1,529,0
320006000069,NV-02-02223,3200060,NV-02,PK,5,Lois Craig Elementary School,CLARK COUNTY SCHOOL DISTRICT,Clark County,2637 E. Gowan Rd.,North Las Vegas,NV,89030,,(702)799-4910,21,Suburb: Large,No,No,Yes,Yes,689,36,19.1,659,30
320006000879,NV-02-02073,3200060,NV-02,PK,5,Lomie G. Heard Elementary School A Marzano Academy,CLARK COUNTY SCHOOL DISTRICT,Clark County,4497 Kell Lane,Las Vegas,NV,89110,,(702)799-4920,21,Suburb: Large,No,Yes,Yes,Yes,718,35,20.5,683,35
320006000486,NV-02-02169,3200060,NV-02,PK,5,Lorna J Kesterson Elementary School,CLARK COUNTY SCHOOL DISTRICT,Clark County,231 Bailey Island Dr.,Henderson,NV,89074,,(702)799-6300,11,City: Large,No,No,Yes,Yes,750,34,22.1,289,88
320048000433,NV-16-16311,3200480,NV-16,6,8,Lou Mendive Middle School,WASHOE COUNTY SCHOOL DISTRICT,Washoe County,1900 Whitewood Drive,Sparks,NV,89434,,(775)353-5990,21,Suburb: Large,No,Yes,–,–,1050,41,25.6,260,54
320006000268,NV-02-02142,3200060,NV-02,PK,5,Louis Wiener Jr Elementary School,CLARK COUNTY SCHOOL DISTRICT,Clark County,450 E. Eldorado Ln.,Las Vegas,NV,89123,,(702)799-5760,12,City: Midsize,No,No,Yes,Yes,556,30,18.5,525,28
320042000197,NV-14-14201,3200420,NV-14,PK,5,Lovelock Elementary School,PERSHING COUNTY SCHOOL DISTRICT,Pershing County,Box Butte 621,Lovelock,NV,89419,,(775)273-2176,43,Rural: Remote,No,No,Yes,Yes,314,24,13.1,174,24
320006000417,NV-02-02147,3200060,NV-02,PK,5,Lucile Bruner Elementary School,CLARK COUNTY SCHOOL DISTRICT,Clark County,4289 Allen Ln.,North Las Vegas,NV,89032,,(702)799-0620,21,Suburb: Large,No,No,Yes,Yes,630,40,15.8,611,19
320006000529,NV-02-02174,3200060,NV-02,PK,5,Lucille S Rogers Elementary School,CLARK COUNTY SCHOOL DISTRICT,Clark County,5535 S. Riley St.,Las Vegas,NV,89148,,(702)799-6870,21,Suburb: Large,No,No,Yes,Yes,964,52,18.5,363,80
320051000720,NV-17-17101,3200510,NV-17,KG,5,Lund Elementary School,WHITE PINE COUNTY SCHOOL DISTRICT,White Pine County,Box Butte 129,Lund,NV,89317,,(775)238-5200,43,Rural: Remote,No,No,–,–,131,4,32.8,61,3
320051000606,NV-17-17601,3200510,NV-17,6,12,Lund High School,WHITE PINE COUNTY SCHOOL DISTRICT,White Pine County,Box Butte 129,Lund,NV,89317,,(775)238-5200,43,Rural: Remote,No,No,–,–,285,1,285,146,8
320006000738,NV-02-02313,3200060,NV-02,6,8,Lyal Burkholder Junior High School,CLARK COUNTY SCHOOL DISTRICT,Clark County,355 W. Van Wagenen St.,Henderson,NV,89015,,(702)799-8080,11,City: Large,No,No,Yes,Yes,657,28,23.5,388,65
320030000860,NV-10-10907,3200300,NV-10,AE,AE,Lyon County Adult Education,LYON COUNTY SCHOOL DISTRICT,Lyon County,1300 Hwy 95,Fernley,NV,89408,,(775)575-3409,32,Town: Distant,No,No,†,†,0,–,†,3,†
320006000354,NV-02-02109,3200060,NV-02,PK,5,M J Christensen Elementary School,CLARK COUNTY SCHOOL DISTRICT,Clark County,9001 Mariner Cove Dr.,Las Vegas,NV,89117,,(702)799-4390,11,City: Large,No,No,Yes,Yes,545,30,18.2,271,38
320006000072,NV-02-02202,3200060,NV-02,PK,5,Mabel Hoggard Elementary School,CLARK COUNTY SCHOOL DISTRICT,Clark County,950 N. Tonopah Dr.,Las Vegas,NV,89106,,(702)799-4740,11,City: Large,No,Yes,Yes,Yes,451,25,18,395,53
320006000275,NV-02-02329,3200060,NV-02,6,8,Mack Lyon Middle School,CLARK COUNTY SCHOOL DISTRICT,Clark County,179 S. Andersen St.,Overton,NV,89040,,(702)397-8610,33,Town: Remote,No,No,–,–,418,24,17.4,85,29
320006000945,NV-02-02369,3200060,NV-02,–,–,Mackey Jo MS,CLARK COUNTY SCHOOL DISTRICT,†,2726 ENGLESTAD STREET,NORTH LAS VEGAS,NV,89030,,(702)799-7139,†,N,No,†,†,†,†,†,†,†,†
320048000232,NV-16-16209,3200480,NV-16,PK,6,Mamie Towles Elementary School,WASHOE COUNTY SCHOOL DISTRICT,Washoe County,2800 Kings Row,Reno,NV,89503,,(775)746-5820,12,City: Midsize,No,No,Yes,Yes,350,22,15.9,155,21
320036000191,NV-12-12102,3200360,NV-12,PK,5,Manse Elementary School,NYE COUNTY SCHOOL DISTRICT,Nye County,4881 N Lola Lane,Pahrump,NV,89060,,(775)727-5252,41,Rural: Fringe,No,No,Yes,Yes,489,31,15.8,476,13
320006000471,NV-02-02165,3200060,NV-02,PK,5,Manuel J Cortez Elementary School,CLARK COUNTY SCHOOL DISTRICT,Clark County,4245 E. Tonopah Ave.,Las Vegas,NV,89115,,(702)799-2180,21,Suburb: Large,No,No,Yes,Yes,750,38,19.7,736,14
320006000264,NV-02-02133,3200060,NV-02,PK,5,Marc Kahre Elementary School,CLARK COUNTY SCHOOL DISTRICT,Clark County,7887 W. Gowan Rd,Las Vegas,NV,89129,,(702)799-4660,11,City: Large,No,No,Yes,Yes,487,29,16.8,461,26
320048000939,NV-16-16322,3200480,NV-16,–,–,MARCE HERZ MIDDLE SCHOOL,WASHOE COUNTY SCHOOL DISTRICT,†,425 East 9th St,Reno,NV,89512,,(775)348-0200,†,N,No,†,†,†,†,†,†,†,†
320006000536,NV-02-02343,3200060,NV-02,6,8,Mario C & Joanne Monaco Middle School,CLARK COUNTY SCHOOL DISTRICT,Clark County,1870 N. Lamont St.,Las Vegas,NV,89115,,(702)799-3670,21,Suburb: Large,No,No,Yes,Yes,1311,54,24.3,1273,38
320006000340,NV-02-02296,3200060,NV-02,PK,5,Marion B Earl Elementary School,CLARK COUNTY SCHOOL DISTRICT,Clark County,6650 W. Reno Ave.,Las Vegas,NV,89118,,(702)799-8181,21,Suburb: Large,No,No,Yes,Yes,708,37,19.1,402,56
320006000074,NV-02-02225,3200060,NV-02,PK,5,Marion E Cahlan Elementary School,CLARK COUNTY SCHOOL DISTRICT,Clark County,2801 Fort Sumter Dr.,North Las Vegas,NV,89030,,(702)799-7103,21,Suburb: Large,No,No,Yes,Yes,824,43,19.2,812,12
320048000560,NV-16-16281,3200480,NV-16,PK,5,Mariposa Dual Language Academy Charter School,WASHOE COUNTY SCHOOL DISTRICT,Washoe County,3875 Glen Street,Reno,NV,89502,,(775)826-4040,12,City: Midsize,Yes,No,Yes,Yes,216,–,†,216,–
320006000771,NV-02-02080,3200060,NV-02,PK,5,Mark L Fine Elementary School,CLARK COUNTY SCHOOL DISTRICT,Clark County,6635 W. Cougar Ave.,Las Vegas,NV,89139,,(702)799-6882,21,Suburb: Large,No,No,Yes,Yes,860,40,21.5,349,65
320039000160,NV-13-13211,3200390,NV-13,PK,5,Mark Twain Elementary School,CARSON CITY SCHOOL DISTRICT,Carson City,2111 Carriage Crest Drive,Carson City,NV,89703,,(775)283-1000,13,City: Small,No,No,Yes,Yes,634,35,18.1,583,48
320006000552,NV-02-02183,3200060,NV-02,PK,5,Marlan J. Walker Elementary,CLARK COUNTY SCHOOL DISTRICT,Clark County,850 Scholar St.,Henderson,NV,89002,,(702)799-0570,11,City: Large,No,No,–,–,700,39,17.9,185,34
320006000527,NV-02-02172,3200060,NV-02,PK,5,Marshall C Darnell Elementary,CLARK COUNTY SCHOOL DISTRICT,Clark County,9480 W. Tropical Pkwy,Las Vegas,NV,89149,,(702)799-6630,21,Suburb: Large,No,No,Yes,Yes,606,38,15.9,587,19
320039000803,NV-13-13205,3200390,NV-13,PK,PK,Martha F Gleason Special Services Center 45-15,CARSON CITY SCHOOL DISTRICT,Carson City,710 West 4th Street,Carson City,NV,89703,,(775)283-2350,13,City: Small,No,No,–,–,66,13,5.1,35,2
320006000399,NV-02-02136,3200060,NV-02,PK,5,Martha P King Elementary School,CLARK COUNTY SCHOOL DISTRICT,Clark County,888 Adams Blvd,Boulder City,NV,89005,,(702)799-8260,31,Town: Fringe,No,No,Yes,Yes,318,17,18.7,309,9
320006000343,NV-02-02105,3200060,NV-02,PK,5,Martin Luther King Jr Elementary School,CLARK COUNTY SCHOOL DISTRICT,Clark County,2260 Betty Lane,Las Vegas,NV,89156,,(702)799-7390,21,Suburb: Large,No,No,Yes,Yes,514,24,21.4,501,13
320006000538,NV-02-02345,3200060,NV-02,6,8,Marvin M Sedway Middle School,CLARK COUNTY SCHOOL DISTRICT,Clark County,3465 Englestad St.,North Las Vegas,NV,89032,,(702)799-3880,21,Suburb: Large,No,No,Yes,Yes,1332,53,25.1,1022,123
320048000221,NV-16-16267,3200480,NV-16,PK,6,Marvin Moss Elementary School,WASHOE COUNTY SCHOOL DISTRICT,Washoe County,2200 Primio Way,Sparks,NV,89434,,(775)353-5507,21,Suburb: Large,No,No,Yes,Yes,585,34,17.2,177,34
320048000233,NV-16-16911,3200480,NV-16,PK,12,Marvin Picollo School,WASHOE COUNTY SCHOOL DISTRICT,Washoe County,900 Foothill Road,Reno,NV,89511,,(775)851-5650,21,Suburb: Large,No,No,Yes,Yes,105,22,4.8,55,5
320000100902,NV-18-49433,3200001,NV-18,PK,8,Mater Academy Bonanza,STATE-SPONSORED CHARTER SCHOOLS,Clark County,4760 E. Bonanza Road,Las Vegas,NV,89110,,(702)478-8318,11,City: Large,Yes,No,Yes,Yes,906,33,27.5,643,136
320000100851,NV-18-49432,3200001,NV-18,PK,8,Mater Academy Mountain Vista,STATE-SPONSORED CHARTER SCHOOLS,Clark County,3445 Mountain Vista Street,Las Vegas,NV,89121,,(702)485-2400,12,City: Midsize,Yes,No,Yes,Yes,1056,44,24,935,121
320000100896,NV-18-44437,3200001,NV-18,KG,8,Mater Academy Northern Nevada,STATE-SPONSORED CHARTER SCHOOLS,Washoe County,2680 E. Ninth Street,Reno,NV,89512,,(775)470-8950,12,City: Midsize,Yes,No,Yes,Yes,269,15,17.9,188,31
320006000075,NV-02-02226,3200060,NV-02,PK,5,Matt Kelly Elementary School,CLARK COUNTY SCHOOL DISTRICT,Clark County,1900 N. J St.,Las Vegas,NV,89106,,(702)799-4750,11,City: Large,No,No,Yes,Yes,347,20,17.4,345,2
320021000153,NV-07-07203,3200210,NV-07,PK,6,Mc Dermitt Elementary School,HUMBOLDT COUNTY SCHOOL DISTRICT,Humboldt County,Box Butte 98,McDermitt,NV,89421,,(775)532-8761,43,Rural: Remote,No,No,Yes,Yes,64,–,†,62,2
320021000154,NV-07-07601,3200210,NV-07,9,12,Mc Dermitt High School,HUMBOLDT COUNTY SCHOOL DISTRICT,Humboldt County,Box Butte 98,McDermitt,NV,89421,,(775)532-8761,43,Rural: Remote,No,No,Yes,Yes,35,14,2.5,35,–
320021000708,NV-07-07302,3200210,NV-07,6,8,Mc Dermitt Junior High School,HUMBOLDT COUNTY SCHOOL DISTRICT,Humboldt County,Box Butte 98,McDermitt,NV,89421,,(775)532-8761,43,Rural: Remote,No,No,Yes,Yes,21,9,2.3,21,–
320051000263,NV-17-17203,3200510,NV-17,PK,5,McGill Elementary School,WHITE PINE COUNTY SCHOOL DISTRICT,White Pine County,Box Butte 1296,McGill,NV,89318,,(775)235-7722,42,Rural: Distant,No,No,Yes,Yes,124,7,17.7,59,6
320027000410,NV-09-09301,3200270,NV-09,7,8,Meadow Valley Middle School,LINCOLN COUNTY SCHOOL DISTRICT,Lincoln County,Box Butte 567,Panaca,NV,89042,,(775)728-4655,43,Rural: Remote,No,No,Yes,Yes,73,5,14.6,21,11
320006000551,NV-02-02182,3200060,NV-02,PK,5,Mervin Iverson Elementary School,CLARK COUNTY SCHOOL DISTRICT,Clark County,1575 S. Hollywood Blvd,Las Vegas,NV,89142,,(702)799-7260,21,Suburb: Large,No,No,Yes,Yes,985,42,23.5,905,77
320048000706,NV-16-16242,3200480,NV-16,PK,6,Miguel Sepulveda Elementary School,WASHOE COUNTY SCHOOL DISTRICT,Washoe County,5075 Ion Drive,Sparks,NV,89436,,(775)626-5257,21,Suburb: Large,No,No,–,–,832,40,20.8,202,31
320006000404,NV-02-02322,3200060,NV-02,6,8,Mike OCallaghan Middle School i3 Learn Academy,CLARK COUNTY SCHOOL DISTRICT,Clark County,1450 Radwick Dr.,Las Vegas,NV,89110,,(702)799-7340,41,Rural: Fringe,No,Yes,Yes,Yes,1322,50,26.4,835,171
320006000607,NV-02-02917,3200060,NV-02,PK,5,Miley Achievement Center ES,CLARK COUNTY SCHOOL DISTRICT,Clark County,245 N. Pecos Rd.,Las Vegas,NV,89101,,(702)799-5631,11,City: Large,No,No,Yes,Yes,30,–,†,30,–
320006000694,NV-02-02916,3200060,NV-02,6,12,Miley Achievement Center Sec,CLARK COUNTY SCHOOL DISTRICT,Clark County,245 N. Pecos Rd.,Las Vegas,NV,89101,,(702)799-5631,11,City: Large,No,No,Yes,Yes,80,20,4,78,2
320009000448,NV-03-03210,3200090,NV-03,PK,5,Minden Elementary School,DOUGLAS COUNTY SCHOOL DISTRICT,Douglas County,1170 Baler Street,Minden,NV,89423,,(775)782-5510,32,Town: Distant,No,No,–,–,415,23,18,109,26
320033000859,NV-11-11925,3200330,NV-11,AE,AE,Mineral County Adult Education School,MINERAL COUNTY SCHOOL DISTRICT,Mineral County,751 A Street,Hawthorne,NV,89415,,(775)945-2909,33,Town: Remote,No,No,†,†,0,–,†,3,–
320033000183,NV-11-11601,3200330,NV-11,9,12,Mineral County High School,MINERAL COUNTY SCHOOL DISTRICT,Mineral County,Box Butte 938,Hawthorne,NV,89415,,(775)945-3332,33,Town: Remote,No,No,Yes,Yes,140,23,6.1,54,3
320006000878,NV-02-02957,3200060,NV-02,6,12,Mission High School,CLARK COUNTY SCHOOL DISTRICT,Clark County,801 Veterans Memorial Drive,Las Vegas,NV,89101,,(702)799-7880,11,City: Large,No,No,Yes,Yes,38,–,†,38,–
320006000078,NV-02-02602,3200060,NV-02,9,12,Moapa Valley High School,CLARK COUNTY SCHOOL DISTRICT,Clark County,Box Butte 278,Overton,NV,89040,,(702)397-2611,33,Town: Remote,No,No,–,–,528,26,20.3,110,24
320006000445,NV-02-02424,3200060,NV-02,9,12,Mojave High School,CLARK COUNTY SCHOOL DISTRICT,Clark County,5302 Goldfield St.,North Las Vegas,NV,89031,,(702)799-0432,21,Suburb: Large,No,No,Yes,Yes,2446,91,26.9,1597,169
320012000133,NV-04-04107,3200120,NV-04,KG,8,Montello Elementary School,ELKO COUNTY SCHOOL DISTRICT,†,Box Butte 597,Montello,NV,89830,,(775)776-2456,†,N,No,†,†,†,†,†,†,†,†
320006000103,NV-02-02408,3200060,NV-02,9,12,Morris Sunset East High School,CLARK COUNTY SCHOOL DISTRICT,Clark County,1905 Atlantic St.,Las Vegas,NV,89104,,(702)799-8880,11,City: Large,No,No,–,–,66,–,†,23,–
320012000134,NV-04-04108,3200120,NV-04,KG,8,Mound Valley Elementary School,ELKO COUNTY SCHOOL DISTRICT,Elko County,HC 30 Box 348,Elko,NV,89801,,(775)744-4382,43,Rural: Remote,No,No,–,–,14,–,†,3,–
320048000321,NV-16-16211,3200480,NV-16,PK,8,Mount Rose K-8 Academy of Languages Elementary School,WASHOE COUNTY SCHOOL DISTRICT,Washoe County,915 Lander Street,Reno,NV,89509,,(775)333-5030,12,City: Midsize,No,No,Yes,Yes,486,24,20.3,166,15
320051000802,NV-17-17902,3200510,NV-17,AE,AE,Mountain High School,WHITE PINE COUNTY SCHOOL DISTRICT,White Pine County,1135 Avenue C,Ely,NV,89301,,(775)289-2244,42,Rural: Distant,No,No,†,†,0,–,†,†,†
320012000349,NV-04-04209,3200120,NV-04,PK,6,Mountain View Elementary School,ELKO COUNTY SCHOOL DISTRICT,Elko County,3300 Argent Avenue,Elko,NV,89801,,(775)738-1844,33,Town: Remote,No,No,–,–,612,2,306,98,25
320006000079,NV-02-02228,3200060,NV-02,PK,5,Mountain View Elementary School,CLARK COUNTY SCHOOL DISTRICT,Clark County,5436 E. Kell Ln.,Las Vegas,NV,89156,,(702)799-7350,21,Suburb: Large,No,No,Yes,Yes,619,35,17.7,489,40
320006000947,NV-02-02368,3200060,NV-02,–,–,Mountains Edge Middle School,CLARK COUNTY SCHOOL DISTRICT,†,10155 Marnie St,Las Vegas,NV,89178,,(702)799-0000,†,N,No,†,†,†,†,†,†,†,†
320036000425,NV-12-12206,3200360,NV-12,PK,5,Mt Charleston Elementary School,NYE COUNTY SCHOOL DISTRICT,†,1521 E Idaho,Pahrump,NV,89048,,(775)727-7892,†,N,No,†,†,†,†,†,†,†,†
320006000081,NV-02-02260,3200060,NV-02,PK,5,Myrtle Tate Elementary School,CLARK COUNTY SCHOOL DISTRICT,Clark County,2450 N. Lincoln Rd.,Las Vegas,NV,89115,,(702)799-7360,21,Suburb: Large,No,No,Yes,Yes,814,42,19.4,800,14
320048000322,NV-16-16256,3200480,NV-16,PK,4,Nancy Gomes Elementary School,WASHOE COUNTY SCHOOL DISTRICT,Washoe County,3870 Limkin Street,Reno,NV,89506,,(775)677-5440,21,Suburb: Large,No,No,Yes,Yes,593,34,17.4,210,46
320048000234,NV-16-16237,3200480,NV-16,PK,6,Natchez Elementary School,WASHOE COUNTY SCHOOL DISTRICT,Washoe County,Box Butte 130,Wadsworth,NV,89442,,(775)351-1902,32,Town: Distant,No,No,Yes,Yes,125,14,8.9,125,–
320006000297,NV-02-02277,3200060,NV-02,PK,5,Nate Mack Elementary School,CLARK COUNTY SCHOOL DISTRICT,Clark County,3170 Laurel Ave.,Henderson,NV,89014,,(702)799-7760,11,City: Large,No,No,Yes,Yes,586,36,16.3,567,19
320006000531,NV-02-02176,3200060,NV-02,PK,5,Neil C Twitchell Elementary School,CLARK COUNTY SCHOOL DISTRICT,Clark County,2060 Desert Shadow Trail,Henderson,NV,89012,,(702)799-6860,11,City: Large,No,No,–,–,938,48,19.5,184,33
320000100731,NV-18-85405,3200001,NV-18,KG,12,Nevada Connections Academy,STATE-SPONSORED CHARTER SCHOOLS,Washoe County,555 Double Eagle Ct Ste 2000,Reno,NV,89521,,(775)826-4200,12,City: Midsize,Yes,No,–,–,3247,132,24.6,1401,251
320006000845,NV-02-02625,3200060,NV-02,6,12,Nevada Learning Academy at CCSD,CLARK COUNTY SCHOOL DISTRICT,Clark County,3050 E. Flamingo Road,Las Vegas,NV,89121,,(702)855-8435,12,City: Midsize,No,No,–,–,231,30,7.7,66,6
320000100900,NV-18-81101,3200001,NV-18,11,12,Nevada State High School Downtown,STATE-SPONSORED CHARTER SCHOOLS,Clark County,300 N. 13th St.,Las Vegas,NV,89101,,(702)953-2600,11,City: Large,Yes,No,–,–,80,1,80,49,8
320000100944,NV-18-81107,3200001,NV-18,–,–,Nevada State High School Downtown Henderson,STATE-SPONSORED CHARTER SCHOOLS,†,303 S Water St,Henderson,NV,89015,,(702)953-2600,†,N,Yes,†,†,†,†,†,†,†,†
320000100608,NV-18-81103,3200001,NV-18,11,12,Nevada State High School Henderson,STATE-SPONSORED CHARTER SCHOOLS,Clark County,233 N. Stephanie St.,Henderson,NV,89074,,(702)953-2600,11,City: Large,Yes,No,–,–,323,1,323,83,21
320000100948,NV-18-81108,3200001,NV-18,–,–,Nevada State High School Northwest,STATE-SPONSORED CHARTER SCHOOLS,†,7240 West Azure Dr,Las Vegas,NV,89130,,(702)953-2600,†,N,Yes,†,†,†,†,†,†,†,†
320000100937,NV-18-81106,3200001,NV-18,11,12,Nevada State High School Southwest,STATE-SPONSORED CHARTER SCHOOLS,Clark County,233 N Stephanie Street,Henderson,NV,89074,,(702)953-2600,21,Suburb: Large,Yes,†,†,†,†,†,†,†,†
320000100903,NV-18-81102,3200001,NV-18,11,12,Nevada State High School Summerlin,STATE-SPONSORED CHARTER SCHOOLS,Clark County,850 S. Durango Dr. Ste. 100,Las Vegas,NV,89145,,(702)953-2600,11,City: Large,Yes,No,–,–,242,–,†,87,24
320000100734,NV-18-86404,3200001,NV-18,KG,12,Nevada Virtual Academy,STATE-SPONSORED CHARTER SCHOOLS,Clark County,4801 S. Sandhill Rd.,Las Vegas,NV,89121,,(702)407-1825,12,City: Midsize,Yes,No,Yes,Yes,1840,78,23.6,798,149
320048000936,NV-16-16243,3200480,NV-16,PK,6,Nick Poulakidas Elementary School,WASHOE COUNTY SCHOOL DISTRICT,Washoe County,9600 Mojave Sky Dr,Reno,NV,89521,,(775)123-1234,12,City: Midsize,No,†,†,†,†,†,†,†,†
320048000844,NV-16-16923,3200480,NV-16,PK,12,North Star Online School,WASHOE COUNTY SCHOOL DISTRICT,Washoe County,5450 Riggins Ct. Suite #6,Reno,NV,89502,,(775)353-6900,12,City: Midsize,No,No,–,–,240,–,†,25,–
320048000546,NV-16-16607,3200480,NV-16,9,12,North Valleys High School,WASHOE COUNTY SCHOOL DISTRICT,Washoe County,1470 East Golden Valley Rd,Reno,NV,89506,,(775)677-5499,21,Suburb: Large,No,No,Yes,Yes,2070,104,19.9,763,151
320012000839,NV-04-04610,3200120,NV-04,KG,12,Northeastern Nevada Virtual Academy,ELKO COUNTY SCHOOL DISTRICT,Elko County,Box Butte 1012,Elko,NV,89803,,(775)738-5196,33,Town: Remote,No,No,–,–,48,–,†,9,–
320003000005,NV-01-01202,3200030,NV-01,PK,PK,Northside Early Learning Center,CHURCHILL COUNTY SCHOOL DISTRICT,Churchill County,340 Venturacci Lane,Fallon,NV,89406,,(775)423-3463,33,Town: Remote,No,No,Yes,Yes,184,14,13.1,66,19
320012000135,NV-04-04203,3200120,NV-04,PK,6,Northside Elementary School,ELKO COUNTY SCHOOL DISTRICT,Elko County,1645 Sewell Drive,Elko,NV,89801,,(775)738-7255,33,Town: Remote,No,No,Yes,Yes,439,16,27.4,150,26
320006000814,NV-02-02075,3200060,NV-02,KG,KG,Northwest Career & Techincal Academy Elementary School,CLARK COUNTY SCHOOL DISTRICT,Clark County,8200 W Tropical Pkwy,Las Vegas,NV,89149,,(702)799-4640,11,City: Large,No,No,–,–,20,1,20,9,2
320006000755,NV-02-02620,3200060,NV-02,9,12,Northwest Career and Technical Academy,CLARK COUNTY SCHOOL DISTRICT,Clark County,8200 W. Tropical Pkwy.,Las Vegas,NV,89149,,(702)799-4640,11,City: Large,No,Yes,Yes,Yes,1858,74,25.1,495,181
320003000431,NV-01-01207,3200030,NV-01,3,6,Numa Elementary,CHURCHILL COUNTY SCHOOL DISTRICT,Churchill County,601 Discovery Drive,Fallon,NV,89406,,(775)428-1996,33,Town: Remote,No,No,Yes,Yes,531,27,19.7,231,39
320002200929,NV-21-102100,3200022,NV-21,4,12,NV Prep,ACHIEVEMENT SCHOOL DISTRICT,Clark County,2525 Emerson Ave,Las Vegas,NV,89121,,(702)301-8118,12,City: Midsize,No,No,–,–,113,–,†,94,8
320002200917,NV-21-101101,3200022,NV-21,KG,2,NV Rise ES,ACHIEVEMENT SCHOOL DISTRICT,Clark County,2525 Emerson Ave,Las Vegas,NV,89121,,(702)336-7060,12,City: Midsize,No,No,–,–,117,–,†,90,14
320000100924,NV-18-104101,3200001,NV-18,11,12,NV State HS Meadowood,STATE-SPONSORED CHARTER SCHOOLS,Washoe County,7530 Longley Lane Suite 103,Reno,NV,89511,,(702)953-2600,12,City: Midsize,Yes,No,–,–,26,–,†,11,1
320000100928,NV-18-103101,3200001,NV-18,11,12,NV State HS Sunrise,STATE-SPONSORED CHARTER SCHOOLS,Clark County,300 N 13th St 2nd Floor,Las Vegas,NV,89101,,(702)953-2600,21,Suburb: Large,Yes,No,–,–,38,–,†,22,5
320036000862,NV-12-12902,3200360,NV-12,AE,AE,Nye County Adult Education,NYE COUNTY SCHOOL DISTRICT,Nye County,2000 S Mt Charleston,Pahrump,NV,89048,,(775)751-6822,33,Town: Remote,No,No,†,†,0,1,†,30,–
320006000082,NV-02-02231,3200060,NV-02,PK,5,O K Adcock Elementary School,CLARK COUNTY SCHOOL DISTRICT,Clark County,6350 Hyde Ave.,Las Vegas,NV,89107,,(702)799-4185,11,City: Large,No,No,Yes,Yes,639,42,15.2,615,21
320000100817,NV-18-65414,3200001,NV-18,KG,12,Oasis Academy,STATE-SPONSORED CHARTER SCHOOLS,Churchill County,920 West Williams Ave. Suite 1,Fallon,NV,89406,,(775)423-5437,33,Town: Remote,Yes,No,–,–,612,–,†,68,54
320006000609,NV-02-02614,3200060,NV-02,9,12,Odyssey Charter High School,CLARK COUNTY SCHOOL DISTRICT,Clark County,2251 S. Jones Blvd,Las Vegas,NV,89146,,(702)257-0578,11,City: Large,Yes,No,Yes,Yes,1365,–,†,1191,–
320006000698,NV-02-02358,3200060,NV-02,6,8,Odyssey Charter School 6-8,CLARK COUNTY SCHOOL DISTRICT,Clark County,2251 S. Jones Blvd,Las Vegas,NV,89146,,(702)257-0578,11,City: Large,Yes,No,Yes,Yes,590,–,†,449,5
320006000488,NV-02-02299,3200060,NV-02,PK,5,Odyssey Charter School K-5,CLARK COUNTY SCHOOL DISTRICT,Clark County,2251 S. Jones Blvd,Las Vegas,NV,89146,,(702)257-0578,11,City: Large,Yes,No,Yes,Yes,267,–,†,223,2
320006000489,NV-02-02300,3200060,NV-02,PK,5,Ollie Detwiler Elementary School,CLARK COUNTY SCHOOL DISTRICT,Clark County,1960 Ferrell St.,Las Vegas,NV,89106,,(702)799-1830,11,City: Large,No,No,Yes,Yes,697,40,17.4,682,15
320006000292,NV-02-02275,3200060,NV-02,PK,5,Oran K Gragson Elementary School,CLARK COUNTY SCHOOL DISTRICT,Clark County,555 N. Honolulu,Las Vegas,NV,89110,,(702)799-7330,11,City: Large,No,No,Yes,Yes,802,47,17.1,778,24
320021000155,NV-07-07104,3200210,NV-07,PK,8,Orovada Elementary School,HUMBOLDT COUNTY SCHOOL DISTRICT,Humboldt County,Box Butte 85,Orovada,NV,89425,,(775)272-3333,43,Rural: Remote,No,No,Yes,Yes,29,2,14.5,14,–
320012000727,NV-04-04206,3200120,NV-04,PK,6,Owyhee Elementary School (all NV & Idaho only),ELKO COUNTY SCHOOL DISTRICT,Elko County,Box Butte 100,Owyhee,NV,89832,,(775)757-3400,43,Rural: Remote,No,No,Yes,Yes,202,9,22.4,117,–
320012000610,NV-04-04604,3200120,NV-04,9,12,Owyhee High School (all NV & Idaho only),ELKO COUNTY SCHOOL DISTRICT,Elko County,Box Butte 100,Owyhee,NV,89832,,(775)757-3400,43,Rural: Remote,No,No,–,–,70,3,23.3,21,–
320012000684,NV-04-04506,3200120,NV-04,7,8,Owyhee Junior High School (all NV & Idaho only),ELKO COUNTY SCHOOL DISTRICT,Elko County,Box Butte 100,Owyhee,NV,89832,,(775)757-3400,43,Rural: Remote,No,No,Yes,Yes,54,–,†,24,–
320006000086,NV-02-02263,3200060,NV-02,PK,5,P A Diskin Elementary School,CLARK COUNTY SCHOOL DISTRICT,Clark County,4220 S. Ravenwood,Las Vegas,NV,89147,,(702)799-5930,21,Suburb: Large,No,No,Yes,Yes,675,37,18.2,630,42
320027000170,NV-09-09102,3200270,NV-09,PK,5,Pahranagat Valley Elementary School,LINCOLN COUNTY SCHOOL DISTRICT,Lincoln County,Box Butte 170,Alamo,NV,89001,,(775)725-3351,43,Rural: Remote,No,No,Yes,Yes,153,8,19.1,47,16
320027000171,NV-09-09601,3200270,NV-09,9,12,Pahranagat Valley High School,LINCOLN COUNTY SCHOOL DISTRICT,Lincoln County,Box Butte 298,Alamo,NV,89001,,(775)725-3321,43,Rural: Remote,No,No,–,–,111,8,13.9,30,5
320027000423,NV-09-09302,3200270,NV-09,6,8,Pahranagat Valley Middle School,LINCOLN COUNTY SCHOOL DISTRICT,Lincoln County,Box Butte 298,Alamo,NV,89001,,(775)725-3321,43,Rural: Remote,No,No,Yes,Yes,61,3,20.3,25,7
320036000192,NV-12-12604,3200360,NV-12,9,12,Pahrump Valley High School,NYE COUNTY SCHOOL DISTRICT,Nye County,501 E Calvada,Pahrump,NV,89048,,(775)727-7737,33,Town: Remote,No,No,Yes,Yes,1225,67,18.3,688,59
320006000446,NV-02-02425,3200060,NV-02,9,12,Palo Verde High School,CLARK COUNTY SCHOOL DISTRICT,Clark County,333 S. Pavilion Center Dr.,Las Vegas,NV,89144,,(702)799-1450,11,City: Large,No,No,–,–,3198,107,29.9,710,109
320027000172,NV-09-09202,3200270,NV-09,PK,6,Panaca Elementary School,LINCOLN COUNTY SCHOOL DISTRICT,Lincoln County,Box Butte 307,Panaca,NV,89042,,(775)728-4446,43,Rural: Remote,No,No,Yes,Yes,168,12,14,48,37
320006000085,NV-02-02232,3200060,NV-02,PK,5,Paradise Elementary School,CLARK COUNTY SCHOOL DISTRICT,Clark County,900 Cottage Grove Ave,Las Vegas,NV,89119,,(702)799-5660,12,City: Midsize,No,No,Yes,Yes,522,26,20.1,509,13
320021000156,NV-07-07105,3200210,NV-07,PK,8,Paradise Valley Elementary School,HUMBOLDT COUNTY SCHOOL DISTRICT,Humboldt County,Box Butte 33,Paradise Valley,NV,89426,,(775)578-3382,43,Rural: Remote,No,No,Yes,Yes,41,3,13.7,23,–
320036000852,NV-12-12609,3200360,NV-12,3,5,Pathways Elementary (Alternative),NYE COUNTY SCHOOL DISTRICT,Nye County,2000 S Mt Charleston Blvd,Pahrump,NV,89048,,(775)751-6822,33,Town: Remote,No,No,–,–,2,–,†,†,†
320036000557,NV-12-12606,3200360,NV-12,9,12,Pathways High (Alternative),NYE COUNTY SCHOOL DISTRICT,Nye County,2000 S Mt Charleston Blvd,Pahrump,NV,89048,,(775)751-6822,33,Town: Remote,No,No,–,–,149,3,49.7,91,1
320036000556,NV-12-12607,3200360,NV-12,6,8,Pathways Middle School (Alternative),NYE COUNTY SCHOOL DISTRICT,Nye County,2000 S Mt Charleston Blvd,Pahrump,NV,89048,,(775)751-6822,33,Town: Remote,No,No,–,–,43,5,8.6,24,3
320006000060,NV-02-02138,3200060,NV-02,PK,5,Patricia A Bendorf Elementary School,CLARK COUNTY SCHOOL DISTRICT,Clark County,3550 S. Kevin Way,Las Vegas,NV,89147,,(702)799-4440,21,Suburb: Large,No,No,Yes,Yes,706,39,18.1,358,64
320009000422,NV-03-03302,3200090,NV-03,6,8,Pau Wa Lu Middle School,DOUGLAS COUNTY SCHOOL DISTRICT,Douglas County,701 Long Valley Road,Gardnerville,NV,89460,,(775)265-6100,32,Town: Distant,No,No,Yes,Yes,546,50,10.9,189,52
320006000087,NV-02-02233,3200060,NV-02,PK,5,Paul E Culley Elementary School,CLARK COUNTY SCHOOL DISTRICT,Clark County,1200 N. Mallard,Las Vegas,NV,89108,,(702)799-4800,11,City: Large,No,No,Yes,Yes,837,51,16.4,784,50
320048000236,NV-16-16213,3200480,NV-16,PK,5,Peavine Elementary School,WASHOE COUNTY SCHOOL DISTRICT,Washoe County,1601 Grandview Avenue,Reno,NV,89503,,(775)746-5840,12,City: Midsize,No,No,Yes,Yes,367,20,18.4,168,14
320042000867,NV-14-14903,3200420,NV-14,AE,AE,Pershing Co Adult,PERSHING COUNTY SCHOOL DISTRICT,Pershing County,1215 Franklin Ave,Lovelock,NV,89419,,(775)273-2625,43,Rural: Remote,No,No,†,†,0,–,†,†,†
320042000198,NV-14-14601,3200420,NV-14,9,12,Pershing County High School (and alternative ed),PERSHING COUNTY SCHOOL DISTRICT,Pershing County,Box Butte 990,Lovelock,NV,89419,,(775)273-2625,43,Rural: Remote,No,No,Yes,Yes,177,37,4.8,89,8
320042000167,NV-14-14301,3200420,NV-14,6,8,Pershing County Middle School,PERSHING COUNTY SCHOOL DISTRICT,Pershing County,Box Butte 1020,Lovelock,NV,89419,,(775)273-1200,43,Rural: Remote,No,No,Yes,Yes,144,13,11.1,76,6
320006000598,NV-02-02933,3200060,NV-02,6,12,Peterson Academic Center,CLARK COUNTY SCHOOL DISTRICT,Clark County,10250 W. Centenniel Pkwy.,Las Vegas,NV,89149,,(702)799-6610,11,City: Large,No,No,–,–,86,13,6.6,83,3
320006000271,NV-02-02145,3200060,NV-02,PK,5,Piggott Academy of International Studies,CLARK COUNTY SCHOOL DISTRICT,Clark County,9601 Red Hills Rd.,Las Vegas,NV,89117,,(702)799-4450,11,City: Large,No,Yes,–,–,678,34,19.9,196,40
320000100909,NV-18-58425,3200001,NV-18,KG,8,Pinecrest Academy Inspirada,STATE-SPONSORED CHARTER SCHOOLS,Clark County,2840 Via Contessa,Henderson,NV,89044,,(702)473-5777,41,Rural: Fringe,Yes,No,–,–,1099,64,17.2,107,14
320000100825,NV-18-58423,3200001,NV-18,KG,12,Pinecrest Academy of Nevada Cadence,STATE-SPONSORED CHARTER SCHOOLS,Clark County,225 Grand Cadence Drive,Henderson,NV,89015,,(702)202-2227,11,City: Large,Yes,No,–,–,1628,85,19.2,402,100
320000100897,NV-18-58422,3200001,NV-18,KG,5,Pinecrest Academy of Nevada Horizon,STATE-SPONSORED CHARTER SCHOOLS,Clark County,1360 S. Boulder Highway,Henderson,NV,89015,,(702)749-5800,11,City: Large,Yes,No,–,–,703,36,19.5,154,41
320000100941,NV-18-58428,3200001,NV-18,KG,9,Pinecrest Academy of Nevada Sloan Canyon,STATE-SPONSORED CHARTER SCHOOLS,†,675 W Dale Ave,Henderson,NV,89044,,(702)462-9700,†,N,Yes,†,†,†,†,†,†,†,†
320000100899,NV-18-58427,3200001,NV-18,KG,8,Pinecrest Academy St Rose,STATE-SPONSORED CHARTER SCHOOLS,Clark County,1385 E. Cactus Ave.,Las Vegas,NV,89183,,(702)750-9150,11,City: Large,Yes,No,–,–,992,42,23.6,165,29
320009000447,NV-03-03209,3200090,NV-03,PK,5,Pinon Hills Elementary,DOUGLAS COUNTY SCHOOL DISTRICT,Douglas County,1479 Stephanie Way,Minden,NV,89423,,(775)267-3622,31,Town: Fringe,No,No,–,–,313,19,16.5,63,8
320027000173,NV-09-09203,3200270,NV-09,PK,6,Pioche Elementary School,LINCOLN COUNTY SCHOOL DISTRICT,Lincoln County,Box Butte 30,Pioche,NV,89043,,(775)962-5832,43,Rural: Remote,No,No,Yes,Yes,74,8,9.3,29,9
320039000480,NV-13-13903,3200390,NV-13,9,12,Pioneer (Alternative) High School,CARSON CITY SCHOOL DISTRICT,Carson City,225 E. Park Street,Carson City,NV,89701,,(775)283-1300,13,City: Small,No,No,Yes,Yes,174,14,12.4,170,4
320048000237,NV-16-16233,3200480,NV-16,PK,5,Pleasant Valley Elementary School,WASHOE COUNTY SCHOOL DISTRICT,Washoe County,405 Surrey Drive,Reno,NV,89511,,(775)849-0255,21,Suburb: Large,No,No,–,–,421,24,17.5,70,3
320048000238,NV-16-16504,3200480,NV-16,9,12,Procter R Hug High School,WASHOE COUNTY SCHOOL DISTRICT,Washoe County,2880 Sutro Street,Reno,NV,89512,,(775)333-5300,12,City: Midsize,No,No,Yes,Yes,1526,92,16.6,1526,–
320006000088,NV-02-02234,3200060,NV-02,PK,5,Quannah McCall Elementary School,CLARK COUNTY SCHOOL DISTRICT,Clark County,800 Carey Ave.,North Las Vegas,NV,89030,,(702)799-7149,21,Suburb: Large,No,No,Yes,Yes,376,21,17.9,369,7
320000100759,NV-18-72416,3200001,NV-18,KG,8,Quest Academy Northwest,STATE-SPONSORED CHARTER SCHOOLS,Clark County,4025 N. Rancho Dr.,Las Vegas,NV,89130,,(702)515-4021,11,City: Large,Yes,No,Yes,Yes,463,20,23.2,301,25
320006000923,NV-02-02965,3200060,NV-02,1,12,Quest Program,CLARK COUNTY SCHOOL DISTRICT,Clark County,601 N Pecos Rd Suite 70,Las Vegas,NV,89101,,(702)799-1623,11,City: Large,No,No,†,†,0,–,†,–,–
320006000303,NV-02-02290,3200060,NV-02,PK,5,R E Tobler Elementary School,CLARK COUNTY SCHOOL DISTRICT,Clark County,6510 W. Buckskin Ave.,Las Vegas,NV,89108,,(702)799-4500,11,City: Large,No,No,Yes,Yes,521,30,17.4,508,13
320006000298,NV-02-02278,3200060,NV-02,PK,5,R Guild Gray Elementary School,CLARK COUNTY SCHOOL DISTRICT,Clark County,2825 S. Torrey Pines Dr.,Las Vegas,NV,89146,,(702)799-5950,21,Suburb: Large,No,No,Yes,Yes,472,26,18.2,461,11
320006000740,NV-02-02087,3200060,NV-02,PK,5,Rainbow Dreams Academy,CLARK COUNTY SCHOOL DISTRICT,Clark County,950 W. Lake Mead Blvd.,Las Vegas,NV,89106,,(702)638-0222,11,City: Large,Yes,No,Yes,Yes,227,–,†,225,2
320006000855,NV-02-02367,3200060,NV-02,6,8,Rainbow Dreams Academy Secondary,CLARK COUNTY SCHOOL DISTRICT,Clark County,950 W. Lake Mead Blvd,Las Vegas,NV,89106,,(702)638-0222,11,City: Large,Yes,No,Yes,Yes,86,–,†,85,1
320006000590,NV-02-02348,3200060,NV-02,6,8,Ralph Cadwallader Middle School,CLARK COUNTY SCHOOL DISTRICT,Clark County,7775 Elkhorn Rd.,Las Vegas,NV,89131,,(702)799-6692,11,City: Large,No,No,–,–,1507,49,30.8,446,77
320006000089,NV-02-02403,3200060,NV-02,9,12,Rancho High School,CLARK COUNTY SCHOOL DISTRICT,Clark County,1900 Searles Ave.,Las Vegas,NV,89101,,(702)799-7000,21,Suburb: Large,No,Yes,Yes,Yes,3292,124,26.5,2008,180
320006000470,NV-02-02164,3200060,NV-02,PK,5,Raul P Elizondo Elementary School,CLARK COUNTY SCHOOL DISTRICT,Clark County,4865 Goldfield St.,North Las Vegas,NV,89031,,(702)799-1730,21,Suburb: Large,No,No,Yes,Yes,628,29,21.7,577,48
320006000853,NV-02-02744,3200060,NV-02,9,12,Red Rock Academy,CLARK COUNTY SCHOOL DISTRICT,†,5760 Range Rd.,Las Vegas,NV,89115,,(702)799-1623,†,N,No,†,†,†,†,†,†,†,†
320006000090,NV-02-02235,3200060,NV-02,PK,5,Red Rock Elementary School,CLARK COUNTY SCHOOL DISTRICT,Clark County,408 Upland Blvd.,Las Vegas,NV,89107,,(702)799-4223,11,City: Large,No,No,Yes,Yes,769,48,16,751,18
320048000239,NV-16-16502,3200480,NV-16,9,12,Reno High School,WASHOE COUNTY SCHOOL DISTRICT,Washoe County,395 Booth Street,Reno,NV,89509,,(775)333-5050,12,City: Midsize,No,No,–,–,1715,73,23.5,298,25
320006000091,NV-02-02236,3200060,NV-02,PK,5,Rex Bell Elementary School,CLARK COUNTY SCHOOL DISTRICT,Clark County,2900 Wilmington Way,Las Vegas,NV,89102,,(702)799-5910,11,City: Large,No,No,Yes,Yes,896,43,20.8,866,30
320006000507,NV-02-02281,3200060,NV-02,PK,5,Reynaldo Martinez Elementary School,CLARK COUNTY SCHOOL DISTRICT,Clark County,350 E. Judson Ave.,North Las Vegas,NV,89030,,(702)799-3800,21,Suburb: Large,No,No,Yes,Yes,733,36,20.4,713,20
320006000584,NV-02-02253,3200060,NV-02,PK,5,Richard C. Priest Elementary School,CLARK COUNTY SCHOOL DISTRICT,Clark County,4150 Fuselier Dr.,North Las Vegas,NV,89032,,(702)799-6200,21,Suburb: Large,No,No,Yes,Yes,742,40,18.6,701,38
320006000434,NV-02-02148,3200060,NV-02,PK,5,Richard H Bryan Elementary School,CLARK COUNTY SCHOOL DISTRICT,Clark County,8050 Cielo Vista Ave,Las Vegas,NV,89128,,(702)799-1460,11,City: Large,No,No,Yes,Yes,554,30,18.5,249,46
320006000401,NV-02-02128,3200060,NV-02,PK,5,Richard J Rundle Elementary School,CLARK COUNTY SCHOOL DISTRICT,Clark County,425 N. Christy Ln.,Las Vegas,NV,89110,,(702)799-7380,21,Suburb: Large,No,No,Yes,Yes,740,43,17.2,717,23
320048000863,NV-16-16921,3200480,NV-16,AE,AE,Rise Academy for Achievement,WASHOE COUNTY SCHOOL DISTRICT,Washoe County,1301 CORDONE AVE,RENO,NV,89502,,(775)337-9939,12,City: Midsize,No,No,†,†,0,4,†,12,–
320048000240,NV-16-16214,3200480,NV-16,PK,5,Rita Cannan Elementary School,WASHOE COUNTY SCHOOL DISTRICT,Washoe County,2450 Cannan Street,Reno,NV,89512,,(775)353-5750,12,City: Midsize,No,No,Yes,Yes,493,36,13.7,490,0
320030000746,NV-10-10211,3200300,NV-10,PK,6,Riverview Elementary School,LYON COUNTY SCHOOL DISTRICT,Lyon County,1200 Ferretto Pkwy,Dayton,NV,89403,,(775)246-6170,41,Rural: Fringe,No,No,Yes,Yes,453,25,18.1,210,34
320006000930,NV-02-02064,3200060,NV-02,PK,5,Robert and Sandy Ellis Elementary,CLARK COUNTY SCHOOL DISTRICT,Clark County,3200 Artella Ave,Henderson,NV,89044,,(702)799-5888,11,City: Large,No,No,–,–,559,32,17.5,69,12
320006000092,NV-02-02237,3200060,NV-02,PK,5,Robert E Lake Elementary School,CLARK COUNTY SCHOOL DISTRICT,Clark County,2904 Meteoro St.,Las Vegas,NV,89169,,(702)799-5530,21,Suburb: Large,No,No,Yes,Yes,820,52,15.8,802,18
320006000737,NV-02-02097,3200060,NV-02,PK,5,Robert L Forbuss Elementary School,CLARK COUNTY SCHOOL DISTRICT,Clark County,8601 S. Grand Canyon Dr.,Las Vegas,NV,89178,,(702)799-6840,21,Suburb: Large,No,No,Yes,Yes,705,35,20.1,263,70
320006000093,NV-02-02254,3200060,NV-02,PK,5,Robert L Taylor Elementary School,CLARK COUNTY SCHOOL DISTRICT,Clark County,144 Westminster Way,Henderson,NV,89015,,(702)799-8950,11,City: Large,No,No,Yes,Yes,650,35,18.6,640,10
320006000373,NV-02-02117,3200060,NV-02,PK,5,Robert Lunt Elementary School,CLARK COUNTY SCHOOL DISTRICT,Clark County,2701 Harris St,Las Vegas,NV,89101,,(702)799-8360,11,City: Large,No,No,Yes,Yes,640,31,20.6,618,22
320048000323,NV-16-16508,3200480,NV-16,9,12,Robert Mc Queen High School,WASHOE COUNTY SCHOOL DISTRICT,Washoe County,6055 Lancer Street,Reno,NV,89523,,(775)746-5880,12,City: Midsize,No,No,–,–,1708,86,19.9,346,39
320048000241,NV-16-16228,3200480,NV-16,PK,5,Robert Mitchell Elementary School,WASHOE COUNTY SCHOOL DISTRICT,Washoe County,1216 Prater Way,Sparks,NV,89431,,(775)353-5590,21,Suburb: Large,No,No,Yes,Yes,361,22,16.4,357,1
320006000094,NV-02-02310,3200060,NV-02,6,8,Robert O Gibson Middle School,CLARK COUNTY SCHOOL DISTRICT,Clark County,3900 W. Washington Ave.,Las Vegas,NV,89107,,(702)799-4700,11,City: Large,No,Yes,Yes,Yes,1266,49,25.8,976,129
320006000455,NV-02-02158,3200060,NV-02,PK,5,Roberta C Cartwright Elementary School,CLARK COUNTY SCHOOL DISTRICT,Clark County,1050 E. Gary Ave.,Las Vegas,NV,89123,,(702)799-1350,12,City: Midsize,No,No,Yes,Yes,552,28,19.7,259,63
320048000242,NV-16-16215,3200480,NV-16,PK,6,Roger Corbett Elementary School,WASHOE COUNTY SCHOOL DISTRICT,Washoe County,1901 Villanova Drive,Reno,NV,89502,,(775)333-5180,12,City: Midsize,No,No,Yes,Yes,519,35,14.8,514,2
320006000550,NV-02-02181,3200060,NV-02,PK,5,Roger D Gehring Academy of Science and Technology,CLARK COUNTY SCHOOL DISTRICT,Clark County,1155 E. Richmar Ave.,Las Vegas,NV,89123,,(702)799-6899,12,City: Midsize,No,Yes,Yes,Yes,583,32,18.2,223,50
320006000442,NV-02-02156,3200060,NV-02,PK,5,Roger M Bryan Elementary School,CLARK COUNTY SCHOOL DISTRICT,Clark County,8255 W. Katie Ave,Las Vegas,NV,89147,,(702)799-1270,21,Suburb: Large,No,No,Yes,Yes,720,39,18.5,388,62
320048000558,NV-16-16210,3200480,NV-16,PK,5,Rollan D. Melton Ellementary School,WASHOE COUNTY SCHOOL DISTRICT,Washoe County,6557 Archimedes Drive,Reno,NV,89523,,(775)746-7440,12,City: Midsize,No,No,–,–,542,27,20.1,47,11
320006000095,NV-02-02238,3200060,NV-02,PK,5,Rose Warren Elementary School,CLARK COUNTY SCHOOL DISTRICT,Clark County,6451 Brandywine Way,Las Vegas,NV,89107,,(702)799-4233,11,City: Large,No,No,Yes,Yes,716,40,17.9,688,28
320036000412,NV-12-12301,3200360,NV-12,6,8,Rosemary Clarke Middle School,NYE COUNTY SCHOOL DISTRICT,Nye County,4201 N. Blagg,Pahrump,NV,89060,,(775)727-5546,41,Rural: Fringe,No,No,Yes,Yes,975,45,21.7,945,30
320036000193,NV-12-12103,3200360,NV-12,PK,5,Round Mountain Elementary School,NYE COUNTY SCHOOL DISTRICT,Nye County,Box Butte 1429,Round Mountain,NV,89045,,(775)377-2236,43,Rural: Remote,No,No,–,–,134,10,13.4,20,5
320036000363,NV-12-12605,3200360,NV-12,9,12,Round Mountain High School,NYE COUNTY SCHOOL DISTRICT,Nye County,Box Butte 1427,Round Mountain,NV,89045,,(775)377-2690,43,Rural: Remote,No,No,–,–,66,6,11,12,1
320036000611,NV-12-12313,3200360,NV-12,6,8,Round Mountain Middle School,NYE COUNTY SCHOOL DISTRICT,Nye County,Box Butte 1427,Round Mountain,NV,89045,,(775)377-2690,43,Rural: Remote,No,No,–,–,74,14,5.3,15,3
320048000243,NV-16-16216,3200480,NV-16,PK,6,Roy Gomm Elementary School,WASHOE COUNTY SCHOOL DISTRICT,Washoe County,4000 Mayberry Drive,Reno,NV,89509,,(775)333-5000,12,City: Midsize,No,Yes,–,–,450,23,19.6,31,5
320006000096,NV-02-02311,3200060,NV-02,6,8,Roy West Martin Middle School,CLARK COUNTY SCHOOL DISTRICT,Clark County,200 N. 28th St.,Las Vegas,NV,89101,,(702)799-7922,11,City: Large,No,Yes,Yes,Yes,1563,62,25.2,1193,112
320006000747,NV-02-02085,3200060,NV-02,PK,5,Ruben P Diaz Elementary School,CLARK COUNTY SCHOOL DISTRICT,Clark County,4450 E. Owens Ave.,Las Vegas,NV,89115,,(702)799-2120,21,Suburb: Large,No,No,Yes,Yes,707,33,21.4,688,19
320006000805,NV-02-02076,3200060,NV-02,PK,5,Ruby Duncan Elementary School,CLARK COUNTY SCHOOL DISTRICT,Clark County,250 W Rome Blvd,Las Vegas,NV,89084,,(702)799-7100,21,Suburb: Large,No,No,–,–,643,38,16.9,609,34
320006000097,NV-02-02239,3200060,NV-02,PK,5,Ruby S Thomas Elementary School,CLARK COUNTY SCHOOL DISTRICT,Clark County,1560 E. Cherokee Ln.,Las Vegas,NV,89169,,(702)799-5550,12,City: Midsize,No,No,Yes,Yes,906,49,18.5,893,13
320012000139,NV-04-04111,3200120,NV-04,KG,8,Ruby Valley Elementary School,ELKO COUNTY SCHOOL DISTRICT,Elko County,HC 60 Box 620,Ruby Valley,NV,89833,,(775)779-2289,43,Rural: Remote,No,No,–,–,15,–,†,3,†
320006000344,NV-02-02106,3200060,NV-02,PK,5,Ruthe Deskin Elementary School,CLARK COUNTY SCHOOL DISTRICT,Clark County,4550 N Pioneer Way,Las Vegas,NV,89129,,(702)799-4600,11,City: Large,No,No,Yes,Yes,607,32,19,601,6
320012000385,NV-04-04211,3200120,NV-04,PK,5,Sage Elementary School,ELKO COUNTY SCHOOL DISTRICT,Elko County,208 Boyd-Kennedy Road,Spring Creek,NV,89815,,(775)738-4711,41,Rural: Fringe,No,No,–,–,537,†,†,126,27
320006000690,NV-02-02198,3200060,NV-02,PK,5,Sandra L Thompson Elementary School,CLARK COUNTY SCHOOL DISTRICT,Clark County,7351 N. Campbell Rd.,Las Vegas,NV,89149,,(702)799-3430,11,City: Large,No,No,Yes,Yes,636,34,18.7,288,46
320006000588,NV-02-02274,3200060,NV-02,PK,5,Sandy Searles Miller Elementary School,CLARK COUNTY SCHOOL DISTRICT,Clark County,4851 E. Lake Mead Blvd.,Las Vegas,NV,89115,,(702)799-8830,21,Suburb: Large,No,Yes,Yes,Yes,652,37,17.6,367,96
320006000612,NV-02-02291,3200060,NV-02,PK,5,Sandy Valley Elementary School,CLARK COUNTY SCHOOL DISTRICT,Clark County,HCR 31,Sandy Valley,NV,89019,,(702)723-5344,42,Rural: Distant,No,No,Yes,Yes,133,13,10.2,132,1
320006000304,NV-02-02320,3200060,NV-02,6,12,Sandy Valley Jr/Sr High School,CLARK COUNTY SCHOOL DISTRICT,Clark County,HCR 31,Sandy Valley,NV,89019,,(702)723-5344,42,Rural: Distant,No,No,Yes,Yes,154,16,9.6,154,–
320048000428,NV-16-16270,3200480,NV-16,PK,6,Sarah Winnemucca Elementary School,WASHOE COUNTY SCHOOL DISTRICT,Washoe County,1349 Backer Way,Reno,NV,89523,,(775)746-5810,12,City: Midsize,No,No,–,–,661,44,15,229,20
320033000184,NV-11-11202,3200330,NV-11,PK,6,Schurz Elementary School,MINERAL COUNTY SCHOOL DISTRICT,Mineral County,Box Butte 70,Schurz,NV,89427,,(775)773-2323,43,Rural: Remote,No,No,Yes,Yes,62,6,10.3,60,2
320006000045,NV-02-02137,3200060,NV-02,PK,5,Selma F Bartlett Elementary School,CLARK COUNTY SCHOOL DISTRICT,Clark County,1961 Wigwam Pkwy,Henderson,NV,89074,,(702)799-5750,11,City: Large,No,No,–,–,800,36,22.2,231,34
320006000595,NV-02-02427,3200060,NV-02,9,12,Shadow Ridge High School,CLARK COUNTY SCHOOL DISTRICT,Clark County,5050 Brent Ln.,Las Vegas,NV,89131,,(702)799-6699,11,City: Large,No,No,Yes,Yes,3187,112,28.5,926,178
320006000511,NV-02-02285,3200060,NV-02,PK,5,Sheila R. Tarr Elementary School,CLARK COUNTY SCHOOL DISTRICT,Clark County,9400 W. Gilmore Ave.,Las Vegas,NV,89129,,(702)799-6710,11,City: Large,No,Yes,Yes,Yes,739,37,20,275,41
320006000873,NV-02-02070,3200060,NV-02,PK,5,Shelley Berkley Elementary School,CLARK COUNTY SCHOOL DISTRICT,Clark County,9850 Copper Edge Road,Las Vegas,NV,89148,,(702)799-2525,21,Suburb: Large,No,No,Yes,Yes,746,38,19.6,340,57
320006000804,NV-02-02077,3200060,NV-02,PK,5,Shirley & Bill Wallin Elementary School,CLARK COUNTY SCHOOL DISTRICT,Clark County,2333 Canyon Retreat Dr,Henderson,NV,89044,,(702)799-5776,11,City: Large,No,No,–,–,675,37,18.2,68,20
320006000916,NV-02-02066,3200060,NV-02,PK,5,Shirley A Barber Elementary,CLARK COUNTY SCHOOL DISTRICT,Clark County,2002 Dave Street,Las Vegas,NV,89183,,(702)799-5915,12,City: Midsize,No,No,–,–,690,36,19.2,377,57
320048000503,NV-16-16605,3200480,NV-16,KG,8,Sierra Nevada Academy Charter School,WASHOE COUNTY SCHOOL DISTRICT,Washoe County,13880 Stead Blvd.,Reno,NV,89506,,(775)677-4500,12,City: Midsize,Yes,No,Yes,Yes,422,–,†,163,22
320006000539,NV-02-02611,3200060,NV-02,9,12,Sierra Vista High School,CLARK COUNTY SCHOOL DISTRICT,Clark County,8100 W. Robindale Rd.,Las Vegas,NV,89113,,(702)799-6820,21,Suburb: Large,No,No,Yes,Yes,2612,89,29.3,1100,248
320006000515,NV-02-02339,3200060,NV-02,6,8,Sig Rogich Middle School,CLARK COUNTY SCHOOL DISTRICT,Clark County,235 N. Pavilion Center Dr.,Las Vegas,NV,89144,,(702)799-6040,11,City: Large,No,No,–,–,1877,61,30.8,313,58
320000100938,NV-18-105101,3200001,NV-18,KG,KG,Signature Preparatory,STATE-SPONSORED CHARTER SCHOOLS,†,498 So Boulder Hwy,Henderson,NV,89015,,(702)224-2809,†,N,Yes,†,†,†,†,†,†,†,†
320048000367,NV-16-16263,3200480,NV-16,PK,4,Silver Lake Elementary School,WASHOE COUNTY SCHOOL DISTRICT,Washoe County,8719 Red Baron Boulevard,Reno,NV,89506,,(775)677-5400,12,City: Midsize,No,No,Yes,Yes,565,32,17.7,196,53
320015000145,NV-05-05103,3200150,NV-05,PK,8,Silver Peak Elementary School,ESMERALDA COUNTY SCHOOL DISTRICT,Esmeralda County,Box Butte 218,Silver Peak,NV,89047,,(775)937-2261,43,Rural: Remote,No,No,Yes,Yes,7,1,7,†,†
320000100781,NV-18-78411,3200001,NV-18,KG,8,Silver Sands Montessori,STATE-SPONSORED CHARTER SCHOOLS,Clark County,1841 Whitney Mesa Drive,Henderson,NV,89014,,(702)522-6220,11,City: Large,Yes,No,–,–,298,17,17.5,17,29
320030000299,NV-10-10205,3200300,NV-10,PK,4,Silver Stage Elementary School,LYON COUNTY SCHOOL DISTRICT,Lyon County,3900 W Spruce Street,Silver Springs,NV,89429,,(775)577-5060,42,Rural: Distant,No,No,Yes,Yes,393,22,17.9,383,10
320030000555,NV-10-10605,3200300,NV-10,9,12,Silver Stage High School,LYON COUNTY SCHOOL DISTRICT,Lyon County,3755 W. Spruce Street,Silver Springs,NV,89429,,(775)577-5071,42,Rural: Distant,No,No,Yes,Yes,286,17,16.8,180,28
320030000424,NV-10-10304,3200300,NV-10,5,8,Silver Stage Middle School,LYON COUNTY SCHOOL DISTRICT,Lyon County,3800 Spruce Street,Silver Springs,NV,89429,,(775)577-5050,42,Rural: Distant,No,No,Yes,Yes,316,21,15,301,15
320006000420,NV-02-02421,3200060,NV-02,9,12,Silverado High School,CLARK COUNTY SCHOOL DISTRICT,Clark County,1650 Silver Hawk Ave.,Las Vegas,NV,89123,,(702)799-5790,12,City: Midsize,No,No,Yes,Yes,2299,82,28,2227,72
320030000810,NV-10-10305,3200300,NV-10,7,8,Silverland Middle School,LYON COUNTY SCHOOL DISTRICT,Lyon County,1100 Jasmine Lane,Fernley,NV,89408,,(775)575-1575,32,Town: Distant,No,No,Yes,Yes,650,31,21,294,39
320006000736,NV-02-02095,3200060,NV-02,PK,5,Sister Robert Joseph Bailey Elementary School,CLARK COUNTY SCHOOL DISTRICT,Clark County,4525 Jimmy Durante Blvd.,Las Vegas,NV,89122,,(702)799-7510,21,Suburb: Large,No,No,Yes,Yes,955,49,19.5,927,28
320048000913,NV-16-16319,3200480,NV-16,6,8,Sky Ranch Middle School,WASHOE COUNTY SCHOOL DISTRICT,Washoe County,1200 Windmill Farms Pkwy,Sparks,NV,89434,,(775)123-1234,21,Suburb: Large,No,†,†,†,†,†,†,†,†
320030000178,NV-10-10602,3200300,NV-10,PK,12,Smith Valley Schools,LYON COUNTY SCHOOL DISTRICT,Lyon County,20 Day Lane,Smith,NV,89430,,(775)465-2332,43,Rural: Remote,No,No,–,–,197,33,6,52,13
320048000245,NV-16-16218,3200480,NV-16,PK,5,Smithridge STEM Academy,WASHOE COUNTY SCHOOL DISTRICT,Washoe County,4801 Neil Road,Reno,NV,89502,,(775)689-2560,12,City: Midsize,No,No,Yes,Yes,643,44,14.6,643,–
320000100901,NV-18-59121,3200001,NV-18,KG,8,Somerset Academy Lone Mountain,STATE-SPONSORED CHARTER SCHOOLS,Clark County,4491 N. Rainbow Blvd.,Las Vegas,NV,89108,,(702)685-9150,11,City: Large,Yes,No,–,–,958,41,23.4,176,58
320000100898,NV-18-59120,3200001,NV-18,KG,12,Somerset Academy Losee,STATE-SPONSORED CHARTER SCHOOLS,Clark County,4650 Losee Road,North Las Vegas,NV,89081,,(702)902-5466,21,Suburb: Large,Yes,No,–,–,1949,83,23.5,701,175
320000100904,NV-18-59119,3200001,NV-18,KG,8,Somerset Academy North Las Vegas,STATE-SPONSORED CHARTER SCHOOLS,Clark County,385 W. Centennial Parkway,North Las Vegas,NV,89084,,(702)633-5616,21,Suburb: Large,Yes,No,–,–,1161,43,27,415,85
320000100820,NV-18-59122,3200001,NV-18,KG,12,Somerset Academy Sky Pointe,STATE-SPONSORED CHARTER SCHOOLS,Clark County,7038 Sky Pointe Drive,Las Vegas,NV,89131,,(702)478-8888,11,City: Large,Yes,No,–,–,1908,121,15.8,218,33
320000100910,NV-18-59123,3200001,NV-18,KG,8,Somerset Academy Stephanie,STATE-SPONSORED CHARTER SCHOOLS,Clark County,50 N. Stephanie Street,Henderson,NV,89074,,(702)998-0500,11,City: Large,Yes,No,–,–,964,56,17.2,266,76
320000100921,NV-18-59124,3200001,NV-18,KG,8,Somerset Aliante,STATE-SPONSORED CHARTER SCHOOLS,Clark County,6475 Valley Drive,North Las Vegas,NV,89048,,(702)859-0690,21,Suburb: Large,Yes,No,–,–,831,46,18.1,132,17
320000100911,NV-18-59125,3200001,NV-18,KG,8,Somerset Skye Canyon,STATE-SPONSORED CHARTER SCHOOLS,Clark County,8151 N Shaumber Rd,Las Vegas,NV,89166,,(775)123-1234,41,Rural: Fringe,Yes,No,–,–,855,39,21.9,76,18
320021000157,NV-07-07201,3200210,NV-07,PK,6,Sonoma Heights Elementary School,HUMBOLDT COUNTY SCHOOL DISTRICT,Humboldt County,1500 Melarkey Street,Winnemucca,NV,89445,,(775)623-8165,33,Town: Remote,No,No,Yes,Yes,515,32,16.1,224,67
320006000499,NV-02-02928,3200060,NV-02,6,12,South Academic Center,CLARK COUNTY SCHOOL DISTRICT,Clark County,1905 S. Atlantic St.,Las Vegas,NV,89104,,(702)799-2070,11,City: Large,No,No,–,–,83,17,4.9,81,2
320006000796,NV-02-02412,3200060,NV-02,9,12,Southeast Career Technical Academy,CLARK COUNTY SCHOOL DISTRICT,Clark County,5710 Mountain Vista St.,Las Vegas,NV,89120,,(702)799-7500,12,City: Midsize,No,Yes,Yes,Yes,1837,78,23.6,763,203
320006000785,NV-02-02953,3200060,NV-02,AE,AE,Southern Desert Correctional Center,CLARK COUNTY SCHOOL DISTRICT,Clark County,Box Butte 20,Indian Springs,NV,89018,,(702)879-1387,42,Rural: Distant,No,No,†,†,0,6,†,†,†
320012000140,NV-04-04204,3200120,NV-04,PK,6,Southside Elementary School,ELKO COUNTY SCHOOL DISTRICT,Elko County,501 South 9th Street,Elko,NV,89801,,(775)738-3731,33,Town: Remote,No,No,Yes,Yes,642,28,22.9,323,49
320006000780,NV-02-02433,3200060,NV-02,9,12,Southwest Career and Technical Academy,CLARK COUNTY SCHOOL DISTRICT,Clark County,7050 W. Shelbourne Ave.,Las Vegas,NV,89113,,(702)799-5766,21,Suburb: Large,No,Yes,Yes,Yes,1460,62,23.5,347,165
320048000427,NV-16-16269,3200480,NV-16,PK,6,Spanish Springs Elementary School,WASHOE COUNTY SCHOOL DISTRICT,Washoe County,100 Marilyn Mae Drive,Sparks,NV,89436,,(775)425-7710,21,Suburb: Large,No,No,–,–,877,50,17.5,109,17
320048000545,NV-16-16606,3200480,NV-16,9,12,Spanish Springs High School,WASHOE COUNTY SCHOOL DISTRICT,Washoe County,1065 Eagle Canyon Drive,Sparks,NV,89436,,(775)425-7733,41,Rural: Fringe,No,No,–,–,2413,118,20.4,522,103
320048000246,NV-16-16503,3200480,NV-16,9,12,Sparks High School,WASHOE COUNTY SCHOOL DISTRICT,Washoe County,820 15th Street,Sparks,NV,89431,,(775)353-5550,21,Suburb: Large,No,No,Yes,Yes,1184,74,16,607,69
320048000247,NV-16-16307,3200480,NV-16,6,8,Sparks Middle School,WASHOE COUNTY SCHOOL DISTRICT,Washoe County,2275 18th Street,Sparks,NV,89431,,(775)353-5770,21,Suburb: Large,No,No,Yes,Yes,769,42,18.3,430,73
320000100870,NV-18-47434,3200001,NV-18,6,12,Sports Leadership and Management Academy,STATE-SPONSORED CHARTER SCHOOLS,Clark County,1095 Fielders St.,Henderson,NV,89011,,(702)473-5735,11,City: Large,Yes,No,–,–,921,49,18.8,391,88
320012000350,NV-04-04210,3200120,NV-04,KG,5,Spring Creek Elementary School,ELKO COUNTY SCHOOL DISTRICT,Elko County,7 East Licht Parkway,Spring Creek,NV,89815,,(775)753-6881,41,Rural: Fringe,No,No,–,–,875,†,†,94,31
320012000330,NV-04-04606,3200120,NV-04,7,12,Spring Creek High,ELKO COUNTY SCHOOL DISTRICT,Elko County,14550 Lamoille Highway,Spring Creek,NV,89815,,(775)753-5575,41,Rural: Fringe,No,No,–,–,857,9,95.2,90,22
320012000464,NV-04-04504,3200120,NV-04,6,8,Spring Creek Middle School,ELKO COUNTY SCHOOL DISTRICT,Elko County,14650 Lamoille Highway,Spring Creek,NV,89815,,(775)777-1688,41,Rural: Fringe,No,No,–,–,756,7,108,128,33
320006000101,NV-02-02913,3200060,NV-02,6,12,Spring Mountain J/SHS,CLARK COUNTY SCHOOL DISTRICT,Clark County,SR 89038 Box Butte 252,Las Vegas,NV,89115,,(702)455-5555,42,Rural: Distant,No,No,–,–,88,10,8.8,50,–
320006000616,NV-02-02431,3200060,NV-02,9,12,Spring Valley High School,CLARK COUNTY SCHOOL DISTRICT,Clark County,3750 S. Buffalo Dr.,Las Vegas,NV,89147,,(702)799-2580,21,Suburb: Large,No,Yes,Yes,Yes,2540,91,27.9,1040,190
320006000338,NV-02-02294,3200060,NV-02,PK,5,Stanford Elementary School,CLARK COUNTY SCHOOL DISTRICT,Clark County,5350 Harris Ave.,Las Vegas,NV,89110,,(702)799-7272,21,Suburb: Large,No,No,Yes,Yes,638,33,19.3,595,40
320048000248,NV-16-16219,3200480,NV-16,PK,6,Stead Elementary School,WASHOE COUNTY SCHOOL DISTRICT,Washoe County,10580 Stead Boulevard,Reno,NV,89506,,(775)677-5480,12,City: Midsize,No,No,Yes,Yes,717,40,17.9,395,71
320051000857,NV-17-17904,3200510,NV-17,AE,AE,Steptoe Valley Adult Education,WHITE PINE COUNTY SCHOOL DISTRICT,White Pine County,700 Aultman Street,Ely,NV,89301,,(775)289-2999,33,Town: Remote,No,No,†,†,0,–,†,†,†
320051000483,NV-17-17903,3200510,NV-17,9,12,Steptoe Valley High School,WHITE PINE COUNTY SCHOOL DISTRICT,White Pine County,700 Aultman Street,Ely,NV,89301,,(775)289-2999,33,Town: Remote,No,No,–,–,99,1,99,55,2
320006000549,NV-02-02180,3200060,NV-02,PK,5,Steve Cozine Elementary School,CLARK COUNTY SCHOOL DISTRICT,Clark County,5335 Coleman St.,North Las Vegas,NV,89031,,(702)799-0690,21,Suburb: Large,No,No,Yes,Yes,652,33,19.8,603,46
320006000689,NV-02-02099,3200060,NV-02,PK,5,Steve Schorr Elementary School,CLARK COUNTY SCHOOL DISTRICT,Clark County,11420 Placid Street,Las Vegas,NV,89183,,(702)799-1380,21,Suburb: Large,No,No,Yes,Yes,746,37,20.2,292,71
320006000459,NV-02-02162,3200060,NV-02,PK,5,Sue H Morrow Elementary School,CLARK COUNTY SCHOOL DISTRICT,Clark County,1070 Featherwood Ave.,Henderson,NV,89015,,(702)799-3550,11,City: Large,No,No,Yes,Yes,634,35,18.1,227,48
320006000518,NV-02-02919,3200060,NV-02,6,12,Summit View J/SHS,CLARK COUNTY SCHOOL DISTRICT,Clark County,5730 Range Road,Las Vegas,NV,89115,,(702)486-5980,41,Rural: Fringe,No,No,–,–,38,7,5.4,5,–
320048000249,NV-16-16234,3200480,NV-16,PK,6,Sun Valley Elementary School,WASHOE COUNTY SCHOOL DISTRICT,Washoe County,5490 Leon Drive,Sparks,NV,89433,,(775)674-4420,21,Suburb: Large,No,No,Yes,Yes,651,37,17.6,651,–
320006000102,NV-02-02241,3200060,NV-02,PK,5,Sunrise Acres Elementary School,CLARK COUNTY SCHOOL DISTRICT,Clark County,211 28th St.,Las Vegas,NV,89101,,(702)799-7912,11,City: Large,No,No,Yes,Yes,773,37,20.9,754,19
320006000777,NV-02-02434,3200060,NV-02,9,12,Sunrise Mountain High School,CLARK COUNTY SCHOOL DISTRICT,Clark County,2575 N. Los Feliz St.,Las Vegas,NV,89156,,(702)799-7207,21,Suburb: Large,No,No,Yes,Yes,2562,99,25.9,1821,162
320030000450,NV-10-10210,3200300,NV-10,PK,6,Sutro Elementary School,LYON COUNTY SCHOOL DISTRICT,Lyon County,190 Dayton Village Parkway,Dayton,NV,89403,,(775)246-6270,31,Town: Fringe,No,No,Yes,Yes,430,29,14.8,238,39
320048000467,NV-16-16274,3200480,NV-16,PK,6,Ted Hunsberger Elementary School,WASHOE COUNTY SCHOOL DISTRICT,Washoe County,2505 Crossbow Court,Reno,NV,89511,,(775)851-7095,21,Suburb: Large,No,Yes,–,–,677,32,21.2,23,1
320002100680,NV-19-19406,3200021,NV-19,5,12,The Davidson Academy of Nevada,DAVIDSON ACADEMY SCHOOL DISTRICT,Washoe County,Box Butte 9119,Reno,NV,89507,,(775)682-5800,12,City: Midsize,No,No,–,–,189,40,4.7,–,–
320006000658,NV-02-02197,3200060,NV-02,PK,5,Theron H & Naomi D Goynes Elementary School,CLARK COUNTY SCHOOL DISTRICT,Clark County,3409 Deer Springs Way,North Las Vegas,NV,89084,,(702)799-1770,21,Suburb: Large,No,No,Yes,Yes,747,39,19.2,268,63
320006000084,NV-02-02325,3200060,NV-02,6,8,Theron L Swainston Middle School,CLARK COUNTY SCHOOL DISTRICT,Clark County,3500 W. Gilmore Ave.,North Las Vegas,NV,89032,,(702)799-4860,21,Suburb: Large,No,No,Yes,Yes,1074,36,29.8,723,101
320006000758,NV-02-02083,3200060,NV-02,PK,5,Thomas O'Roarke Elementary School,CLARK COUNTY SCHOOL DISTRICT,Clark County,8455 O'hare Rd,Las Vegas,NV,89131,,(702)799-6600,11,City: Large,No,No,–,–,816,42,19.4,190,29
320006000946,NV-02-02060,3200060,NV-02,–,–,Thompson Tyrone ES,CLARK COUNTY SCHOOL DISTRICT,†,10250 S El Capitan Way,Las Vegas,NV,89178,,(702)799-0000,†,N,No,†,†,†,†,†,†,†,†
320006000127,NV-02-02326,3200060,NV-02,6,8,Thurman White Middle School,CLARK COUNTY SCHOOL DISTRICT,Clark County,1661 Galleria Dr.,Henderson,NV,89014,,(702)799-0770,11,City: Large,No,Yes,Yes,Yes,1622,60,27,780,189
320048000468,NV-16-16603,3200480,NV-16,10,12,TMCC Magnet High School,WASHOE COUNTY SCHOOL DISTRICT,Washoe County,7000 Dandini Boulevard,Reno,NV,89512,,(775)674-7660,12,City: Midsize,No,Yes,–,–,241,9,26.8,22,2
320006000940,NV-02-02063,3200060,NV-02,–,–,Toland Helen Anderson ES,CLARK COUNTY SCHOOL DISTRICT,†,700 E Fifith Street,Carson City,NV,89701,,(775)689-2500,†,N,No,†,†,†,†,†,†,†,†
320006000104,NV-02-02242,3200060,NV-02,PK,5,Tom Williams Elementary School,CLARK COUNTY SCHOOL DISTRICT,Clark County,3000 E. Tonopah Ave.,North Las Vegas,NV,89030,,(702)799-7179,21,Suburb: Large,No,No,Yes,Yes,831,45,18.5,795,36
320036000194,NV-12-12202,3200360,NV-12,PK,5,Tonopah Elementary School,NYE COUNTY SCHOOL DISTRICT,Nye County,Box Butte 1749,Tonopah,NV,89049,,(775)482-6644,43,Rural: Remote,No,No,Yes,Yes,182,12,15.2,54,14
320036000195,NV-12-12603,3200360,NV-12,9,12,Tonopah High School,NYE COUNTY SCHOOL DISTRICT,Nye County,Box Butte 1349,Tonopah,NV,89049,,(775)482-3698,43,Rural: Remote,No,No,–,–,120,7,17.1,46,2
320036000618,NV-12-12312,3200360,NV-12,6,8,Tonopah Middle School,NYE COUNTY SCHOOL DISTRICT,Nye County,Box Butte 1749,Tonopah,NV,89049,,(775)482-6644,43,Rural: Remote,No,No,–,–,95,9,10.6,36,7
320006000547,NV-02-02178,3200060,NV-02,PK,5,Tony Alamo Elementary School,CLARK COUNTY SCHOOL DISTRICT,Clark County,7455 El Camino Rd.,Las Vegas,NV,89139,,(702)799-2590,21,Suburb: Large,No,No,Yes,Yes,1032,55,18.8,447,103
320048000766,NV-16-16917,3200480,NV-16,2,12,Turning Point,WASHOE COUNTY SCHOOL DISTRICT,Washoe County,Glenn Hare Center,Reno,NV,89509,,(775)337-7560,12,City: Midsize,No,No,Yes,Yes,41,11,3.7,30,–
320006000105,NV-02-02243,3200060,NV-02,PK,5,Twin Lakes Elementary School,CLARK COUNTY SCHOOL DISTRICT,Clark County,3300 Riverside Dr.,Las Vegas,NV,89108,,(702)799-4790,11,City: Large,No,No,Yes,Yes,552,31,17.8,515,34
320006000272,NV-02-02146,3200060,NV-02,PK,5,Ulis Newton Elementary School,CLARK COUNTY SCHOOL DISTRICT,Clark County,571 Greenway Rd.,Henderson,NV,89015,,(702)799-0500,11,City: Large,No,No,Yes,Yes,689,39,17.7,663,26
320006000359,NV-02-02114,3200060,NV-02,PK,5,Ute Perkins Elementary School,CLARK COUNTY SCHOOL DISTRICT,Clark County,1255 Patriots Way,Moapa,NV,89025,,(702)864-2444,42,Rural: Distant,No,No,Yes,Yes,137,12,11.4,120,14
320006000106,NV-02-02244,3200060,NV-02,PK,5,Vail Pittman Elementary School,CLARK COUNTY SCHOOL DISTRICT,Clark County,6333 Fargo Ave.,Las Vegas,NV,89107,,(702)799-4213,11,City: Large,No,No,Yes,Yes,624,34,18.4,599,25
320006000107,NV-02-02404,3200060,NV-02,9,12,Valley High School,CLARK COUNTY SCHOOL DISTRICT,Clark County,2839 S. Burnham Ave.,Las Vegas,NV,89169,,(702)799-5450,21,Suburb: Large,No,Yes,Yes,Yes,2782,118,23.6,1940,174
320048000523,NV-16-16276,3200480,NV-16,PK,6,Van Gorder Elementary School,WASHOE COUNTY SCHOOL DISTRICT,Washoe County,7650 Campello Drive,Sparks,NV,89436,,(775)425-7722,21,Suburb: Large,No,No,–,–,893,41,21.8,101,11
320006000619,NV-02-02935,3200060,NV-02,PK,5,Variety Elementary School,CLARK COUNTY SCHOOL DISTRICT,Clark County,2800 E. Stewart Ave.,Las Vegas,NV,89101,,(702)799-7938,11,City: Large,No,No,Yes,Yes,21,25,0.8,20,1
320006000108,NV-02-02911,3200060,NV-02,6,12,Variety School,CLARK COUNTY SCHOOL DISTRICT,Clark County,2800 E. Stewart Ave.,Las Vegas,NV,89101,,(702)799-7938,11,City: Large,No,No,Yes,Yes,123,–,†,117,3
320006000109,NV-02-02245,3200060,NV-02,PK,5,Vegas Verdes Elementary School,CLARK COUNTY SCHOOL DISTRICT,Clark County,4000 El Parque Ave.,Las Vegas,NV,89102,,(702)799-5960,11,City: Large,No,No,Yes,Yes,712,41,17.4,669,40
320048000250,NV-16-16235,3200480,NV-16,PK,6,Verdi Elementary School,WASHOE COUNTY SCHOOL DISTRICT,Washoe County,Box Butte 309,Verdi,NV,89439,,(775)345-8100,21,Suburb: Large,No,No,–,–,294,18,16.3,56,8
320048000251,NV-16-16220,3200480,NV-16,PK,6,Veterans Memorial STEM Academy,WASHOE COUNTY SCHOOL DISTRICT,Washoe County,1200 Locust Street,Reno,NV,89502,,(775)333-5090,12,City: Midsize,No,No,Yes,Yes,422,28,15.1,422,–
320006000778,NV-02-02432,3200060,NV-02,9,12,Veterans Tribute Career Techincal Academy,CLARK COUNTY SCHOOL DISTRICT,Clark County,2531 Vegas Dr.,Las Vegas,NV,89106,,(702)799-4710,11,City: Large,No,Yes,–,–,811,31,26.2,406,95
320006000554,NV-02-02347,3200060,NV-02,6,8,Victoria Fertitta Middle School,CLARK COUNTY SCHOOL DISTRICT,Clark County,9905 W. Mesa Vista Ave.,Las Vegas,NV,89148,,(702)799-1900,21,Suburb: Large,No,No,Yes,Yes,1395,50,27.9,511,100
320006000806,NV-02-02082,3200060,NV-02,PK,5,Vincent L Triggs Elementary School,CLARK COUNTY SCHOOL DISTRICT,Clark County,4470 W Rome Blvd,North Las Vegas,NV,89084,,(702)799-1890,21,Suburb: Large,No,No,–,–,729,40,18.2,702,27
320006000110,NV-02-02255,3200060,NV-02,PK,5,Virgin Valley Elementary School,CLARK COUNTY SCHOOL DISTRICT,Clark County,200 Woodbury Ln.,Mesquite,NV,89027,,(702)346-5761,32,Town: Distant,No,No,Yes,Yes,633,36,17.6,318,83
320006000111,NV-02-02603,3200060,NV-02,9,12,Virgin Valley High School,CLARK COUNTY SCHOOL DISTRICT,Clark County,820 Valley View Dr.,Mesquite,NV,89027,,(702)346-2780,32,Town: Distant,No,No,Yes,Yes,753,31,24.3,315,66
320045000199,NV-15-15601,3200450,NV-15,9,12,Virginia City High School,STOREY COUNTY SCHOOL DISTRICT,Storey County,Box Butte C,Virginia City,NV,89440,,(775)847-0992,42,Rural: Distant,No,No,–,–,127,14,9.1,26,2
320045000365,NV-15-15301,3200450,NV-15,6,8,Virginia City Middle School,STOREY COUNTY SCHOOL DISTRICT,Storey County,Box Butte C,Virginia City,NV,89440,,(775)847-0980,42,Rural: Distant,No,No,–,–,129,11,11.7,35,3
320048000324,NV-16-16240,3200480,NV-16,PK,6,Virginia Palmer Elementary School,WASHOE COUNTY SCHOOL DISTRICT,Washoe County,5890 Klondike,Sparks,NV,89433,,(775)674-4400,21,Suburb: Large,No,No,Yes,Yes,503,33,15.2,311,46
320048000926,NV-16-16975,3200480,NV-16,9,12,VOICE Program,WASHOE COUNTY SCHOOL DISTRICT,Washoe County,1325 Corporate BLVD STE D,Reno,NV,89502,,(775)323-9401,12,City: Midsize,No,No,–,–,45,–,†,8,–
320006000112,NV-02-02246,3200060,NV-02,PK,5,Walter Bracken Elementary School,CLARK COUNTY SCHOOL DISTRICT,Clark County,1200 N. 27th St.,Las Vegas,NV,89101,,(702)799-7095,11,City: Large,No,Yes,Yes,Yes,511,26,19.7,283,61
320006000379,NV-02-02123,3200060,NV-02,PK,5,Walter Jacobson Elementary School,CLARK COUNTY SCHOOL DISTRICT,Clark County,8400 Boseck Dr,Las Vegas,NV,89145,,(702)799-4320,11,City: Large,No,No,Yes,Yes,534,31,17.2,293,55
320006000403,NV-02-02323,3200060,NV-02,6,8,Walter Johnson Junior High School Academy of International S,CLARK COUNTY SCHOOL DISTRICT,Clark County,7701 Ducharme Ave.,Las Vegas,NV,89145,,(702)799-4480,11,City: Large,No,Yes,Yes,Yes,1508,66,22.8,813,165
320006000113,NV-02-02270,3200060,NV-02,PK,5,Walter V Long Elementary School,CLARK COUNTY SCHOOL DISTRICT,Clark County,2000 S. Walnut Rd.,Las Vegas,NV,89104,,(702)799-7456,21,Suburb: Large,No,No,Yes,Yes,820,46,17.8,805,15
320036000871,NV-12-12211,3200360,NV-12,PK,8,Warm Springs Elementary/Middle School,NYE COUNTY SCHOOL DISTRICT,Nye County,HC 76 Box 1110,Tonopah,NV,89049,,(775)537-5019,43,Rural: Remote,No,No,–,–,8,1,8,†,†
320048000822,NV-16-16507,3200480,NV-16,PK,12,Washoe Inspire Academy,WASHOE COUNTY SCHOOL DISTRICT,Washoe County,1155 Corporate Blvd,Reno,NV,89502,,(775)857-3181,12,City: Midsize,No,No,–,–,141,–,†,92,10
320006000621,NV-02-02190,3200060,NV-02,PK,5,Wayne N Tanaka Elementary School,CLARK COUNTY SCHOOL DISTRICT,Clark County,9135 W. Maule Ave.,Las Vegas,NV,89148,,(702)799-2504,21,Suburb: Large,No,No,Yes,Yes,840,41,20.5,388,78
320012000141,NV-04-04207,3200120,NV-04,PK,6,Wells Elementary School,ELKO COUNTY SCHOOL DISTRICT,Elko County,Box Butte 338,Wells,NV,89835,,(775)752-3837,43,Rural: Remote,No,No,Yes,Yes,181,5,36.2,75,10
320012000622,NV-04-04602,3200120,NV-04,9,12,Wells High School,ELKO COUNTY SCHOOL DISTRICT,Elko County,Box Butte 338,Wells,NV,89835,,(775)752-3837,43,Rural: Remote,No,No,–,–,89,7,12.7,22,2
320012000685,NV-04-04502,3200120,NV-04,7,8,Wells Junior High School,ELKO COUNTY SCHOOL DISTRICT,Elko County,Box Butte 338,Wells,NV,89835,,(775)752-3477,43,Rural: Remote,No,No,–,–,56,–,†,23,3
320006000073,NV-02-02224,3200060,NV-02,PK,5,Wendell P. Williams Elementary School,CLARK COUNTY SCHOOL DISTRICT,Clark County,1030 J St.,Las Vegas,NV,89106,,(702)799-4760,11,City: Large,No,No,Yes,Yes,358,25,14.3,356,2
320006000812,NV-02-02435,3200060,NV-02,9,12,West Career & Technical Academy,CLARK COUNTY SCHOOL DISTRICT,Clark County,11945 W. Charleston Blvd.,Las Vegas,NV,89135,,(702)799-4340,41,Rural: Fringe,No,Yes,–,–,1402,53,26.5,223,72
320006000744,NV-02-02089,3200060,NV-02,PK,5,West Prepatory Academy at Charles I West Hall Elem,CLARK COUNTY SCHOOL DISTRICT,Clark County,2050 Sapphire Stone Ave.,Las Vegas,NV,89106,,(702)799-3120,11,City: Large,No,No,Yes,Yes,467,23,20.3,373,37
320006000460,NV-02-02330,3200060,NV-02,6,12,West Prepatory Academy at Charlles I West Hall Sec,CLARK COUNTY SCHOOL DISTRICT,Clark County,2050 Sapphire Stone Ave.,Las Vegas,NV,89106,,(702)799-3120,11,City: Large,No,No,Yes,Yes,1586,64,24.8,1303,98
320012000308,NV-04-04208,3200120,NV-04,PK,6,West Wendover Elementary School,ELKO COUNTY SCHOOL DISTRICT,Elko County,Box Butte 2400,Wendover,NV,89883,,(775)664-3100,33,Town: Remote,No,No,Yes,Yes,561,20,28.1,309,81
320012000449,NV-04-04607,3200120,NV-04,9,12,West Wendover High School,ELKO COUNTY SCHOOL DISTRICT,Elko County,Box Butte 3830,Wendover,NV,89883,,(775)664-3940,33,Town: Remote,No,No,Yes,Yes,273,4,68.3,115,40
320012000728,NV-04-04507,3200120,NV-04,7,8,West Wendover Middle School,ELKO COUNTY SCHOOL DISTRICT,Elko County,Box Butte 5100,West Wendover,NV,89883,,(775)664-3940,33,Town: Remote,No,No,Yes,Yes,172,2,86,93,22
320006000114,NV-02-02405,3200060,NV-02,9,12,Western High School,CLARK COUNTY SCHOOL DISTRICT,Clark County,4601 W. Bonanza Rd.,Las Vegas,NV,89107,,(702)799-4080,11,City: Large,No,No,Yes,Yes,2828,103,27.5,1948,146
320051000267,NV-17-17502,3200510,NV-17,9,12,White Pine High School,WHITE PINE COUNTY SCHOOL DISTRICT,White Pine County,1800 Bobcat Drive,Ely,NV,89301,,(775)289-4811,33,Town: Remote,No,No,–,–,348,8,43.5,118,16
320051000256,NV-17-17301,3200510,NV-17,6,8,White Pine Middle School,WHITE PINE COUNTY SCHOOL DISTRICT,White Pine County,844 Aultman Street,Ely,NV,89301,,(775)289-4841,33,Town: Remote,No,No,Yes,Yes,258,3,86,124,14
320006000115,NV-02-02256,3200060,NV-02,PK,5,Whitney Elementary School,CLARK COUNTY SCHOOL DISTRICT,Clark County,5005 Keenan Ave,Las Vegas,NV,89122,,(702)799-7790,21,Suburb: Large,No,No,Yes,Yes,492,24,20.5,475,17
320006000730,NV-02-02362,3200060,NV-02,6,8,Wilbur & Theresa Faiss Middle School,CLARK COUNTY SCHOOL DISTRICT,Clark County,9525 W. Maule Ave.,Las Vegas,NV,89148,,(702)799-6850,21,Suburb: Large,No,No,Yes,Yes,1728,61,28.3,763,164
320006000116,NV-02-02248,3200060,NV-02,PK,5,Will Beckley Elementary School,CLARK COUNTY SCHOOL DISTRICT,Clark County,3223 S. Glenhurst,Las Vegas,NV,89121,,(702)799-7700,21,Suburb: Large,No,No,Yes,Yes,932,48,19.4,910,22
320006000623,NV-02-02188,3200060,NV-02,PK,5,William & Mary Scherkenbach Elementary School,CLARK COUNTY SCHOOL DISTRICT,Clark County,9371 Iron Mountain Rd.,Las Vegas,NV,89143,,(702)799-3401,11,City: Large,No,No,Yes,Yes,576,29,19.9,555,21
320006000118,NV-02-02257,3200060,NV-02,PK,5,WIlliam E Ferron Elementary School,CLARK COUNTY SCHOOL DISTRICT,Clark County,4200 Mountain Vista St.,Las Vegas,NV,89121,,(702)799-7720,12,City: Midsize,No,No,Yes,Yes,647,36,18,616,28
320006000117,NV-02-02312,3200060,NV-02,6,8,William E Orr Middle School,CLARK COUNTY SCHOOL DISTRICT,Clark County,1562 E. Katie Ave.,Las Vegas,NV,89119,,(702)799-5573,12,City: Midsize,No,No,Yes,Yes,1049,41,25.6,1034,15
320006000530,NV-02-02175,3200060,NV-02,PK,5,William E Snyder Elementary,CLARK COUNTY SCHOOL DISTRICT,Clark County,4317 E. Colorado Ave.,Las Vegas,NV,89104,,(702)799-3750,21,Suburb: Large,No,No,Yes,Yes,850,46,18.5,827,23
320006000331,NV-02-02292,3200060,NV-02,PK,5,William G Bennett Elementary School,CLARK COUNTY SCHOOL DISTRICT,Clark County,2750 S. Needles Hwy,Laughlin,NV,89029,,(702)298-3378,33,Town: Remote,No,No,Yes,Yes,342,22,15.5,339,3
320006000508,NV-02-02282,3200060,NV-02,PK,5,William K. Moore Elementary School,CLARK COUNTY SCHOOL DISTRICT,Clark County,491 N. Lamb Blvd.,Las Vegas,NV,89110,,(702)799-3270,11,City: Large,No,No,Yes,Yes,668,31,21.5,646,22
320006000266,NV-02-02141,3200060,NV-02,PK,5,William Lummis Elementary School,CLARK COUNTY SCHOOL DISTRICT,Clark County,9000 Hillpointe Rd,Las Vegas,NV,89134,,(702)799-4380,11,City: Large,No,No,–,–,510,28,18.2,115,16
320048000235,NV-16-16308,3200480,NV-16,6,8,William O'Brien Middle School,WASHOE COUNTY SCHOOL DISTRICT,Washoe County,10500 Stead Boulevard,Reno,NV,89506,,(775)677-5420,12,City: Midsize,No,No,Yes,Yes,828,47,17.6,434,73
320006000716,NV-02-02200,3200060,NV-02,PK,5,William V Wright Elementary School,CLARK COUNTY SCHOOL DISTRICT,Clark County,8425 Bob Fisk Ave.,Las Vegas,NV,89178,,(702)799-5701,21,Suburb: Large,No,No,Yes,Yes,1261,58,21.7,378,78
320021000158,NV-07-07202,3200210,NV-07,PK,4,Winnemucca Grammar School,HUMBOLDT COUNTY SCHOOL DISTRICT,Humboldt County,522 Lay Street,Winnemucca,NV,89445,,(775)623-8160,33,Town: Remote,No,No,Yes,Yes,359,25,14.4,149,44
320021000159,NV-07-07301,3200210,NV-07,5,8,Winnemucca Junior High School,HUMBOLDT COUNTY SCHOOL DISTRICT,Humboldt County,451 Reinhart Street,Winnemucca,NV,89445,,(775)623-8120,33,Town: Remote,No,No,Yes,Yes,478,44,10.9,186,53
320030000179,NV-10-10202,3200300,NV-10,PK,4,Yerington Elementary School,LYON COUNTY SCHOOL DISTRICT,Lyon County,112 N California Street,Yerington,NV,89447,,(775)463-6844,32,Town: Distant,No,No,Yes,Yes,562,36,15.6,364,45
320030000180,NV-10-10603,3200300,NV-10,9,12,Yerington High School,LYON COUNTY SCHOOL DISTRICT,Lyon County,114 Pearl Street,Yerington,NV,89447,,(775)463-6822,32,Town: Distant,No,No,Yes,Yes,393,23,17.1,179,19
320030000312,NV-10-10302,3200300,NV-10,5,8,Yerington Intermediate School,LYON COUNTY SCHOOL DISTRICT,Lyon County,215 Pearl Street,Yerington,NV,89447,,(775)463-6833,32,Town: Distant,No,No,Yes,Yes,400,23,17.4,222,33
320006000847,NV-02-02956,3200060,NV-02,9,12,Youthful Offender Program at High Desert State Prison,CLARK COUNTY SCHOOL DISTRICT,†,22010 Cold Creek Rd,Indian Springs,NV,89018,,(702)879-6824,†,N,No,†,†,†,†,†,†,†,†
320048000624,NV-16-16316,3200480,NV-16,6,8,Yvonne Shaw Middle School,WASHOE COUNTY SCHOOL DISTRICT,Washoe County,600 Eagle Canyon Drive,Sparks,NV,89436,,(775)425-7777,21,Suburb: Large,No,No,–,–,1017,43,23.7,158,28
320006000270,NV-02-02144,3200060,NV-02,PK,5,Zel & Mary Lowman Elementary,CLARK COUNTY SCHOOL DISTRICT,Clark County,4225 N. Lamont St.,Las Vegas,NV,89115,,(702)799-4930,21,Suburb: Large,No,No,Yes,Yes,952,56,17,929,23
320009000124,NV-03-03202,3200090,NV-03,PK,6,Zephyr Cove Elementary School,DOUGLAS COUNTY SCHOOL DISTRICT,Douglas County,Box Butte 7,Zephyr Cove,NV,89448,,(775)588-4574,41,Rural: Fringe,No,No,Yes,Yes,150,13,11.5,49,6
